{"type":"FeatureCollection","name":"FIRMS VIIRS CA (last 1 day)","crs":{"type":"name","properties":{"name":"EPSG:4326"}},"fetched_at_utc":"2026-10-03T17:50:39.737Z","source":{"url":"https://firms.modaps.eosdis.nasa.gov/api/area/csv/8c4af552cf654445dd280dfb3ad9337c/VIIRS_SNPP_NRT/-125,32,-113,43.5/1","dataset":"VIIRS_SNPP_NRT","bbox":"-125,32,-113,43.5","day_range":"1"},"features":[{"type":"Feature","properties":{"acq_date":"2026-10-03","acq_time":1006,"confidence":"n","satellite":"N","instrument":"VIIRS","version":"2.0NRT","bright_ti4":308.61,"frp":0.94,"daynight":"N"},"geometry":{"type":"Point","coordinates":[-115.73312,43.17932]}},{"type":"Feature","properties":{"acq_date":"2026-10-03","acq_time":1009,"confidence":"n","satellite":"N","instrument":"VIIRS","version":"2.0NRT","bright_ti4":305.07,"frp":1.5,"daynight":"N"},"geometry":{"type":"Point","coordinates":[-113.31506,35.51611]}},{"type":"Feature","properties":{"acq_date":"2026-10-03","acq_time":1009,"confidence":"n","satellite":"N","instrument":"VIIRS","version":"2.0NRT","bright_ti4":306.93,"frp":1.35,"daynight":"N"},"geometry":{"type":"Point","coordinates":[-113.3133,35.51791]}},{"type":"Feature","properties":{"acq_date":"2026-10-03","acq_time":1009,"confidence":"n","satellite":"N","instrument":"VIIRS","version":"2.0NRT","bright_ti4":308.51,"frp":0.52,"daynight":"N"},"geometry":{"type":"Point","coordinates":[-114.90868,36.35849]}},{"type":"Feature","properties":{"acq_date":"2026-10-03","acq_time":1009,"confidence":"n","satellite":"N","instrument":"VIIRS","version":"2.0NRT","bright_ti4":303.99,"frp":0.32,"daynight":"N"},"geometry":{"type":"Point","coordinates":[-114.87801,36.38166]}},{"type":"Feature","properties":{"acq_date":"2026-10-03","acq_time":1009,"confidence":"n","satellite":"N","instrument":"VIIRS","version":"2.0NRT","bright_ti4":298.58,"frp":0.47,"daynight":"N"},"geometry":{"type":"Point","coordinates":[-121.76738,36.71388]}},{"type":"Feature","properties":{"acq_date":"2026-10-03","acq_time":1009,"confidence":"n","satellite":"N","instrument":"VIIRS","version":"2.0NRT","bright_ti4":300.72,"frp":0.34,"daynight":"N"},"geometry":{"type":"Point","coordinates":[-121.90287,37.21288]}},{"type":"Feature","properties":{"acq_date":"2026-10-03","acq_time":1009,"confidence":"n","satellite":"N","instrument":"VIIRS","version":"2.0NRT","bright_ti4":309.84,"frp":0.57,"daynight":"N"},"geometry":{"type":"Point","coordinates":[-121.93153,37.45464]}},{"type":"Feature","properties":{"acq_date":"2026-10-03","acq_time":1009,"confidence":"n","satellite":"N","instrument":"VIIRS","version":"2.0NRT","bright_ti4":298.23,"frp":0.32,"daynight":"N"},"geometry":{"type":"Point","coordinates":[-121.99017,37.49438]}},{"type":"Feature","properties":{"acq_date":"2026-10-03","acq_time":1009,"confidence":"n","satellite":"N","instrument":"VIIRS","version":"2.0NRT","bright_ti4":301.38,"frp":0.65,"daynight":"N"},"geometry":{"type":"Point","coordinates":[-119.59821,37.59412]}},{"type":"Feature","properties":{"acq_date":"2026-10-03","acq_time":1009,"confidence":"n","satellite":"N","instrument":"VIIRS","version":"2.0NRT","bright_ti4":303.98,"frp":1.54,"daynight":"N"},"geometry":{"type":"Point","coordinates":[-119.58425,37.5952]}},{"type":"Feature","properties":{"acq_date":"2026-10-03","acq_time":1009,"confidence":"n","satellite":"N","instrument":"VIIRS","version":"2.0NRT","bright_ti4":313.19,"frp":1.54,"daynight":"N"},"geometry":{"type":"Point","coordinates":[-119.58864,37.59594]}},{"type":"Feature","properties":{"acq_date":"2026-10-03","acq_time":1009,"confidence":"n","satellite":"N","instrument":"VIIRS","version":"2.0NRT","bright_ti4":295.37,"frp":0.48,"daynight":"N"},"geometry":{"type":"Point","coordinates":[-119.59735,37.59742]}},{"type":"Feature","properties":{"acq_date":"2026-10-03","acq_time":1009,"confidence":"n","satellite":"N","instrument":"VIIRS","version":"2.0NRT","bright_ti4":324.53,"frp":1.54,"daynight":"N"},"geometry":{"type":"Point","coordinates":[-119.58343,37.59852]}},{"type":"Feature","properties":{"acq_date":"2026-10-03","acq_time":1009,"confidence":"n","satellite":"N","instrument":"VIIRS","version":"2.0NRT","bright_ti4":309.38,"frp":1.54,"daynight":"N"},"geometry":{"type":"Point","coordinates":[-119.58781,37.59926]}},{"type":"Feature","properties":{"acq_date":"2026-10-03","acq_time":1009,"confidence":"n","satellite":"N","instrument":"VIIRS","version":"2.0NRT","bright_ti4":350.71,"frp":15.74,"daynight":"N"},"geometry":{"type":"Point","coordinates":[-119.5826,37.60183]}},{"type":"Feature","properties":{"acq_date":"2026-10-03","acq_time":1009,"confidence":"n","satellite":"N","instrument":"VIIRS","version":"2.0NRT","bright_ti4":318.08,"frp":15.74,"daynight":"N"},"geometry":{"type":"Point","coordinates":[-119.587,37.60258]}},{"type":"Feature","properties":{"acq_date":"2026-10-03","acq_time":1009,"confidence":"n","satellite":"N","instrument":"VIIRS","version":"2.0NRT","bright_ti4":344.05,"frp":15.74,"daynight":"N"},"geometry":{"type":"Point","coordinates":[-119.58175,37.60515]}},{"type":"Feature","properties":{"acq_date":"2026-10-03","acq_time":1009,"confidence":"n","satellite":"N","instrument":"VIIRS","version":"2.0NRT","bright_ti4":350.61,"frp":15.74,"daynight":"N"},"geometry":{"type":"Point","coordinates":[-119.58611,37.60589]}},{"type":"Feature","properties":{"acq_date":"2026-10-03","acq_time":1009,"confidence":"n","satellite":"N","instrument":"VIIRS","version":"2.0NRT","bright_ti4":353.45,"frp":26.03,"daynight":"N"},"geometry":{"type":"Point","coordinates":[-119.58521,37.60919]}},{"type":"Feature","properties":{"acq_date":"2026-10-03","acq_time":1009,"confidence":"n","satellite":"N","instrument":"VIIRS","version":"2.0NRT","bright_ti4":315.12,"frp":2.92,"daynight":"N"},"geometry":{"type":"Point","coordinates":[-119.58956,37.60993]}},{"type":"Feature","properties":{"acq_date":"2026-10-03","acq_time":1009,"confidence":"n","satellite":"N","instrument":"VIIRS","version":"2.0NRT","bright_ti4":336.01,"frp":2.92,"daynight":"N"},"geometry":{"type":"Point","coordinates":[-119.58865,37.61324]}},{"type":"Feature","properties":{"acq_date":"2026-10-03","acq_time":1009,"confidence":"n","satellite":"N","instrument":"VIIRS","version":"2.0NRT","bright_ti4":306.51,"frp":2.92,"daynight":"N"},"geometry":{"type":"Point","coordinates":[-119.59302,37.61398]}},{"type":"Feature","properties":{"acq_date":"2026-10-03","acq_time":1009,"confidence":"n","satellite":"N","instrument":"VIIRS","version":"2.0NRT","bright_ti4":321.73,"frp":2.34,"daynight":"N"},"geometry":{"type":"Point","coordinates":[-119.59737,37.61472]}},{"type":"Feature","properties":{"acq_date":"2026-10-03","acq_time":1009,"confidence":"n","satellite":"N","instrument":"VIIRS","version":"2.0NRT","bright_ti4":309.89,"frp":1.47,"daynight":"N"},"geometry":{"type":"Point","coordinates":[-119.62759,37.61984]}},{"type":"Feature","properties":{"acq_date":"2026-10-03","acq_time":1009,"confidence":"n","satellite":"N","instrument":"VIIRS","version":"2.0NRT","bright_ti4":298.04,"frp":0.96,"daynight":"N"},"geometry":{"type":"Point","coordinates":[-119.63027,37.6272]}},{"type":"Feature","properties":{"acq_date":"2026-10-03","acq_time":1009,"confidence":"n","satellite":"N","instrument":"VIIRS","version":"2.0NRT","bright_ti4":335.54,"frp":4.41,"daynight":"N"},"geometry":{"type":"Point","coordinates":[-119.58396,37.62973]}},{"type":"Feature","properties":{"acq_date":"2026-10-03","acq_time":1009,"confidence":"n","satellite":"N","instrument":"VIIRS","version":"2.0NRT","bright_ti4":333.43,"frp":4.41,"daynight":"N"},"geometry":{"type":"Point","coordinates":[-119.58833,37.63047]}},{"type":"Feature","properties":{"acq_date":"2026-10-03","acq_time":1009,"confidence":"n","satellite":"N","instrument":"VIIRS","version":"2.0NRT","bright_ti4":303.48,"frp":1.68,"daynight":"N"},"geometry":{"type":"Point","coordinates":[-119.62946,37.63052]}},{"type":"Feature","properties":{"acq_date":"2026-10-03","acq_time":1009,"confidence":"n","satellite":"N","instrument":"VIIRS","version":"2.0NRT","bright_ti4":343.7,"frp":2.55,"daynight":"N"},"geometry":{"type":"Point","coordinates":[-119.59269,37.6312]}},{"type":"Feature","properties":{"acq_date":"2026-10-03","acq_time":1009,"confidence":"n","satellite":"N","instrument":"VIIRS","version":"2.0NRT","bright_ti4":308.35,"frp":2.55,"daynight":"N"},"geometry":{"type":"Point","coordinates":[-119.59705,37.63195]}},{"type":"Feature","properties":{"acq_date":"2026-10-03","acq_time":1009,"confidence":"n","satellite":"N","instrument":"VIIRS","version":"2.0NRT","bright_ti4":332.09,"frp":4.37,"daynight":"N"},"geometry":{"type":"Point","coordinates":[-119.57867,37.63229]}},{"type":"Feature","properties":{"acq_date":"2026-10-03","acq_time":1009,"confidence":"n","satellite":"N","instrument":"VIIRS","version":"2.0NRT","bright_ti4":351.1,"frp":4.41,"daynight":"N"},"geometry":{"type":"Point","coordinates":[-119.58303,37.63303]}},{"type":"Feature","properties":{"acq_date":"2026-10-03","acq_time":1009,"confidence":"n","satellite":"N","instrument":"VIIRS","version":"2.0NRT","bright_ti4":317.22,"frp":2.25,"daynight":"N"},"geometry":{"type":"Point","coordinates":[-119.62433,37.63311]}},{"type":"Feature","properties":{"acq_date":"2026-10-03","acq_time":1009,"confidence":"n","satellite":"N","instrument":"VIIRS","version":"2.0NRT","bright_ti4":321.63,"frp":4.41,"daynight":"N"},"geometry":{"type":"Point","coordinates":[-119.58739,37.63377]}},{"type":"Feature","properties":{"acq_date":"2026-10-03","acq_time":1009,"confidence":"n","satellite":"N","instrument":"VIIRS","version":"2.0NRT","bright_ti4":325.93,"frp":1.68,"daynight":"N"},"geometry":{"type":"Point","coordinates":[-119.62865,37.63384]}},{"type":"Feature","properties":{"acq_date":"2026-10-03","acq_time":1009,"confidence":"n","satellite":"N","instrument":"VIIRS","version":"2.0NRT","bright_ti4":306.58,"frp":2.55,"daynight":"N"},"geometry":{"type":"Point","coordinates":[-119.59175,37.6345]}},{"type":"Feature","properties":{"acq_date":"2026-10-03","acq_time":1009,"confidence":"n","satellite":"N","instrument":"VIIRS","version":"2.0NRT","bright_ti4":309.99,"frp":2.55,"daynight":"N"},"geometry":{"type":"Point","coordinates":[-119.59614,37.63525]}},{"type":"Feature","properties":{"acq_date":"2026-10-03","acq_time":1009,"confidence":"n","satellite":"N","instrument":"VIIRS","version":"2.0NRT","bright_ti4":318.28,"frp":1.1,"daynight":"N"},"geometry":{"type":"Point","coordinates":[-119.57779,37.63559]}},{"type":"Feature","properties":{"acq_date":"2026-10-03","acq_time":1009,"confidence":"n","satellite":"N","instrument":"VIIRS","version":"2.0NRT","bright_ti4":324.83,"frp":2.1,"daynight":"N"},"geometry":{"type":"Point","coordinates":[-119.58212,37.63633]}},{"type":"Feature","properties":{"acq_date":"2026-10-03","acq_time":1009,"confidence":"n","satellite":"N","instrument":"VIIRS","version":"2.0NRT","bright_ti4":312.69,"frp":1.01,"daynight":"N"},"geometry":{"type":"Point","coordinates":[-119.62347,37.63641]}},{"type":"Feature","properties":{"acq_date":"2026-10-03","acq_time":1009,"confidence":"n","satellite":"N","instrument":"VIIRS","version":"2.0NRT","bright_ti4":295.81,"frp":2.1,"daynight":"N"},"geometry":{"type":"Point","coordinates":[-119.58645,37.63707]}},{"type":"Feature","properties":{"acq_date":"2026-10-03","acq_time":1009,"confidence":"n","satellite":"N","instrument":"VIIRS","version":"2.0NRT","bright_ti4":311.12,"frp":1.36,"daynight":"N"},"geometry":{"type":"Point","coordinates":[-119.6278,37.63715]}},{"type":"Feature","properties":{"acq_date":"2026-10-03","acq_time":1009,"confidence":"n","satellite":"N","instrument":"VIIRS","version":"2.0NRT","bright_ti4":331.19,"frp":3.32,"daynight":"N"},"geometry":{"type":"Point","coordinates":[-119.59522,37.63855]}},{"type":"Feature","properties":{"acq_date":"2026-10-03","acq_time":1009,"confidence":"n","satellite":"N","instrument":"VIIRS","version":"2.0NRT","bright_ti4":298.56,"frp":1.1,"daynight":"N"},"geometry":{"type":"Point","coordinates":[-119.57691,37.6389]}},{"type":"Feature","properties":{"acq_date":"2026-10-03","acq_time":1009,"confidence":"n","satellite":"N","instrument":"VIIRS","version":"2.0NRT","bright_ti4":338,"frp":2.1,"daynight":"N"},"geometry":{"type":"Point","coordinates":[-119.58125,37.63964]}},{"type":"Feature","properties":{"acq_date":"2026-10-03","acq_time":1009,"confidence":"n","satellite":"N","instrument":"VIIRS","version":"2.0NRT","bright_ti4":298.9,"frp":1.01,"daynight":"N"},"geometry":{"type":"Point","coordinates":[-119.62258,37.63972]}},{"type":"Feature","properties":{"acq_date":"2026-10-03","acq_time":1009,"confidence":"n","satellite":"N","instrument":"VIIRS","version":"2.0NRT","bright_ti4":308.9,"frp":2.1,"daynight":"N"},"geometry":{"type":"Point","coordinates":[-119.58559,37.64037]}},{"type":"Feature","properties":{"acq_date":"2026-10-03","acq_time":1009,"confidence":"n","satellite":"N","instrument":"VIIRS","version":"2.0NRT","bright_ti4":313.73,"frp":1.36,"daynight":"N"},"geometry":{"type":"Point","coordinates":[-119.62694,37.64046]}},{"type":"Feature","properties":{"acq_date":"2026-10-03","acq_time":1009,"confidence":"n","satellite":"N","instrument":"VIIRS","version":"2.0NRT","bright_ti4":302.04,"frp":0.99,"daynight":"N"},"geometry":{"type":"Point","coordinates":[-119.61288,37.64153]}},{"type":"Feature","properties":{"acq_date":"2026-10-03","acq_time":1009,"confidence":"n","satellite":"N","instrument":"VIIRS","version":"2.0NRT","bright_ti4":331.25,"frp":4.1,"daynight":"N"},"geometry":{"type":"Point","coordinates":[-119.57608,37.64222]}},{"type":"Feature","properties":{"acq_date":"2026-10-03","acq_time":1009,"confidence":"n","satellite":"N","instrument":"VIIRS","version":"2.0NRT","bright_ti4":354.06,"frp":8.99,"daynight":"N"},"geometry":{"type":"Point","coordinates":[-119.5804,37.64295]}},{"type":"Feature","properties":{"acq_date":"2026-10-03","acq_time":1009,"confidence":"n","satellite":"N","instrument":"VIIRS","version":"2.0NRT","bright_ti4":347.87,"frp":8.99,"daynight":"N"},"geometry":{"type":"Point","coordinates":[-119.58474,37.64368]}},{"type":"Feature","properties":{"acq_date":"2026-10-03","acq_time":1009,"confidence":"n","satellite":"N","instrument":"VIIRS","version":"2.0NRT","bright_ti4":301.88,"frp":1.11,"daynight":"N"},"geometry":{"type":"Point","coordinates":[-119.62605,37.64376]}},{"type":"Feature","properties":{"acq_date":"2026-10-03","acq_time":1009,"confidence":"n","satellite":"N","instrument":"VIIRS","version":"2.0NRT","bright_ti4":310.38,"frp":1.11,"daynight":"N"},"geometry":{"type":"Point","coordinates":[-119.63039,37.6445]}},{"type":"Feature","properties":{"acq_date":"2026-10-03","acq_time":1009,"confidence":"n","satellite":"N","instrument":"VIIRS","version":"2.0NRT","bright_ti4":304.92,"frp":0.99,"daynight":"N"},"geometry":{"type":"Point","coordinates":[-119.61195,37.64483]}},{"type":"Feature","properties":{"acq_date":"2026-10-03","acq_time":1009,"confidence":"n","satellite":"N","instrument":"VIIRS","version":"2.0NRT","bright_ti4":332.24,"frp":4.1,"daynight":"N"},"geometry":{"type":"Point","coordinates":[-119.57523,37.64553]}},{"type":"Feature","properties":{"acq_date":"2026-10-03","acq_time":1009,"confidence":"n","satellite":"N","instrument":"VIIRS","version":"2.0NRT","bright_ti4":354.82,"frp":8.99,"daynight":"N"},"geometry":{"type":"Point","coordinates":[-119.57954,37.64626]}},{"type":"Feature","properties":{"acq_date":"2026-10-03","acq_time":1009,"confidence":"n","satellite":"N","instrument":"VIIRS","version":"2.0NRT","bright_ti4":340.81,"frp":8.99,"daynight":"N"},"geometry":{"type":"Point","coordinates":[-119.58387,37.647]}},{"type":"Feature","properties":{"acq_date":"2026-10-03","acq_time":1009,"confidence":"n","satellite":"N","instrument":"VIIRS","version":"2.0NRT","bright_ti4":296.02,"frp":1.11,"daynight":"N"},"geometry":{"type":"Point","coordinates":[-119.62516,37.64707]}},{"type":"Feature","properties":{"acq_date":"2026-10-03","acq_time":1009,"confidence":"n","satellite":"N","instrument":"VIIRS","version":"2.0NRT","bright_ti4":324.96,"frp":1.11,"daynight":"N"},"geometry":{"type":"Point","coordinates":[-119.62951,37.6478]}},{"type":"Feature","properties":{"acq_date":"2026-10-03","acq_time":1009,"confidence":"n","satellite":"N","instrument":"VIIRS","version":"2.0NRT","bright_ti4":299.26,"frp":1.04,"daynight":"N"},"geometry":{"type":"Point","coordinates":[-119.63388,37.64854]}},{"type":"Feature","properties":{"acq_date":"2026-10-03","acq_time":1009,"confidence":"n","satellite":"N","instrument":"VIIRS","version":"2.0NRT","bright_ti4":296.31,"frp":1.59,"daynight":"N"},"geometry":{"type":"Point","coordinates":[-119.62424,37.65037]}},{"type":"Feature","properties":{"acq_date":"2026-10-03","acq_time":1009,"confidence":"n","satellite":"N","instrument":"VIIRS","version":"2.0NRT","bright_ti4":323.58,"frp":1.59,"daynight":"N"},"geometry":{"type":"Point","coordinates":[-119.62861,37.6511]}},{"type":"Feature","properties":{"acq_date":"2026-10-03","acq_time":1009,"confidence":"n","satellite":"N","instrument":"VIIRS","version":"2.0NRT","bright_ti4":297.03,"frp":0.8,"daynight":"N"},"geometry":{"type":"Point","coordinates":[-119.61451,37.65218]}},{"type":"Feature","properties":{"acq_date":"2026-10-03","acq_time":1009,"confidence":"n","satellite":"N","instrument":"VIIRS","version":"2.0NRT","bright_ti4":297.8,"frp":0.8,"daynight":"N"},"geometry":{"type":"Point","coordinates":[-119.61893,37.65292]}},{"type":"Feature","properties":{"acq_date":"2026-10-03","acq_time":1009,"confidence":"n","satellite":"N","instrument":"VIIRS","version":"2.0NRT","bright_ti4":297.41,"frp":0.62,"daynight":"N"},"geometry":{"type":"Point","coordinates":[-122.39755,37.94995]}},{"type":"Feature","properties":{"acq_date":"2026-10-03","acq_time":1009,"confidence":"n","satellite":"N","instrument":"VIIRS","version":"2.0NRT","bright_ti4":309.35,"frp":0.89,"daynight":"N"},"geometry":{"type":"Point","coordinates":[-121.93502,38.00398]}},{"type":"Feature","properties":{"acq_date":"2026-10-03","acq_time":1009,"confidence":"n","satellite":"N","instrument":"VIIRS","version":"2.0NRT","bright_ti4":302.59,"frp":0.62,"daynight":"N"},"geometry":{"type":"Point","coordinates":[-122.09879,38.03168]}},{"type":"Feature","properties":{"acq_date":"2026-10-03","acq_time":1009,"confidence":"n","satellite":"N","instrument":"VIIRS","version":"2.0NRT","bright_ti4":310.75,"frp":1.4,"daynight":"N"},"geometry":{"type":"Point","coordinates":[-119.80341,38.16384]}},{"type":"Feature","properties":{"acq_date":"2026-10-03","acq_time":1009,"confidence":"n","satellite":"N","instrument":"VIIRS","version":"2.0NRT","bright_ti4":313.22,"frp":1.4,"daynight":"N"},"geometry":{"type":"Point","coordinates":[-119.80257,38.16714]}},{"type":"Feature","properties":{"acq_date":"2026-10-03","acq_time":1009,"confidence":"n","satellite":"N","instrument":"VIIRS","version":"2.0NRT","bright_ti4":302.66,"frp":1.04,"daynight":"N"},"geometry":{"type":"Point","coordinates":[-119.79731,38.1697]}},{"type":"Feature","properties":{"acq_date":"2026-10-03","acq_time":1009,"confidence":"n","satellite":"N","instrument":"VIIRS","version":"2.0NRT","bright_ti4":299.05,"frp":0.88,"daynight":"N"},"geometry":{"type":"Point","coordinates":[-122.74784,38.29987]}},{"type":"Feature","properties":{"acq_date":"2026-10-03","acq_time":1009,"confidence":"n","satellite":"N","instrument":"VIIRS","version":"2.0NRT","bright_ti4":306.78,"frp":2.25,"daynight":"N"},"geometry":{"type":"Point","coordinates":[-114.25642,40.82082]}},{"type":"Feature","properties":{"acq_date":"2026-10-03","acq_time":1009,"confidence":"n","satellite":"N","instrument":"VIIRS","version":"2.0NRT","bright_ti4":313.68,"frp":1.97,"daynight":"N"},"geometry":{"type":"Point","coordinates":[-114.25629,40.82232]}},{"type":"Feature","properties":{"acq_date":"2026-10-03","acq_time":1009,"confidence":"n","satellite":"N","instrument":"VIIRS","version":"2.0NRT","bright_ti4":312.32,"frp":0.88,"daynight":"N"},"geometry":{"type":"Point","coordinates":[-117.6779,41.54222]}},{"type":"Feature","properties":{"acq_date":"2026-10-03","acq_time":1009,"confidence":"n","satellite":"N","instrument":"VIIRS","version":"2.0NRT","bright_ti4":321.97,"frp":2.39,"daynight":"N"},"geometry":{"type":"Point","coordinates":[-117.69556,41.56634]}},{"type":"Feature","properties":{"acq_date":"2026-10-03","acq_time":1009,"confidence":"n","satellite":"N","instrument":"VIIRS","version":"2.0NRT","bright_ti4":302.71,"frp":0.82,"daynight":"N"},"geometry":{"type":"Point","coordinates":[-113.70328,42.2121]}},{"type":"Feature","properties":{"acq_date":"2026-10-03","acq_time":1009,"confidence":"n","satellite":"N","instrument":"VIIRS","version":"2.0NRT","bright_ti4":303.42,"frp":2.16,"daynight":"N"},"geometry":{"type":"Point","coordinates":[-113.70176,42.21579]}},{"type":"Feature","properties":{"acq_date":"2026-10-03","acq_time":1009,"confidence":"n","satellite":"N","instrument":"VIIRS","version":"2.0NRT","bright_ti4":307.12,"frp":2.16,"daynight":"N"},"geometry":{"type":"Point","coordinates":[-113.70725,42.21695]}},{"type":"Feature","properties":{"acq_date":"2026-10-03","acq_time":1009,"confidence":"n","satellite":"N","instrument":"VIIRS","version":"2.0NRT","bright_ti4":307.12,"frp":2.16,"daynight":"N"},"geometry":{"type":"Point","coordinates":[-113.70007,42.21945]}},{"type":"Feature","properties":{"acq_date":"2026-10-03","acq_time":1009,"confidence":"n","satellite":"N","instrument":"VIIRS","version":"2.0NRT","bright_ti4":326.92,"frp":2.16,"daynight":"N"},"geometry":{"type":"Point","coordinates":[-113.7056,42.22061]}},{"type":"Feature","properties":{"acq_date":"2026-10-03","acq_time":1009,"confidence":"n","satellite":"N","instrument":"VIIRS","version":"2.0NRT","bright_ti4":317.47,"frp":2.3,"daynight":"N"},"geometry":{"type":"Point","coordinates":[-113.71124,42.22179]}},{"type":"Feature","properties":{"acq_date":"2026-10-03","acq_time":1009,"confidence":"n","satellite":"N","instrument":"VIIRS","version":"2.0NRT","bright_ti4":298.28,"frp":0.53,"daynight":"N"},"geometry":{"type":"Point","coordinates":[-120.20345,42.38353]}},{"type":"Feature","properties":{"acq_date":"2026-10-03","acq_time":1009,"confidence":"n","satellite":"N","instrument":"VIIRS","version":"2.0NRT","bright_ti4":302.75,"frp":1.01,"daynight":"N"},"geometry":{"type":"Point","coordinates":[-122.77727,42.38363]}},{"type":"Feature","properties":{"acq_date":"2026-10-03","acq_time":1009,"confidence":"n","satellite":"N","instrument":"VIIRS","version":"2.0NRT","bright_ti4":295.69,"frp":0.53,"daynight":"N"},"geometry":{"type":"Point","coordinates":[-120.20255,42.38683]}},{"type":"Feature","properties":{"acq_date":"2026-10-03","acq_time":1009,"confidence":"n","satellite":"N","instrument":"VIIRS","version":"2.0NRT","bright_ti4":295.55,"frp":0.53,"daynight":"N"},"geometry":{"type":"Point","coordinates":[-120.20719,42.38753]}},{"type":"Feature","properties":{"acq_date":"2026-10-03","acq_time":1009,"confidence":"n","satellite":"N","instrument":"VIIRS","version":"2.0NRT","bright_ti4":304.82,"frp":1.49,"daynight":"N"},"geometry":{"type":"Point","coordinates":[-120.20166,42.39013]}},{"type":"Feature","properties":{"acq_date":"2026-10-03","acq_time":1009,"confidence":"n","satellite":"N","instrument":"VIIRS","version":"2.0NRT","bright_ti4":295.36,"frp":1.13,"daynight":"N"},"geometry":{"type":"Point","coordinates":[-120.19611,42.39272]}},{"type":"Feature","properties":{"acq_date":"2026-10-03","acq_time":1009,"confidence":"n","satellite":"N","instrument":"VIIRS","version":"2.0NRT","bright_ti4":295.55,"frp":1.2,"daynight":"N"},"geometry":{"type":"Point","coordinates":[-120.18787,42.4052]}},{"type":"Feature","properties":{"acq_date":"2026-10-03","acq_time":1009,"confidence":"n","satellite":"N","instrument":"VIIRS","version":"2.0NRT","bright_ti4":305,"frp":0.67,"daynight":"N"},"geometry":{"type":"Point","coordinates":[-122.29488,43.31416]}},{"type":"Feature","properties":{"acq_date":"2026-10-03","acq_time":1009,"confidence":"n","satellite":"N","instrument":"VIIRS","version":"2.0NRT","bright_ti4":317.7,"frp":1.49,"daynight":"N"},"geometry":{"type":"Point","coordinates":[-122.29403,43.31765]}},{"type":"Feature","properties":{"acq_date":"2026-10-03","acq_time":1009,"confidence":"n","satellite":"N","instrument":"VIIRS","version":"2.0NRT","bright_ti4":301.77,"frp":1.01,"daynight":"N"},"geometry":{"type":"Point","coordinates":[-122.29944,43.31834]}},{"type":"Feature","properties":{"acq_date":"2026-10-03","acq_time":1011,"confidence":"n","satellite":"N","instrument":"VIIRS","version":"2.0NRT","bright_ti4":310.22,"frp":1.27,"daynight":"N"},"geometry":{"type":"Point","coordinates":[-117.61539,33.49035]}},{"type":"Feature","properties":{"acq_date":"2026-10-03","acq_time":1011,"confidence":"n","satellite":"N","instrument":"VIIRS","version":"2.0NRT","bright_ti4":310.31,"frp":2,"daynight":"N"},"geometry":{"type":"Point","coordinates":[-117.82382,33.61212]}},{"type":"Feature","properties":{"acq_date":"2026-10-03","acq_time":1011,"confidence":"n","satellite":"N","instrument":"VIIRS","version":"2.0NRT","bright_ti4":311.25,"frp":1.71,"daynight":"N"},"geometry":{"type":"Point","coordinates":[-117.82157,33.61392]}},{"type":"Feature","properties":{"acq_date":"2026-10-03","acq_time":1011,"confidence":"n","satellite":"N","instrument":"VIIRS","version":"2.0NRT","bright_ti4":313.35,"frp":2.63,"daynight":"N"},"geometry":{"type":"Point","coordinates":[-117.70977,33.71671]}},{"type":"Feature","properties":{"acq_date":"2026-10-03","acq_time":1011,"confidence":"n","satellite":"N","instrument":"VIIRS","version":"2.0NRT","bright_ti4":305.13,"frp":0.75,"daynight":"N"},"geometry":{"type":"Point","coordinates":[-118.10423,34.03557]}},{"type":"Feature","properties":{"acq_date":"2026-10-03","acq_time":1011,"confidence":"n","satellite":"N","instrument":"VIIRS","version":"2.0NRT","bright_ti4":306.25,"frp":1.1,"daynight":"N"},"geometry":{"type":"Point","coordinates":[-117.82123,34.042]}},{"type":"Feature","properties":{"acq_date":"2026-10-03","acq_time":1011,"confidence":"n","satellite":"N","instrument":"VIIRS","version":"2.0NRT","bright_ti4":309.47,"frp":0.32,"daynight":"N"},"geometry":{"type":"Point","coordinates":[-117.42909,34.1429]}},{"type":"Feature","properties":{"acq_date":"2026-10-03","acq_time":1011,"confidence":"n","satellite":"N","instrument":"VIIRS","version":"2.0NRT","bright_ti4":316.41,"frp":2.05,"daynight":"N"},"geometry":{"type":"Point","coordinates":[-118.19092,34.15451]}},{"type":"Feature","properties":{"acq_date":"2026-10-03","acq_time":1011,"confidence":"n","satellite":"N","instrument":"VIIRS","version":"2.0NRT","bright_ti4":303.52,"frp":0.61,"daynight":"N"},"geometry":{"type":"Point","coordinates":[-118.38196,34.24288]}},{"type":"Feature","properties":{"acq_date":"2026-10-03","acq_time":1011,"confidence":"n","satellite":"N","instrument":"VIIRS","version":"2.0NRT","bright_ti4":310.64,"frp":1.4,"daynight":"N"},"geometry":{"type":"Point","coordinates":[-118.79924,34.29107]}},{"type":"Feature","properties":{"acq_date":"2026-10-03","acq_time":1011,"confidence":"n","satellite":"N","instrument":"VIIRS","version":"2.0NRT","bright_ti4":305.19,"frp":0.56,"daynight":"N"},"geometry":{"type":"Point","coordinates":[-118.80387,34.29192]}},{"type":"Feature","properties":{"acq_date":"2026-10-03","acq_time":1011,"confidence":"n","satellite":"N","instrument":"VIIRS","version":"2.0NRT","bright_ti4":317.46,"frp":1.79,"daynight":"N"},"geometry":{"type":"Point","coordinates":[-118.51871,34.3334]}},{"type":"Feature","properties":{"acq_date":"2026-10-03","acq_time":1011,"confidence":"n","satellite":"N","instrument":"VIIRS","version":"2.0NRT","bright_ti4":306.75,"frp":1.28,"daynight":"N"},"geometry":{"type":"Point","coordinates":[-116.85235,34.35388]}},{"type":"Feature","properties":{"acq_date":"2026-10-03","acq_time":1011,"confidence":"n","satellite":"N","instrument":"VIIRS","version":"2.0NRT","bright_ti4":316.59,"frp":1.87,"daynight":"N"},"geometry":{"type":"Point","coordinates":[-118.64442,34.42998]}},{"type":"Feature","properties":{"acq_date":"2026-10-03","acq_time":1011,"confidence":"n","satellite":"N","instrument":"VIIRS","version":"2.0NRT","bright_ti4":312.7,"frp":1.85,"daynight":"N"},"geometry":{"type":"Point","coordinates":[-118.6463,34.43058]}},{"type":"Feature","properties":{"acq_date":"2026-10-03","acq_time":1011,"confidence":"n","satellite":"N","instrument":"VIIRS","version":"2.0NRT","bright_ti4":299.12,"frp":0.51,"daynight":"N"},"geometry":{"type":"Point","coordinates":[-118.15432,34.5673]}},{"type":"Feature","properties":{"acq_date":"2026-10-03","acq_time":1011,"confidence":"n","satellite":"N","instrument":"VIIRS","version":"2.0NRT","bright_ti4":306.64,"frp":1.71,"daynight":"N"},"geometry":{"type":"Point","coordinates":[-117.41711,34.57939]}},{"type":"Feature","properties":{"acq_date":"2026-10-03","acq_time":1011,"confidence":"n","satellite":"N","instrument":"VIIRS","version":"2.0NRT","bright_ti4":321.23,"frp":1.71,"daynight":"N"},"geometry":{"type":"Point","coordinates":[-117.41603,34.58304]}},{"type":"Feature","properties":{"acq_date":"2026-10-03","acq_time":1011,"confidence":"n","satellite":"N","instrument":"VIIRS","version":"2.0NRT","bright_ti4":303.49,"frp":0.85,"daynight":"N"},"geometry":{"type":"Point","coordinates":[-117.33678,34.60619]}},{"type":"Feature","properties":{"acq_date":"2026-10-03","acq_time":1011,"confidence":"n","satellite":"N","instrument":"VIIRS","version":"2.0NRT","bright_ti4":310.67,"frp":1.32,"daynight":"N"},"geometry":{"type":"Point","coordinates":[-117.33579,34.60987]}},{"type":"Feature","properties":{"acq_date":"2026-10-03","acq_time":1011,"confidence":"n","satellite":"N","instrument":"VIIRS","version":"2.0NRT","bright_ti4":316.98,"frp":2.45,"daynight":"N"},"geometry":{"type":"Point","coordinates":[-117.10085,34.6231]}},{"type":"Feature","properties":{"acq_date":"2026-10-03","acq_time":1011,"confidence":"n","satellite":"N","instrument":"VIIRS","version":"2.0NRT","bright_ti4":297.4,"frp":0.8,"daynight":"N"},"geometry":{"type":"Point","coordinates":[-118.36528,35.12263]}}]}