{"type":"FeatureCollection","name":"FIRMS VIIRS CA (last 1 day)","crs":{"type":"name","properties":{"name":"EPSG:4326"}},"fetched_at_utc":"2026-09-15T18:02:29.594Z","source":{"url":"https://firms.modaps.eosdis.nasa.gov/api/area/csv/8c4af552cf654445dd280dfb3ad9337c/VIIRS_SNPP_NRT/-125,32,-113,43.5/1","dataset":"VIIRS_SNPP_NRT","bbox":"-125,32,-113,43.5","day_range":"1"},"features":[{"type":"Feature","properties":{"acq_date":"2026-09-15","acq_time":905,"confidence":"n","satellite":"N","instrument":"VIIRS","version":"2.0NRT","bright_ti4":341.16,"frp":2.91,"daynight":"N"},"geometry":{"type":"Point","coordinates":[-116.83536,32.49335]}},{"type":"Feature","properties":{"acq_date":"2026-09-15","acq_time":905,"confidence":"n","satellite":"N","instrument":"VIIRS","version":"2.0NRT","bright_ti4":324.22,"frp":1.41,"daynight":"N"},"geometry":{"type":"Point","coordinates":[-116.83383,32.49849]}},{"type":"Feature","properties":{"acq_date":"2026-09-15","acq_time":905,"confidence":"n","satellite":"N","instrument":"VIIRS","version":"2.0NRT","bright_ti4":298.95,"frp":0.26,"daynight":"N"},"geometry":{"type":"Point","coordinates":[-116.7906,32.50034]}},{"type":"Feature","properties":{"acq_date":"2026-09-15","acq_time":905,"confidence":"n","satellite":"N","instrument":"VIIRS","version":"2.0NRT","bright_ti4":317.25,"frp":1.17,"daynight":"N"},"geometry":{"type":"Point","coordinates":[-116.77081,32.50924]}},{"type":"Feature","properties":{"acq_date":"2026-09-15","acq_time":905,"confidence":"n","satellite":"N","instrument":"VIIRS","version":"2.0NRT","bright_ti4":325.16,"frp":2.01,"daynight":"N"},"geometry":{"type":"Point","coordinates":[-116.77625,32.52538]}},{"type":"Feature","properties":{"acq_date":"2026-09-15","acq_time":905,"confidence":"n","satellite":"N","instrument":"VIIRS","version":"2.0NRT","bright_ti4":322.52,"frp":1.75,"daynight":"N"},"geometry":{"type":"Point","coordinates":[-116.77781,32.52591]}},{"type":"Feature","properties":{"acq_date":"2026-09-15","acq_time":905,"confidence":"n","satellite":"N","instrument":"VIIRS","version":"2.0NRT","bright_ti4":304.01,"frp":2.37,"daynight":"N"},"geometry":{"type":"Point","coordinates":[-118.33296,33.85161]}},{"type":"Feature","properties":{"acq_date":"2026-09-15","acq_time":905,"confidence":"n","satellite":"N","instrument":"VIIRS","version":"2.0NRT","bright_ti4":299.37,"frp":0.22,"daynight":"N"},"geometry":{"type":"Point","coordinates":[-117.42879,34.14195]}},{"type":"Feature","properties":{"acq_date":"2026-09-15","acq_time":905,"confidence":"n","satellite":"N","instrument":"VIIRS","version":"2.0NRT","bright_ti4":304.65,"frp":0.89,"daynight":"N"},"geometry":{"type":"Point","coordinates":[-118.52103,34.33389]}},{"type":"Feature","properties":{"acq_date":"2026-09-15","acq_time":905,"confidence":"n","satellite":"N","instrument":"VIIRS","version":"2.0NRT","bright_ti4":306.83,"frp":1.04,"daynight":"N"},"geometry":{"type":"Point","coordinates":[-117.33823,34.60522]}},{"type":"Feature","properties":{"acq_date":"2026-09-15","acq_time":905,"confidence":"n","satellite":"N","instrument":"VIIRS","version":"2.0NRT","bright_ti4":310.19,"frp":1.04,"daynight":"N"},"geometry":{"type":"Point","coordinates":[-117.33739,34.61068]}},{"type":"Feature","properties":{"acq_date":"2026-09-15","acq_time":905,"confidence":"n","satellite":"N","instrument":"VIIRS","version":"2.0NRT","bright_ti4":301.43,"frp":0.71,"daynight":"N"},"geometry":{"type":"Point","coordinates":[-117.09965,34.62229]}},{"type":"Feature","properties":{"acq_date":"2026-09-15","acq_time":905,"confidence":"n","satellite":"N","instrument":"VIIRS","version":"2.0NRT","bright_ti4":298.28,"frp":0.53,"daynight":"N"},"geometry":{"type":"Point","coordinates":[-118.75156,34.82121]}},{"type":"Feature","properties":{"acq_date":"2026-09-15","acq_time":905,"confidence":"n","satellite":"N","instrument":"VIIRS","version":"2.0NRT","bright_ti4":305.02,"frp":1.84,"daynight":"N"},"geometry":{"type":"Point","coordinates":[-114.25513,40.82118]}},{"type":"Feature","properties":{"acq_date":"2026-09-15","acq_time":905,"confidence":"n","satellite":"N","instrument":"VIIRS","version":"2.0NRT","bright_ti4":299.65,"frp":3.16,"daynight":"N"},"geometry":{"type":"Point","coordinates":[-121.78044,41.77896]}},{"type":"Feature","properties":{"acq_date":"2026-09-15","acq_time":905,"confidence":"n","satellite":"N","instrument":"VIIRS","version":"2.0NRT","bright_ti4":304.3,"frp":2.48,"daynight":"N"},"geometry":{"type":"Point","coordinates":[-121.78938,41.78168]}},{"type":"Feature","properties":{"acq_date":"2026-09-15","acq_time":905,"confidence":"n","satellite":"N","instrument":"VIIRS","version":"2.0NRT","bright_ti4":295.43,"frp":2.48,"daynight":"N"},"geometry":{"type":"Point","coordinates":[-121.7789,41.78169]}},{"type":"Feature","properties":{"acq_date":"2026-09-15","acq_time":905,"confidence":"n","satellite":"N","instrument":"VIIRS","version":"2.0NRT","bright_ti4":296.15,"frp":3.51,"daynight":"N"},"geometry":{"type":"Point","coordinates":[-121.7789,41.78611]}},{"type":"Feature","properties":{"acq_date":"2026-09-15","acq_time":905,"confidence":"n","satellite":"N","instrument":"VIIRS","version":"2.0NRT","bright_ti4":306.91,"frp":4.57,"daynight":"N"},"geometry":{"type":"Point","coordinates":[-121.7897,41.78614]}},{"type":"Feature","properties":{"acq_date":"2026-09-15","acq_time":905,"confidence":"n","satellite":"N","instrument":"VIIRS","version":"2.0NRT","bright_ti4":303.92,"frp":3.39,"daynight":"N"},"geometry":{"type":"Point","coordinates":[-121.78831,41.78884]}},{"type":"Feature","properties":{"acq_date":"2026-09-15","acq_time":907,"confidence":"n","satellite":"N","instrument":"VIIRS","version":"2.0NRT","bright_ti4":298.48,"frp":0.73,"daynight":"N"},"geometry":{"type":"Point","coordinates":[-113.30997,35.51674]}},{"type":"Feature","properties":{"acq_date":"2026-09-15","acq_time":907,"confidence":"n","satellite":"N","instrument":"VIIRS","version":"2.0NRT","bright_ti4":308.59,"frp":0.97,"daynight":"N"},"geometry":{"type":"Point","coordinates":[-113.31377,35.51711]}},{"type":"Feature","properties":{"acq_date":"2026-09-15","acq_time":907,"confidence":"n","satellite":"N","instrument":"VIIRS","version":"2.0NRT","bright_ti4":298.82,"frp":0.73,"daynight":"N"},"geometry":{"type":"Point","coordinates":[-113.31518,35.51725]}},{"type":"Feature","properties":{"acq_date":"2026-09-15","acq_time":907,"confidence":"n","satellite":"N","instrument":"VIIRS","version":"2.0NRT","bright_ti4":309.63,"frp":1.75,"daynight":"N"},"geometry":{"type":"Point","coordinates":[-114.91207,36.35979]}},{"type":"Feature","properties":{"acq_date":"2026-09-15","acq_time":1043,"confidence":"n","satellite":"N","instrument":"VIIRS","version":"2.0NRT","bright_ti4":302.05,"frp":1.27,"daynight":"N"},"geometry":{"type":"Point","coordinates":[-121.77467,41.77499]}},{"type":"Feature","properties":{"acq_date":"2026-09-15","acq_time":1043,"confidence":"n","satellite":"N","instrument":"VIIRS","version":"2.0NRT","bright_ti4":305.75,"frp":1.68,"daynight":"N"},"geometry":{"type":"Point","coordinates":[-121.78272,41.78117]}},{"type":"Feature","properties":{"acq_date":"2026-09-15","acq_time":1043,"confidence":"n","satellite":"N","instrument":"VIIRS","version":"2.0NRT","bright_ti4":304.16,"frp":1.2,"daynight":"N"},"geometry":{"type":"Point","coordinates":[-121.78742,41.78224]}},{"type":"Feature","properties":{"acq_date":"2026-09-15","acq_time":1043,"confidence":"n","satellite":"N","instrument":"VIIRS","version":"2.0NRT","bright_ti4":298.62,"frp":1.68,"daynight":"N"},"geometry":{"type":"Point","coordinates":[-121.78137,41.78524]}},{"type":"Feature","properties":{"acq_date":"2026-09-15","acq_time":1043,"confidence":"n","satellite":"N","instrument":"VIIRS","version":"2.0NRT","bright_ti4":303.89,"frp":1.2,"daynight":"N"},"geometry":{"type":"Point","coordinates":[-121.78603,41.78629]}},{"type":"Feature","properties":{"acq_date":"2026-09-15","acq_time":1043,"confidence":"n","satellite":"N","instrument":"VIIRS","version":"2.0NRT","bright_ti4":295.07,"frp":1.2,"daynight":"N"},"geometry":{"type":"Point","coordinates":[-121.79072,41.78734]}},{"type":"Feature","properties":{"acq_date":"2026-09-15","acq_time":1043,"confidence":"n","satellite":"N","instrument":"VIIRS","version":"2.0NRT","bright_ti4":303.06,"frp":1.2,"daynight":"N"},"geometry":{"type":"Point","coordinates":[-121.78003,41.78929]}},{"type":"Feature","properties":{"acq_date":"2026-09-15","acq_time":1043,"confidence":"n","satellite":"N","instrument":"VIIRS","version":"2.0NRT","bright_ti4":297.76,"frp":1.27,"daynight":"N"},"geometry":{"type":"Point","coordinates":[-121.78465,41.79033]}},{"type":"Feature","properties":{"acq_date":"2026-09-15","acq_time":1043,"confidence":"n","satellite":"N","instrument":"VIIRS","version":"2.0NRT","bright_ti4":296.85,"frp":0.64,"daynight":"N"},"geometry":{"type":"Point","coordinates":[-122.77339,42.38262]}},{"type":"Feature","properties":{"acq_date":"2026-09-15","acq_time":1043,"confidence":"n","satellite":"N","instrument":"VIIRS","version":"2.0NRT","bright_ti4":298.47,"frp":0.72,"daynight":"N"},"geometry":{"type":"Point","coordinates":[-115.73324,43.17813]}},{"type":"Feature","properties":{"acq_date":"2026-09-15","acq_time":1045,"confidence":"n","satellite":"N","instrument":"VIIRS","version":"2.0NRT","bright_ti4":305.54,"frp":1.59,"daynight":"N"},"geometry":{"type":"Point","coordinates":[-116.29832,32.56609]}},{"type":"Feature","properties":{"acq_date":"2026-09-15","acq_time":1045,"confidence":"n","satellite":"N","instrument":"VIIRS","version":"2.0NRT","bright_ti4":304.03,"frp":1.54,"daynight":"N"},"geometry":{"type":"Point","coordinates":[-116.29865,32.56858]}},{"type":"Feature","properties":{"acq_date":"2026-09-15","acq_time":1045,"confidence":"n","satellite":"N","instrument":"VIIRS","version":"2.0NRT","bright_ti4":304.72,"frp":1.55,"daynight":"N"},"geometry":{"type":"Point","coordinates":[-117.3334,34.60688]}},{"type":"Feature","properties":{"acq_date":"2026-09-15","acq_time":1045,"confidence":"n","satellite":"N","instrument":"VIIRS","version":"2.0NRT","bright_ti4":303.14,"frp":1.8,"daynight":"N"},"geometry":{"type":"Point","coordinates":[-117.33854,34.60835]}},{"type":"Feature","properties":{"acq_date":"2026-09-15","acq_time":1045,"confidence":"n","satellite":"N","instrument":"VIIRS","version":"2.0NRT","bright_ti4":308.08,"frp":2.21,"daynight":"N"},"geometry":{"type":"Point","coordinates":[-117.10104,34.6208]}},{"type":"Feature","properties":{"acq_date":"2026-09-15","acq_time":1045,"confidence":"n","satellite":"N","instrument":"VIIRS","version":"2.0NRT","bright_ti4":303.8,"frp":0.61,"daynight":"N"},"geometry":{"type":"Point","coordinates":[-120.13256,37.03973]}},{"type":"Feature","properties":{"acq_date":"2026-09-15","acq_time":1045,"confidence":"n","satellite":"N","instrument":"VIIRS","version":"2.0NRT","bright_ti4":299.71,"frp":0.88,"daynight":"N"},"geometry":{"type":"Point","coordinates":[-121.93194,37.45526]}},{"type":"Feature","properties":{"acq_date":"2026-09-15","acq_time":1045,"confidence":"n","satellite":"N","instrument":"VIIRS","version":"2.0NRT","bright_ti4":295.46,"frp":0.58,"daynight":"N"},"geometry":{"type":"Point","coordinates":[-122.94895,39.22158]}}]}