{"type":"FeatureCollection","name":"FIRMS VIIRS CA (last 1 day)","crs":{"type":"name","properties":{"name":"EPSG:4326"}},"fetched_at_utc":"2026-09-18T17:35:15.648Z","source":{"url":"https://firms.modaps.eosdis.nasa.gov/api/area/csv/8c4af552cf654445dd280dfb3ad9337c/VIIRS_SNPP_NRT/-125,32,-113,43.5/1","dataset":"VIIRS_SNPP_NRT","bbox":"-125,32,-113,43.5","day_range":"1"},"features":[{"type":"Feature","properties":{"acq_date":"2026-09-18","acq_time":947,"confidence":"n","satellite":"N","instrument":"VIIRS","version":"2.0NRT","bright_ti4":303.15,"frp":1.09,"daynight":"N"},"geometry":{"type":"Point","coordinates":[-119.26497,39.61831]}},{"type":"Feature","properties":{"acq_date":"2026-09-18","acq_time":947,"confidence":"n","satellite":"N","instrument":"VIIRS","version":"2.0NRT","bright_ti4":298.3,"frp":0.46,"daynight":"N"},"geometry":{"type":"Point","coordinates":[-119.2642,39.62186]}},{"type":"Feature","properties":{"acq_date":"2026-09-18","acq_time":947,"confidence":"n","satellite":"N","instrument":"VIIRS","version":"2.0NRT","bright_ti4":300.68,"frp":0.85,"daynight":"N"},"geometry":{"type":"Point","coordinates":[-114.25677,40.82188]}},{"type":"Feature","properties":{"acq_date":"2026-09-18","acq_time":947,"confidence":"n","satellite":"N","instrument":"VIIRS","version":"2.0NRT","bright_ti4":308.57,"frp":0.89,"daynight":"N"},"geometry":{"type":"Point","coordinates":[-114.96916,41.09777]}},{"type":"Feature","properties":{"acq_date":"2026-09-18","acq_time":949,"confidence":"n","satellite":"N","instrument":"VIIRS","version":"2.0NRT","bright_ti4":301.6,"frp":0.85,"daynight":"N"},"geometry":{"type":"Point","coordinates":[-117.61535,33.4907]}},{"type":"Feature","properties":{"acq_date":"2026-09-18","acq_time":949,"confidence":"n","satellite":"N","instrument":"VIIRS","version":"2.0NRT","bright_ti4":308.68,"frp":0.95,"daynight":"N"},"geometry":{"type":"Point","coordinates":[-117.82358,33.61454]}},{"type":"Feature","properties":{"acq_date":"2026-09-18","acq_time":949,"confidence":"n","satellite":"N","instrument":"VIIRS","version":"2.0NRT","bright_ti4":298.8,"frp":0.45,"daynight":"N"},"geometry":{"type":"Point","coordinates":[-117.70865,33.71569]}},{"type":"Feature","properties":{"acq_date":"2026-09-18","acq_time":949,"confidence":"n","satellite":"N","instrument":"VIIRS","version":"2.0NRT","bright_ti4":298.87,"frp":0.49,"daynight":"N"},"geometry":{"type":"Point","coordinates":[-117.71278,33.71634]}},{"type":"Feature","properties":{"acq_date":"2026-09-18","acq_time":949,"confidence":"n","satellite":"N","instrument":"VIIRS","version":"2.0NRT","bright_ti4":315.21,"frp":1.08,"daynight":"N"},"geometry":{"type":"Point","coordinates":[-117.47513,33.79427]}},{"type":"Feature","properties":{"acq_date":"2026-09-18","acq_time":949,"confidence":"n","satellite":"N","instrument":"VIIRS","version":"2.0NRT","bright_ti4":307.76,"frp":1.15,"daynight":"N"},"geometry":{"type":"Point","coordinates":[-118.33061,33.85216]}},{"type":"Feature","properties":{"acq_date":"2026-09-18","acq_time":949,"confidence":"n","satellite":"N","instrument":"VIIRS","version":"2.0NRT","bright_ti4":299.29,"frp":0.39,"daynight":"N"},"geometry":{"type":"Point","coordinates":[-116.99747,33.87734]}},{"type":"Feature","properties":{"acq_date":"2026-09-18","acq_time":949,"confidence":"n","satellite":"N","instrument":"VIIRS","version":"2.0NRT","bright_ti4":297.7,"frp":0.26,"daynight":"N"},"geometry":{"type":"Point","coordinates":[-117.12067,33.95521]}},{"type":"Feature","properties":{"acq_date":"2026-09-18","acq_time":949,"confidence":"n","satellite":"N","instrument":"VIIRS","version":"2.0NRT","bright_ti4":300.77,"frp":0.32,"daynight":"N"},"geometry":{"type":"Point","coordinates":[-118.1037,34.03456]}},{"type":"Feature","properties":{"acq_date":"2026-09-18","acq_time":949,"confidence":"n","satellite":"N","instrument":"VIIRS","version":"2.0NRT","bright_ti4":303.1,"frp":0.23,"daynight":"N"},"geometry":{"type":"Point","coordinates":[-117.82018,34.04132]}},{"type":"Feature","properties":{"acq_date":"2026-09-18","acq_time":949,"confidence":"n","satellite":"N","instrument":"VIIRS","version":"2.0NRT","bright_ti4":300.65,"frp":0.51,"daynight":"N"},"geometry":{"type":"Point","coordinates":[-117.92409,34.11538]}},{"type":"Feature","properties":{"acq_date":"2026-09-18","acq_time":949,"confidence":"n","satellite":"N","instrument":"VIIRS","version":"2.0NRT","bright_ti4":302.88,"frp":0.38,"daynight":"N"},"geometry":{"type":"Point","coordinates":[-117.42576,34.14324]}},{"type":"Feature","properties":{"acq_date":"2026-09-18","acq_time":949,"confidence":"n","satellite":"N","instrument":"VIIRS","version":"2.0NRT","bright_ti4":311.51,"frp":0.5,"daynight":"N"},"geometry":{"type":"Point","coordinates":[-118.19173,34.15275]}},{"type":"Feature","properties":{"acq_date":"2026-09-18","acq_time":949,"confidence":"n","satellite":"N","instrument":"VIIRS","version":"2.0NRT","bright_ti4":298.99,"frp":0.47,"daynight":"N"},"geometry":{"type":"Point","coordinates":[-118.38255,34.242]}},{"type":"Feature","properties":{"acq_date":"2026-09-18","acq_time":949,"confidence":"n","satellite":"N","instrument":"VIIRS","version":"2.0NRT","bright_ti4":296.01,"frp":0.61,"daynight":"N"},"geometry":{"type":"Point","coordinates":[-118.79832,34.28931]}},{"type":"Feature","properties":{"acq_date":"2026-09-18","acq_time":949,"confidence":"n","satellite":"N","instrument":"VIIRS","version":"2.0NRT","bright_ti4":304.08,"frp":0.47,"daynight":"N"},"geometry":{"type":"Point","coordinates":[-118.80188,34.29328]}},{"type":"Feature","properties":{"acq_date":"2026-09-18","acq_time":949,"confidence":"n","satellite":"N","instrument":"VIIRS","version":"2.0NRT","bright_ti4":322.34,"frp":2.06,"daynight":"N"},"geometry":{"type":"Point","coordinates":[-118.52107,34.33622]}},{"type":"Feature","properties":{"acq_date":"2026-09-18","acq_time":949,"confidence":"n","satellite":"N","instrument":"VIIRS","version":"2.0NRT","bright_ti4":310.3,"frp":1.43,"daynight":"N"},"geometry":{"type":"Point","coordinates":[-116.85371,34.35387]}},{"type":"Feature","properties":{"acq_date":"2026-09-18","acq_time":949,"confidence":"n","satellite":"N","instrument":"VIIRS","version":"2.0NRT","bright_ti4":297.82,"frp":0.71,"daynight":"N"},"geometry":{"type":"Point","coordinates":[-118.64649,34.43041]}},{"type":"Feature","properties":{"acq_date":"2026-09-18","acq_time":949,"confidence":"n","satellite":"N","instrument":"VIIRS","version":"2.0NRT","bright_ti4":300.36,"frp":0.83,"daynight":"N"},"geometry":{"type":"Point","coordinates":[-118.64575,34.43375]}},{"type":"Feature","properties":{"acq_date":"2026-09-18","acq_time":949,"confidence":"n","satellite":"N","instrument":"VIIRS","version":"2.0NRT","bright_ti4":297.15,"frp":0.47,"daynight":"N"},"geometry":{"type":"Point","coordinates":[-118.15447,34.56694]}},{"type":"Feature","properties":{"acq_date":"2026-09-18","acq_time":949,"confidence":"n","satellite":"N","instrument":"VIIRS","version":"2.0NRT","bright_ti4":304.61,"frp":1.21,"daynight":"N"},"geometry":{"type":"Point","coordinates":[-117.33585,34.60705]}},{"type":"Feature","properties":{"acq_date":"2026-09-18","acq_time":949,"confidence":"n","satellite":"N","instrument":"VIIRS","version":"2.0NRT","bright_ti4":321.83,"frp":2.34,"daynight":"N"},"geometry":{"type":"Point","coordinates":[-117.10004,34.62098]}},{"type":"Feature","properties":{"acq_date":"2026-09-18","acq_time":949,"confidence":"n","satellite":"N","instrument":"VIIRS","version":"2.0NRT","bright_ti4":303.09,"frp":0.76,"daynight":"N"},"geometry":{"type":"Point","coordinates":[-118.75125,34.81979]}},{"type":"Feature","properties":{"acq_date":"2026-09-18","acq_time":949,"confidence":"n","satellite":"N","instrument":"VIIRS","version":"2.0NRT","bright_ti4":307.56,"frp":1.06,"daynight":"N"},"geometry":{"type":"Point","coordinates":[-113.31231,35.51712]}},{"type":"Feature","properties":{"acq_date":"2026-09-18","acq_time":949,"confidence":"n","satellite":"N","instrument":"VIIRS","version":"2.0NRT","bright_ti4":300.49,"frp":1.06,"daynight":"N"},"geometry":{"type":"Point","coordinates":[-113.31717,35.51805]}},{"type":"Feature","properties":{"acq_date":"2026-09-18","acq_time":949,"confidence":"n","satellite":"N","instrument":"VIIRS","version":"2.0NRT","bright_ti4":313.71,"frp":2.03,"daynight":"N"},"geometry":{"type":"Point","coordinates":[-113.31467,35.51873]}},{"type":"Feature","properties":{"acq_date":"2026-09-18","acq_time":949,"confidence":"n","satellite":"N","instrument":"VIIRS","version":"2.0NRT","bright_ti4":311.82,"frp":1.48,"daynight":"N"},"geometry":{"type":"Point","coordinates":[-114.91257,36.35662]}},{"type":"Feature","properties":{"acq_date":"2026-09-18","acq_time":949,"confidence":"n","satellite":"N","instrument":"VIIRS","version":"2.0NRT","bright_ti4":305.51,"frp":0.45,"daynight":"N"},"geometry":{"type":"Point","coordinates":[-114.87827,36.38205]}},{"type":"Feature","properties":{"acq_date":"2026-09-18","acq_time":949,"confidence":"n","satellite":"N","instrument":"VIIRS","version":"2.0NRT","bright_ti4":299.58,"frp":0.59,"daynight":"N"},"geometry":{"type":"Point","coordinates":[-120.19736,37.0255]}},{"type":"Feature","properties":{"acq_date":"2026-09-18","acq_time":949,"confidence":"n","satellite":"N","instrument":"VIIRS","version":"2.0NRT","bright_ti4":295.58,"frp":5.25,"daynight":"N"},"geometry":{"type":"Point","coordinates":[-119.60074,37.56929]}},{"type":"Feature","properties":{"acq_date":"2026-09-18","acq_time":949,"confidence":"n","satellite":"N","instrument":"VIIRS","version":"2.0NRT","bright_ti4":355.86,"frp":8.85,"daynight":"N"},"geometry":{"type":"Point","coordinates":[-119.60586,37.56996]}},{"type":"Feature","properties":{"acq_date":"2026-09-18","acq_time":949,"confidence":"n","satellite":"N","instrument":"VIIRS","version":"2.0NRT","bright_ti4":298.74,"frp":8.85,"daynight":"N"},"geometry":{"type":"Point","coordinates":[-119.6109,37.57062]}},{"type":"Feature","properties":{"acq_date":"2026-09-18","acq_time":949,"confidence":"n","satellite":"N","instrument":"VIIRS","version":"2.0NRT","bright_ti4":295.09,"frp":1.29,"daynight":"N"},"geometry":{"type":"Point","coordinates":[-119.61591,37.57127]}},{"type":"Feature","properties":{"acq_date":"2026-09-18","acq_time":949,"confidence":"n","satellite":"N","instrument":"VIIRS","version":"2.0NRT","bright_ti4":331.45,"frp":8.85,"daynight":"N"},"geometry":{"type":"Point","coordinates":[-119.60494,37.57346]}},{"type":"Feature","properties":{"acq_date":"2026-09-18","acq_time":949,"confidence":"n","satellite":"N","instrument":"VIIRS","version":"2.0NRT","bright_ti4":344.99,"frp":15.47,"daynight":"N"},"geometry":{"type":"Point","coordinates":[-119.59899,37.5763]}},{"type":"Feature","properties":{"acq_date":"2026-09-18","acq_time":949,"confidence":"n","satellite":"N","instrument":"VIIRS","version":"2.0NRT","bright_ti4":300.71,"frp":3.68,"daynight":"N"},"geometry":{"type":"Point","coordinates":[-119.60396,37.57694]}},{"type":"Feature","properties":{"acq_date":"2026-09-18","acq_time":949,"confidence":"n","satellite":"N","instrument":"VIIRS","version":"2.0NRT","bright_ti4":306.54,"frp":1.86,"daynight":"N"},"geometry":{"type":"Point","coordinates":[-119.61899,37.57889]}},{"type":"Feature","properties":{"acq_date":"2026-09-18","acq_time":949,"confidence":"n","satellite":"N","instrument":"VIIRS","version":"2.0NRT","bright_ti4":355.47,"frp":15.47,"daynight":"N"},"geometry":{"type":"Point","coordinates":[-119.59811,37.57979]}},{"type":"Feature","properties":{"acq_date":"2026-09-18","acq_time":949,"confidence":"n","satellite":"N","instrument":"VIIRS","version":"2.0NRT","bright_ti4":309.39,"frp":3.68,"daynight":"N"},"geometry":{"type":"Point","coordinates":[-119.60299,37.58043]}},{"type":"Feature","properties":{"acq_date":"2026-09-18","acq_time":949,"confidence":"n","satellite":"N","instrument":"VIIRS","version":"2.0NRT","bright_ti4":311.53,"frp":1.86,"daynight":"N"},"geometry":{"type":"Point","coordinates":[-119.61806,37.58239]}},{"type":"Feature","properties":{"acq_date":"2026-09-18","acq_time":949,"confidence":"n","satellite":"N","instrument":"VIIRS","version":"2.0NRT","bright_ti4":329.68,"frp":7.63,"daynight":"N"},"geometry":{"type":"Point","coordinates":[-119.59724,37.58329]}},{"type":"Feature","properties":{"acq_date":"2026-09-18","acq_time":949,"confidence":"n","satellite":"N","instrument":"VIIRS","version":"2.0NRT","bright_ti4":315.09,"frp":3.67,"daynight":"N"},"geometry":{"type":"Point","coordinates":[-119.6021,37.58392]}},{"type":"Feature","properties":{"acq_date":"2026-09-18","acq_time":949,"confidence":"n","satellite":"N","instrument":"VIIRS","version":"2.0NRT","bright_ti4":301.72,"frp":1.83,"daynight":"N"},"geometry":{"type":"Point","coordinates":[-119.61714,37.58588]}},{"type":"Feature","properties":{"acq_date":"2026-09-18","acq_time":949,"confidence":"n","satellite":"N","instrument":"VIIRS","version":"2.0NRT","bright_ti4":295.27,"frp":0.89,"daynight":"N"},"geometry":{"type":"Point","coordinates":[-119.6221,37.58653]}},{"type":"Feature","properties":{"acq_date":"2026-09-18","acq_time":949,"confidence":"n","satellite":"N","instrument":"VIIRS","version":"2.0NRT","bright_ti4":341.84,"frp":7.63,"daynight":"N"},"geometry":{"type":"Point","coordinates":[-119.59637,37.58679]}},{"type":"Feature","properties":{"acq_date":"2026-09-18","acq_time":949,"confidence":"n","satellite":"N","instrument":"VIIRS","version":"2.0NRT","bright_ti4":330.76,"frp":3.67,"daynight":"N"},"geometry":{"type":"Point","coordinates":[-119.60122,37.58742]}},{"type":"Feature","properties":{"acq_date":"2026-09-18","acq_time":949,"confidence":"n","satellite":"N","instrument":"VIIRS","version":"2.0NRT","bright_ti4":326.86,"frp":3.67,"daynight":"N"},"geometry":{"type":"Point","coordinates":[-119.60618,37.58807]}},{"type":"Feature","properties":{"acq_date":"2026-09-18","acq_time":949,"confidence":"n","satellite":"N","instrument":"VIIRS","version":"2.0NRT","bright_ti4":303.37,"frp":0.89,"daynight":"N"},"geometry":{"type":"Point","coordinates":[-119.62124,37.59003]}},{"type":"Feature","properties":{"acq_date":"2026-09-18","acq_time":949,"confidence":"n","satellite":"N","instrument":"VIIRS","version":"2.0NRT","bright_ti4":341.15,"frp":12.32,"daynight":"N"},"geometry":{"type":"Point","coordinates":[-119.59559,37.5903]}},{"type":"Feature","properties":{"acq_date":"2026-09-18","acq_time":949,"confidence":"n","satellite":"N","instrument":"VIIRS","version":"2.0NRT","bright_ti4":341.27,"frp":12.92,"daynight":"N"},"geometry":{"type":"Point","coordinates":[-119.60045,37.59093]}},{"type":"Feature","properties":{"acq_date":"2026-09-18","acq_time":949,"confidence":"n","satellite":"N","instrument":"VIIRS","version":"2.0NRT","bright_ti4":333.18,"frp":12.92,"daynight":"N"},"geometry":{"type":"Point","coordinates":[-119.60535,37.59157]}},{"type":"Feature","properties":{"acq_date":"2026-09-18","acq_time":949,"confidence":"n","satellite":"N","instrument":"VIIRS","version":"2.0NRT","bright_ti4":298.19,"frp":1.98,"daynight":"N"},"geometry":{"type":"Point","coordinates":[-119.62038,37.59354]}},{"type":"Feature","properties":{"acq_date":"2026-09-18","acq_time":949,"confidence":"n","satellite":"N","instrument":"VIIRS","version":"2.0NRT","bright_ti4":323.54,"frp":1.98,"daynight":"N"},"geometry":{"type":"Point","coordinates":[-119.62554,37.5942]}},{"type":"Feature","properties":{"acq_date":"2026-09-18","acq_time":949,"confidence":"n","satellite":"N","instrument":"VIIRS","version":"2.0NRT","bright_ti4":356.44,"frp":12.92,"daynight":"N"},"geometry":{"type":"Point","coordinates":[-119.59972,37.59445]}},{"type":"Feature","properties":{"acq_date":"2026-09-18","acq_time":949,"confidence":"n","satellite":"N","instrument":"VIIRS","version":"2.0NRT","bright_ti4":334.2,"frp":12.92,"daynight":"N"},"geometry":{"type":"Point","coordinates":[-119.60461,37.59509]}},{"type":"Feature","properties":{"acq_date":"2026-09-18","acq_time":949,"confidence":"n","satellite":"N","instrument":"VIIRS","version":"2.0NRT","bright_ti4":303.72,"frp":1.97,"daynight":"N"},"geometry":{"type":"Point","coordinates":[-119.60957,37.59574]}},{"type":"Feature","properties":{"acq_date":"2026-09-18","acq_time":949,"confidence":"n","satellite":"N","instrument":"VIIRS","version":"2.0NRT","bright_ti4":295.21,"frp":1.98,"daynight":"N"},"geometry":{"type":"Point","coordinates":[-119.6197,37.59706]}},{"type":"Feature","properties":{"acq_date":"2026-09-18","acq_time":949,"confidence":"n","satellite":"N","instrument":"VIIRS","version":"2.0NRT","bright_ti4":343.71,"frp":13.45,"daynight":"N"},"geometry":{"type":"Point","coordinates":[-119.59396,37.59731]}},{"type":"Feature","properties":{"acq_date":"2026-09-18","acq_time":949,"confidence":"n","satellite":"N","instrument":"VIIRS","version":"2.0NRT","bright_ti4":333.91,"frp":1.98,"daynight":"N"},"geometry":{"type":"Point","coordinates":[-119.62498,37.59775]}},{"type":"Feature","properties":{"acq_date":"2026-09-18","acq_time":949,"confidence":"n","satellite":"N","instrument":"VIIRS","version":"2.0NRT","bright_ti4":296.79,"frp":6.17,"daynight":"N"},"geometry":{"type":"Point","coordinates":[-119.59895,37.59796]}},{"type":"Feature","properties":{"acq_date":"2026-09-18","acq_time":949,"confidence":"n","satellite":"N","instrument":"VIIRS","version":"2.0NRT","bright_ti4":305.65,"frp":2.29,"daynight":"N"},"geometry":{"type":"Point","coordinates":[-119.63038,37.59846]}},{"type":"Feature","properties":{"acq_date":"2026-09-18","acq_time":949,"confidence":"n","satellite":"N","instrument":"VIIRS","version":"2.0NRT","bright_ti4":351.39,"frp":6.17,"daynight":"N"},"geometry":{"type":"Point","coordinates":[-119.6039,37.59861]}},{"type":"Feature","properties":{"acq_date":"2026-09-18","acq_time":949,"confidence":"n","satellite":"N","instrument":"VIIRS","version":"2.0NRT","bright_ti4":347.09,"frp":12.15,"daynight":"N"},"geometry":{"type":"Point","coordinates":[-119.60893,37.59927]}},{"type":"Feature","properties":{"acq_date":"2026-09-18","acq_time":949,"confidence":"n","satellite":"N","instrument":"VIIRS","version":"2.0NRT","bright_ti4":320.91,"frp":12.15,"daynight":"N"},"geometry":{"type":"Point","coordinates":[-119.61404,37.59994]}},{"type":"Feature","properties":{"acq_date":"2026-09-18","acq_time":949,"confidence":"n","satellite":"N","instrument":"VIIRS","version":"2.0NRT","bright_ti4":301,"frp":1.79,"daynight":"N"},"geometry":{"type":"Point","coordinates":[-119.61929,37.60062]}},{"type":"Feature","properties":{"acq_date":"2026-09-18","acq_time":949,"confidence":"n","satellite":"N","instrument":"VIIRS","version":"2.0NRT","bright_ti4":355.02,"frp":13.45,"daynight":"N"},"geometry":{"type":"Point","coordinates":[-119.59303,37.6008]}},{"type":"Feature","properties":{"acq_date":"2026-09-18","acq_time":949,"confidence":"n","satellite":"N","instrument":"VIIRS","version":"2.0NRT","bright_ti4":310.65,"frp":1.79,"daynight":"N"},"geometry":{"type":"Point","coordinates":[-119.6246,37.60133]}},{"type":"Feature","properties":{"acq_date":"2026-09-18","acq_time":949,"confidence":"n","satellite":"N","instrument":"VIIRS","version":"2.0NRT","bright_ti4":317.97,"frp":6.17,"daynight":"N"},"geometry":{"type":"Point","coordinates":[-119.5981,37.60146]}},{"type":"Feature","properties":{"acq_date":"2026-09-18","acq_time":949,"confidence":"n","satellite":"N","instrument":"VIIRS","version":"2.0NRT","bright_ti4":336.59,"frp":12.15,"daynight":"N"},"geometry":{"type":"Point","coordinates":[-119.60831,37.6028]}},{"type":"Feature","properties":{"acq_date":"2026-09-18","acq_time":949,"confidence":"n","satellite":"N","instrument":"VIIRS","version":"2.0NRT","bright_ti4":352.13,"frp":12.15,"daynight":"N"},"geometry":{"type":"Point","coordinates":[-119.61348,37.60348]}},{"type":"Feature","properties":{"acq_date":"2026-09-18","acq_time":949,"confidence":"n","satellite":"N","instrument":"VIIRS","version":"2.0NRT","bright_ti4":340.1,"frp":4.81,"daynight":"N"},"geometry":{"type":"Point","coordinates":[-119.59052,37.60369]}},{"type":"Feature","properties":{"acq_date":"2026-09-18","acq_time":949,"confidence":"n","satellite":"N","instrument":"VIIRS","version":"2.0NRT","bright_ti4":319.08,"frp":1.79,"daynight":"N"},"geometry":{"type":"Point","coordinates":[-119.61881,37.60418]}},{"type":"Feature","properties":{"acq_date":"2026-09-18","acq_time":949,"confidence":"n","satellite":"N","instrument":"VIIRS","version":"2.0NRT","bright_ti4":347.61,"frp":6.16,"daynight":"N"},"geometry":{"type":"Point","coordinates":[-119.59215,37.60429]}},{"type":"Feature","properties":{"acq_date":"2026-09-18","acq_time":949,"confidence":"n","satellite":"N","instrument":"VIIRS","version":"2.0NRT","bright_ti4":334.55,"frp":4.81,"daynight":"N"},"geometry":{"type":"Point","coordinates":[-119.59561,37.60434]}},{"type":"Feature","properties":{"acq_date":"2026-09-18","acq_time":949,"confidence":"n","satellite":"N","instrument":"VIIRS","version":"2.0NRT","bright_ti4":319.43,"frp":1.79,"daynight":"N"},"geometry":{"type":"Point","coordinates":[-119.62417,37.60489]}},{"type":"Feature","properties":{"acq_date":"2026-09-18","acq_time":949,"confidence":"n","satellite":"N","instrument":"VIIRS","version":"2.0NRT","bright_ti4":327.27,"frp":5.83,"daynight":"N"},"geometry":{"type":"Point","coordinates":[-119.59725,37.60496]}},{"type":"Feature","properties":{"acq_date":"2026-09-18","acq_time":949,"confidence":"n","satellite":"N","instrument":"VIIRS","version":"2.0NRT","bright_ti4":353.36,"frp":10.62,"daynight":"N"},"geometry":{"type":"Point","coordinates":[-119.61115,37.60629]}},{"type":"Feature","properties":{"acq_date":"2026-09-18","acq_time":949,"confidence":"n","satellite":"N","instrument":"VIIRS","version":"2.0NRT","bright_ti4":328.27,"frp":13.54,"daynight":"N"},"geometry":{"type":"Point","coordinates":[-119.6076,37.60632]}},{"type":"Feature","properties":{"acq_date":"2026-09-18","acq_time":949,"confidence":"n","satellite":"N","instrument":"VIIRS","version":"2.0NRT","bright_ti4":324.08,"frp":10.62,"daynight":"N"},"geometry":{"type":"Point","coordinates":[-119.61646,37.60696]}},{"type":"Feature","properties":{"acq_date":"2026-09-18","acq_time":949,"confidence":"n","satellite":"N","instrument":"VIIRS","version":"2.0NRT","bright_ti4":341.92,"frp":13.54,"daynight":"N"},"geometry":{"type":"Point","coordinates":[-119.61282,37.60701]}},{"type":"Feature","properties":{"acq_date":"2026-09-18","acq_time":949,"confidence":"n","satellite":"N","instrument":"VIIRS","version":"2.0NRT","bright_ti4":326.85,"frp":4.81,"daynight":"N"},"geometry":{"type":"Point","coordinates":[-119.5898,37.6072]}},{"type":"Feature","properties":{"acq_date":"2026-09-18","acq_time":949,"confidence":"n","satellite":"N","instrument":"VIIRS","version":"2.0NRT","bright_ti4":329.41,"frp":4.39,"daynight":"N"},"geometry":{"type":"Point","coordinates":[-119.62184,37.60764]}},{"type":"Feature","properties":{"acq_date":"2026-09-18","acq_time":949,"confidence":"n","satellite":"N","instrument":"VIIRS","version":"2.0NRT","bright_ti4":326.68,"frp":4.34,"daynight":"N"},"geometry":{"type":"Point","coordinates":[-119.61817,37.60772]}},{"type":"Feature","properties":{"acq_date":"2026-09-18","acq_time":949,"confidence":"n","satellite":"N","instrument":"VIIRS","version":"2.0NRT","bright_ti4":322.93,"frp":6.16,"daynight":"N"},"geometry":{"type":"Point","coordinates":[-119.59145,37.60781]}},{"type":"Feature","properties":{"acq_date":"2026-09-18","acq_time":949,"confidence":"n","satellite":"N","instrument":"VIIRS","version":"2.0NRT","bright_ti4":303.65,"frp":4.81,"daynight":"N"},"geometry":{"type":"Point","coordinates":[-119.59486,37.60785]}},{"type":"Feature","properties":{"acq_date":"2026-09-18","acq_time":949,"confidence":"n","satellite":"N","instrument":"VIIRS","version":"2.0NRT","bright_ti4":317.42,"frp":4.34,"daynight":"N"},"geometry":{"type":"Point","coordinates":[-119.62352,37.60842]}},{"type":"Feature","properties":{"acq_date":"2026-09-18","acq_time":949,"confidence":"n","satellite":"N","instrument":"VIIRS","version":"2.0NRT","bright_ti4":319.85,"frp":10.62,"daynight":"N"},"geometry":{"type":"Point","coordinates":[-119.6104,37.60981]}},{"type":"Feature","properties":{"acq_date":"2026-09-18","acq_time":949,"confidence":"n","satellite":"N","instrument":"VIIRS","version":"2.0NRT","bright_ti4":340.28,"frp":10.62,"daynight":"N"},"geometry":{"type":"Point","coordinates":[-119.61575,37.61049]}},{"type":"Feature","properties":{"acq_date":"2026-09-18","acq_time":949,"confidence":"n","satellite":"N","instrument":"VIIRS","version":"2.0NRT","bright_ti4":345.2,"frp":13.54,"daynight":"N"},"geometry":{"type":"Point","coordinates":[-119.61209,37.61053]}},{"type":"Feature","properties":{"acq_date":"2026-09-18","acq_time":949,"confidence":"n","satellite":"N","instrument":"VIIRS","version":"2.0NRT","bright_ti4":331.77,"frp":4.39,"daynight":"N"},"geometry":{"type":"Point","coordinates":[-119.62116,37.61116]}},{"type":"Feature","properties":{"acq_date":"2026-09-18","acq_time":949,"confidence":"n","satellite":"N","instrument":"VIIRS","version":"2.0NRT","bright_ti4":332.6,"frp":4.34,"daynight":"N"},"geometry":{"type":"Point","coordinates":[-119.61747,37.61124]}},{"type":"Feature","properties":{"acq_date":"2026-09-18","acq_time":949,"confidence":"n","satellite":"N","instrument":"VIIRS","version":"2.0NRT","bright_ti4":323.38,"frp":4.34,"daynight":"N"},"geometry":{"type":"Point","coordinates":[-119.62284,37.61195]}},{"type":"Feature","properties":{"acq_date":"2026-09-18","acq_time":949,"confidence":"n","satellite":"N","instrument":"VIIRS","version":"2.0NRT","bright_ti4":330.29,"frp":67.95,"daynight":"N"},"geometry":{"type":"Point","coordinates":[-119.60966,37.61333]}},{"type":"Feature","properties":{"acq_date":"2026-09-18","acq_time":949,"confidence":"n","satellite":"N","instrument":"VIIRS","version":"2.0NRT","bright_ti4":353.82,"frp":67.95,"daynight":"N"},"geometry":{"type":"Point","coordinates":[-119.615,37.614]}},{"type":"Feature","properties":{"acq_date":"2026-09-18","acq_time":949,"confidence":"n","satellite":"N","instrument":"VIIRS","version":"2.0NRT","bright_ti4":331.98,"frp":12.22,"daynight":"N"},"geometry":{"type":"Point","coordinates":[-119.62038,37.61468]}},{"type":"Feature","properties":{"acq_date":"2026-09-18","acq_time":949,"confidence":"n","satellite":"N","instrument":"VIIRS","version":"2.0NRT","bright_ti4":327.57,"frp":8.33,"daynight":"N"},"geometry":{"type":"Point","coordinates":[-119.60383,37.6162]}},{"type":"Feature","properties":{"acq_date":"2026-09-18","acq_time":949,"confidence":"n","satellite":"N","instrument":"VIIRS","version":"2.0NRT","bright_ti4":334.8,"frp":67.95,"daynight":"N"},"geometry":{"type":"Point","coordinates":[-119.609,37.61686]}},{"type":"Feature","properties":{"acq_date":"2026-09-18","acq_time":949,"confidence":"n","satellite":"N","instrument":"VIIRS","version":"2.0NRT","bright_ti4":340.59,"frp":67.95,"daynight":"N"},"geometry":{"type":"Point","coordinates":[-119.61422,37.61752]}},{"type":"Feature","properties":{"acq_date":"2026-09-18","acq_time":949,"confidence":"n","satellite":"N","instrument":"VIIRS","version":"2.0NRT","bright_ti4":310.34,"frp":2.85,"daynight":"N"},"geometry":{"type":"Point","coordinates":[-119.60329,37.61975]}},{"type":"Feature","properties":{"acq_date":"2026-09-18","acq_time":949,"confidence":"n","satellite":"N","instrument":"VIIRS","version":"2.0NRT","bright_ti4":355.67,"frp":7.03,"daynight":"N"},"geometry":{"type":"Point","coordinates":[-119.60838,37.62039]}},{"type":"Feature","properties":{"acq_date":"2026-09-18","acq_time":949,"confidence":"n","satellite":"N","instrument":"VIIRS","version":"2.0NRT","bright_ti4":328.8,"frp":7.03,"daynight":"N"},"geometry":{"type":"Point","coordinates":[-119.61348,37.62104]}},{"type":"Feature","properties":{"acq_date":"2026-09-18","acq_time":949,"confidence":"n","satellite":"N","instrument":"VIIRS","version":"2.0NRT","bright_ti4":316.26,"frp":7.03,"daynight":"N"},"geometry":{"type":"Point","coordinates":[-119.60774,37.62392]}},{"type":"Feature","properties":{"acq_date":"2026-09-18","acq_time":949,"confidence":"n","satellite":"N","instrument":"VIIRS","version":"2.0NRT","bright_ti4":305.8,"frp":0.98,"daynight":"N"},"geometry":{"type":"Point","coordinates":[-121.18587,37.88294]}},{"type":"Feature","properties":{"acq_date":"2026-09-18","acq_time":949,"confidence":"n","satellite":"N","instrument":"VIIRS","version":"2.0NRT","bright_ti4":299.23,"frp":1.71,"daynight":"N"},"geometry":{"type":"Point","coordinates":[-122.11389,38.01511]}},{"type":"Feature","properties":{"acq_date":"2026-09-18","acq_time":949,"confidence":"n","satellite":"N","instrument":"VIIRS","version":"2.0NRT","bright_ti4":296.98,"frp":0.72,"daynight":"N"},"geometry":{"type":"Point","coordinates":[-121.67249,39.09906]}},{"type":"Feature","properties":{"acq_date":"2026-09-18","acq_time":949,"confidence":"n","satellite":"N","instrument":"VIIRS","version":"2.0NRT","bright_ti4":295.15,"frp":0.7,"daynight":"N"},"geometry":{"type":"Point","coordinates":[-121.67186,39.20615]}}]}