{"type":"FeatureCollection","name":"FIRMS VIIRS CA (last 1 day)","crs":{"type":"name","properties":{"name":"EPSG:4326"}},"fetched_at_utc":"2026-09-01T17:43:09.617Z","source":{"url":"https://firms.modaps.eosdis.nasa.gov/api/area/csv/8c4af552cf654445dd280dfb3ad9337c/VIIRS_SNPP_NRT/-125,32,-113,43.5/1","dataset":"VIIRS_SNPP_NRT","bbox":"-125,32,-113,43.5","day_range":"1"},"features":[{"type":"Feature","properties":{"acq_date":"2026-09-01","acq_time":1006,"confidence":"n","satellite":"N","instrument":"VIIRS","version":"2.0NRT","bright_ti4":295.9,"frp":1.02,"daynight":"N"},"geometry":{"type":"Point","coordinates":[-114.25331,40.81966]}},{"type":"Feature","properties":{"acq_date":"2026-09-01","acq_time":1006,"confidence":"n","satellite":"N","instrument":"VIIRS","version":"2.0NRT","bright_ti4":296.07,"frp":1.02,"daynight":"N"},"geometry":{"type":"Point","coordinates":[-114.2599,40.82104]}},{"type":"Feature","properties":{"acq_date":"2026-09-01","acq_time":1006,"confidence":"n","satellite":"N","instrument":"VIIRS","version":"2.0NRT","bright_ti4":295.97,"frp":1.31,"daynight":"N"},"geometry":{"type":"Point","coordinates":[-114.25819,40.82472]}},{"type":"Feature","properties":{"acq_date":"2026-09-01","acq_time":1006,"confidence":"n","satellite":"N","instrument":"VIIRS","version":"2.0NRT","bright_ti4":328.52,"frp":2.04,"daynight":"N"},"geometry":{"type":"Point","coordinates":[-117.68823,41.56519]}},{"type":"Feature","properties":{"acq_date":"2026-09-01","acq_time":1006,"confidence":"n","satellite":"N","instrument":"VIIRS","version":"2.0NRT","bright_ti4":323.11,"frp":2.13,"daynight":"N"},"geometry":{"type":"Point","coordinates":[-117.69282,41.56601]}},{"type":"Feature","properties":{"acq_date":"2026-09-01","acq_time":1006,"confidence":"n","satellite":"N","instrument":"VIIRS","version":"2.0NRT","bright_ti4":298.94,"frp":1.18,"daynight":"N"},"geometry":{"type":"Point","coordinates":[-117.70194,41.56762]}},{"type":"Feature","properties":{"acq_date":"2026-09-01","acq_time":1006,"confidence":"n","satellite":"N","instrument":"VIIRS","version":"2.0NRT","bright_ti4":315.58,"frp":2.04,"daynight":"N"},"geometry":{"type":"Point","coordinates":[-117.68725,41.56852]}},{"type":"Feature","properties":{"acq_date":"2026-09-01","acq_time":1006,"confidence":"n","satellite":"N","instrument":"VIIRS","version":"2.0NRT","bright_ti4":299.29,"frp":2.13,"daynight":"N"},"geometry":{"type":"Point","coordinates":[-117.69178,41.56932]}},{"type":"Feature","properties":{"acq_date":"2026-09-01","acq_time":1006,"confidence":"n","satellite":"N","instrument":"VIIRS","version":"2.0NRT","bright_ti4":305.93,"frp":1.15,"daynight":"N"},"geometry":{"type":"Point","coordinates":[-117.68633,41.57187]}},{"type":"Feature","properties":{"acq_date":"2026-09-01","acq_time":1006,"confidence":"n","satellite":"N","instrument":"VIIRS","version":"2.0NRT","bright_ti4":301.27,"frp":0.87,"daynight":"N"},"geometry":{"type":"Point","coordinates":[-117.69701,41.58429]}},{"type":"Feature","properties":{"acq_date":"2026-09-01","acq_time":1006,"confidence":"n","satellite":"N","instrument":"VIIRS","version":"2.0NRT","bright_ti4":300.46,"frp":0.38,"daynight":"N"},"geometry":{"type":"Point","coordinates":[-122.7738,42.38384]}},{"type":"Feature","properties":{"acq_date":"2026-09-01","acq_time":1006,"confidence":"n","satellite":"N","instrument":"VIIRS","version":"2.0NRT","bright_ti4":301.45,"frp":1.32,"daynight":"N"},"geometry":{"type":"Point","coordinates":[-121.67245,42.4216]}},{"type":"Feature","properties":{"acq_date":"2026-09-01","acq_time":1006,"confidence":"n","satellite":"N","instrument":"VIIRS","version":"2.0NRT","bright_ti4":309.54,"frp":0.7,"daynight":"N"},"geometry":{"type":"Point","coordinates":[-115.6685,43.14862]}},{"type":"Feature","properties":{"acq_date":"2026-09-01","acq_time":1006,"confidence":"n","satellite":"N","instrument":"VIIRS","version":"2.0NRT","bright_ti4":313.32,"frp":1.19,"daynight":"N"},"geometry":{"type":"Point","coordinates":[-115.73299,43.17983]}},{"type":"Feature","properties":{"acq_date":"2026-09-01","acq_time":1009,"confidence":"n","satellite":"N","instrument":"VIIRS","version":"2.0NRT","bright_ti4":305.74,"frp":0.77,"daynight":"N"},"geometry":{"type":"Point","coordinates":[-118.23653,33.77805]}},{"type":"Feature","properties":{"acq_date":"2026-09-01","acq_time":1009,"confidence":"n","satellite":"N","instrument":"VIIRS","version":"2.0NRT","bright_ti4":299.73,"frp":0.86,"daynight":"N"},"geometry":{"type":"Point","coordinates":[-117.47224,33.7921]}},{"type":"Feature","properties":{"acq_date":"2026-09-01","acq_time":1009,"confidence":"n","satellite":"N","instrument":"VIIRS","version":"2.0NRT","bright_ti4":303.79,"frp":0.81,"daynight":"N"},"geometry":{"type":"Point","coordinates":[-117.4776,33.79315]}},{"type":"Feature","properties":{"acq_date":"2026-09-01","acq_time":1009,"confidence":"n","satellite":"N","instrument":"VIIRS","version":"2.0NRT","bright_ti4":303.57,"frp":0.94,"daynight":"N"},"geometry":{"type":"Point","coordinates":[-118.22765,33.81038]}},{"type":"Feature","properties":{"acq_date":"2026-09-01","acq_time":1009,"confidence":"n","satellite":"N","instrument":"VIIRS","version":"2.0NRT","bright_ti4":306.3,"frp":2.01,"daynight":"N"},"geometry":{"type":"Point","coordinates":[-118.23267,33.81134]}},{"type":"Feature","properties":{"acq_date":"2026-09-01","acq_time":1009,"confidence":"n","satellite":"N","instrument":"VIIRS","version":"2.0NRT","bright_ti4":306.51,"frp":1.25,"daynight":"N"},"geometry":{"type":"Point","coordinates":[-118.33153,33.85282]}},{"type":"Feature","properties":{"acq_date":"2026-09-01","acq_time":1009,"confidence":"n","satellite":"N","instrument":"VIIRS","version":"2.0NRT","bright_ti4":304.74,"frp":0.62,"daynight":"N"},"geometry":{"type":"Point","coordinates":[-118.10341,34.03609]}},{"type":"Feature","properties":{"acq_date":"2026-09-01","acq_time":1009,"confidence":"n","satellite":"N","instrument":"VIIRS","version":"2.0NRT","bright_ti4":300.52,"frp":0.27,"daynight":"N"},"geometry":{"type":"Point","coordinates":[-117.82088,34.04132]}},{"type":"Feature","properties":{"acq_date":"2026-09-01","acq_time":1009,"confidence":"n","satellite":"N","instrument":"VIIRS","version":"2.0NRT","bright_ti4":302.28,"frp":0.7,"daynight":"N"},"geometry":{"type":"Point","coordinates":[-117.92467,34.11503]}},{"type":"Feature","properties":{"acq_date":"2026-09-01","acq_time":1009,"confidence":"n","satellite":"N","instrument":"VIIRS","version":"2.0NRT","bright_ti4":299.9,"frp":0.79,"daynight":"N"},"geometry":{"type":"Point","coordinates":[-118.19279,34.15118]}},{"type":"Feature","properties":{"acq_date":"2026-09-01","acq_time":1009,"confidence":"n","satellite":"N","instrument":"VIIRS","version":"2.0NRT","bright_ti4":305.92,"frp":0.79,"daynight":"N"},"geometry":{"type":"Point","coordinates":[-118.19201,34.15479]}},{"type":"Feature","properties":{"acq_date":"2026-09-01","acq_time":1009,"confidence":"n","satellite":"N","instrument":"VIIRS","version":"2.0NRT","bright_ti4":298.31,"frp":0.93,"daynight":"N"},"geometry":{"type":"Point","coordinates":[-118.80257,34.29143]}},{"type":"Feature","properties":{"acq_date":"2026-09-01","acq_time":1009,"confidence":"n","satellite":"N","instrument":"VIIRS","version":"2.0NRT","bright_ti4":319.67,"frp":2.07,"daynight":"N"},"geometry":{"type":"Point","coordinates":[-118.51892,34.33373]}},{"type":"Feature","properties":{"acq_date":"2026-09-01","acq_time":1009,"confidence":"n","satellite":"N","instrument":"VIIRS","version":"2.0NRT","bright_ti4":316.33,"frp":1.38,"daynight":"N"},"geometry":{"type":"Point","coordinates":[-118.64652,34.43001]}},{"type":"Feature","properties":{"acq_date":"2026-09-01","acq_time":1009,"confidence":"n","satellite":"N","instrument":"VIIRS","version":"2.0NRT","bright_ti4":298.42,"frp":0.29,"daynight":"N"},"geometry":{"type":"Point","coordinates":[-118.15079,34.56656]}},{"type":"Feature","properties":{"acq_date":"2026-09-01","acq_time":1009,"confidence":"n","satellite":"N","instrument":"VIIRS","version":"2.0NRT","bright_ti4":317.76,"frp":2.62,"daynight":"N"},"geometry":{"type":"Point","coordinates":[-117.3362,34.60831]}},{"type":"Feature","properties":{"acq_date":"2026-09-01","acq_time":1009,"confidence":"n","satellite":"N","instrument":"VIIRS","version":"2.0NRT","bright_ti4":312.36,"frp":1.92,"daynight":"N"},"geometry":{"type":"Point","coordinates":[-117.09967,34.62011]}},{"type":"Feature","properties":{"acq_date":"2026-09-01","acq_time":1009,"confidence":"n","satellite":"N","instrument":"VIIRS","version":"2.0NRT","bright_ti4":296.51,"frp":0.83,"daynight":"N"},"geometry":{"type":"Point","coordinates":[-118.3685,35.12276]}},{"type":"Feature","properties":{"acq_date":"2026-09-01","acq_time":1009,"confidence":"n","satellite":"N","instrument":"VIIRS","version":"2.0NRT","bright_ti4":314.45,"frp":0.88,"daynight":"N"},"geometry":{"type":"Point","coordinates":[-119.47905,35.27407]}},{"type":"Feature","properties":{"acq_date":"2026-09-01","acq_time":1009,"confidence":"n","satellite":"N","instrument":"VIIRS","version":"2.0NRT","bright_ti4":299.54,"frp":0.86,"daynight":"N"},"geometry":{"type":"Point","coordinates":[-113.3126,35.51506]}},{"type":"Feature","properties":{"acq_date":"2026-09-01","acq_time":1009,"confidence":"n","satellite":"N","instrument":"VIIRS","version":"2.0NRT","bright_ti4":296.02,"frp":0.4,"daynight":"N"},"geometry":{"type":"Point","coordinates":[-121.33829,35.86068]}},{"type":"Feature","properties":{"acq_date":"2026-09-01","acq_time":1009,"confidence":"n","satellite":"N","instrument":"VIIRS","version":"2.0NRT","bright_ti4":327.37,"frp":2.07,"daynight":"N"},"geometry":{"type":"Point","coordinates":[-121.32402,35.8652]}},{"type":"Feature","properties":{"acq_date":"2026-09-01","acq_time":1009,"confidence":"n","satellite":"N","instrument":"VIIRS","version":"2.0NRT","bright_ti4":316.23,"frp":2.69,"daynight":"N"},"geometry":{"type":"Point","coordinates":[-121.32825,35.86589]}},{"type":"Feature","properties":{"acq_date":"2026-09-01","acq_time":1009,"confidence":"n","satellite":"N","instrument":"VIIRS","version":"2.0NRT","bright_ti4":303.02,"frp":1.17,"daynight":"N"},"geometry":{"type":"Point","coordinates":[-121.33084,35.87312]}},{"type":"Feature","properties":{"acq_date":"2026-09-01","acq_time":1009,"confidence":"n","satellite":"N","instrument":"VIIRS","version":"2.0NRT","bright_ti4":301.65,"frp":0.9,"daynight":"N"},"geometry":{"type":"Point","coordinates":[-121.37885,35.87401]}},{"type":"Feature","properties":{"acq_date":"2026-09-01","acq_time":1009,"confidence":"n","satellite":"N","instrument":"VIIRS","version":"2.0NRT","bright_ti4":310.19,"frp":1.43,"daynight":"N"},"geometry":{"type":"Point","coordinates":[-121.38725,35.87535]}},{"type":"Feature","properties":{"acq_date":"2026-09-01","acq_time":1009,"confidence":"n","satellite":"N","instrument":"VIIRS","version":"2.0NRT","bright_ti4":320.42,"frp":1.43,"daynight":"N"},"geometry":{"type":"Point","coordinates":[-121.39148,35.87603]}},{"type":"Feature","properties":{"acq_date":"2026-09-01","acq_time":1009,"confidence":"n","satellite":"N","instrument":"VIIRS","version":"2.0NRT","bright_ti4":327.9,"frp":6.93,"daynight":"N"},"geometry":{"type":"Point","coordinates":[-121.42017,35.88403]}},{"type":"Feature","properties":{"acq_date":"2026-09-01","acq_time":1009,"confidence":"n","satellite":"N","instrument":"VIIRS","version":"2.0NRT","bright_ti4":344.62,"frp":6.93,"daynight":"N"},"geometry":{"type":"Point","coordinates":[-121.42439,35.8847]}},{"type":"Feature","properties":{"acq_date":"2026-09-01","acq_time":1009,"confidence":"n","satellite":"N","instrument":"VIIRS","version":"2.0NRT","bright_ti4":309.53,"frp":1.25,"daynight":"N"},"geometry":{"type":"Point","coordinates":[-121.41097,35.88597]}},{"type":"Feature","properties":{"acq_date":"2026-09-01","acq_time":1009,"confidence":"n","satellite":"N","instrument":"VIIRS","version":"2.0NRT","bright_ti4":310.43,"frp":1.25,"daynight":"N"},"geometry":{"type":"Point","coordinates":[-121.41518,35.88664]}},{"type":"Feature","properties":{"acq_date":"2026-09-01","acq_time":1009,"confidence":"n","satellite":"N","instrument":"VIIRS","version":"2.0NRT","bright_ti4":355.56,"frp":6.93,"daynight":"N"},"geometry":{"type":"Point","coordinates":[-121.41937,35.88732]}},{"type":"Feature","properties":{"acq_date":"2026-09-01","acq_time":1009,"confidence":"n","satellite":"N","instrument":"VIIRS","version":"2.0NRT","bright_ti4":353.09,"frp":6.93,"daynight":"N"},"geometry":{"type":"Point","coordinates":[-121.42357,35.88799]}},{"type":"Feature","properties":{"acq_date":"2026-09-01","acq_time":1009,"confidence":"n","satellite":"N","instrument":"VIIRS","version":"2.0NRT","bright_ti4":307.92,"frp":1,"daynight":"N"},"geometry":{"type":"Point","coordinates":[-121.40596,35.88858]}},{"type":"Feature","properties":{"acq_date":"2026-09-01","acq_time":1009,"confidence":"n","satellite":"N","instrument":"VIIRS","version":"2.0NRT","bright_ti4":345.65,"frp":10.61,"daynight":"N"},"geometry":{"type":"Point","coordinates":[-121.42777,35.88866]}},{"type":"Feature","properties":{"acq_date":"2026-09-01","acq_time":1009,"confidence":"n","satellite":"N","instrument":"VIIRS","version":"2.0NRT","bright_ti4":318.26,"frp":2.36,"daynight":"N"},"geometry":{"type":"Point","coordinates":[-121.41016,35.88926]}},{"type":"Feature","properties":{"acq_date":"2026-09-01","acq_time":1009,"confidence":"n","satellite":"N","instrument":"VIIRS","version":"2.0NRT","bright_ti4":336.25,"frp":2.36,"daynight":"N"},"geometry":{"type":"Point","coordinates":[-121.41438,35.88993]}},{"type":"Feature","properties":{"acq_date":"2026-09-01","acq_time":1009,"confidence":"n","satellite":"N","instrument":"VIIRS","version":"2.0NRT","bright_ti4":340.27,"frp":7.35,"daynight":"N"},"geometry":{"type":"Point","coordinates":[-121.41856,35.89059]}},{"type":"Feature","properties":{"acq_date":"2026-09-01","acq_time":1009,"confidence":"n","satellite":"N","instrument":"VIIRS","version":"2.0NRT","bright_ti4":307.16,"frp":1,"daynight":"N"},"geometry":{"type":"Point","coordinates":[-121.40515,35.89186]}},{"type":"Feature","properties":{"acq_date":"2026-09-01","acq_time":1009,"confidence":"n","satellite":"N","instrument":"VIIRS","version":"2.0NRT","bright_ti4":302.56,"frp":0.63,"daynight":"N"},"geometry":{"type":"Point","coordinates":[-121.42696,35.89193]}},{"type":"Feature","properties":{"acq_date":"2026-09-01","acq_time":1009,"confidence":"n","satellite":"N","instrument":"VIIRS","version":"2.0NRT","bright_ti4":322.07,"frp":2.36,"daynight":"N"},"geometry":{"type":"Point","coordinates":[-121.40936,35.89254]}},{"type":"Feature","properties":{"acq_date":"2026-09-01","acq_time":1009,"confidence":"n","satellite":"N","instrument":"VIIRS","version":"2.0NRT","bright_ti4":303.84,"frp":1.18,"daynight":"N"},"geometry":{"type":"Point","coordinates":[-121.40854,35.89582]}},{"type":"Feature","properties":{"acq_date":"2026-09-01","acq_time":1009,"confidence":"n","satellite":"N","instrument":"VIIRS","version":"2.0NRT","bright_ti4":315.86,"frp":1.18,"daynight":"N"},"geometry":{"type":"Point","coordinates":[-121.41274,35.89649]}},{"type":"Feature","properties":{"acq_date":"2026-09-01","acq_time":1009,"confidence":"n","satellite":"N","instrument":"VIIRS","version":"2.0NRT","bright_ti4":305.45,"frp":1.18,"daynight":"N"},"geometry":{"type":"Point","coordinates":[-121.40773,35.8991]}},{"type":"Feature","properties":{"acq_date":"2026-09-01","acq_time":1009,"confidence":"n","satellite":"N","instrument":"VIIRS","version":"2.0NRT","bright_ti4":312.87,"frp":1.18,"daynight":"N"},"geometry":{"type":"Point","coordinates":[-121.41194,35.89977]}},{"type":"Feature","properties":{"acq_date":"2026-09-01","acq_time":1009,"confidence":"n","satellite":"N","instrument":"VIIRS","version":"2.0NRT","bright_ti4":333.28,"frp":3.48,"daynight":"N"},"geometry":{"type":"Point","coordinates":[-121.40693,35.90238]}},{"type":"Feature","properties":{"acq_date":"2026-09-01","acq_time":1009,"confidence":"n","satellite":"N","instrument":"VIIRS","version":"2.0NRT","bright_ti4":297.55,"frp":0.48,"daynight":"N"},"geometry":{"type":"Point","coordinates":[-121.46695,35.92562]}},{"type":"Feature","properties":{"acq_date":"2026-09-01","acq_time":1009,"confidence":"n","satellite":"N","instrument":"VIIRS","version":"2.0NRT","bright_ti4":297.32,"frp":0.48,"daynight":"N"},"geometry":{"type":"Point","coordinates":[-121.46617,35.9289]}},{"type":"Feature","properties":{"acq_date":"2026-09-01","acq_time":1009,"confidence":"n","satellite":"N","instrument":"VIIRS","version":"2.0NRT","bright_ti4":321.25,"frp":1.31,"daynight":"N"},"geometry":{"type":"Point","coordinates":[-121.46538,35.93219]}},{"type":"Feature","properties":{"acq_date":"2026-09-01","acq_time":1009,"confidence":"n","satellite":"N","instrument":"VIIRS","version":"2.0NRT","bright_ti4":302.25,"frp":1.31,"daynight":"N"},"geometry":{"type":"Point","coordinates":[-121.46458,35.93547]}},{"type":"Feature","properties":{"acq_date":"2026-09-01","acq_time":1009,"confidence":"n","satellite":"N","instrument":"VIIRS","version":"2.0NRT","bright_ti4":309.65,"frp":0.83,"daynight":"N"},"geometry":{"type":"Point","coordinates":[-121.4688,35.93615]}},{"type":"Feature","properties":{"acq_date":"2026-09-01","acq_time":1009,"confidence":"n","satellite":"N","instrument":"VIIRS","version":"2.0NRT","bright_ti4":328.52,"frp":1.72,"daynight":"N"},"geometry":{"type":"Point","coordinates":[-121.46381,35.93877]}},{"type":"Feature","properties":{"acq_date":"2026-09-01","acq_time":1009,"confidence":"n","satellite":"N","instrument":"VIIRS","version":"2.0NRT","bright_ti4":300.88,"frp":0.8,"daynight":"N"},"geometry":{"type":"Point","coordinates":[-121.31487,35.93881]}},{"type":"Feature","properties":{"acq_date":"2026-09-01","acq_time":1009,"confidence":"n","satellite":"N","instrument":"VIIRS","version":"2.0NRT","bright_ti4":310.27,"frp":2.65,"daynight":"N"},"geometry":{"type":"Point","coordinates":[-121.46802,35.93944]}},{"type":"Feature","properties":{"acq_date":"2026-09-01","acq_time":1009,"confidence":"n","satellite":"N","instrument":"VIIRS","version":"2.0NRT","bright_ti4":301.34,"frp":0.78,"daynight":"N"},"geometry":{"type":"Point","coordinates":[-121.31909,35.93949]}},{"type":"Feature","properties":{"acq_date":"2026-09-01","acq_time":1009,"confidence":"n","satellite":"N","instrument":"VIIRS","version":"2.0NRT","bright_ti4":317.69,"frp":1.91,"daynight":"N"},"geometry":{"type":"Point","coordinates":[-121.31539,35.94166]}},{"type":"Feature","properties":{"acq_date":"2026-09-01","acq_time":1009,"confidence":"n","satellite":"N","instrument":"VIIRS","version":"2.0NRT","bright_ti4":327.12,"frp":1.72,"daynight":"N"},"geometry":{"type":"Point","coordinates":[-121.46301,35.94205]}},{"type":"Feature","properties":{"acq_date":"2026-09-01","acq_time":1009,"confidence":"n","satellite":"N","instrument":"VIIRS","version":"2.0NRT","bright_ti4":303.27,"frp":0.89,"daynight":"N"},"geometry":{"type":"Point","coordinates":[-121.31963,35.94234]}},{"type":"Feature","properties":{"acq_date":"2026-09-01","acq_time":1009,"confidence":"n","satellite":"N","instrument":"VIIRS","version":"2.0NRT","bright_ti4":323.42,"frp":1.65,"daynight":"N"},"geometry":{"type":"Point","coordinates":[-121.46223,35.94534]}},{"type":"Feature","properties":{"acq_date":"2026-09-01","acq_time":1009,"confidence":"n","satellite":"N","instrument":"VIIRS","version":"2.0NRT","bright_ti4":337.9,"frp":5.02,"daynight":"N"},"geometry":{"type":"Point","coordinates":[-121.46645,35.94601]}},{"type":"Feature","properties":{"acq_date":"2026-09-01","acq_time":1009,"confidence":"n","satellite":"N","instrument":"VIIRS","version":"2.0NRT","bright_ti4":305.24,"frp":1.65,"daynight":"N"},"geometry":{"type":"Point","coordinates":[-121.45722,35.94795]}},{"type":"Feature","properties":{"acq_date":"2026-09-01","acq_time":1009,"confidence":"n","satellite":"N","instrument":"VIIRS","version":"2.0NRT","bright_ti4":323.94,"frp":1.65,"daynight":"N"},"geometry":{"type":"Point","coordinates":[-121.46146,35.94862]}},{"type":"Feature","properties":{"acq_date":"2026-09-01","acq_time":1009,"confidence":"n","satellite":"N","instrument":"VIIRS","version":"2.0NRT","bright_ti4":338.5,"frp":5.02,"daynight":"N"},"geometry":{"type":"Point","coordinates":[-121.46568,35.94929]}},{"type":"Feature","properties":{"acq_date":"2026-09-01","acq_time":1009,"confidence":"n","satellite":"N","instrument":"VIIRS","version":"2.0NRT","bright_ti4":343.74,"frp":5.02,"daynight":"N"},"geometry":{"type":"Point","coordinates":[-121.4699,35.94996]}},{"type":"Feature","properties":{"acq_date":"2026-09-01","acq_time":1009,"confidence":"n","satellite":"N","instrument":"VIIRS","version":"2.0NRT","bright_ti4":295.67,"frp":1.55,"daynight":"N"},"geometry":{"type":"Point","coordinates":[-121.45224,35.95056]}},{"type":"Feature","properties":{"acq_date":"2026-09-01","acq_time":1009,"confidence":"n","satellite":"N","instrument":"VIIRS","version":"2.0NRT","bright_ti4":298.72,"frp":0.79,"daynight":"N"},"geometry":{"type":"Point","coordinates":[-121.30872,35.95082]}},{"type":"Feature","properties":{"acq_date":"2026-09-01","acq_time":1009,"confidence":"n","satellite":"N","instrument":"VIIRS","version":"2.0NRT","bright_ti4":350.06,"frp":7.98,"daynight":"N"},"geometry":{"type":"Point","coordinates":[-121.45644,35.95123]}},{"type":"Feature","properties":{"acq_date":"2026-09-01","acq_time":1009,"confidence":"n","satellite":"N","instrument":"VIIRS","version":"2.0NRT","bright_ti4":299.09,"frp":0.79,"daynight":"N"},"geometry":{"type":"Point","coordinates":[-121.31294,35.9515]}},{"type":"Feature","properties":{"acq_date":"2026-09-01","acq_time":1009,"confidence":"n","satellite":"N","instrument":"VIIRS","version":"2.0NRT","bright_ti4":329.18,"frp":7.98,"daynight":"N"},"geometry":{"type":"Point","coordinates":[-121.46068,35.9519]}},{"type":"Feature","properties":{"acq_date":"2026-09-01","acq_time":1009,"confidence":"n","satellite":"N","instrument":"VIIRS","version":"2.0NRT","bright_ti4":306.41,"frp":1.27,"daynight":"N"},"geometry":{"type":"Point","coordinates":[-121.31716,35.95217]}},{"type":"Feature","properties":{"acq_date":"2026-09-01","acq_time":1009,"confidence":"n","satellite":"N","instrument":"VIIRS","version":"2.0NRT","bright_ti4":301.72,"frp":5.39,"daynight":"N"},"geometry":{"type":"Point","coordinates":[-121.4649,35.95258]}},{"type":"Feature","properties":{"acq_date":"2026-09-01","acq_time":1009,"confidence":"n","satellite":"N","instrument":"VIIRS","version":"2.0NRT","bright_ti4":339.54,"frp":5.39,"daynight":"N"},"geometry":{"type":"Point","coordinates":[-121.46912,35.95325]}},{"type":"Feature","properties":{"acq_date":"2026-09-01","acq_time":1009,"confidence":"n","satellite":"N","instrument":"VIIRS","version":"2.0NRT","bright_ti4":306.95,"frp":0.67,"daynight":"N"},"geometry":{"type":"Point","coordinates":[-121.3037,35.95342]}},{"type":"Feature","properties":{"acq_date":"2026-09-01","acq_time":1009,"confidence":"n","satellite":"N","instrument":"VIIRS","version":"2.0NRT","bright_ti4":326.16,"frp":1.55,"daynight":"N"},"geometry":{"type":"Point","coordinates":[-121.45146,35.95384]}},{"type":"Feature","properties":{"acq_date":"2026-09-01","acq_time":1009,"confidence":"n","satellite":"N","instrument":"VIIRS","version":"2.0NRT","bright_ti4":336.35,"frp":7.98,"daynight":"N"},"geometry":{"type":"Point","coordinates":[-121.45567,35.95451]}},{"type":"Feature","properties":{"acq_date":"2026-09-01","acq_time":1009,"confidence":"n","satellite":"N","instrument":"VIIRS","version":"2.0NRT","bright_ti4":308.51,"frp":0.61,"daynight":"N"},"geometry":{"type":"Point","coordinates":[-121.39561,35.95454]}},{"type":"Feature","properties":{"acq_date":"2026-09-01","acq_time":1009,"confidence":"n","satellite":"N","instrument":"VIIRS","version":"2.0NRT","bright_ti4":297.16,"frp":0.87,"daynight":"N"},"geometry":{"type":"Point","coordinates":[-121.31215,35.95478]}},{"type":"Feature","properties":{"acq_date":"2026-09-01","acq_time":1009,"confidence":"n","satellite":"N","instrument":"VIIRS","version":"2.0NRT","bright_ti4":298.54,"frp":0.61,"daynight":"N"},"geometry":{"type":"Point","coordinates":[-121.39985,35.95522]}},{"type":"Feature","properties":{"acq_date":"2026-09-01","acq_time":1009,"confidence":"n","satellite":"N","instrument":"VIIRS","version":"2.0NRT","bright_ti4":299.08,"frp":0.46,"daynight":"N"},"geometry":{"type":"Point","coordinates":[-121.44227,35.95578]}},{"type":"Feature","properties":{"acq_date":"2026-09-01","acq_time":1009,"confidence":"n","satellite":"N","instrument":"VIIRS","version":"2.0NRT","bright_ti4":351.26,"frp":5.39,"daynight":"N"},"geometry":{"type":"Point","coordinates":[-121.46412,35.95586]}},{"type":"Feature","properties":{"acq_date":"2026-09-01","acq_time":1009,"confidence":"n","satellite":"N","instrument":"VIIRS","version":"2.0NRT","bright_ti4":311.35,"frp":2.8,"daynight":"N"},"geometry":{"type":"Point","coordinates":[-121.44647,35.95645]}},{"type":"Feature","properties":{"acq_date":"2026-09-01","acq_time":1009,"confidence":"n","satellite":"N","instrument":"VIIRS","version":"2.0NRT","bright_ti4":332.41,"frp":5.39,"daynight":"N"},"geometry":{"type":"Point","coordinates":[-121.46835,35.95653]}},{"type":"Feature","properties":{"acq_date":"2026-09-01","acq_time":1009,"confidence":"n","satellite":"N","instrument":"VIIRS","version":"2.0NRT","bright_ti4":314.19,"frp":2.8,"daynight":"N"},"geometry":{"type":"Point","coordinates":[-121.45068,35.95712]}},{"type":"Feature","properties":{"acq_date":"2026-09-01","acq_time":1009,"confidence":"n","satellite":"N","instrument":"VIIRS","version":"2.0NRT","bright_ti4":342.3,"frp":7.18,"daynight":"N"},"geometry":{"type":"Point","coordinates":[-121.45489,35.9578]}},{"type":"Feature","properties":{"acq_date":"2026-09-01","acq_time":1009,"confidence":"n","satellite":"N","instrument":"VIIRS","version":"2.0NRT","bright_ti4":327.33,"frp":7.18,"daynight":"N"},"geometry":{"type":"Point","coordinates":[-121.45912,35.95847]}},{"type":"Feature","properties":{"acq_date":"2026-09-01","acq_time":1009,"confidence":"n","satellite":"N","instrument":"VIIRS","version":"2.0NRT","bright_ti4":295.16,"frp":0.46,"daynight":"N"},"geometry":{"type":"Point","coordinates":[-121.44149,35.95906]}},{"type":"Feature","properties":{"acq_date":"2026-09-01","acq_time":1009,"confidence":"n","satellite":"N","instrument":"VIIRS","version":"2.0NRT","bright_ti4":348.36,"frp":13.25,"daynight":"N"},"geometry":{"type":"Point","coordinates":[-121.46334,35.95914]}},{"type":"Feature","properties":{"acq_date":"2026-09-01","acq_time":1009,"confidence":"n","satellite":"N","instrument":"VIIRS","version":"2.0NRT","bright_ti4":322.86,"frp":2.8,"daynight":"N"},"geometry":{"type":"Point","coordinates":[-121.44569,35.95973]}},{"type":"Feature","properties":{"acq_date":"2026-09-01","acq_time":1009,"confidence":"n","satellite":"N","instrument":"VIIRS","version":"2.0NRT","bright_ti4":321.6,"frp":1.67,"daynight":"N"},"geometry":{"type":"Point","coordinates":[-121.32404,35.96011]}},{"type":"Feature","properties":{"acq_date":"2026-09-01","acq_time":1009,"confidence":"n","satellite":"N","instrument":"VIIRS","version":"2.0NRT","bright_ti4":343.57,"frp":2.8,"daynight":"N"},"geometry":{"type":"Point","coordinates":[-121.44991,35.96041]}},{"type":"Feature","properties":{"acq_date":"2026-09-01","acq_time":1009,"confidence":"n","satellite":"N","instrument":"VIIRS","version":"2.0NRT","bright_ti4":307.13,"frp":1.67,"daynight":"N"},"geometry":{"type":"Point","coordinates":[-121.32825,35.96079]}},{"type":"Feature","properties":{"acq_date":"2026-09-01","acq_time":1009,"confidence":"n","satellite":"N","instrument":"VIIRS","version":"2.0NRT","bright_ti4":297.87,"frp":7.18,"daynight":"N"},"geometry":{"type":"Point","coordinates":[-121.45412,35.96108]}},{"type":"Feature","properties":{"acq_date":"2026-09-01","acq_time":1009,"confidence":"n","satellite":"N","instrument":"VIIRS","version":"2.0NRT","bright_ti4":314.73,"frp":1.59,"daynight":"N"},"geometry":{"type":"Point","coordinates":[-121.33249,35.96146]}},{"type":"Feature","properties":{"acq_date":"2026-09-01","acq_time":1009,"confidence":"n","satellite":"N","instrument":"VIIRS","version":"2.0NRT","bright_ti4":339.01,"frp":7.18,"daynight":"N"},"geometry":{"type":"Point","coordinates":[-121.45834,35.96175]}},{"type":"Feature","properties":{"acq_date":"2026-09-01","acq_time":1009,"confidence":"n","satellite":"N","instrument":"VIIRS","version":"2.0NRT","bright_ti4":333.81,"frp":13.25,"daynight":"N"},"geometry":{"type":"Point","coordinates":[-121.46256,35.96242]}},{"type":"Feature","properties":{"acq_date":"2026-09-01","acq_time":1009,"confidence":"n","satellite":"N","instrument":"VIIRS","version":"2.0NRT","bright_ti4":301.87,"frp":6.19,"daynight":"N"},"geometry":{"type":"Point","coordinates":[-121.44626,35.96263]}},{"type":"Feature","properties":{"acq_date":"2026-09-01","acq_time":1009,"confidence":"n","satellite":"N","instrument":"VIIRS","version":"2.0NRT","bright_ti4":346.29,"frp":6.19,"daynight":"N"},"geometry":{"type":"Point","coordinates":[-121.45046,35.96329]}},{"type":"Feature","properties":{"acq_date":"2026-09-01","acq_time":1009,"confidence":"n","satellite":"N","instrument":"VIIRS","version":"2.0NRT","bright_ti4":311.66,"frp":0.82,"daynight":"N"},"geometry":{"type":"Point","coordinates":[-121.32323,35.96339]}},{"type":"Feature","properties":{"acq_date":"2026-09-01","acq_time":1009,"confidence":"n","satellite":"N","instrument":"VIIRS","version":"2.0NRT","bright_ti4":357.04,"frp":14.05,"daynight":"N"},"geometry":{"type":"Point","coordinates":[-121.45468,35.96397]}},{"type":"Feature","properties":{"acq_date":"2026-09-01","acq_time":1009,"confidence":"n","satellite":"N","instrument":"VIIRS","version":"2.0NRT","bright_ti4":295.39,"frp":0.82,"daynight":"N"},"geometry":{"type":"Point","coordinates":[-121.32746,35.96407]}},{"type":"Feature","properties":{"acq_date":"2026-09-01","acq_time":1009,"confidence":"n","satellite":"N","instrument":"VIIRS","version":"2.0NRT","bright_ti4":354.81,"frp":14.05,"daynight":"N"},"geometry":{"type":"Point","coordinates":[-121.45891,35.96464]}},{"type":"Feature","properties":{"acq_date":"2026-09-01","acq_time":1009,"confidence":"n","satellite":"N","instrument":"VIIRS","version":"2.0NRT","bright_ti4":310.17,"frp":6.19,"daynight":"N"},"geometry":{"type":"Point","coordinates":[-121.44968,35.96659]}},{"type":"Feature","properties":{"acq_date":"2026-09-01","acq_time":1009,"confidence":"h","satellite":"N","instrument":"VIIRS","version":"2.0NRT","bright_ti4":367,"frp":14.05,"daynight":"N"},"geometry":{"type":"Point","coordinates":[-121.4539,35.96726]}},{"type":"Feature","properties":{"acq_date":"2026-09-01","acq_time":1009,"confidence":"n","satellite":"N","instrument":"VIIRS","version":"2.0NRT","bright_ti4":310.17,"frp":14.05,"daynight":"N"},"geometry":{"type":"Point","coordinates":[-121.45812,35.96793]}},{"type":"Feature","properties":{"acq_date":"2026-09-01","acq_time":1009,"confidence":"n","satellite":"N","instrument":"VIIRS","version":"2.0NRT","bright_ti4":299.35,"frp":0.53,"daynight":"N"},"geometry":{"type":"Point","coordinates":[-121.44048,35.96854]}},{"type":"Feature","properties":{"acq_date":"2026-09-01","acq_time":1009,"confidence":"n","satellite":"N","instrument":"VIIRS","version":"2.0NRT","bright_ti4":297.05,"frp":0.51,"daynight":"N"},"geometry":{"type":"Point","coordinates":[-121.44469,35.96922]}},{"type":"Feature","properties":{"acq_date":"2026-09-01","acq_time":1009,"confidence":"n","satellite":"N","instrument":"VIIRS","version":"2.0NRT","bright_ti4":305.16,"frp":0.51,"daynight":"N"},"geometry":{"type":"Point","coordinates":[-121.44891,35.96989]}},{"type":"Feature","properties":{"acq_date":"2026-09-01","acq_time":1009,"confidence":"n","satellite":"N","instrument":"VIIRS","version":"2.0NRT","bright_ti4":295.39,"frp":0.32,"daynight":"N"},"geometry":{"type":"Point","coordinates":[-121.45311,35.97055]}},{"type":"Feature","properties":{"acq_date":"2026-09-01","acq_time":1009,"confidence":"n","satellite":"N","instrument":"VIIRS","version":"2.0NRT","bright_ti4":315.67,"frp":1.6,"daynight":"N"},"geometry":{"type":"Point","coordinates":[-114.90987,36.35828]}},{"type":"Feature","properties":{"acq_date":"2026-09-01","acq_time":1009,"confidence":"n","satellite":"N","instrument":"VIIRS","version":"2.0NRT","bright_ti4":304.15,"frp":0.68,"daynight":"N"},"geometry":{"type":"Point","coordinates":[-114.8754,36.38452]}},{"type":"Feature","properties":{"acq_date":"2026-09-01","acq_time":1009,"confidence":"n","satellite":"N","instrument":"VIIRS","version":"2.0NRT","bright_ti4":301.66,"frp":0.57,"daynight":"N"},"geometry":{"type":"Point","coordinates":[-120.13479,36.66288]}},{"type":"Feature","properties":{"acq_date":"2026-09-01","acq_time":1009,"confidence":"n","satellite":"N","instrument":"VIIRS","version":"2.0NRT","bright_ti4":296.64,"frp":0.35,"daynight":"N"},"geometry":{"type":"Point","coordinates":[-120.87069,36.97165]}},{"type":"Feature","properties":{"acq_date":"2026-09-01","acq_time":1009,"confidence":"n","satellite":"N","instrument":"VIIRS","version":"2.0NRT","bright_ti4":304.62,"frp":0.47,"daynight":"N"},"geometry":{"type":"Point","coordinates":[-120.1954,37.02446]}},{"type":"Feature","properties":{"acq_date":"2026-09-01","acq_time":1009,"confidence":"n","satellite":"N","instrument":"VIIRS","version":"2.0NRT","bright_ti4":333.46,"frp":3.73,"daynight":"N"},"geometry":{"type":"Point","coordinates":[-120.13125,37.0275]}},{"type":"Feature","properties":{"acq_date":"2026-09-01","acq_time":1009,"confidence":"n","satellite":"N","instrument":"VIIRS","version":"2.0NRT","bright_ti4":313.82,"frp":1.12,"daynight":"N"},"geometry":{"type":"Point","coordinates":[-120.133,37.03814]}},{"type":"Feature","properties":{"acq_date":"2026-09-01","acq_time":1009,"confidence":"n","satellite":"N","instrument":"VIIRS","version":"2.0NRT","bright_ti4":297.2,"frp":0.28,"daynight":"N"},"geometry":{"type":"Point","coordinates":[-121.65932,37.75467]}},{"type":"Feature","properties":{"acq_date":"2026-09-01","acq_time":1009,"confidence":"n","satellite":"N","instrument":"VIIRS","version":"2.0NRT","bright_ti4":302,"frp":0.43,"daynight":"N"},"geometry":{"type":"Point","coordinates":[-121.15179,37.77813]}},{"type":"Feature","properties":{"acq_date":"2026-09-01","acq_time":1009,"confidence":"n","satellite":"N","instrument":"VIIRS","version":"2.0NRT","bright_ti4":306.66,"frp":0.65,"daynight":"N"},"geometry":{"type":"Point","coordinates":[-121.18589,37.8817]}},{"type":"Feature","properties":{"acq_date":"2026-09-01","acq_time":1009,"confidence":"n","satellite":"N","instrument":"VIIRS","version":"2.0NRT","bright_ti4":306.3,"frp":1.54,"daynight":"N"},"geometry":{"type":"Point","coordinates":[-122.1128,38.01384]}},{"type":"Feature","properties":{"acq_date":"2026-09-01","acq_time":1009,"confidence":"n","satellite":"N","instrument":"VIIRS","version":"2.0NRT","bright_ti4":297.34,"frp":0.29,"daynight":"N"},"geometry":{"type":"Point","coordinates":[-122.09682,38.03033]}},{"type":"Feature","properties":{"acq_date":"2026-09-01","acq_time":1009,"confidence":"n","satellite":"N","instrument":"VIIRS","version":"2.0NRT","bright_ti4":317.21,"frp":1.4,"daynight":"N"},"geometry":{"type":"Point","coordinates":[-121.42445,38.71349]}},{"type":"Feature","properties":{"acq_date":"2026-09-01","acq_time":1009,"confidence":"n","satellite":"N","instrument":"VIIRS","version":"2.0NRT","bright_ti4":297.85,"frp":0.44,"daynight":"N"},"geometry":{"type":"Point","coordinates":[-122.03267,39.27906]}},{"type":"Feature","properties":{"acq_date":"2026-09-01","acq_time":1011,"confidence":"n","satellite":"N","instrument":"VIIRS","version":"2.0NRT","bright_ti4":308.58,"frp":2.55,"daynight":"N"},"geometry":{"type":"Point","coordinates":[-114.59836,32.57688]}},{"type":"Feature","properties":{"acq_date":"2026-09-01","acq_time":1011,"confidence":"n","satellite":"N","instrument":"VIIRS","version":"2.0NRT","bright_ti4":312.96,"frp":1.91,"daynight":"N"},"geometry":{"type":"Point","coordinates":[-115.07378,32.58717]}},{"type":"Feature","properties":{"acq_date":"2026-09-01","acq_time":1011,"confidence":"n","satellite":"N","instrument":"VIIRS","version":"2.0NRT","bright_ti4":304.61,"frp":0.5,"daynight":"N"},"geometry":{"type":"Point","coordinates":[-117.14774,32.85762]}},{"type":"Feature","properties":{"acq_date":"2026-09-01","acq_time":1011,"confidence":"n","satellite":"N","instrument":"VIIRS","version":"2.0NRT","bright_ti4":300.27,"frp":0.63,"daynight":"N"},"geometry":{"type":"Point","coordinates":[-117.03098,32.85852]}},{"type":"Feature","properties":{"acq_date":"2026-09-01","acq_time":1011,"confidence":"n","satellite":"N","instrument":"VIIRS","version":"2.0NRT","bright_ti4":300.79,"frp":0.68,"daynight":"N"},"geometry":{"type":"Point","coordinates":[-117.61654,33.49163]}}]}