{"type":"FeatureCollection","name":"FIRMS VIIRS CA (last 1 day)","crs":{"type":"name","properties":{"name":"EPSG:4326"}},"fetched_at_utc":"2026-09-10T17:35:12.572Z","source":{"url":"https://firms.modaps.eosdis.nasa.gov/api/area/csv/8c4af552cf654445dd280dfb3ad9337c/VIIRS_SNPP_NRT/-125,32,-113,43.5/1","dataset":"VIIRS_SNPP_NRT","bbox":"-125,32,-113,43.5","day_range":"1"},"features":[{"type":"Feature","properties":{"acq_date":"2026-09-10","acq_time":858,"confidence":"n","satellite":"N","instrument":"VIIRS","version":"2.0NRT","bright_ti4":301.49,"frp":0.77,"daynight":"N"},"geometry":{"type":"Point","coordinates":[-115.6699,43.14603]}},{"type":"Feature","properties":{"acq_date":"2026-09-10","acq_time":858,"confidence":"n","satellite":"N","instrument":"VIIRS","version":"2.0NRT","bright_ti4":296.44,"frp":0.51,"daynight":"N"},"geometry":{"type":"Point","coordinates":[-115.73518,43.17771]}},{"type":"Feature","properties":{"acq_date":"2026-09-10","acq_time":900,"confidence":"n","satellite":"N","instrument":"VIIRS","version":"2.0NRT","bright_ti4":304.64,"frp":1.93,"daynight":"N"},"geometry":{"type":"Point","coordinates":[-118.2472,33.81852]}},{"type":"Feature","properties":{"acq_date":"2026-09-10","acq_time":900,"confidence":"n","satellite":"N","instrument":"VIIRS","version":"2.0NRT","bright_ti4":306.66,"frp":1.35,"daynight":"N"},"geometry":{"type":"Point","coordinates":[-119.44167,35.33714]}},{"type":"Feature","properties":{"acq_date":"2026-09-10","acq_time":900,"confidence":"n","satellite":"N","instrument":"VIIRS","version":"2.0NRT","bright_ti4":314.52,"frp":1.54,"daynight":"N"},"geometry":{"type":"Point","coordinates":[-114.91254,36.35538]}},{"type":"Feature","properties":{"acq_date":"2026-09-10","acq_time":1038,"confidence":"n","satellite":"N","instrument":"VIIRS","version":"2.0NRT","bright_ti4":336,"frp":5.84,"daynight":"N"},"geometry":{"type":"Point","coordinates":[-117.66842,41.5415]}},{"type":"Feature","properties":{"acq_date":"2026-09-10","acq_time":1041,"confidence":"n","satellite":"N","instrument":"VIIRS","version":"2.0NRT","bright_ti4":302.56,"frp":0.42,"daynight":"N"},"geometry":{"type":"Point","coordinates":[-117.82112,33.61372]}},{"type":"Feature","properties":{"acq_date":"2026-09-10","acq_time":1041,"confidence":"n","satellite":"N","instrument":"VIIRS","version":"2.0NRT","bright_ti4":303.24,"frp":0.52,"daynight":"N"},"geometry":{"type":"Point","coordinates":[-117.47608,33.79244]}},{"type":"Feature","properties":{"acq_date":"2026-09-10","acq_time":1041,"confidence":"n","satellite":"N","instrument":"VIIRS","version":"2.0NRT","bright_ti4":305,"frp":1.27,"daynight":"N"},"geometry":{"type":"Point","coordinates":[-118.24512,33.81956]}},{"type":"Feature","properties":{"acq_date":"2026-09-10","acq_time":1041,"confidence":"n","satellite":"N","instrument":"VIIRS","version":"2.0NRT","bright_ti4":305.72,"frp":1.67,"daynight":"N"},"geometry":{"type":"Point","coordinates":[-118.24419,33.82042]}},{"type":"Feature","properties":{"acq_date":"2026-09-10","acq_time":1041,"confidence":"n","satellite":"N","instrument":"VIIRS","version":"2.0NRT","bright_ti4":303.6,"frp":0.99,"daynight":"N"},"geometry":{"type":"Point","coordinates":[-118.33386,33.85472]}},{"type":"Feature","properties":{"acq_date":"2026-09-10","acq_time":1041,"confidence":"n","satellite":"N","instrument":"VIIRS","version":"2.0NRT","bright_ti4":306.54,"frp":0.24,"daynight":"N"},"geometry":{"type":"Point","coordinates":[-118.19306,34.1515]}},{"type":"Feature","properties":{"acq_date":"2026-09-10","acq_time":1041,"confidence":"n","satellite":"N","instrument":"VIIRS","version":"2.0NRT","bright_ti4":315.65,"frp":1.61,"daynight":"N"},"geometry":{"type":"Point","coordinates":[-118.51919,34.33448]}},{"type":"Feature","properties":{"acq_date":"2026-09-10","acq_time":1041,"confidence":"n","satellite":"N","instrument":"VIIRS","version":"2.0NRT","bright_ti4":305.93,"frp":1.84,"daynight":"N"},"geometry":{"type":"Point","coordinates":[-118.52107,34.33701]}},{"type":"Feature","properties":{"acq_date":"2026-09-10","acq_time":1041,"confidence":"n","satellite":"N","instrument":"VIIRS","version":"2.0NRT","bright_ti4":318.2,"frp":3.86,"daynight":"N"},"geometry":{"type":"Point","coordinates":[-119.44288,35.34159]}},{"type":"Feature","properties":{"acq_date":"2026-09-10","acq_time":1041,"confidence":"n","satellite":"N","instrument":"VIIRS","version":"2.0NRT","bright_ti4":317.12,"frp":2.21,"daynight":"N"},"geometry":{"type":"Point","coordinates":[-119.44336,35.34175]}},{"type":"Feature","properties":{"acq_date":"2026-09-10","acq_time":1041,"confidence":"n","satellite":"N","instrument":"VIIRS","version":"2.0NRT","bright_ti4":298.15,"frp":0.73,"daynight":"N"},"geometry":{"type":"Point","coordinates":[-120.13329,37.03639]}},{"type":"Feature","properties":{"acq_date":"2026-09-10","acq_time":1041,"confidence":"n","satellite":"N","instrument":"VIIRS","version":"2.0NRT","bright_ti4":305.88,"frp":2,"daynight":"N"},"geometry":{"type":"Point","coordinates":[-122.40041,37.94924]}},{"type":"Feature","properties":{"acq_date":"2026-09-10","acq_time":1041,"confidence":"n","satellite":"N","instrument":"VIIRS","version":"2.0NRT","bright_ti4":301.01,"frp":0.8,"daynight":"N"},"geometry":{"type":"Point","coordinates":[-121.5005,38.06506]}},{"type":"Feature","properties":{"acq_date":"2026-09-10","acq_time":1041,"confidence":"n","satellite":"N","instrument":"VIIRS","version":"2.0NRT","bright_ti4":301.18,"frp":0.38,"daynight":"N"},"geometry":{"type":"Point","coordinates":[-122.18853,38.48626]}},{"type":"Feature","properties":{"acq_date":"2026-09-10","acq_time":1041,"confidence":"n","satellite":"N","instrument":"VIIRS","version":"2.0NRT","bright_ti4":306.26,"frp":0.74,"daynight":"N"},"geometry":{"type":"Point","coordinates":[-122.18736,38.49024]}}]}