{"type":"FeatureCollection","name":"FIRMS VIIRS CA (last 1 day)","crs":{"type":"name","properties":{"name":"EPSG:4326"}},"fetched_at_utc":"2026-09-19T17:04:54.830Z","source":{"url":"https://firms.modaps.eosdis.nasa.gov/api/area/csv/8c4af552cf654445dd280dfb3ad9337c/VIIRS_SNPP_NRT/-125,32,-113,43.5/1","dataset":"VIIRS_SNPP_NRT","bbox":"-125,32,-113,43.5","day_range":"1"},"features":[{"type":"Feature","properties":{"acq_date":"2026-09-19","acq_time":930,"confidence":"n","satellite":"N","instrument":"VIIRS","version":"2.0NRT","bright_ti4":312.2,"frp":1.45,"daynight":"N"},"geometry":{"type":"Point","coordinates":[-114.91315,36.35633]}},{"type":"Feature","properties":{"acq_date":"2026-09-19","acq_time":930,"confidence":"n","satellite":"N","instrument":"VIIRS","version":"2.0NRT","bright_ti4":308.36,"frp":0.62,"daynight":"N"},"geometry":{"type":"Point","coordinates":[-114.87801,36.38395]}},{"type":"Feature","properties":{"acq_date":"2026-09-19","acq_time":930,"confidence":"n","satellite":"N","instrument":"VIIRS","version":"2.0NRT","bright_ti4":334.18,"frp":2.81,"daynight":"N"},"geometry":{"type":"Point","coordinates":[-119.60559,37.5699]}},{"type":"Feature","properties":{"acq_date":"2026-09-19","acq_time":930,"confidence":"n","satellite":"N","instrument":"VIIRS","version":"2.0NRT","bright_ti4":295.76,"frp":2.81,"daynight":"N"},"geometry":{"type":"Point","coordinates":[-119.60428,37.57431]}},{"type":"Feature","properties":{"acq_date":"2026-09-19","acq_time":930,"confidence":"n","satellite":"N","instrument":"VIIRS","version":"2.0NRT","bright_ti4":337.17,"frp":3.22,"daynight":"N"},"geometry":{"type":"Point","coordinates":[-119.59763,37.57552]}},{"type":"Feature","properties":{"acq_date":"2026-09-19","acq_time":930,"confidence":"n","satellite":"N","instrument":"VIIRS","version":"2.0NRT","bright_ti4":295.43,"frp":3.22,"daynight":"N"},"geometry":{"type":"Point","coordinates":[-119.60326,37.57599]}},{"type":"Feature","properties":{"acq_date":"2026-09-19","acq_time":930,"confidence":"n","satellite":"N","instrument":"VIIRS","version":"2.0NRT","bright_ti4":344.76,"frp":4.71,"daynight":"N"},"geometry":{"type":"Point","coordinates":[-119.59739,37.57822]}},{"type":"Feature","properties":{"acq_date":"2026-09-19","acq_time":930,"confidence":"n","satellite":"N","instrument":"VIIRS","version":"2.0NRT","bright_ti4":331.79,"frp":3.22,"daynight":"N"},"geometry":{"type":"Point","coordinates":[-119.59652,37.57995]}},{"type":"Feature","properties":{"acq_date":"2026-09-19","acq_time":930,"confidence":"n","satellite":"N","instrument":"VIIRS","version":"2.0NRT","bright_ti4":299.76,"frp":3.22,"daynight":"N"},"geometry":{"type":"Point","coordinates":[-119.60188,37.58041]}},{"type":"Feature","properties":{"acq_date":"2026-09-19","acq_time":930,"confidence":"n","satellite":"N","instrument":"VIIRS","version":"2.0NRT","bright_ti4":308.12,"frp":4.71,"daynight":"N"},"geometry":{"type":"Point","coordinates":[-119.59626,37.58264]}},{"type":"Feature","properties":{"acq_date":"2026-09-19","acq_time":930,"confidence":"n","satellite":"N","instrument":"VIIRS","version":"2.0NRT","bright_ti4":300.27,"frp":4.43,"daynight":"N"},"geometry":{"type":"Point","coordinates":[-119.60155,37.58312]}},{"type":"Feature","properties":{"acq_date":"2026-09-19","acq_time":930,"confidence":"n","satellite":"N","instrument":"VIIRS","version":"2.0NRT","bright_ti4":327.21,"frp":5.17,"daynight":"N"},"geometry":{"type":"Point","coordinates":[-119.59537,37.58438]}},{"type":"Feature","properties":{"acq_date":"2026-09-19","acq_time":930,"confidence":"n","satellite":"N","instrument":"VIIRS","version":"2.0NRT","bright_ti4":298.11,"frp":5.17,"daynight":"N"},"geometry":{"type":"Point","coordinates":[-119.60065,37.58484]}},{"type":"Feature","properties":{"acq_date":"2026-09-19","acq_time":930,"confidence":"n","satellite":"N","instrument":"VIIRS","version":"2.0NRT","bright_ti4":346.84,"frp":6.77,"daynight":"N"},"geometry":{"type":"Point","coordinates":[-119.59518,37.58707]}},{"type":"Feature","properties":{"acq_date":"2026-09-19","acq_time":930,"confidence":"n","satellite":"N","instrument":"VIIRS","version":"2.0NRT","bright_ti4":298.29,"frp":6.17,"daynight":"N"},"geometry":{"type":"Point","coordinates":[-119.60041,37.58755]}},{"type":"Feature","properties":{"acq_date":"2026-09-19","acq_time":930,"confidence":"n","satellite":"N","instrument":"VIIRS","version":"2.0NRT","bright_ti4":304.42,"frp":6.17,"daynight":"N"},"geometry":{"type":"Point","coordinates":[-119.6059,37.58805]}},{"type":"Feature","properties":{"acq_date":"2026-09-19","acq_time":930,"confidence":"n","satellite":"N","instrument":"VIIRS","version":"2.0NRT","bright_ti4":342.67,"frp":5.17,"daynight":"N"},"geometry":{"type":"Point","coordinates":[-119.59438,37.58882]}},{"type":"Feature","properties":{"acq_date":"2026-09-19","acq_time":930,"confidence":"n","satellite":"N","instrument":"VIIRS","version":"2.0NRT","bright_ti4":326.07,"frp":5.17,"daynight":"N"},"geometry":{"type":"Point","coordinates":[-119.59966,37.58928]}},{"type":"Feature","properties":{"acq_date":"2026-09-19","acq_time":930,"confidence":"n","satellite":"N","instrument":"VIIRS","version":"2.0NRT","bright_ti4":329.98,"frp":5.94,"daynight":"N"},"geometry":{"type":"Point","coordinates":[-119.60508,37.58974]}},{"type":"Feature","properties":{"acq_date":"2026-09-19","acq_time":930,"confidence":"n","satellite":"N","instrument":"VIIRS","version":"2.0NRT","bright_ti4":340.89,"frp":6.77,"daynight":"N"},"geometry":{"type":"Point","coordinates":[-119.59431,37.59152]}},{"type":"Feature","properties":{"acq_date":"2026-09-19","acq_time":930,"confidence":"n","satellite":"N","instrument":"VIIRS","version":"2.0NRT","bright_ti4":342.97,"frp":6.17,"daynight":"N"},"geometry":{"type":"Point","coordinates":[-119.59967,37.59201]}},{"type":"Feature","properties":{"acq_date":"2026-09-19","acq_time":930,"confidence":"n","satellite":"N","instrument":"VIIRS","version":"2.0NRT","bright_ti4":337.97,"frp":6.17,"daynight":"N"},"geometry":{"type":"Point","coordinates":[-119.60501,37.5925]}},{"type":"Feature","properties":{"acq_date":"2026-09-19","acq_time":930,"confidence":"n","satellite":"N","instrument":"VIIRS","version":"2.0NRT","bright_ti4":322.48,"frp":5.13,"daynight":"N"},"geometry":{"type":"Point","coordinates":[-119.59353,37.59328]}},{"type":"Feature","properties":{"acq_date":"2026-09-19","acq_time":930,"confidence":"n","satellite":"N","instrument":"VIIRS","version":"2.0NRT","bright_ti4":328.24,"frp":5.13,"daynight":"N"},"geometry":{"type":"Point","coordinates":[-119.59899,37.59375]}},{"type":"Feature","properties":{"acq_date":"2026-09-19","acq_time":930,"confidence":"n","satellite":"N","instrument":"VIIRS","version":"2.0NRT","bright_ti4":299.66,"frp":1.14,"daynight":"N"},"geometry":{"type":"Point","coordinates":[-119.62213,37.59407]}},{"type":"Feature","properties":{"acq_date":"2026-09-19","acq_time":930,"confidence":"n","satellite":"N","instrument":"VIIRS","version":"2.0NRT","bright_ti4":338.89,"frp":4.94,"daynight":"N"},"geometry":{"type":"Point","coordinates":[-119.60426,37.5942]}},{"type":"Feature","properties":{"acq_date":"2026-09-19","acq_time":930,"confidence":"n","satellite":"N","instrument":"VIIRS","version":"2.0NRT","bright_ti4":339.35,"frp":5.13,"daynight":"N"},"geometry":{"type":"Point","coordinates":[-119.59236,37.59771]}},{"type":"Feature","properties":{"acq_date":"2026-09-19","acq_time":930,"confidence":"n","satellite":"N","instrument":"VIIRS","version":"2.0NRT","bright_ti4":323.83,"frp":5.13,"daynight":"N"},"geometry":{"type":"Point","coordinates":[-119.59816,37.59821]}},{"type":"Feature","properties":{"acq_date":"2026-09-19","acq_time":930,"confidence":"n","satellite":"N","instrument":"VIIRS","version":"2.0NRT","bright_ti4":317.69,"frp":4.94,"daynight":"N"},"geometry":{"type":"Point","coordinates":[-119.60365,37.59868]}},{"type":"Feature","properties":{"acq_date":"2026-09-19","acq_time":930,"confidence":"n","satellite":"N","instrument":"VIIRS","version":"2.0NRT","bright_ti4":329.92,"frp":4.94,"daynight":"N"},"geometry":{"type":"Point","coordinates":[-119.60937,37.59917]}},{"type":"Feature","properties":{"acq_date":"2026-09-19","acq_time":930,"confidence":"n","satellite":"N","instrument":"VIIRS","version":"2.0NRT","bright_ti4":313.41,"frp":3.55,"daynight":"N"},"geometry":{"type":"Point","coordinates":[-119.61538,37.59968]}},{"type":"Feature","properties":{"acq_date":"2026-09-19","acq_time":930,"confidence":"n","satellite":"N","instrument":"VIIRS","version":"2.0NRT","bright_ti4":296.74,"frp":1.33,"daynight":"N"},"geometry":{"type":"Point","coordinates":[-119.62846,37.60079]}},{"type":"Feature","properties":{"acq_date":"2026-09-19","acq_time":930,"confidence":"n","satellite":"N","instrument":"VIIRS","version":"2.0NRT","bright_ti4":310.52,"frp":5.2,"daynight":"N"},"geometry":{"type":"Point","coordinates":[-119.59104,37.60212]}},{"type":"Feature","properties":{"acq_date":"2026-09-19","acq_time":930,"confidence":"n","satellite":"N","instrument":"VIIRS","version":"2.0NRT","bright_ti4":317.2,"frp":5.2,"daynight":"N"},"geometry":{"type":"Point","coordinates":[-119.59698,37.60263]}},{"type":"Feature","properties":{"acq_date":"2026-09-19","acq_time":930,"confidence":"n","satellite":"N","instrument":"VIIRS","version":"2.0NRT","bright_ti4":302.68,"frp":4.88,"daynight":"N"},"geometry":{"type":"Point","coordinates":[-119.60306,37.60315]}},{"type":"Feature","properties":{"acq_date":"2026-09-19","acq_time":930,"confidence":"n","satellite":"N","instrument":"VIIRS","version":"2.0NRT","bright_ti4":355.97,"frp":4.88,"daynight":"N"},"geometry":{"type":"Point","coordinates":[-119.60909,37.60367]}},{"type":"Feature","properties":{"acq_date":"2026-09-19","acq_time":930,"confidence":"n","satellite":"N","instrument":"VIIRS","version":"2.0NRT","bright_ti4":316.09,"frp":2.45,"daynight":"N"},"geometry":{"type":"Point","coordinates":[-119.61543,37.60421]}},{"type":"Feature","properties":{"acq_date":"2026-09-19","acq_time":930,"confidence":"n","satellite":"N","instrument":"VIIRS","version":"2.0NRT","bright_ti4":298.07,"frp":2.45,"daynight":"N"},"geometry":{"type":"Point","coordinates":[-119.62213,37.60479]}},{"type":"Feature","properties":{"acq_date":"2026-09-19","acq_time":930,"confidence":"n","satellite":"N","instrument":"VIIRS","version":"2.0NRT","bright_ti4":338.98,"frp":5.2,"daynight":"N"},"geometry":{"type":"Point","coordinates":[-119.59022,37.60658]}},{"type":"Feature","properties":{"acq_date":"2026-09-19","acq_time":930,"confidence":"n","satellite":"N","instrument":"VIIRS","version":"2.0NRT","bright_ti4":299.87,"frp":4.88,"daynight":"N"},"geometry":{"type":"Point","coordinates":[-119.60844,37.60814]}},{"type":"Feature","properties":{"acq_date":"2026-09-19","acq_time":930,"confidence":"n","satellite":"N","instrument":"VIIRS","version":"2.0NRT","bright_ti4":322.31,"frp":2.45,"daynight":"N"},"geometry":{"type":"Point","coordinates":[-119.61498,37.6087]}},{"type":"Feature","properties":{"acq_date":"2026-09-19","acq_time":930,"confidence":"n","satellite":"N","instrument":"VIIRS","version":"2.0NRT","bright_ti4":316.62,"frp":2.45,"daynight":"N"},"geometry":{"type":"Point","coordinates":[-119.62184,37.60929]}},{"type":"Feature","properties":{"acq_date":"2026-09-19","acq_time":930,"confidence":"n","satellite":"N","instrument":"VIIRS","version":"2.0NRT","bright_ti4":297.29,"frp":9.42,"daynight":"N"},"geometry":{"type":"Point","coordinates":[-119.60146,37.61208]}},{"type":"Feature","properties":{"acq_date":"2026-09-19","acq_time":930,"confidence":"n","satellite":"N","instrument":"VIIRS","version":"2.0NRT","bright_ti4":351.13,"frp":9.42,"daynight":"N"},"geometry":{"type":"Point","coordinates":[-119.60767,37.61261]}},{"type":"Feature","properties":{"acq_date":"2026-09-19","acq_time":930,"confidence":"n","satellite":"N","instrument":"VIIRS","version":"2.0NRT","bright_ti4":352.05,"frp":12.31,"daynight":"N"},"geometry":{"type":"Point","coordinates":[-119.61434,37.61318]}},{"type":"Feature","properties":{"acq_date":"2026-09-19","acq_time":930,"confidence":"n","satellite":"N","instrument":"VIIRS","version":"2.0NRT","bright_ti4":323.25,"frp":12.31,"daynight":"N"},"geometry":{"type":"Point","coordinates":[-119.62125,37.61377]}},{"type":"Feature","properties":{"acq_date":"2026-09-19","acq_time":930,"confidence":"n","satellite":"N","instrument":"VIIRS","version":"2.0NRT","bright_ti4":350.16,"frp":9.42,"daynight":"N"},"geometry":{"type":"Point","coordinates":[-119.60134,37.61659]}},{"type":"Feature","properties":{"acq_date":"2026-09-19","acq_time":930,"confidence":"h","satellite":"N","instrument":"VIIRS","version":"2.0NRT","bright_ti4":367,"frp":9.42,"daynight":"N"},"geometry":{"type":"Point","coordinates":[-119.60743,37.61712]}},{"type":"Feature","properties":{"acq_date":"2026-09-19","acq_time":930,"confidence":"h","satellite":"N","instrument":"VIIRS","version":"2.0NRT","bright_ti4":367,"frp":12.31,"daynight":"N"},"geometry":{"type":"Point","coordinates":[-119.61359,37.61765]}},{"type":"Feature","properties":{"acq_date":"2026-09-19","acq_time":930,"confidence":"n","satellite":"N","instrument":"VIIRS","version":"2.0NRT","bright_ti4":355.62,"frp":7.13,"daynight":"N"},"geometry":{"type":"Point","coordinates":[-119.60134,37.62112]}},{"type":"Feature","properties":{"acq_date":"2026-09-19","acq_time":930,"confidence":"h","satellite":"N","instrument":"VIIRS","version":"2.0NRT","bright_ti4":367,"frp":7.13,"daynight":"N"},"geometry":{"type":"Point","coordinates":[-119.60722,37.62163]}},{"type":"Feature","properties":{"acq_date":"2026-09-19","acq_time":930,"confidence":"n","satellite":"N","instrument":"VIIRS","version":"2.0NRT","bright_ti4":314.17,"frp":4.14,"daynight":"N"},"geometry":{"type":"Point","coordinates":[-119.61292,37.62213]}},{"type":"Feature","properties":{"acq_date":"2026-09-19","acq_time":930,"confidence":"n","satellite":"N","instrument":"VIIRS","version":"2.0NRT","bright_ti4":301.58,"frp":7.13,"daynight":"N"},"geometry":{"type":"Point","coordinates":[-119.6011,37.62563]}},{"type":"Feature","properties":{"acq_date":"2026-09-19","acq_time":930,"confidence":"n","satellite":"N","instrument":"VIIRS","version":"2.0NRT","bright_ti4":301.62,"frp":7.13,"daynight":"N"},"geometry":{"type":"Point","coordinates":[-119.60689,37.62613]}},{"type":"Feature","properties":{"acq_date":"2026-09-19","acq_time":930,"confidence":"n","satellite":"N","instrument":"VIIRS","version":"2.0NRT","bright_ti4":332.01,"frp":4.31,"daynight":"N"},"geometry":{"type":"Point","coordinates":[-119.60081,37.63013]}},{"type":"Feature","properties":{"acq_date":"2026-09-19","acq_time":930,"confidence":"n","satellite":"N","instrument":"VIIRS","version":"2.0NRT","bright_ti4":299.91,"frp":1.38,"daynight":"N"},"geometry":{"type":"Point","coordinates":[-119.2623,39.62154]}},{"type":"Feature","properties":{"acq_date":"2026-09-19","acq_time":932,"confidence":"n","satellite":"N","instrument":"VIIRS","version":"2.0NRT","bright_ti4":312.16,"frp":1.06,"daynight":"N"},"geometry":{"type":"Point","coordinates":[-115.3543,32.54338]}},{"type":"Feature","properties":{"acq_date":"2026-09-19","acq_time":932,"confidence":"n","satellite":"N","instrument":"VIIRS","version":"2.0NRT","bright_ti4":303.85,"frp":0.71,"daynight":"N"},"geometry":{"type":"Point","coordinates":[-115.22025,32.63597]}},{"type":"Feature","properties":{"acq_date":"2026-09-19","acq_time":932,"confidence":"n","satellite":"N","instrument":"VIIRS","version":"2.0NRT","bright_ti4":314.51,"frp":1.23,"daynight":"N"},"geometry":{"type":"Point","coordinates":[-115.22463,32.63659]}},{"type":"Feature","properties":{"acq_date":"2026-09-19","acq_time":932,"confidence":"n","satellite":"N","instrument":"VIIRS","version":"2.0NRT","bright_ti4":303.4,"frp":1.02,"daynight":"N"},"geometry":{"type":"Point","coordinates":[-117.61613,33.49087]}},{"type":"Feature","properties":{"acq_date":"2026-09-19","acq_time":932,"confidence":"n","satellite":"N","instrument":"VIIRS","version":"2.0NRT","bright_ti4":301.25,"frp":1.08,"daynight":"N"},"geometry":{"type":"Point","coordinates":[-117.82574,33.61446]}},{"type":"Feature","properties":{"acq_date":"2026-09-19","acq_time":932,"confidence":"n","satellite":"N","instrument":"VIIRS","version":"2.0NRT","bright_ti4":301.82,"frp":0.92,"daynight":"N"},"geometry":{"type":"Point","coordinates":[-117.70789,33.71602]}},{"type":"Feature","properties":{"acq_date":"2026-09-19","acq_time":932,"confidence":"n","satellite":"N","instrument":"VIIRS","version":"2.0NRT","bright_ti4":303.2,"frp":1.51,"daynight":"N"},"geometry":{"type":"Point","coordinates":[-117.4744,33.7955]}},{"type":"Feature","properties":{"acq_date":"2026-09-19","acq_time":932,"confidence":"n","satellite":"N","instrument":"VIIRS","version":"2.0NRT","bright_ti4":307.68,"frp":1.92,"daynight":"N"},"geometry":{"type":"Point","coordinates":[-118.33195,33.85339]}},{"type":"Feature","properties":{"acq_date":"2026-09-19","acq_time":932,"confidence":"n","satellite":"N","instrument":"VIIRS","version":"2.0NRT","bright_ti4":296.87,"frp":0.48,"daynight":"N"},"geometry":{"type":"Point","coordinates":[-117.00134,33.87641]}},{"type":"Feature","properties":{"acq_date":"2026-09-19","acq_time":932,"confidence":"n","satellite":"N","instrument":"VIIRS","version":"2.0NRT","bright_ti4":302.25,"frp":0.69,"daynight":"N"},"geometry":{"type":"Point","coordinates":[-117.42688,34.14315]}},{"type":"Feature","properties":{"acq_date":"2026-09-19","acq_time":932,"confidence":"n","satellite":"N","instrument":"VIIRS","version":"2.0NRT","bright_ti4":299.73,"frp":0.64,"daynight":"N"},"geometry":{"type":"Point","coordinates":[-118.19596,34.15579]}},{"type":"Feature","properties":{"acq_date":"2026-09-19","acq_time":932,"confidence":"n","satellite":"N","instrument":"VIIRS","version":"2.0NRT","bright_ti4":310.14,"frp":0.83,"daynight":"N"},"geometry":{"type":"Point","coordinates":[-118.51796,34.33424]}},{"type":"Feature","properties":{"acq_date":"2026-09-19","acq_time":932,"confidence":"n","satellite":"N","instrument":"VIIRS","version":"2.0NRT","bright_ti4":300.7,"frp":0.87,"daynight":"N"},"geometry":{"type":"Point","coordinates":[-118.52197,34.33467]}},{"type":"Feature","properties":{"acq_date":"2026-09-19","acq_time":932,"confidence":"n","satellite":"N","instrument":"VIIRS","version":"2.0NRT","bright_ti4":310.33,"frp":0.99,"daynight":"N"},"geometry":{"type":"Point","coordinates":[-118.6459,34.43018]}},{"type":"Feature","properties":{"acq_date":"2026-09-19","acq_time":932,"confidence":"n","satellite":"N","instrument":"VIIRS","version":"2.0NRT","bright_ti4":301.17,"frp":1.38,"daynight":"N"},"geometry":{"type":"Point","coordinates":[-117.3397,34.60635]}},{"type":"Feature","properties":{"acq_date":"2026-09-19","acq_time":932,"confidence":"n","satellite":"N","instrument":"VIIRS","version":"2.0NRT","bright_ti4":301.94,"frp":1.16,"daynight":"N"},"geometry":{"type":"Point","coordinates":[-117.33896,34.61015]}},{"type":"Feature","properties":{"acq_date":"2026-09-19","acq_time":932,"confidence":"n","satellite":"N","instrument":"VIIRS","version":"2.0NRT","bright_ti4":308.59,"frp":1.39,"daynight":"N"},"geometry":{"type":"Point","coordinates":[-117.10143,34.62088]}},{"type":"Feature","properties":{"acq_date":"2026-09-19","acq_time":932,"confidence":"n","satellite":"N","instrument":"VIIRS","version":"2.0NRT","bright_ti4":307.11,"frp":1.24,"daynight":"N"},"geometry":{"type":"Point","coordinates":[-113.31645,35.51576]}},{"type":"Feature","properties":{"acq_date":"2026-09-19","acq_time":932,"confidence":"n","satellite":"N","instrument":"VIIRS","version":"2.0NRT","bright_ti4":311.81,"frp":1.24,"daynight":"N"},"geometry":{"type":"Point","coordinates":[-113.3157,35.51908]}},{"type":"Feature","properties":{"acq_date":"2026-09-19","acq_time":932,"confidence":"n","satellite":"N","instrument":"VIIRS","version":"2.0NRT","bright_ti4":296.25,"frp":0.48,"daynight":"N"},"geometry":{"type":"Point","coordinates":[-119.32682,35.78978]}},{"type":"Feature","properties":{"acq_date":"2026-09-19","acq_time":1110,"confidence":"n","satellite":"N","instrument":"VIIRS","version":"2.0NRT","bright_ti4":313.24,"frp":4.47,"daynight":"N"},"geometry":{"type":"Point","coordinates":[-119.59825,37.59178]}},{"type":"Feature","properties":{"acq_date":"2026-09-19","acq_time":1110,"confidence":"n","satellite":"N","instrument":"VIIRS","version":"2.0NRT","bright_ti4":297.29,"frp":5.7,"daynight":"N"},"geometry":{"type":"Point","coordinates":[-119.60679,37.59453]}},{"type":"Feature","properties":{"acq_date":"2026-09-19","acq_time":1110,"confidence":"n","satellite":"N","instrument":"VIIRS","version":"2.0NRT","bright_ti4":302.71,"frp":4.47,"daynight":"N"},"geometry":{"type":"Point","coordinates":[-119.5887,37.59625]}},{"type":"Feature","properties":{"acq_date":"2026-09-19","acq_time":1110,"confidence":"n","satellite":"N","instrument":"VIIRS","version":"2.0NRT","bright_ti4":341.71,"frp":4.47,"daynight":"N"},"geometry":{"type":"Point","coordinates":[-119.59582,37.59854]}},{"type":"Feature","properties":{"acq_date":"2026-09-19","acq_time":1110,"confidence":"n","satellite":"N","instrument":"VIIRS","version":"2.0NRT","bright_ti4":306.13,"frp":5.7,"daynight":"N"},"geometry":{"type":"Point","coordinates":[-119.60323,37.60093]}},{"type":"Feature","properties":{"acq_date":"2026-09-19","acq_time":1110,"confidence":"n","satellite":"N","instrument":"VIIRS","version":"2.0NRT","bright_ti4":331.32,"frp":5.7,"daynight":"N"},"geometry":{"type":"Point","coordinates":[-119.60973,37.60302]}},{"type":"Feature","properties":{"acq_date":"2026-09-19","acq_time":1110,"confidence":"n","satellite":"N","instrument":"VIIRS","version":"2.0NRT","bright_ti4":300.09,"frp":2.65,"daynight":"N"},"geometry":{"type":"Point","coordinates":[-119.58731,37.60335]}},{"type":"Feature","properties":{"acq_date":"2026-09-19","acq_time":1110,"confidence":"n","satellite":"N","instrument":"VIIRS","version":"2.0NRT","bright_ti4":303.55,"frp":4.15,"daynight":"N"},"geometry":{"type":"Point","coordinates":[-119.61538,37.60484]}},{"type":"Feature","properties":{"acq_date":"2026-09-19","acq_time":1110,"confidence":"n","satellite":"N","instrument":"VIIRS","version":"2.0NRT","bright_ti4":307.52,"frp":2.65,"daynight":"N"},"geometry":{"type":"Point","coordinates":[-119.59431,37.6056]}},{"type":"Feature","properties":{"acq_date":"2026-09-19","acq_time":1110,"confidence":"n","satellite":"N","instrument":"VIIRS","version":"2.0NRT","bright_ti4":298.24,"frp":4.15,"daynight":"N"},"geometry":{"type":"Point","coordinates":[-119.62068,37.60654]}},{"type":"Feature","properties":{"acq_date":"2026-09-19","acq_time":1110,"confidence":"n","satellite":"N","instrument":"VIIRS","version":"2.0NRT","bright_ti4":329,"frp":8.97,"daynight":"N"},"geometry":{"type":"Point","coordinates":[-119.60691,37.60965]}},{"type":"Feature","properties":{"acq_date":"2026-09-19","acq_time":1110,"confidence":"n","satellite":"N","instrument":"VIIRS","version":"2.0NRT","bright_ti4":337.58,"frp":13.03,"daynight":"N"},"geometry":{"type":"Point","coordinates":[-119.61261,37.61148]}},{"type":"Feature","properties":{"acq_date":"2026-09-19","acq_time":1110,"confidence":"n","satellite":"N","instrument":"VIIRS","version":"2.0NRT","bright_ti4":337.35,"frp":13.03,"daynight":"N"},"geometry":{"type":"Point","coordinates":[-119.61784,37.61317]}},{"type":"Feature","properties":{"acq_date":"2026-09-19","acq_time":1110,"confidence":"n","satellite":"N","instrument":"VIIRS","version":"2.0NRT","bright_ti4":299.05,"frp":8.97,"daynight":"N"},"geometry":{"type":"Point","coordinates":[-119.59742,37.61413]}},{"type":"Feature","properties":{"acq_date":"2026-09-19","acq_time":1110,"confidence":"n","satellite":"N","instrument":"VIIRS","version":"2.0NRT","bright_ti4":305.14,"frp":8.45,"daynight":"N"},"geometry":{"type":"Point","coordinates":[-119.62326,37.61491]}},{"type":"Feature","properties":{"acq_date":"2026-09-19","acq_time":1110,"confidence":"n","satellite":"N","instrument":"VIIRS","version":"2.0NRT","bright_ti4":344.52,"frp":8.97,"daynight":"N"},"geometry":{"type":"Point","coordinates":[-119.6035,37.61609]}},{"type":"Feature","properties":{"acq_date":"2026-09-19","acq_time":1110,"confidence":"h","satellite":"N","instrument":"VIIRS","version":"2.0NRT","bright_ti4":367,"frp":13.03,"daynight":"N"},"geometry":{"type":"Point","coordinates":[-119.60959,37.61804]}},{"type":"Feature","properties":{"acq_date":"2026-09-19","acq_time":1110,"confidence":"n","satellite":"N","instrument":"VIIRS","version":"2.0NRT","bright_ti4":321.35,"frp":13.03,"daynight":"N"},"geometry":{"type":"Point","coordinates":[-119.61559,37.61997]}},{"type":"Feature","properties":{"acq_date":"2026-09-19","acq_time":1110,"confidence":"n","satellite":"N","instrument":"VIIRS","version":"2.0NRT","bright_ti4":330,"frp":8.26,"daynight":"N"},"geometry":{"type":"Point","coordinates":[-119.59899,37.62218]}},{"type":"Feature","properties":{"acq_date":"2026-09-19","acq_time":1110,"confidence":"n","satellite":"N","instrument":"VIIRS","version":"2.0NRT","bright_ti4":323.22,"frp":6.95,"daynight":"N"},"geometry":{"type":"Point","coordinates":[-119.60548,37.62426]}},{"type":"Feature","properties":{"acq_date":"2026-09-19","acq_time":1110,"confidence":"n","satellite":"N","instrument":"VIIRS","version":"2.0NRT","bright_ti4":304.47,"frp":2.36,"daynight":"N"},"geometry":{"type":"Point","coordinates":[-119.59704,37.62904]}},{"type":"Feature","properties":{"acq_date":"2026-09-19","acq_time":1110,"confidence":"n","satellite":"N","instrument":"VIIRS","version":"2.0NRT","bright_ti4":328.69,"frp":6.95,"daynight":"N"},"geometry":{"type":"Point","coordinates":[-119.60141,37.63048]}},{"type":"Feature","properties":{"acq_date":"2026-09-19","acq_time":1110,"confidence":"n","satellite":"N","instrument":"VIIRS","version":"2.0NRT","bright_ti4":314.21,"frp":2.36,"daynight":"N"},"geometry":{"type":"Point","coordinates":[-119.60381,37.63125]}},{"type":"Feature","properties":{"acq_date":"2026-09-19","acq_time":1110,"confidence":"n","satellite":"N","instrument":"VIIRS","version":"2.0NRT","bright_ti4":299.29,"frp":1.32,"daynight":"N"},"geometry":{"type":"Point","coordinates":[-122.11292,38.01482]}},{"type":"Feature","properties":{"acq_date":"2026-09-19","acq_time":1110,"confidence":"n","satellite":"N","instrument":"VIIRS","version":"2.0NRT","bright_ti4":298.08,"frp":0.71,"daynight":"N"},"geometry":{"type":"Point","coordinates":[-122.065,38.72346]}},{"type":"Feature","properties":{"acq_date":"2026-09-19","acq_time":1110,"confidence":"n","satellite":"N","instrument":"VIIRS","version":"2.0NRT","bright_ti4":300.71,"frp":1.01,"daynight":"N"},"geometry":{"type":"Point","coordinates":[-119.26342,39.6177]}},{"type":"Feature","properties":{"acq_date":"2026-09-19","acq_time":1110,"confidence":"n","satellite":"N","instrument":"VIIRS","version":"2.0NRT","bright_ti4":295.84,"frp":1.3,"daynight":"N"},"geometry":{"type":"Point","coordinates":[-119.2636,39.62182]}}]}