{"type":"FeatureCollection","name":"FIRMS VIIRS CA (last 1 day)","crs":{"type":"name","properties":{"name":"EPSG:4326"}},"fetched_at_utc":"2026-09-14T19:07:11.113Z","source":{"url":"https://firms.modaps.eosdis.nasa.gov/api/area/csv/8c4af552cf654445dd280dfb3ad9337c/VIIRS_SNPP_NRT/-125,32,-113,43.5/1","dataset":"VIIRS_SNPP_NRT","bbox":"-125,32,-113,43.5","day_range":"1"},"features":[{"type":"Feature","properties":{"acq_date":"2026-09-14","acq_time":924,"confidence":"n","satellite":"N","instrument":"VIIRS","version":"2.0NRT","bright_ti4":315.02,"frp":1.37,"daynight":"N"},"geometry":{"type":"Point","coordinates":[-113.31653,35.51635]}},{"type":"Feature","properties":{"acq_date":"2026-09-14","acq_time":924,"confidence":"n","satellite":"N","instrument":"VIIRS","version":"2.0NRT","bright_ti4":331.89,"frp":14.79,"daynight":"N"},"geometry":{"type":"Point","coordinates":[-115.99772,36.20637]}},{"type":"Feature","properties":{"acq_date":"2026-09-14","acq_time":924,"confidence":"n","satellite":"N","instrument":"VIIRS","version":"2.0NRT","bright_ti4":311.47,"frp":1.84,"daynight":"N"},"geometry":{"type":"Point","coordinates":[-114.91035,36.35726]}},{"type":"Feature","properties":{"acq_date":"2026-09-14","acq_time":924,"confidence":"n","satellite":"N","instrument":"VIIRS","version":"2.0NRT","bright_ti4":298.34,"frp":0.27,"daynight":"N"},"geometry":{"type":"Point","coordinates":[-120.58292,36.69337]}},{"type":"Feature","properties":{"acq_date":"2026-09-14","acq_time":924,"confidence":"n","satellite":"N","instrument":"VIIRS","version":"2.0NRT","bright_ti4":297.03,"frp":0.48,"daynight":"N"},"geometry":{"type":"Point","coordinates":[-121.76841,36.71303]}},{"type":"Feature","properties":{"acq_date":"2026-09-14","acq_time":924,"confidence":"n","satellite":"N","instrument":"VIIRS","version":"2.0NRT","bright_ti4":298.5,"frp":0.38,"daynight":"N"},"geometry":{"type":"Point","coordinates":[-120.87228,36.97033]}},{"type":"Feature","properties":{"acq_date":"2026-09-14","acq_time":924,"confidence":"n","satellite":"N","instrument":"VIIRS","version":"2.0NRT","bright_ti4":301.52,"frp":0.41,"daynight":"N"},"geometry":{"type":"Point","coordinates":[-121.51829,38.54152]}},{"type":"Feature","properties":{"acq_date":"2026-09-14","acq_time":924,"confidence":"n","satellite":"N","instrument":"VIIRS","version":"2.0NRT","bright_ti4":312.34,"frp":1.51,"daynight":"N"},"geometry":{"type":"Point","coordinates":[-122.94461,39.21975]}},{"type":"Feature","properties":{"acq_date":"2026-09-14","acq_time":924,"confidence":"n","satellite":"N","instrument":"VIIRS","version":"2.0NRT","bright_ti4":301.89,"frp":1.51,"daynight":"N"},"geometry":{"type":"Point","coordinates":[-122.94869,39.21992]}},{"type":"Feature","properties":{"acq_date":"2026-09-14","acq_time":924,"confidence":"n","satellite":"N","instrument":"VIIRS","version":"2.0NRT","bright_ti4":297.15,"frp":1.29,"daynight":"N"},"geometry":{"type":"Point","coordinates":[-122.95263,39.2201]}},{"type":"Feature","properties":{"acq_date":"2026-09-14","acq_time":924,"confidence":"n","satellite":"N","instrument":"VIIRS","version":"2.0NRT","bright_ti4":308.11,"frp":1.16,"daynight":"N"},"geometry":{"type":"Point","coordinates":[-122.94428,39.22267]}},{"type":"Feature","properties":{"acq_date":"2026-09-14","acq_time":924,"confidence":"n","satellite":"N","instrument":"VIIRS","version":"2.0NRT","bright_ti4":305.84,"frp":2.75,"daynight":"N"},"geometry":{"type":"Point","coordinates":[-122.94833,39.22283]}},{"type":"Feature","properties":{"acq_date":"2026-09-14","acq_time":924,"confidence":"n","satellite":"N","instrument":"VIIRS","version":"2.0NRT","bright_ti4":305.19,"frp":1.25,"daynight":"N"},"geometry":{"type":"Point","coordinates":[-114.25742,40.82342]}},{"type":"Feature","properties":{"acq_date":"2026-09-14","acq_time":926,"confidence":"n","satellite":"N","instrument":"VIIRS","version":"2.0NRT","bright_ti4":308.77,"frp":1.23,"daynight":"N"},"geometry":{"type":"Point","coordinates":[-115.00511,32.21197]}},{"type":"Feature","properties":{"acq_date":"2026-09-14","acq_time":926,"confidence":"n","satellite":"N","instrument":"VIIRS","version":"2.0NRT","bright_ti4":304.91,"frp":1.63,"daynight":"N"},"geometry":{"type":"Point","coordinates":[-116.79067,32.498]}},{"type":"Feature","properties":{"acq_date":"2026-09-14","acq_time":926,"confidence":"n","satellite":"N","instrument":"VIIRS","version":"2.0NRT","bright_ti4":309.34,"frp":1.42,"daynight":"N"},"geometry":{"type":"Point","coordinates":[-117.47681,33.79252]}},{"type":"Feature","properties":{"acq_date":"2026-09-14","acq_time":926,"confidence":"n","satellite":"N","instrument":"VIIRS","version":"2.0NRT","bright_ti4":305.68,"frp":2.22,"daynight":"N"},"geometry":{"type":"Point","coordinates":[-118.24414,33.82096]}},{"type":"Feature","properties":{"acq_date":"2026-09-14","acq_time":926,"confidence":"n","satellite":"N","instrument":"VIIRS","version":"2.0NRT","bright_ti4":299.76,"frp":0.27,"daynight":"N"},"geometry":{"type":"Point","coordinates":[-117.00006,33.87686]}},{"type":"Feature","properties":{"acq_date":"2026-09-14","acq_time":926,"confidence":"n","satellite":"N","instrument":"VIIRS","version":"2.0NRT","bright_ti4":300.25,"frp":0.56,"daynight":"N"},"geometry":{"type":"Point","coordinates":[-117.12341,33.95613]}},{"type":"Feature","properties":{"acq_date":"2026-09-14","acq_time":926,"confidence":"n","satellite":"N","instrument":"VIIRS","version":"2.0NRT","bright_ti4":301.79,"frp":0.5,"daynight":"N"},"geometry":{"type":"Point","coordinates":[-118.10695,34.03495]}},{"type":"Feature","properties":{"acq_date":"2026-09-14","acq_time":926,"confidence":"n","satellite":"N","instrument":"VIIRS","version":"2.0NRT","bright_ti4":305.91,"frp":0.44,"daynight":"N"},"geometry":{"type":"Point","coordinates":[-117.42871,34.14115]}},{"type":"Feature","properties":{"acq_date":"2026-09-14","acq_time":926,"confidence":"n","satellite":"N","instrument":"VIIRS","version":"2.0NRT","bright_ti4":310.66,"frp":1.39,"daynight":"N"},"geometry":{"type":"Point","coordinates":[-118.52036,34.3362]}},{"type":"Feature","properties":{"acq_date":"2026-09-14","acq_time":926,"confidence":"n","satellite":"N","instrument":"VIIRS","version":"2.0NRT","bright_ti4":302.85,"frp":1.02,"daynight":"N"},"geometry":{"type":"Point","coordinates":[-118.64708,34.43168]}},{"type":"Feature","properties":{"acq_date":"2026-09-14","acq_time":926,"confidence":"n","satellite":"N","instrument":"VIIRS","version":"2.0NRT","bright_ti4":318.28,"frp":2.35,"daynight":"N"},"geometry":{"type":"Point","coordinates":[-117.33802,34.60643]}},{"type":"Feature","properties":{"acq_date":"2026-09-14","acq_time":926,"confidence":"n","satellite":"N","instrument":"VIIRS","version":"2.0NRT","bright_ti4":304.25,"frp":0.93,"daynight":"N"},"geometry":{"type":"Point","coordinates":[-117.10107,34.62362]}},{"type":"Feature","properties":{"acq_date":"2026-09-14","acq_time":1104,"confidence":"n","satellite":"N","instrument":"VIIRS","version":"2.0NRT","bright_ti4":297.75,"frp":0.42,"daynight":"N"},"geometry":{"type":"Point","coordinates":[-120.80274,37.43861]}},{"type":"Feature","properties":{"acq_date":"2026-09-14","acq_time":1104,"confidence":"n","satellite":"N","instrument":"VIIRS","version":"2.0NRT","bright_ti4":301.7,"frp":1.4,"daynight":"N"},"geometry":{"type":"Point","coordinates":[-122.39861,37.95096]}},{"type":"Feature","properties":{"acq_date":"2026-09-14","acq_time":1104,"confidence":"n","satellite":"N","instrument":"VIIRS","version":"2.0NRT","bright_ti4":296.72,"frp":0.71,"daynight":"N"},"geometry":{"type":"Point","coordinates":[-122.94334,39.22079]}},{"type":"Feature","properties":{"acq_date":"2026-09-14","acq_time":1104,"confidence":"n","satellite":"N","instrument":"VIIRS","version":"2.0NRT","bright_ti4":308.41,"frp":0.71,"daynight":"N"},"geometry":{"type":"Point","coordinates":[-122.94859,39.22219]}}]}