{"type":"FeatureCollection","name":"FIRMS VIIRS CA (last 1 day)","crs":{"type":"name","properties":{"name":"EPSG:4326"}},"fetched_at_utc":"2026-09-12T16:51:33.941Z","source":{"url":"https://firms.modaps.eosdis.nasa.gov/api/area/csv/8c4af552cf654445dd280dfb3ad9337c/VIIRS_SNPP_NRT/-125,32,-113,43.5/1","dataset":"VIIRS_SNPP_NRT","bbox":"-125,32,-113,43.5","day_range":"1"},"features":[{"type":"Feature","properties":{"acq_date":"2026-09-12","acq_time":1000,"confidence":"n","satellite":"N","instrument":"VIIRS","version":"2.0NRT","bright_ti4":309.33,"frp":1.3,"daynight":"N"},"geometry":{"type":"Point","coordinates":[-117.66385,41.54531]}},{"type":"Feature","properties":{"acq_date":"2026-09-12","acq_time":1000,"confidence":"n","satellite":"N","instrument":"VIIRS","version":"2.0NRT","bright_ti4":299.62,"frp":0.36,"daynight":"N"},"geometry":{"type":"Point","coordinates":[-122.77718,42.38394]}},{"type":"Feature","properties":{"acq_date":"2026-09-12","acq_time":1000,"confidence":"n","satellite":"N","instrument":"VIIRS","version":"2.0NRT","bright_ti4":296.19,"frp":0.54,"daynight":"N"},"geometry":{"type":"Point","coordinates":[-122.77587,42.38445]}},{"type":"Feature","properties":{"acq_date":"2026-09-12","acq_time":1000,"confidence":"n","satellite":"N","instrument":"VIIRS","version":"2.0NRT","bright_ti4":326.4,"frp":2.18,"daynight":"N"},"geometry":{"type":"Point","coordinates":[-121.10664,42.86716]}},{"type":"Feature","properties":{"acq_date":"2026-09-12","acq_time":1000,"confidence":"n","satellite":"N","instrument":"VIIRS","version":"2.0NRT","bright_ti4":314.91,"frp":2.18,"daynight":"N"},"geometry":{"type":"Point","coordinates":[-121.11196,42.86783]}},{"type":"Feature","properties":{"acq_date":"2026-09-12","acq_time":1000,"confidence":"n","satellite":"N","instrument":"VIIRS","version":"2.0NRT","bright_ti4":316.13,"frp":2.18,"daynight":"N"},"geometry":{"type":"Point","coordinates":[-121.10578,42.87065]}},{"type":"Feature","properties":{"acq_date":"2026-09-12","acq_time":1000,"confidence":"n","satellite":"N","instrument":"VIIRS","version":"2.0NRT","bright_ti4":303.54,"frp":2.18,"daynight":"N"},"geometry":{"type":"Point","coordinates":[-121.11112,42.87132]}},{"type":"Feature","properties":{"acq_date":"2026-09-12","acq_time":1000,"confidence":"n","satellite":"N","instrument":"VIIRS","version":"2.0NRT","bright_ti4":301.2,"frp":0.69,"daynight":"N"},"geometry":{"type":"Point","coordinates":[-115.66727,43.14557]}},{"type":"Feature","properties":{"acq_date":"2026-09-12","acq_time":1000,"confidence":"n","satellite":"N","instrument":"VIIRS","version":"2.0NRT","bright_ti4":297.22,"frp":0.69,"daynight":"N"},"geometry":{"type":"Point","coordinates":[-115.66619,43.14888]}},{"type":"Feature","properties":{"acq_date":"2026-09-12","acq_time":1000,"confidence":"n","satellite":"N","instrument":"VIIRS","version":"2.0NRT","bright_ti4":295.39,"frp":0.52,"daynight":"N"},"geometry":{"type":"Point","coordinates":[-115.73299,43.17808]}},{"type":"Feature","properties":{"acq_date":"2026-09-12","acq_time":1000,"confidence":"n","satellite":"N","instrument":"VIIRS","version":"2.0NRT","bright_ti4":296.83,"frp":0.52,"daynight":"N"},"geometry":{"type":"Point","coordinates":[-115.73191,43.18139]}},{"type":"Feature","properties":{"acq_date":"2026-09-12","acq_time":1002,"confidence":"n","satellite":"N","instrument":"VIIRS","version":"2.0NRT","bright_ti4":307.51,"frp":1,"daynight":"N"},"geometry":{"type":"Point","coordinates":[-117.6188,33.49206]}},{"type":"Feature","properties":{"acq_date":"2026-09-12","acq_time":1002,"confidence":"n","satellite":"N","instrument":"VIIRS","version":"2.0NRT","bright_ti4":303.93,"frp":0.75,"daynight":"N"},"geometry":{"type":"Point","coordinates":[-117.82308,33.6127]}},{"type":"Feature","properties":{"acq_date":"2026-09-12","acq_time":1002,"confidence":"n","satellite":"N","instrument":"VIIRS","version":"2.0NRT","bright_ti4":316.97,"frp":1.29,"daynight":"N"},"geometry":{"type":"Point","coordinates":[-117.71043,33.71683]}},{"type":"Feature","properties":{"acq_date":"2026-09-12","acq_time":1002,"confidence":"n","satellite":"N","instrument":"VIIRS","version":"2.0NRT","bright_ti4":313.68,"frp":1.41,"daynight":"N"},"geometry":{"type":"Point","coordinates":[-117.47578,33.79351]}},{"type":"Feature","properties":{"acq_date":"2026-09-12","acq_time":1002,"confidence":"n","satellite":"N","instrument":"VIIRS","version":"2.0NRT","bright_ti4":306.8,"frp":0.57,"daynight":"N"},"geometry":{"type":"Point","coordinates":[-118.10461,34.03587]}},{"type":"Feature","properties":{"acq_date":"2026-09-12","acq_time":1002,"confidence":"n","satellite":"N","instrument":"VIIRS","version":"2.0NRT","bright_ti4":304.33,"frp":0.39,"daynight":"N"},"geometry":{"type":"Point","coordinates":[-117.82138,34.04221]}},{"type":"Feature","properties":{"acq_date":"2026-09-12","acq_time":1002,"confidence":"n","satellite":"N","instrument":"VIIRS","version":"2.0NRT","bright_ti4":305.82,"frp":0.7,"daynight":"N"},"geometry":{"type":"Point","coordinates":[-117.92632,34.11642]}},{"type":"Feature","properties":{"acq_date":"2026-09-12","acq_time":1002,"confidence":"n","satellite":"N","instrument":"VIIRS","version":"2.0NRT","bright_ti4":304.98,"frp":0.44,"daynight":"N"},"geometry":{"type":"Point","coordinates":[-117.42529,34.1418]}},{"type":"Feature","properties":{"acq_date":"2026-09-12","acq_time":1002,"confidence":"n","satellite":"N","instrument":"VIIRS","version":"2.0NRT","bright_ti4":319.02,"frp":1.4,"daynight":"N"},"geometry":{"type":"Point","coordinates":[-118.19267,34.15354]}},{"type":"Feature","properties":{"acq_date":"2026-09-12","acq_time":1002,"confidence":"n","satellite":"N","instrument":"VIIRS","version":"2.0NRT","bright_ti4":307.96,"frp":0.57,"daynight":"N"},"geometry":{"type":"Point","coordinates":[-118.38076,34.24327]}},{"type":"Feature","properties":{"acq_date":"2026-09-12","acq_time":1002,"confidence":"n","satellite":"N","instrument":"VIIRS","version":"2.0NRT","bright_ti4":307.98,"frp":0.57,"daynight":"N"},"geometry":{"type":"Point","coordinates":[-118.80215,34.29192]}},{"type":"Feature","properties":{"acq_date":"2026-09-12","acq_time":1002,"confidence":"n","satellite":"N","instrument":"VIIRS","version":"2.0NRT","bright_ti4":328.76,"frp":2.16,"daynight":"N"},"geometry":{"type":"Point","coordinates":[-118.51955,34.33476]}},{"type":"Feature","properties":{"acq_date":"2026-09-12","acq_time":1002,"confidence":"n","satellite":"N","instrument":"VIIRS","version":"2.0NRT","bright_ti4":307,"frp":1.31,"daynight":"N"},"geometry":{"type":"Point","coordinates":[-116.85139,34.35542]}},{"type":"Feature","properties":{"acq_date":"2026-09-12","acq_time":1002,"confidence":"n","satellite":"N","instrument":"VIIRS","version":"2.0NRT","bright_ti4":310.85,"frp":0.67,"daynight":"N"},"geometry":{"type":"Point","coordinates":[-118.64597,34.43073]}},{"type":"Feature","properties":{"acq_date":"2026-09-12","acq_time":1002,"confidence":"n","satellite":"N","instrument":"VIIRS","version":"2.0NRT","bright_ti4":303.18,"frp":0.67,"daynight":"N"},"geometry":{"type":"Point","coordinates":[-118.6452,34.43409]}},{"type":"Feature","properties":{"acq_date":"2026-09-12","acq_time":1002,"confidence":"n","satellite":"N","instrument":"VIIRS","version":"2.0NRT","bright_ti4":308.76,"frp":1.19,"daynight":"N"},"geometry":{"type":"Point","coordinates":[-117.337,34.60663]}},{"type":"Feature","properties":{"acq_date":"2026-09-12","acq_time":1002,"confidence":"n","satellite":"N","instrument":"VIIRS","version":"2.0NRT","bright_ti4":308.97,"frp":1.29,"daynight":"N"},"geometry":{"type":"Point","coordinates":[-117.33612,34.61009]}},{"type":"Feature","properties":{"acq_date":"2026-09-12","acq_time":1002,"confidence":"n","satellite":"N","instrument":"VIIRS","version":"2.0NRT","bright_ti4":319.24,"frp":2.33,"daynight":"N"},"geometry":{"type":"Point","coordinates":[-117.10091,34.62126]}},{"type":"Feature","properties":{"acq_date":"2026-09-12","acq_time":1002,"confidence":"n","satellite":"N","instrument":"VIIRS","version":"2.0NRT","bright_ti4":301.07,"frp":0.3,"daynight":"N"},"geometry":{"type":"Point","coordinates":[-118.75643,35.34682]}},{"type":"Feature","properties":{"acq_date":"2026-09-12","acq_time":1002,"confidence":"n","satellite":"N","instrument":"VIIRS","version":"2.0NRT","bright_ti4":309.51,"frp":1.71,"daynight":"N"},"geometry":{"type":"Point","coordinates":[-113.31522,35.51845]}},{"type":"Feature","properties":{"acq_date":"2026-09-12","acq_time":1002,"confidence":"n","satellite":"N","instrument":"VIIRS","version":"2.0NRT","bright_ti4":306.97,"frp":3.05,"daynight":"N"},"geometry":{"type":"Point","coordinates":[-114.91177,36.35604]}},{"type":"Feature","properties":{"acq_date":"2026-09-12","acq_time":1002,"confidence":"n","satellite":"N","instrument":"VIIRS","version":"2.0NRT","bright_ti4":311.84,"frp":2.72,"daynight":"N"},"geometry":{"type":"Point","coordinates":[-114.91352,36.35665]}},{"type":"Feature","properties":{"acq_date":"2026-09-12","acq_time":1002,"confidence":"n","satellite":"N","instrument":"VIIRS","version":"2.0NRT","bright_ti4":307.5,"frp":0.78,"daynight":"N"},"geometry":{"type":"Point","coordinates":[-120.19576,37.02542]}},{"type":"Feature","properties":{"acq_date":"2026-09-12","acq_time":1002,"confidence":"n","satellite":"N","instrument":"VIIRS","version":"2.0NRT","bright_ti4":298.06,"frp":0.17,"daynight":"N"},"geometry":{"type":"Point","coordinates":[-121.90282,37.21447]}},{"type":"Feature","properties":{"acq_date":"2026-09-12","acq_time":1002,"confidence":"n","satellite":"N","instrument":"VIIRS","version":"2.0NRT","bright_ti4":312.85,"frp":1.02,"daynight":"N"},"geometry":{"type":"Point","coordinates":[-121.93329,37.45567]}},{"type":"Feature","properties":{"acq_date":"2026-09-12","acq_time":1002,"confidence":"n","satellite":"N","instrument":"VIIRS","version":"2.0NRT","bright_ti4":302.34,"frp":0.35,"daynight":"N"},"geometry":{"type":"Point","coordinates":[-121.65878,37.75592]}},{"type":"Feature","properties":{"acq_date":"2026-09-12","acq_time":1002,"confidence":"n","satellite":"N","instrument":"VIIRS","version":"2.0NRT","bright_ti4":298.94,"frp":0.29,"daynight":"N"},"geometry":{"type":"Point","coordinates":[-121.18681,37.88527]}},{"type":"Feature","properties":{"acq_date":"2026-09-12","acq_time":1002,"confidence":"n","satellite":"N","instrument":"VIIRS","version":"2.0NRT","bright_ti4":301.9,"frp":0.47,"daynight":"N"},"geometry":{"type":"Point","coordinates":[-121.93478,38.00252]}},{"type":"Feature","properties":{"acq_date":"2026-09-12","acq_time":1002,"confidence":"n","satellite":"N","instrument":"VIIRS","version":"2.0NRT","bright_ti4":304.17,"frp":0.57,"daynight":"N"},"geometry":{"type":"Point","coordinates":[-121.93415,38.00598]}},{"type":"Feature","properties":{"acq_date":"2026-09-12","acq_time":1002,"confidence":"n","satellite":"N","instrument":"VIIRS","version":"2.0NRT","bright_ti4":330.45,"frp":4.77,"daynight":"N"},"geometry":{"type":"Point","coordinates":[-122.95039,39.20636]}},{"type":"Feature","properties":{"acq_date":"2026-09-12","acq_time":1002,"confidence":"n","satellite":"N","instrument":"VIIRS","version":"2.0NRT","bright_ti4":305.93,"frp":1.78,"daynight":"N"},"geometry":{"type":"Point","coordinates":[-122.9615,39.20771]}},{"type":"Feature","properties":{"acq_date":"2026-09-12","acq_time":1002,"confidence":"n","satellite":"N","instrument":"VIIRS","version":"2.0NRT","bright_ti4":345.46,"frp":4.77,"daynight":"N"},"geometry":{"type":"Point","coordinates":[-122.9494,39.20994]}},{"type":"Feature","properties":{"acq_date":"2026-09-12","acq_time":1002,"confidence":"n","satellite":"N","instrument":"VIIRS","version":"2.0NRT","bright_ti4":315.65,"frp":4.77,"daynight":"N"},"geometry":{"type":"Point","coordinates":[-122.95466,39.21058]}},{"type":"Feature","properties":{"acq_date":"2026-09-12","acq_time":1002,"confidence":"n","satellite":"N","instrument":"VIIRS","version":"2.0NRT","bright_ti4":317.91,"frp":1.78,"daynight":"N"},"geometry":{"type":"Point","coordinates":[-122.96021,39.21125]}},{"type":"Feature","properties":{"acq_date":"2026-09-12","acq_time":1002,"confidence":"n","satellite":"N","instrument":"VIIRS","version":"2.0NRT","bright_ti4":332.21,"frp":4.67,"daynight":"N"},"geometry":{"type":"Point","coordinates":[-122.94869,39.21355]}},{"type":"Feature","properties":{"acq_date":"2026-09-12","acq_time":1002,"confidence":"n","satellite":"N","instrument":"VIIRS","version":"2.0NRT","bright_ti4":312.91,"frp":4.67,"daynight":"N"},"geometry":{"type":"Point","coordinates":[-122.95369,39.21416]}},{"type":"Feature","properties":{"acq_date":"2026-09-12","acq_time":1002,"confidence":"n","satellite":"N","instrument":"VIIRS","version":"2.0NRT","bright_ti4":342.87,"frp":4.67,"daynight":"N"},"geometry":{"type":"Point","coordinates":[-122.95315,39.21779]}},{"type":"Feature","properties":{"acq_date":"2026-09-12","acq_time":1002,"confidence":"n","satellite":"N","instrument":"VIIRS","version":"2.0NRT","bright_ti4":298.82,"frp":0.45,"daynight":"N"},"geometry":{"type":"Point","coordinates":[-122.98673,39.21818]}},{"type":"Feature","properties":{"acq_date":"2026-09-12","acq_time":1002,"confidence":"n","satellite":"N","instrument":"VIIRS","version":"2.0NRT","bright_ti4":310.72,"frp":2.93,"daynight":"N"},"geometry":{"type":"Point","coordinates":[-122.95824,39.21841]}},{"type":"Feature","properties":{"acq_date":"2026-09-12","acq_time":1002,"confidence":"n","satellite":"N","instrument":"VIIRS","version":"2.0NRT","bright_ti4":354.99,"frp":16.64,"daynight":"N"},"geometry":{"type":"Point","coordinates":[-122.95261,39.22142]}},{"type":"Feature","properties":{"acq_date":"2026-09-12","acq_time":1002,"confidence":"n","satellite":"N","instrument":"VIIRS","version":"2.0NRT","bright_ti4":339.39,"frp":2.66,"daynight":"N"},"geometry":{"type":"Point","coordinates":[-122.95752,39.22203]}},{"type":"Feature","properties":{"acq_date":"2026-09-12","acq_time":1002,"confidence":"n","satellite":"N","instrument":"VIIRS","version":"2.0NRT","bright_ti4":303.46,"frp":2.66,"daynight":"N"},"geometry":{"type":"Point","coordinates":[-122.96255,39.22264]}},{"type":"Feature","properties":{"acq_date":"2026-09-12","acq_time":1002,"confidence":"n","satellite":"N","instrument":"VIIRS","version":"2.0NRT","bright_ti4":300.42,"frp":16.64,"daynight":"N"},"geometry":{"type":"Point","coordinates":[-122.94722,39.22446]}},{"type":"Feature","properties":{"acq_date":"2026-09-12","acq_time":1002,"confidence":"n","satellite":"N","instrument":"VIIRS","version":"2.0NRT","bright_ti4":326.08,"frp":2.66,"daynight":"N"},"geometry":{"type":"Point","coordinates":[-122.95685,39.22564]}},{"type":"Feature","properties":{"acq_date":"2026-09-12","acq_time":1002,"confidence":"n","satellite":"N","instrument":"VIIRS","version":"2.0NRT","bright_ti4":304.91,"frp":2.66,"daynight":"N"},"geometry":{"type":"Point","coordinates":[-122.96188,39.22626]}},{"type":"Feature","properties":{"acq_date":"2026-09-12","acq_time":1002,"confidence":"n","satellite":"N","instrument":"VIIRS","version":"2.0NRT","bright_ti4":303.66,"frp":1.21,"daynight":"N"},"geometry":{"type":"Point","coordinates":[-122.99508,39.2266]}},{"type":"Feature","properties":{"acq_date":"2026-09-12","acq_time":1002,"confidence":"n","satellite":"N","instrument":"VIIRS","version":"2.0NRT","bright_ti4":305.85,"frp":1.14,"daynight":"N"},"geometry":{"type":"Point","coordinates":[-122.94674,39.2281]}},{"type":"Feature","properties":{"acq_date":"2026-09-12","acq_time":1002,"confidence":"n","satellite":"N","instrument":"VIIRS","version":"2.0NRT","bright_ti4":303.62,"frp":1.14,"daynight":"N"},"geometry":{"type":"Point","coordinates":[-122.95139,39.22867]}},{"type":"Feature","properties":{"acq_date":"2026-09-12","acq_time":1002,"confidence":"n","satellite":"N","instrument":"VIIRS","version":"2.0NRT","bright_ti4":304.08,"frp":1.21,"daynight":"N"},"geometry":{"type":"Point","coordinates":[-122.99392,39.23017]}},{"type":"Feature","properties":{"acq_date":"2026-09-12","acq_time":1002,"confidence":"n","satellite":"N","instrument":"VIIRS","version":"2.0NRT","bright_ti4":300.06,"frp":1.71,"daynight":"N"},"geometry":{"type":"Point","coordinates":[-122.96629,39.2305]}},{"type":"Feature","properties":{"acq_date":"2026-09-12","acq_time":1002,"confidence":"n","satellite":"N","instrument":"VIIRS","version":"2.0NRT","bright_ti4":308.05,"frp":1.29,"daynight":"N"},"geometry":{"type":"Point","coordinates":[-122.9994,39.23084]}},{"type":"Feature","properties":{"acq_date":"2026-09-12","acq_time":1002,"confidence":"n","satellite":"N","instrument":"VIIRS","version":"2.0NRT","bright_ti4":298.53,"frp":0.63,"daynight":"N"},"geometry":{"type":"Point","coordinates":[-122.97649,39.23175]}},{"type":"Feature","properties":{"acq_date":"2026-09-12","acq_time":1002,"confidence":"n","satellite":"N","instrument":"VIIRS","version":"2.0NRT","bright_ti4":313.32,"frp":1.14,"daynight":"N"},"geometry":{"type":"Point","coordinates":[-122.9509,39.23231]}},{"type":"Feature","properties":{"acq_date":"2026-09-12","acq_time":1002,"confidence":"n","satellite":"N","instrument":"VIIRS","version":"2.0NRT","bright_ti4":302.05,"frp":0.63,"daynight":"N"},"geometry":{"type":"Point","coordinates":[-122.98186,39.23241]}},{"type":"Feature","properties":{"acq_date":"2026-09-12","acq_time":1002,"confidence":"n","satellite":"N","instrument":"VIIRS","version":"2.0NRT","bright_ti4":300.98,"frp":1.9,"daynight":"N"},"geometry":{"type":"Point","coordinates":[-122.95569,39.2329]}},{"type":"Feature","properties":{"acq_date":"2026-09-12","acq_time":1002,"confidence":"n","satellite":"N","instrument":"VIIRS","version":"2.0NRT","bright_ti4":301.11,"frp":0.77,"daynight":"N"},"geometry":{"type":"Point","coordinates":[-122.98739,39.23308]}},{"type":"Feature","properties":{"acq_date":"2026-09-12","acq_time":1002,"confidence":"n","satellite":"N","instrument":"VIIRS","version":"2.0NRT","bright_ti4":298.3,"frp":0.77,"daynight":"N"},"geometry":{"type":"Point","coordinates":[-122.99274,39.23374]}},{"type":"Feature","properties":{"acq_date":"2026-09-12","acq_time":1002,"confidence":"n","satellite":"N","instrument":"VIIRS","version":"2.0NRT","bright_ti4":312.85,"frp":1.52,"daynight":"N"},"geometry":{"type":"Point","coordinates":[-122.95036,39.23594]}},{"type":"Feature","properties":{"acq_date":"2026-09-12","acq_time":1002,"confidence":"n","satellite":"N","instrument":"VIIRS","version":"2.0NRT","bright_ti4":305.75,"frp":2.41,"daynight":"N"},"geometry":{"type":"Point","coordinates":[-122.95519,39.23654]}},{"type":"Feature","properties":{"acq_date":"2026-09-12","acq_time":1002,"confidence":"n","satellite":"N","instrument":"VIIRS","version":"2.0NRT","bright_ti4":320.39,"frp":1.52,"daynight":"N"},"geometry":{"type":"Point","coordinates":[-122.9498,39.23957]}},{"type":"Feature","properties":{"acq_date":"2026-09-12","acq_time":1002,"confidence":"n","satellite":"N","instrument":"VIIRS","version":"2.0NRT","bright_ti4":299.94,"frp":0.94,"daynight":"N"},"geometry":{"type":"Point","coordinates":[-122.98006,39.23959]}},{"type":"Feature","properties":{"acq_date":"2026-09-12","acq_time":1002,"confidence":"n","satellite":"N","instrument":"VIIRS","version":"2.0NRT","bright_ti4":322.23,"frp":2.41,"daynight":"N"},"geometry":{"type":"Point","coordinates":[-122.95476,39.24018]}},{"type":"Feature","properties":{"acq_date":"2026-09-12","acq_time":1002,"confidence":"n","satellite":"N","instrument":"VIIRS","version":"2.0NRT","bright_ti4":297.61,"frp":0.59,"daynight":"N"},"geometry":{"type":"Point","coordinates":[-122.98549,39.24026]}},{"type":"Feature","properties":{"acq_date":"2026-09-12","acq_time":1002,"confidence":"n","satellite":"N","instrument":"VIIRS","version":"2.0NRT","bright_ti4":326.48,"frp":2.41,"daynight":"N"},"geometry":{"type":"Point","coordinates":[-122.95947,39.24076]}},{"type":"Feature","properties":{"acq_date":"2026-09-12","acq_time":1002,"confidence":"n","satellite":"N","instrument":"VIIRS","version":"2.0NRT","bright_ti4":311.15,"frp":1.36,"daynight":"N"},"geometry":{"type":"Point","coordinates":[-122.96433,39.24136]}},{"type":"Feature","properties":{"acq_date":"2026-09-12","acq_time":1002,"confidence":"n","satellite":"N","instrument":"VIIRS","version":"2.0NRT","bright_ti4":305.6,"frp":1.36,"daynight":"N"},"geometry":{"type":"Point","coordinates":[-122.96941,39.24198]}},{"type":"Feature","properties":{"acq_date":"2026-09-12","acq_time":1002,"confidence":"n","satellite":"N","instrument":"VIIRS","version":"2.0NRT","bright_ti4":302.62,"frp":0.94,"daynight":"N"},"geometry":{"type":"Point","coordinates":[-122.97443,39.2426]}},{"type":"Feature","properties":{"acq_date":"2026-09-12","acq_time":1002,"confidence":"n","satellite":"N","instrument":"VIIRS","version":"2.0NRT","bright_ti4":302.2,"frp":8.7,"daynight":"N"},"geometry":{"type":"Point","coordinates":[-122.95417,39.2438]}},{"type":"Feature","properties":{"acq_date":"2026-09-12","acq_time":1002,"confidence":"n","satellite":"N","instrument":"VIIRS","version":"2.0NRT","bright_ti4":350.14,"frp":8.7,"daynight":"N"},"geometry":{"type":"Point","coordinates":[-122.95905,39.2444]}},{"type":"Feature","properties":{"acq_date":"2026-09-12","acq_time":1002,"confidence":"n","satellite":"N","instrument":"VIIRS","version":"2.0NRT","bright_ti4":314.69,"frp":3.05,"daynight":"N"},"geometry":{"type":"Point","coordinates":[-122.96392,39.24501]}},{"type":"Feature","properties":{"acq_date":"2026-09-12","acq_time":1002,"confidence":"n","satellite":"N","instrument":"VIIRS","version":"2.0NRT","bright_ti4":341.77,"frp":8.7,"daynight":"N"},"geometry":{"type":"Point","coordinates":[-122.95863,39.24805]}},{"type":"Feature","properties":{"acq_date":"2026-09-12","acq_time":1002,"confidence":"n","satellite":"N","instrument":"VIIRS","version":"2.0NRT","bright_ti4":298.45,"frp":0.57,"daynight":"N"},"geometry":{"type":"Point","coordinates":[-119.62051,39.49194]}},{"type":"Feature","properties":{"acq_date":"2026-09-12","acq_time":1002,"confidence":"n","satellite":"N","instrument":"VIIRS","version":"2.0NRT","bright_ti4":314.91,"frp":1.05,"daynight":"N"},"geometry":{"type":"Point","coordinates":[-119.26114,39.62071]}},{"type":"Feature","properties":{"acq_date":"2026-09-12","acq_time":1002,"confidence":"n","satellite":"N","instrument":"VIIRS","version":"2.0NRT","bright_ti4":298.18,"frp":0.34,"daynight":"N"},"geometry":{"type":"Point","coordinates":[-122.32499,40.73587]}},{"type":"Feature","properties":{"acq_date":"2026-09-12","acq_time":1002,"confidence":"n","satellite":"N","instrument":"VIIRS","version":"2.0NRT","bright_ti4":298.65,"frp":0.82,"daynight":"N"},"geometry":{"type":"Point","coordinates":[-117.85927,40.93993]}},{"type":"Feature","properties":{"acq_date":"2026-09-12","acq_time":1004,"confidence":"n","satellite":"N","instrument":"VIIRS","version":"2.0NRT","bright_ti4":303.43,"frp":0.82,"daynight":"N"},"geometry":{"type":"Point","coordinates":[-116.81443,32.45279]}},{"type":"Feature","properties":{"acq_date":"2026-09-12","acq_time":1004,"confidence":"n","satellite":"N","instrument":"VIIRS","version":"2.0NRT","bright_ti4":305.39,"frp":0.68,"daynight":"N"},"geometry":{"type":"Point","coordinates":[-117.00948,32.59937]}},{"type":"Feature","properties":{"acq_date":"2026-09-12","acq_time":1004,"confidence":"n","satellite":"N","instrument":"VIIRS","version":"2.0NRT","bright_ti4":304.8,"frp":0.79,"daynight":"N"},"geometry":{"type":"Point","coordinates":[-117.01297,32.59971]}},{"type":"Feature","properties":{"acq_date":"2026-09-12","acq_time":1004,"confidence":"n","satellite":"N","instrument":"VIIRS","version":"2.0NRT","bright_ti4":304,"frp":0.21,"daynight":"N"},"geometry":{"type":"Point","coordinates":[-117.14643,32.85949]}}]}