{"type":"FeatureCollection","name":"FIRMS VIIRS CA (last 1 day)","crs":{"type":"name","properties":{"name":"EPSG:4326"}},"fetched_at_utc":"2026-08-05T16:01:55.835Z","source":{"url":"https://firms.modaps.eosdis.nasa.gov/api/area/csv/8c4af552cf654445dd280dfb3ad9337c/VIIRS_SNPP_NRT/-125,32,-113,43.5/1","dataset":"VIIRS_SNPP_NRT","bbox":"-125,32,-113,43.5","day_range":"1"},"features":[{"type":"Feature","properties":{"acq_date":"2026-08-05","acq_time":833,"confidence":"n","satellite":"N","instrument":"VIIRS","version":"2.0NRT","bright_ti4":299.61,"frp":1.78,"daynight":"N"},"geometry":{"type":"Point","coordinates":[-114.25947,40.82283]}},{"type":"Feature","properties":{"acq_date":"2026-08-05","acq_time":835,"confidence":"n","satellite":"N","instrument":"VIIRS","version":"2.0NRT","bright_ti4":310.92,"frp":6.76,"daynight":"N"},"geometry":{"type":"Point","coordinates":[-114.91688,36.35682]}},{"type":"Feature","properties":{"acq_date":"2026-08-05","acq_time":835,"confidence":"n","satellite":"N","instrument":"VIIRS","version":"2.0NRT","bright_ti4":313.33,"frp":3.23,"daynight":"N"},"geometry":{"type":"Point","coordinates":[-114.91171,36.35694]}},{"type":"Feature","properties":{"acq_date":"2026-08-05","acq_time":1011,"confidence":"n","satellite":"N","instrument":"VIIRS","version":"2.0NRT","bright_ti4":322.14,"frp":2.72,"daynight":"N"},"geometry":{"type":"Point","coordinates":[-114.25738,40.8218]}},{"type":"Feature","properties":{"acq_date":"2026-08-05","acq_time":1011,"confidence":"n","satellite":"N","instrument":"VIIRS","version":"2.0NRT","bright_ti4":321.63,"frp":1.5,"daynight":"N"},"geometry":{"type":"Point","coordinates":[-116.85324,42.32988]}},{"type":"Feature","properties":{"acq_date":"2026-08-05","acq_time":1011,"confidence":"n","satellite":"N","instrument":"VIIRS","version":"2.0NRT","bright_ti4":298.1,"frp":1.5,"daynight":"N"},"geometry":{"type":"Point","coordinates":[-116.85198,42.3334]}},{"type":"Feature","properties":{"acq_date":"2026-08-05","acq_time":1011,"confidence":"n","satellite":"N","instrument":"VIIRS","version":"2.0NRT","bright_ti4":299.52,"frp":0.63,"daynight":"N"},"geometry":{"type":"Point","coordinates":[-116.85072,42.33693]}},{"type":"Feature","properties":{"acq_date":"2026-08-05","acq_time":1011,"confidence":"n","satellite":"N","instrument":"VIIRS","version":"2.0NRT","bright_ti4":300.57,"frp":0.63,"daynight":"N"},"geometry":{"type":"Point","coordinates":[-116.84951,42.34047]}},{"type":"Feature","properties":{"acq_date":"2026-08-05","acq_time":1011,"confidence":"n","satellite":"N","instrument":"VIIRS","version":"2.0NRT","bright_ti4":295.07,"frp":0.63,"daynight":"N"},"geometry":{"type":"Point","coordinates":[-116.85513,42.34157]}},{"type":"Feature","properties":{"acq_date":"2026-08-05","acq_time":1011,"confidence":"n","satellite":"N","instrument":"VIIRS","version":"2.0NRT","bright_ti4":295.89,"frp":0.71,"daynight":"N"},"geometry":{"type":"Point","coordinates":[-116.8483,42.344]}},{"type":"Feature","properties":{"acq_date":"2026-08-05","acq_time":1011,"confidence":"n","satellite":"N","instrument":"VIIRS","version":"2.0NRT","bright_ti4":299.24,"frp":0.71,"daynight":"N"},"geometry":{"type":"Point","coordinates":[-116.84711,42.34754]}},{"type":"Feature","properties":{"acq_date":"2026-08-05","acq_time":1011,"confidence":"n","satellite":"N","instrument":"VIIRS","version":"2.0NRT","bright_ti4":296.28,"frp":1.21,"daynight":"N"},"geometry":{"type":"Point","coordinates":[-116.83507,42.34895]}},{"type":"Feature","properties":{"acq_date":"2026-08-05","acq_time":1011,"confidence":"n","satellite":"N","instrument":"VIIRS","version":"2.0NRT","bright_ti4":297.14,"frp":0.73,"daynight":"N"},"geometry":{"type":"Point","coordinates":[-116.86375,42.35081]}},{"type":"Feature","properties":{"acq_date":"2026-08-05","acq_time":1011,"confidence":"n","satellite":"N","instrument":"VIIRS","version":"2.0NRT","bright_ti4":301.83,"frp":1.17,"daynight":"N"},"geometry":{"type":"Point","coordinates":[-116.82848,42.35143]}},{"type":"Feature","properties":{"acq_date":"2026-08-05","acq_time":1011,"confidence":"n","satellite":"N","instrument":"VIIRS","version":"2.0NRT","bright_ti4":300.84,"frp":0.51,"daynight":"N"},"geometry":{"type":"Point","coordinates":[-116.86256,42.35435]}},{"type":"Feature","properties":{"acq_date":"2026-08-05","acq_time":1011,"confidence":"n","satellite":"N","instrument":"VIIRS","version":"2.0NRT","bright_ti4":298.02,"frp":0.51,"daynight":"N"},"geometry":{"type":"Point","coordinates":[-116.86135,42.35788]}},{"type":"Feature","properties":{"acq_date":"2026-08-05","acq_time":1011,"confidence":"n","satellite":"N","instrument":"VIIRS","version":"2.0NRT","bright_ti4":298.65,"frp":1.07,"daynight":"N"},"geometry":{"type":"Point","coordinates":[-116.82529,42.36212]}},{"type":"Feature","properties":{"acq_date":"2026-08-05","acq_time":1011,"confidence":"n","satellite":"N","instrument":"VIIRS","version":"2.0NRT","bright_ti4":308.57,"frp":1.3,"daynight":"N"},"geometry":{"type":"Point","coordinates":[-116.83078,42.3632]}},{"type":"Feature","properties":{"acq_date":"2026-08-05","acq_time":1011,"confidence":"n","satellite":"N","instrument":"VIIRS","version":"2.0NRT","bright_ti4":309.69,"frp":1.38,"daynight":"N"},"geometry":{"type":"Point","coordinates":[-116.8887,42.36325]}},{"type":"Feature","properties":{"acq_date":"2026-08-05","acq_time":1011,"confidence":"n","satellite":"N","instrument":"VIIRS","version":"2.0NRT","bright_ti4":307.17,"frp":1.38,"daynight":"N"},"geometry":{"type":"Point","coordinates":[-116.89432,42.36435]}},{"type":"Feature","properties":{"acq_date":"2026-08-05","acq_time":1011,"confidence":"n","satellite":"N","instrument":"VIIRS","version":"2.0NRT","bright_ti4":312.66,"frp":2.09,"daynight":"N"},"geometry":{"type":"Point","coordinates":[-116.8999,42.36544]}},{"type":"Feature","properties":{"acq_date":"2026-08-05","acq_time":1011,"confidence":"n","satellite":"N","instrument":"VIIRS","version":"2.0NRT","bright_ti4":306.69,"frp":1.3,"daynight":"N"},"geometry":{"type":"Point","coordinates":[-116.82969,42.36676]}},{"type":"Feature","properties":{"acq_date":"2026-08-05","acq_time":1011,"confidence":"n","satellite":"N","instrument":"VIIRS","version":"2.0NRT","bright_ti4":298.1,"frp":1.22,"daynight":"N"},"geometry":{"type":"Point","coordinates":[-116.88758,42.36679]}},{"type":"Feature","properties":{"acq_date":"2026-08-05","acq_time":1011,"confidence":"n","satellite":"N","instrument":"VIIRS","version":"2.0NRT","bright_ti4":300.15,"frp":1.08,"daynight":"N"},"geometry":{"type":"Point","coordinates":[-116.85229,42.36742]}},{"type":"Feature","properties":{"acq_date":"2026-08-05","acq_time":1011,"confidence":"n","satellite":"N","instrument":"VIIRS","version":"2.0NRT","bright_ti4":310.41,"frp":1.22,"daynight":"N"},"geometry":{"type":"Point","coordinates":[-116.89323,42.3679]}},{"type":"Feature","properties":{"acq_date":"2026-08-05","acq_time":1011,"confidence":"n","satellite":"N","instrument":"VIIRS","version":"2.0NRT","bright_ti4":301.51,"frp":1.2,"daynight":"N"},"geometry":{"type":"Point","coordinates":[-116.89883,42.369]}},{"type":"Feature","properties":{"acq_date":"2026-08-05","acq_time":1011,"confidence":"n","satellite":"N","instrument":"VIIRS","version":"2.0NRT","bright_ti4":308.15,"frp":2.02,"daynight":"N"},"geometry":{"type":"Point","coordinates":[-116.82293,42.36921]}},{"type":"Feature","properties":{"acq_date":"2026-08-05","acq_time":1011,"confidence":"n","satellite":"N","instrument":"VIIRS","version":"2.0NRT","bright_ti4":309.69,"frp":1.32,"daynight":"N"},"geometry":{"type":"Point","coordinates":[-116.82855,42.37031]}},{"type":"Feature","properties":{"acq_date":"2026-08-05","acq_time":1011,"confidence":"n","satellite":"N","instrument":"VIIRS","version":"2.0NRT","bright_ti4":308.59,"frp":1.22,"daynight":"N"},"geometry":{"type":"Point","coordinates":[-116.89212,42.37145]}},{"type":"Feature","properties":{"acq_date":"2026-08-05","acq_time":1011,"confidence":"n","satellite":"N","instrument":"VIIRS","version":"2.0NRT","bright_ti4":313.21,"frp":2.02,"daynight":"N"},"geometry":{"type":"Point","coordinates":[-116.81626,42.37167]}},{"type":"Feature","properties":{"acq_date":"2026-08-05","acq_time":1011,"confidence":"n","satellite":"N","instrument":"VIIRS","version":"2.0NRT","bright_ti4":308.29,"frp":1.04,"daynight":"N"},"geometry":{"type":"Point","coordinates":[-116.81522,42.37206]}},{"type":"Feature","properties":{"acq_date":"2026-08-05","acq_time":1011,"confidence":"n","satellite":"N","instrument":"VIIRS","version":"2.0NRT","bright_ti4":315.24,"frp":1.2,"daynight":"N"},"geometry":{"type":"Point","coordinates":[-116.89776,42.37254]}},{"type":"Feature","properties":{"acq_date":"2026-08-05","acq_time":1011,"confidence":"n","satellite":"N","instrument":"VIIRS","version":"2.0NRT","bright_ti4":326.89,"frp":2.02,"daynight":"N"},"geometry":{"type":"Point","coordinates":[-116.82167,42.37273]}},{"type":"Feature","properties":{"acq_date":"2026-08-05","acq_time":1011,"confidence":"n","satellite":"N","instrument":"VIIRS","version":"2.0NRT","bright_ti4":334.06,"frp":2.17,"daynight":"N"},"geometry":{"type":"Point","coordinates":[-116.82058,42.37313]}},{"type":"Feature","properties":{"acq_date":"2026-08-05","acq_time":1011,"confidence":"n","satellite":"N","instrument":"VIIRS","version":"2.0NRT","bright_ti4":302.05,"frp":1.2,"daynight":"N"},"geometry":{"type":"Point","coordinates":[-116.90336,42.37364]}},{"type":"Feature","properties":{"acq_date":"2026-08-05","acq_time":1011,"confidence":"n","satellite":"N","instrument":"VIIRS","version":"2.0NRT","bright_ti4":300.81,"frp":1.32,"daynight":"N"},"geometry":{"type":"Point","coordinates":[-116.82739,42.37385]}},{"type":"Feature","properties":{"acq_date":"2026-08-05","acq_time":1011,"confidence":"n","satellite":"N","instrument":"VIIRS","version":"2.0NRT","bright_ti4":302.56,"frp":2.17,"daynight":"N"},"geometry":{"type":"Point","coordinates":[-116.82626,42.37427]}},{"type":"Feature","properties":{"acq_date":"2026-08-05","acq_time":1011,"confidence":"n","satellite":"N","instrument":"VIIRS","version":"2.0NRT","bright_ti4":309.6,"frp":1.39,"daynight":"N"},"geometry":{"type":"Point","coordinates":[-116.891,42.37499]}},{"type":"Feature","properties":{"acq_date":"2026-08-05","acq_time":1011,"confidence":"n","satellite":"N","instrument":"VIIRS","version":"2.0NRT","bright_ti4":310.78,"frp":1.78,"daynight":"N"},"geometry":{"type":"Point","coordinates":[-116.81507,42.37522]}},{"type":"Feature","properties":{"acq_date":"2026-08-05","acq_time":1011,"confidence":"n","satellite":"N","instrument":"VIIRS","version":"2.0NRT","bright_ti4":302.51,"frp":1.04,"daynight":"N"},"geometry":{"type":"Point","coordinates":[-116.81403,42.3756]}},{"type":"Feature","properties":{"acq_date":"2026-08-05","acq_time":1011,"confidence":"n","satellite":"N","instrument":"VIIRS","version":"2.0NRT","bright_ti4":303.44,"frp":2.45,"daynight":"N"},"geometry":{"type":"Point","coordinates":[-116.89662,42.37609]}},{"type":"Feature","properties":{"acq_date":"2026-08-05","acq_time":1011,"confidence":"n","satellite":"N","instrument":"VIIRS","version":"2.0NRT","bright_ti4":329.22,"frp":1.78,"daynight":"N"},"geometry":{"type":"Point","coordinates":[-116.82046,42.37627]}},{"type":"Feature","properties":{"acq_date":"2026-08-05","acq_time":1011,"confidence":"n","satellite":"N","instrument":"VIIRS","version":"2.0NRT","bright_ti4":317.31,"frp":2.17,"daynight":"N"},"geometry":{"type":"Point","coordinates":[-116.81937,42.37667]}},{"type":"Feature","properties":{"acq_date":"2026-08-05","acq_time":1011,"confidence":"n","satellite":"N","instrument":"VIIRS","version":"2.0NRT","bright_ti4":339.8,"frp":2.45,"daynight":"N"},"geometry":{"type":"Point","coordinates":[-116.90225,42.37719]}},{"type":"Feature","properties":{"acq_date":"2026-08-05","acq_time":1011,"confidence":"n","satellite":"N","instrument":"VIIRS","version":"2.0NRT","bright_ti4":308.32,"frp":2.5,"daynight":"N"},"geometry":{"type":"Point","coordinates":[-116.82615,42.37738]}},{"type":"Feature","properties":{"acq_date":"2026-08-05","acq_time":1011,"confidence":"n","satellite":"N","instrument":"VIIRS","version":"2.0NRT","bright_ti4":307.22,"frp":2.17,"daynight":"N"},"geometry":{"type":"Point","coordinates":[-116.82503,42.3778]}},{"type":"Feature","properties":{"acq_date":"2026-08-05","acq_time":1011,"confidence":"n","satellite":"N","instrument":"VIIRS","version":"2.0NRT","bright_ti4":325.41,"frp":3.96,"daynight":"N"},"geometry":{"type":"Point","coordinates":[-116.90788,42.37829]}},{"type":"Feature","properties":{"acq_date":"2026-08-05","acq_time":1011,"confidence":"n","satellite":"N","instrument":"VIIRS","version":"2.0NRT","bright_ti4":300.79,"frp":1.39,"daynight":"N"},"geometry":{"type":"Point","coordinates":[-116.88989,42.37853]}},{"type":"Feature","properties":{"acq_date":"2026-08-05","acq_time":1011,"confidence":"n","satellite":"N","instrument":"VIIRS","version":"2.0NRT","bright_ti4":303.59,"frp":2.45,"daynight":"N"},"geometry":{"type":"Point","coordinates":[-116.89549,42.37963]}},{"type":"Feature","properties":{"acq_date":"2026-08-05","acq_time":1011,"confidence":"n","satellite":"N","instrument":"VIIRS","version":"2.0NRT","bright_ti4":299.97,"frp":1.78,"daynight":"N"},"geometry":{"type":"Point","coordinates":[-116.81922,42.3798]}},{"type":"Feature","properties":{"acq_date":"2026-08-05","acq_time":1011,"confidence":"n","satellite":"N","instrument":"VIIRS","version":"2.0NRT","bright_ti4":297.79,"frp":1.98,"daynight":"N"},"geometry":{"type":"Point","coordinates":[-116.81818,42.38021]}},{"type":"Feature","properties":{"acq_date":"2026-08-05","acq_time":1011,"confidence":"n","satellite":"N","instrument":"VIIRS","version":"2.0NRT","bright_ti4":326.06,"frp":2.45,"daynight":"N"},"geometry":{"type":"Point","coordinates":[-116.90118,42.38073]}},{"type":"Feature","properties":{"acq_date":"2026-08-05","acq_time":1011,"confidence":"n","satellite":"N","instrument":"VIIRS","version":"2.0NRT","bright_ti4":302.49,"frp":1.31,"daynight":"N"},"geometry":{"type":"Point","coordinates":[-116.85324,42.38268]}},{"type":"Feature","properties":{"acq_date":"2026-08-05","acq_time":1011,"confidence":"n","satellite":"N","instrument":"VIIRS","version":"2.0NRT","bright_ti4":317.12,"frp":4.02,"daynight":"N"},"geometry":{"type":"Point","coordinates":[-116.8944,42.38318]}},{"type":"Feature","properties":{"acq_date":"2026-08-05","acq_time":1011,"confidence":"n","satellite":"N","instrument":"VIIRS","version":"2.0NRT","bright_ti4":302.3,"frp":1.06,"daynight":"N"},"geometry":{"type":"Point","coordinates":[-116.85217,42.38322]}},{"type":"Feature","properties":{"acq_date":"2026-08-05","acq_time":1011,"confidence":"n","satellite":"N","instrument":"VIIRS","version":"2.0NRT","bright_ti4":300.87,"frp":1.77,"daynight":"N"},"geometry":{"type":"Point","coordinates":[-116.83513,42.3836]}},{"type":"Feature","properties":{"acq_date":"2026-08-05","acq_time":1011,"confidence":"n","satellite":"N","instrument":"VIIRS","version":"2.0NRT","bright_ti4":301.84,"frp":1.14,"daynight":"N"},"geometry":{"type":"Point","coordinates":[-116.85863,42.38373]}},{"type":"Feature","properties":{"acq_date":"2026-08-05","acq_time":1011,"confidence":"n","satellite":"N","instrument":"VIIRS","version":"2.0NRT","bright_ti4":299.77,"frp":1.29,"daynight":"N"},"geometry":{"type":"Point","coordinates":[-116.87526,42.38406]}},{"type":"Feature","properties":{"acq_date":"2026-08-05","acq_time":1011,"confidence":"n","satellite":"N","instrument":"VIIRS","version":"2.0NRT","bright_ti4":304.54,"frp":2,"daynight":"N"},"geometry":{"type":"Point","coordinates":[-116.84165,42.38418]}},{"type":"Feature","properties":{"acq_date":"2026-08-05","acq_time":1011,"confidence":"n","satellite":"N","instrument":"VIIRS","version":"2.0NRT","bright_ti4":342.88,"frp":4.02,"daynight":"N"},"geometry":{"type":"Point","coordinates":[-116.90007,42.38428]}},{"type":"Feature","properties":{"acq_date":"2026-08-05","acq_time":1011,"confidence":"n","satellite":"N","instrument":"VIIRS","version":"2.0NRT","bright_ti4":303.06,"frp":1.06,"daynight":"N"},"geometry":{"type":"Point","coordinates":[-116.85753,42.38429]}},{"type":"Feature","properties":{"acq_date":"2026-08-05","acq_time":1011,"confidence":"n","satellite":"N","instrument":"VIIRS","version":"2.0NRT","bright_ti4":305.19,"frp":2.2,"daynight":"N"},"geometry":{"type":"Point","coordinates":[-116.84058,42.38469]}},{"type":"Feature","properties":{"acq_date":"2026-08-05","acq_time":1011,"confidence":"n","satellite":"N","instrument":"VIIRS","version":"2.0NRT","bright_ti4":305.8,"frp":0.99,"daynight":"N"},"geometry":{"type":"Point","coordinates":[-122.77287,42.3847]}},{"type":"Feature","properties":{"acq_date":"2026-08-05","acq_time":1011,"confidence":"n","satellite":"N","instrument":"VIIRS","version":"2.0NRT","bright_ti4":315.16,"frp":5.14,"daynight":"N"},"geometry":{"type":"Point","coordinates":[-116.90572,42.38538]}},{"type":"Feature","properties":{"acq_date":"2026-08-05","acq_time":1011,"confidence":"n","satellite":"N","instrument":"VIIRS","version":"2.0NRT","bright_ti4":327.81,"frp":1.77,"daynight":"N"},"geometry":{"type":"Point","coordinates":[-116.82829,42.38601]}},{"type":"Feature","properties":{"acq_date":"2026-08-05","acq_time":1011,"confidence":"n","satellite":"N","instrument":"VIIRS","version":"2.0NRT","bright_ti4":296.31,"frp":0.93,"daynight":"N"},"geometry":{"type":"Point","coordinates":[-116.88654,42.38631]}},{"type":"Feature","properties":{"acq_date":"2026-08-05","acq_time":1011,"confidence":"n","satellite":"N","instrument":"VIIRS","version":"2.0NRT","bright_ti4":308.41,"frp":4.02,"daynight":"N"},"geometry":{"type":"Point","coordinates":[-116.89335,42.38673]}},{"type":"Feature","properties":{"acq_date":"2026-08-05","acq_time":1011,"confidence":"n","satellite":"N","instrument":"VIIRS","version":"2.0NRT","bright_ti4":299.13,"frp":1.77,"daynight":"N"},"geometry":{"type":"Point","coordinates":[-116.83395,42.38714]}},{"type":"Feature","properties":{"acq_date":"2026-08-05","acq_time":1011,"confidence":"n","satellite":"N","instrument":"VIIRS","version":"2.0NRT","bright_ti4":301.66,"frp":1.14,"daynight":"N"},"geometry":{"type":"Point","coordinates":[-116.85754,42.38729]}},{"type":"Feature","properties":{"acq_date":"2026-08-05","acq_time":1011,"confidence":"n","satellite":"N","instrument":"VIIRS","version":"2.0NRT","bright_ti4":306.23,"frp":0.93,"daynight":"N"},"geometry":{"type":"Point","coordinates":[-116.89213,42.38742]}},{"type":"Feature","properties":{"acq_date":"2026-08-05","acq_time":1011,"confidence":"n","satellite":"N","instrument":"VIIRS","version":"2.0NRT","bright_ti4":298.61,"frp":0.91,"daynight":"N"},"geometry":{"type":"Point","coordinates":[-116.85644,42.38785]}},{"type":"Feature","properties":{"acq_date":"2026-08-05","acq_time":1011,"confidence":"n","satellite":"N","instrument":"VIIRS","version":"2.0NRT","bright_ti4":299.43,"frp":1.35,"daynight":"N"},"geometry":{"type":"Point","coordinates":[-116.88097,42.38808]}},{"type":"Feature","properties":{"acq_date":"2026-08-05","acq_time":1011,"confidence":"n","satellite":"N","instrument":"VIIRS","version":"2.0NRT","bright_ti4":300.8,"frp":0.84,"daynight":"N"},"geometry":{"type":"Point","coordinates":[-116.86194,42.38894]}},{"type":"Feature","properties":{"acq_date":"2026-08-05","acq_time":1011,"confidence":"n","satellite":"N","instrument":"VIIRS","version":"2.0NRT","bright_ti4":305.05,"frp":1.35,"daynight":"N"},"geometry":{"type":"Point","coordinates":[-116.88667,42.38919]}},{"type":"Feature","properties":{"acq_date":"2026-08-05","acq_time":1011,"confidence":"n","satellite":"N","instrument":"VIIRS","version":"2.0NRT","bright_ti4":309.33,"frp":1.38,"daynight":"N"},"geometry":{"type":"Point","coordinates":[-116.82704,42.38954]}},{"type":"Feature","properties":{"acq_date":"2026-08-05","acq_time":1011,"confidence":"n","satellite":"N","instrument":"VIIRS","version":"2.0NRT","bright_ti4":310.12,"frp":0.93,"daynight":"N"},"geometry":{"type":"Point","coordinates":[-116.88544,42.38986]}},{"type":"Feature","properties":{"acq_date":"2026-08-05","acq_time":1011,"confidence":"n","satellite":"N","instrument":"VIIRS","version":"2.0NRT","bright_ti4":301,"frp":0.84,"daynight":"N"},"geometry":{"type":"Point","coordinates":[-116.86754,42.39006]}},{"type":"Feature","properties":{"acq_date":"2026-08-05","acq_time":1011,"confidence":"n","satellite":"N","instrument":"VIIRS","version":"2.0NRT","bright_ti4":304.5,"frp":3.26,"daynight":"N"},"geometry":{"type":"Point","coordinates":[-116.89227,42.39028]}},{"type":"Feature","properties":{"acq_date":"2026-08-05","acq_time":1011,"confidence":"n","satellite":"N","instrument":"VIIRS","version":"2.0NRT","bright_ti4":302.2,"frp":0.91,"daynight":"N"},"geometry":{"type":"Point","coordinates":[-116.85001,42.39034]}},{"type":"Feature","properties":{"acq_date":"2026-08-05","acq_time":1011,"confidence":"n","satellite":"N","instrument":"VIIRS","version":"2.0NRT","bright_ti4":304.76,"frp":0.93,"daynight":"N"},"geometry":{"type":"Point","coordinates":[-116.89105,42.39098]}},{"type":"Feature","properties":{"acq_date":"2026-08-05","acq_time":1011,"confidence":"n","satellite":"N","instrument":"VIIRS","version":"2.0NRT","bright_ti4":304.33,"frp":0.91,"daynight":"N"},"geometry":{"type":"Point","coordinates":[-116.85538,42.39141]}},{"type":"Feature","properties":{"acq_date":"2026-08-05","acq_time":1011,"confidence":"n","satellite":"N","instrument":"VIIRS","version":"2.0NRT","bright_ti4":297.54,"frp":1.28,"daynight":"N"},"geometry":{"type":"Point","coordinates":[-116.89662,42.39209]}},{"type":"Feature","properties":{"acq_date":"2026-08-05","acq_time":1011,"confidence":"n","satellite":"N","instrument":"VIIRS","version":"2.0NRT","bright_ti4":300.95,"frp":0.84,"daynight":"N"},"geometry":{"type":"Point","coordinates":[-116.86089,42.39251]}},{"type":"Feature","properties":{"acq_date":"2026-08-05","acq_time":1011,"confidence":"n","satellite":"N","instrument":"VIIRS","version":"2.0NRT","bright_ti4":319.05,"frp":1.75,"daynight":"N"},"geometry":{"type":"Point","coordinates":[-116.84351,42.39282]}},{"type":"Feature","properties":{"acq_date":"2026-08-05","acq_time":1011,"confidence":"n","satellite":"N","instrument":"VIIRS","version":"2.0NRT","bright_ti4":309.82,"frp":0.84,"daynight":"N"},"geometry":{"type":"Point","coordinates":[-116.86648,42.39362]}},{"type":"Feature","properties":{"acq_date":"2026-08-05","acq_time":1011,"confidence":"n","satellite":"N","instrument":"VIIRS","version":"2.0NRT","bright_ti4":335.82,"frp":3.26,"daynight":"N"},"geometry":{"type":"Point","coordinates":[-116.89119,42.39383]}},{"type":"Feature","properties":{"acq_date":"2026-08-05","acq_time":1011,"confidence":"n","satellite":"N","instrument":"VIIRS","version":"2.0NRT","bright_ti4":314.7,"frp":3.35,"daynight":"N"},"geometry":{"type":"Point","coordinates":[-116.84884,42.39388]}},{"type":"Feature","properties":{"acq_date":"2026-08-05","acq_time":1011,"confidence":"n","satellite":"N","instrument":"VIIRS","version":"2.0NRT","bright_ti4":323.68,"frp":4.18,"daynight":"N"},"geometry":{"type":"Point","coordinates":[-116.88997,42.39454]}},{"type":"Feature","properties":{"acq_date":"2026-08-05","acq_time":1011,"confidence":"n","satellite":"N","instrument":"VIIRS","version":"2.0NRT","bright_ti4":297.58,"frp":1.76,"daynight":"N"},"geometry":{"type":"Point","coordinates":[-116.87202,42.39473]}},{"type":"Feature","properties":{"acq_date":"2026-08-05","acq_time":1011,"confidence":"n","satellite":"N","instrument":"VIIRS","version":"2.0NRT","bright_ti4":317.49,"frp":3.26,"daynight":"N"},"geometry":{"type":"Point","coordinates":[-116.89675,42.39492]}},{"type":"Feature","properties":{"acq_date":"2026-08-05","acq_time":1011,"confidence":"n","satellite":"N","instrument":"VIIRS","version":"2.0NRT","bright_ti4":317.93,"frp":3.35,"daynight":"N"},"geometry":{"type":"Point","coordinates":[-116.8543,42.39497]}},{"type":"Feature","properties":{"acq_date":"2026-08-05","acq_time":1011,"confidence":"n","satellite":"N","instrument":"VIIRS","version":"2.0NRT","bright_ti4":328.71,"frp":5.63,"daynight":"N"},"geometry":{"type":"Point","coordinates":[-116.89555,42.39565]}},{"type":"Feature","properties":{"acq_date":"2026-08-05","acq_time":1011,"confidence":"n","satellite":"N","instrument":"VIIRS","version":"2.0NRT","bright_ti4":310.23,"frp":2.39,"daynight":"N"},"geometry":{"type":"Point","coordinates":[-116.85983,42.39607]}},{"type":"Feature","properties":{"acq_date":"2026-08-05","acq_time":1011,"confidence":"n","satellite":"N","instrument":"VIIRS","version":"2.0NRT","bright_ti4":305.18,"frp":2.39,"daynight":"N"},"geometry":{"type":"Point","coordinates":[-116.86537,42.39717]}},{"type":"Feature","properties":{"acq_date":"2026-08-05","acq_time":1011,"confidence":"n","satellite":"N","instrument":"VIIRS","version":"2.0NRT","bright_ti4":307.22,"frp":3.35,"daynight":"N"},"geometry":{"type":"Point","coordinates":[-116.84763,42.39741]}},{"type":"Feature","properties":{"acq_date":"2026-08-05","acq_time":1011,"confidence":"n","satellite":"N","instrument":"VIIRS","version":"2.0NRT","bright_ti4":299.98,"frp":1.03,"daynight":"N"},"geometry":{"type":"Point","coordinates":[-116.87096,42.39828]}},{"type":"Feature","properties":{"acq_date":"2026-08-05","acq_time":1011,"confidence":"n","satellite":"N","instrument":"VIIRS","version":"2.0NRT","bright_ti4":347.47,"frp":3.35,"daynight":"N"},"geometry":{"type":"Point","coordinates":[-116.85319,42.39852]}},{"type":"Feature","properties":{"acq_date":"2026-08-05","acq_time":1011,"confidence":"n","satellite":"N","instrument":"VIIRS","version":"2.0NRT","bright_ti4":299.36,"frp":1.03,"daynight":"N"},"geometry":{"type":"Point","coordinates":[-116.87643,42.39938]}},{"type":"Feature","properties":{"acq_date":"2026-08-05","acq_time":1011,"confidence":"n","satellite":"N","instrument":"VIIRS","version":"2.0NRT","bright_ti4":333.16,"frp":2.39,"daynight":"N"},"geometry":{"type":"Point","coordinates":[-116.8587,42.39962]}},{"type":"Feature","properties":{"acq_date":"2026-08-05","acq_time":1011,"confidence":"n","satellite":"N","instrument":"VIIRS","version":"2.0NRT","bright_ti4":298.88,"frp":2.39,"daynight":"N"},"geometry":{"type":"Point","coordinates":[-116.86422,42.40072]}},{"type":"Feature","properties":{"acq_date":"2026-08-05","acq_time":1011,"confidence":"n","satellite":"N","instrument":"VIIRS","version":"2.0NRT","bright_ti4":335.56,"frp":4.52,"daynight":"N"},"geometry":{"type":"Point","coordinates":[-116.84645,42.40096]}},{"type":"Feature","properties":{"acq_date":"2026-08-05","acq_time":1011,"confidence":"n","satellite":"N","instrument":"VIIRS","version":"2.0NRT","bright_ti4":331.23,"frp":4.52,"daynight":"N"},"geometry":{"type":"Point","coordinates":[-116.85204,42.40206]}},{"type":"Feature","properties":{"acq_date":"2026-08-05","acq_time":1011,"confidence":"n","satellite":"N","instrument":"VIIRS","version":"2.0NRT","bright_ti4":300.42,"frp":0.46,"daynight":"N"},"geometry":{"type":"Point","coordinates":[-116.85757,42.40316]}},{"type":"Feature","properties":{"acq_date":"2026-08-05","acq_time":1011,"confidence":"n","satellite":"N","instrument":"VIIRS","version":"2.0NRT","bright_ti4":344.93,"frp":4.52,"daynight":"N"},"geometry":{"type":"Point","coordinates":[-116.84524,42.40448]}},{"type":"Feature","properties":{"acq_date":"2026-08-05","acq_time":1011,"confidence":"n","satellite":"N","instrument":"VIIRS","version":"2.0NRT","bright_ti4":306.12,"frp":1.1,"daynight":"N"},"geometry":{"type":"Point","coordinates":[-116.86871,42.40538]}},{"type":"Feature","properties":{"acq_date":"2026-08-05","acq_time":1011,"confidence":"n","satellite":"N","instrument":"VIIRS","version":"2.0NRT","bright_ti4":327.31,"frp":4.52,"daynight":"N"},"geometry":{"type":"Point","coordinates":[-116.85084,42.40559]}},{"type":"Feature","properties":{"acq_date":"2026-08-05","acq_time":1011,"confidence":"n","satellite":"N","instrument":"VIIRS","version":"2.0NRT","bright_ti4":296.32,"frp":0.81,"daynight":"N"},"geometry":{"type":"Point","coordinates":[-116.80797,42.42728]}},{"type":"Feature","properties":{"acq_date":"2026-08-05","acq_time":1011,"confidence":"n","satellite":"N","instrument":"VIIRS","version":"2.0NRT","bright_ti4":299.44,"frp":1.18,"daynight":"N"},"geometry":{"type":"Point","coordinates":[-116.79977,42.43321]}},{"type":"Feature","properties":{"acq_date":"2026-08-05","acq_time":1011,"confidence":"n","satellite":"N","instrument":"VIIRS","version":"2.0NRT","bright_ti4":296.2,"frp":0.85,"daynight":"N"},"geometry":{"type":"Point","coordinates":[-116.7985,42.43674]}},{"type":"Feature","properties":{"acq_date":"2026-08-05","acq_time":1011,"confidence":"n","satellite":"N","instrument":"VIIRS","version":"2.0NRT","bright_ti4":296.8,"frp":0.69,"daynight":"N"},"geometry":{"type":"Point","coordinates":[-116.79155,42.43914]}},{"type":"Feature","properties":{"acq_date":"2026-08-05","acq_time":1011,"confidence":"n","satellite":"N","instrument":"VIIRS","version":"2.0NRT","bright_ti4":295.91,"frp":1.09,"daynight":"N"},"geometry":{"type":"Point","coordinates":[-116.79295,42.45074]}},{"type":"Feature","properties":{"acq_date":"2026-08-05","acq_time":1011,"confidence":"n","satellite":"N","instrument":"VIIRS","version":"2.0NRT","bright_ti4":309.32,"frp":1.09,"daynight":"N"},"geometry":{"type":"Point","coordinates":[-116.79841,42.45182]}},{"type":"Feature","properties":{"acq_date":"2026-08-05","acq_time":1011,"confidence":"n","satellite":"N","instrument":"VIIRS","version":"2.0NRT","bright_ti4":304.58,"frp":1.09,"daynight":"N"},"geometry":{"type":"Point","coordinates":[-116.79148,42.45423]}},{"type":"Feature","properties":{"acq_date":"2026-08-05","acq_time":1011,"confidence":"n","satellite":"N","instrument":"VIIRS","version":"2.0NRT","bright_ti4":303.45,"frp":1.09,"daynight":"N"},"geometry":{"type":"Point","coordinates":[-116.79693,42.4553]}},{"type":"Feature","properties":{"acq_date":"2026-08-05","acq_time":1011,"confidence":"n","satellite":"N","instrument":"VIIRS","version":"2.0NRT","bright_ti4":295.09,"frp":0.9,"daynight":"N"},"geometry":{"type":"Point","coordinates":[-116.85668,42.45573]}},{"type":"Feature","properties":{"acq_date":"2026-08-05","acq_time":1011,"confidence":"n","satellite":"N","instrument":"VIIRS","version":"2.0NRT","bright_ti4":302.78,"frp":1.56,"daynight":"N"},"geometry":{"type":"Point","coordinates":[-116.79551,42.4588]}},{"type":"Feature","properties":{"acq_date":"2026-08-05","acq_time":1011,"confidence":"n","satellite":"N","instrument":"VIIRS","version":"2.0NRT","bright_ti4":299.57,"frp":0.66,"daynight":"N"},"geometry":{"type":"Point","coordinates":[-116.91198,42.46283]}},{"type":"Feature","properties":{"acq_date":"2026-08-05","acq_time":1011,"confidence":"n","satellite":"N","instrument":"VIIRS","version":"2.0NRT","bright_ti4":306.88,"frp":0.67,"daynight":"N"},"geometry":{"type":"Point","coordinates":[-122.87315,42.53614]}},{"type":"Feature","properties":{"acq_date":"2026-08-05","acq_time":1011,"confidence":"n","satellite":"N","instrument":"VIIRS","version":"2.0NRT","bright_ti4":301.07,"frp":0.67,"daynight":"N"},"geometry":{"type":"Point","coordinates":[-122.87225,42.53948]}},{"type":"Feature","properties":{"acq_date":"2026-08-05","acq_time":1011,"confidence":"n","satellite":"N","instrument":"VIIRS","version":"2.0NRT","bright_ti4":298.35,"frp":0.75,"daynight":"N"},"geometry":{"type":"Point","coordinates":[-116.74457,42.59025]}},{"type":"Feature","properties":{"acq_date":"2026-08-05","acq_time":1011,"confidence":"n","satellite":"N","instrument":"VIIRS","version":"2.0NRT","bright_ti4":299.86,"frp":1.07,"daynight":"N"},"geometry":{"type":"Point","coordinates":[-116.79685,42.59314]}},{"type":"Feature","properties":{"acq_date":"2026-08-05","acq_time":1011,"confidence":"n","satellite":"N","instrument":"VIIRS","version":"2.0NRT","bright_ti4":301.33,"frp":0.7,"daynight":"N"},"geometry":{"type":"Point","coordinates":[-116.71078,42.60241]}},{"type":"Feature","properties":{"acq_date":"2026-08-05","acq_time":1011,"confidence":"n","satellite":"N","instrument":"VIIRS","version":"2.0NRT","bright_ti4":295.03,"frp":0.7,"daynight":"N"},"geometry":{"type":"Point","coordinates":[-116.71638,42.60353]}},{"type":"Feature","properties":{"acq_date":"2026-08-05","acq_time":1011,"confidence":"n","satellite":"N","instrument":"VIIRS","version":"2.0NRT","bright_ti4":300.35,"frp":1.21,"daynight":"N"},"geometry":{"type":"Point","coordinates":[-116.85838,42.61667]}},{"type":"Feature","properties":{"acq_date":"2026-08-05","acq_time":1011,"confidence":"n","satellite":"N","instrument":"VIIRS","version":"2.0NRT","bright_ti4":297.05,"frp":0.75,"daynight":"N"},"geometry":{"type":"Point","coordinates":[-116.76492,42.61696]}},{"type":"Feature","properties":{"acq_date":"2026-08-05","acq_time":1011,"confidence":"n","satellite":"N","instrument":"VIIRS","version":"2.0NRT","bright_ti4":296.99,"frp":1,"daynight":"N"},"geometry":{"type":"Point","coordinates":[-116.67554,42.6181]}},{"type":"Feature","properties":{"acq_date":"2026-08-05","acq_time":1011,"confidence":"n","satellite":"N","instrument":"VIIRS","version":"2.0NRT","bright_ti4":297.12,"frp":1.04,"daynight":"N"},"geometry":{"type":"Point","coordinates":[-116.66302,42.6194]}},{"type":"Feature","properties":{"acq_date":"2026-08-05","acq_time":1011,"confidence":"n","satellite":"N","instrument":"VIIRS","version":"2.0NRT","bright_ti4":296.32,"frp":1,"daynight":"N"},"geometry":{"type":"Point","coordinates":[-116.66873,42.62053]}},{"type":"Feature","properties":{"acq_date":"2026-08-05","acq_time":1011,"confidence":"n","satellite":"N","instrument":"VIIRS","version":"2.0NRT","bright_ti4":300.88,"frp":1.16,"daynight":"N"},"geometry":{"type":"Point","coordinates":[-116.66179,42.62294]}},{"type":"Feature","properties":{"acq_date":"2026-08-05","acq_time":1011,"confidence":"n","satellite":"N","instrument":"VIIRS","version":"2.0NRT","bright_ti4":301.32,"frp":1.78,"daynight":"N"},"geometry":{"type":"Point","coordinates":[-116.64413,42.62323]}},{"type":"Feature","properties":{"acq_date":"2026-08-05","acq_time":1011,"confidence":"n","satellite":"N","instrument":"VIIRS","version":"2.0NRT","bright_ti4":305.1,"frp":1.43,"daynight":"N"},"geometry":{"type":"Point","coordinates":[-116.66754,42.62408]}},{"type":"Feature","properties":{"acq_date":"2026-08-05","acq_time":1011,"confidence":"n","satellite":"N","instrument":"VIIRS","version":"2.0NRT","bright_ti4":313.07,"frp":1.78,"daynight":"N"},"geometry":{"type":"Point","coordinates":[-116.64957,42.62431]}},{"type":"Feature","properties":{"acq_date":"2026-08-05","acq_time":1011,"confidence":"n","satellite":"N","instrument":"VIIRS","version":"2.0NRT","bright_ti4":343.71,"frp":9.8,"daynight":"N"},"geometry":{"type":"Point","coordinates":[-116.74516,42.73509]}},{"type":"Feature","properties":{"acq_date":"2026-08-05","acq_time":1011,"confidence":"n","satellite":"N","instrument":"VIIRS","version":"2.0NRT","bright_ti4":301.16,"frp":1.77,"daynight":"N"},"geometry":{"type":"Point","coordinates":[-116.72726,42.73532]}},{"type":"Feature","properties":{"acq_date":"2026-08-05","acq_time":1011,"confidence":"n","satellite":"N","instrument":"VIIRS","version":"2.0NRT","bright_ti4":299.56,"frp":1.62,"daynight":"N"},"geometry":{"type":"Point","coordinates":[-116.70941,42.73555]}},{"type":"Feature","properties":{"acq_date":"2026-08-05","acq_time":1011,"confidence":"n","satellite":"N","instrument":"VIIRS","version":"2.0NRT","bright_ti4":319.36,"frp":1.77,"daynight":"N"},"geometry":{"type":"Point","coordinates":[-116.733,42.73645]}},{"type":"Feature","properties":{"acq_date":"2026-08-05","acq_time":1011,"confidence":"n","satellite":"N","instrument":"VIIRS","version":"2.0NRT","bright_ti4":325.06,"frp":9.8,"daynight":"N"},"geometry":{"type":"Point","coordinates":[-116.73857,42.73756]}},{"type":"Feature","properties":{"acq_date":"2026-08-05","acq_time":1011,"confidence":"n","satellite":"N","instrument":"VIIRS","version":"2.0NRT","bright_ti4":318.84,"frp":2.45,"daynight":"N"},"geometry":{"type":"Point","coordinates":[-116.72023,42.7377]}},{"type":"Feature","properties":{"acq_date":"2026-08-05","acq_time":1011,"confidence":"n","satellite":"N","instrument":"VIIRS","version":"2.0NRT","bright_ti4":348.77,"frp":9.8,"daynight":"N"},"geometry":{"type":"Point","coordinates":[-116.74393,42.73861]}},{"type":"Feature","properties":{"acq_date":"2026-08-05","acq_time":1011,"confidence":"n","satellite":"N","instrument":"VIIRS","version":"2.0NRT","bright_ti4":320.86,"frp":1.75,"daynight":"N"},"geometry":{"type":"Point","coordinates":[-116.72583,42.7388]}},{"type":"Feature","properties":{"acq_date":"2026-08-05","acq_time":1011,"confidence":"n","satellite":"N","instrument":"VIIRS","version":"2.0NRT","bright_ti4":315.68,"frp":1.75,"daynight":"N"},"geometry":{"type":"Point","coordinates":[-116.73154,42.73993]}},{"type":"Feature","properties":{"acq_date":"2026-08-05","acq_time":1011,"confidence":"n","satellite":"N","instrument":"VIIRS","version":"2.0NRT","bright_ti4":329.67,"frp":2.45,"daynight":"N"},"geometry":{"type":"Point","coordinates":[-116.71359,42.74015]}},{"type":"Feature","properties":{"acq_date":"2026-08-05","acq_time":1011,"confidence":"n","satellite":"N","instrument":"VIIRS","version":"2.0NRT","bright_ti4":327.74,"frp":2.51,"daynight":"N"},"geometry":{"type":"Point","coordinates":[-116.73729,42.74107]}},{"type":"Feature","properties":{"acq_date":"2026-08-05","acq_time":1011,"confidence":"n","satellite":"N","instrument":"VIIRS","version":"2.0NRT","bright_ti4":311.9,"frp":2.45,"daynight":"N"},"geometry":{"type":"Point","coordinates":[-116.71894,42.74121]}},{"type":"Feature","properties":{"acq_date":"2026-08-05","acq_time":1011,"confidence":"n","satellite":"N","instrument":"VIIRS","version":"2.0NRT","bright_ti4":312.43,"frp":2.14,"daynight":"N"},"geometry":{"type":"Point","coordinates":[-116.77763,42.74151]}},{"type":"Feature","properties":{"acq_date":"2026-08-05","acq_time":1011,"confidence":"n","satellite":"N","instrument":"VIIRS","version":"2.0NRT","bright_ti4":322.38,"frp":2.51,"daynight":"N"},"geometry":{"type":"Point","coordinates":[-116.74268,42.74213]}},{"type":"Feature","properties":{"acq_date":"2026-08-05","acq_time":1011,"confidence":"n","satellite":"N","instrument":"VIIRS","version":"2.0NRT","bright_ti4":313.71,"frp":1.75,"daynight":"N"},"geometry":{"type":"Point","coordinates":[-116.72445,42.7423]}},{"type":"Feature","properties":{"acq_date":"2026-08-05","acq_time":1011,"confidence":"n","satellite":"N","instrument":"VIIRS","version":"2.0NRT","bright_ti4":304.47,"frp":1.75,"daynight":"N"},"geometry":{"type":"Point","coordinates":[-116.73008,42.74341]}},{"type":"Feature","properties":{"acq_date":"2026-08-05","acq_time":1011,"confidence":"n","satellite":"N","instrument":"VIIRS","version":"2.0NRT","bright_ti4":295.81,"frp":1.09,"daynight":"N"},"geometry":{"type":"Point","coordinates":[-116.7123,42.74366]}},{"type":"Feature","properties":{"acq_date":"2026-08-05","acq_time":1011,"confidence":"n","satellite":"N","instrument":"VIIRS","version":"2.0NRT","bright_ti4":315.78,"frp":2.51,"daynight":"N"},"geometry":{"type":"Point","coordinates":[-116.73583,42.74454]}},{"type":"Feature","properties":{"acq_date":"2026-08-05","acq_time":1011,"confidence":"n","satellite":"N","instrument":"VIIRS","version":"2.0NRT","bright_ti4":314.48,"frp":1.09,"daynight":"N"},"geometry":{"type":"Point","coordinates":[-116.7177,42.74474]}},{"type":"Feature","properties":{"acq_date":"2026-08-05","acq_time":1011,"confidence":"n","satellite":"N","instrument":"VIIRS","version":"2.0NRT","bright_ti4":321.35,"frp":2.14,"daynight":"N"},"geometry":{"type":"Point","coordinates":[-116.77634,42.74501]}},{"type":"Feature","properties":{"acq_date":"2026-08-05","acq_time":1011,"confidence":"n","satellite":"N","instrument":"VIIRS","version":"2.0NRT","bright_ti4":318.34,"frp":2.51,"daynight":"N"},"geometry":{"type":"Point","coordinates":[-116.7414,42.74565]}},{"type":"Feature","properties":{"acq_date":"2026-08-05","acq_time":1011,"confidence":"n","satellite":"N","instrument":"VIIRS","version":"2.0NRT","bright_ti4":319.49,"frp":1.78,"daynight":"N"},"geometry":{"type":"Point","coordinates":[-116.7231,42.7458]}},{"type":"Feature","properties":{"acq_date":"2026-08-05","acq_time":1011,"confidence":"n","satellite":"N","instrument":"VIIRS","version":"2.0NRT","bright_ti4":306.4,"frp":1.78,"daynight":"N"},"geometry":{"type":"Point","coordinates":[-116.72865,42.74689]}},{"type":"Feature","properties":{"acq_date":"2026-08-05","acq_time":1011,"confidence":"n","satellite":"N","instrument":"VIIRS","version":"2.0NRT","bright_ti4":300.13,"frp":1.14,"daynight":"N"},"geometry":{"type":"Point","coordinates":[-116.73433,42.74802]}},{"type":"Feature","properties":{"acq_date":"2026-08-05","acq_time":1011,"confidence":"n","satellite":"N","instrument":"VIIRS","version":"2.0NRT","bright_ti4":297.51,"frp":1.09,"daynight":"N"},"geometry":{"type":"Point","coordinates":[-116.71642,42.74825]}},{"type":"Feature","properties":{"acq_date":"2026-08-05","acq_time":1011,"confidence":"n","satellite":"N","instrument":"VIIRS","version":"2.0NRT","bright_ti4":319.44,"frp":1.14,"daynight":"N"},"geometry":{"type":"Point","coordinates":[-116.74002,42.74914]}},{"type":"Feature","properties":{"acq_date":"2026-08-05","acq_time":1011,"confidence":"n","satellite":"N","instrument":"VIIRS","version":"2.0NRT","bright_ti4":316.91,"frp":1.78,"daynight":"N"},"geometry":{"type":"Point","coordinates":[-116.72182,42.74932]}},{"type":"Feature","properties":{"acq_date":"2026-08-05","acq_time":1011,"confidence":"n","satellite":"N","instrument":"VIIRS","version":"2.0NRT","bright_ti4":319.47,"frp":1.78,"daynight":"N"},"geometry":{"type":"Point","coordinates":[-116.72721,42.75038]}},{"type":"Feature","properties":{"acq_date":"2026-08-05","acq_time":1011,"confidence":"n","satellite":"N","instrument":"VIIRS","version":"2.0NRT","bright_ti4":298.87,"frp":1.14,"daynight":"N"},"geometry":{"type":"Point","coordinates":[-116.73281,42.75148]}},{"type":"Feature","properties":{"acq_date":"2026-08-05","acq_time":1011,"confidence":"n","satellite":"N","instrument":"VIIRS","version":"2.0NRT","bright_ti4":307.24,"frp":1.14,"daynight":"N"},"geometry":{"type":"Point","coordinates":[-116.73853,42.75261]}},{"type":"Feature","properties":{"acq_date":"2026-08-05","acq_time":1011,"confidence":"n","satellite":"N","instrument":"VIIRS","version":"2.0NRT","bright_ti4":298.02,"frp":1,"daynight":"N"},"geometry":{"type":"Point","coordinates":[-116.72056,42.75283]}},{"type":"Feature","properties":{"acq_date":"2026-08-05","acq_time":1011,"confidence":"n","satellite":"N","instrument":"VIIRS","version":"2.0NRT","bright_ti4":308.14,"frp":1,"daynight":"N"},"geometry":{"type":"Point","coordinates":[-116.7259,42.75389]}},{"type":"Feature","properties":{"acq_date":"2026-08-05","acq_time":1011,"confidence":"n","satellite":"N","instrument":"VIIRS","version":"2.0NRT","bright_ti4":299.35,"frp":1.41,"daynight":"N"},"geometry":{"type":"Point","coordinates":[-116.78443,42.75413]}},{"type":"Feature","properties":{"acq_date":"2026-08-05","acq_time":1011,"confidence":"n","satellite":"N","instrument":"VIIRS","version":"2.0NRT","bright_ti4":299.56,"frp":1.06,"daynight":"N"},"geometry":{"type":"Point","coordinates":[-116.73138,42.75497]}},{"type":"Feature","properties":{"acq_date":"2026-08-05","acq_time":1011,"confidence":"n","satellite":"N","instrument":"VIIRS","version":"2.0NRT","bright_ti4":305.55,"frp":1,"daynight":"N"},"geometry":{"type":"Point","coordinates":[-116.72468,42.75742]}},{"type":"Feature","properties":{"acq_date":"2026-08-05","acq_time":1011,"confidence":"n","satellite":"N","instrument":"VIIRS","version":"2.0NRT","bright_ti4":306.65,"frp":0.98,"daynight":"N"},"geometry":{"type":"Point","coordinates":[-116.74828,42.7583]}},{"type":"Feature","properties":{"acq_date":"2026-08-05","acq_time":1011,"confidence":"n","satellite":"N","instrument":"VIIRS","version":"2.0NRT","bright_ti4":311.16,"frp":1.06,"daynight":"N"},"geometry":{"type":"Point","coordinates":[-116.73006,42.75847]}},{"type":"Feature","properties":{"acq_date":"2026-08-05","acq_time":1011,"confidence":"n","satellite":"N","instrument":"VIIRS","version":"2.0NRT","bright_ti4":297.76,"frp":1.06,"daynight":"N"},"geometry":{"type":"Point","coordinates":[-116.73572,42.75959]}},{"type":"Feature","properties":{"acq_date":"2026-08-05","acq_time":1011,"confidence":"n","satellite":"N","instrument":"VIIRS","version":"2.0NRT","bright_ti4":298.84,"frp":1.25,"daynight":"N"},"geometry":{"type":"Point","coordinates":[-116.72344,42.76094]}},{"type":"Feature","properties":{"acq_date":"2026-08-05","acq_time":1011,"confidence":"n","satellite":"N","instrument":"VIIRS","version":"2.0NRT","bright_ti4":295.23,"frp":0.98,"daynight":"N"},"geometry":{"type":"Point","coordinates":[-116.74698,42.7618]}},{"type":"Feature","properties":{"acq_date":"2026-08-05","acq_time":1011,"confidence":"n","satellite":"N","instrument":"VIIRS","version":"2.0NRT","bright_ti4":338.02,"frp":4.27,"daynight":"N"},"geometry":{"type":"Point","coordinates":[-116.72884,42.762]}},{"type":"Feature","properties":{"acq_date":"2026-08-05","acq_time":1011,"confidence":"n","satellite":"N","instrument":"VIIRS","version":"2.0NRT","bright_ti4":335.48,"frp":4.27,"daynight":"N"},"geometry":{"type":"Point","coordinates":[-116.73438,42.76309]}},{"type":"Feature","properties":{"acq_date":"2026-08-05","acq_time":1011,"confidence":"n","satellite":"N","instrument":"VIIRS","version":"2.0NRT","bright_ti4":324.39,"frp":4.27,"daynight":"N"},"geometry":{"type":"Point","coordinates":[-116.72754,42.76551]}},{"type":"Feature","properties":{"acq_date":"2026-08-05","acq_time":1011,"confidence":"n","satellite":"N","instrument":"VIIRS","version":"2.0NRT","bright_ti4":302.36,"frp":1.95,"daynight":"N"},"geometry":{"type":"Point","coordinates":[-116.7766,42.77515]}},{"type":"Feature","properties":{"acq_date":"2026-08-05","acq_time":1011,"confidence":"n","satellite":"N","instrument":"VIIRS","version":"2.0NRT","bright_ti4":327.97,"frp":2.61,"daynight":"N"},"geometry":{"type":"Point","coordinates":[-116.83463,42.77526]}},{"type":"Feature","properties":{"acq_date":"2026-08-05","acq_time":1011,"confidence":"n","satellite":"N","instrument":"VIIRS","version":"2.0NRT","bright_ti4":306.75,"frp":0.99,"daynight":"N"},"geometry":{"type":"Point","coordinates":[-116.7751,42.77861]}},{"type":"Feature","properties":{"acq_date":"2026-08-05","acq_time":1011,"confidence":"n","satellite":"N","instrument":"VIIRS","version":"2.0NRT","bright_ti4":314.04,"frp":2.61,"daynight":"N"},"geometry":{"type":"Point","coordinates":[-116.83337,42.77876]}},{"type":"Feature","properties":{"acq_date":"2026-08-05","acq_time":1011,"confidence":"n","satellite":"N","instrument":"VIIRS","version":"2.0NRT","bright_ti4":318.27,"frp":3.59,"daynight":"N"},"geometry":{"type":"Point","coordinates":[-116.83868,42.7798]}},{"type":"Feature","properties":{"acq_date":"2026-08-05","acq_time":1011,"confidence":"n","satellite":"N","instrument":"VIIRS","version":"2.0NRT","bright_ti4":297.77,"frp":0.99,"daynight":"N"},"geometry":{"type":"Point","coordinates":[-116.77363,42.78208]}},{"type":"Feature","properties":{"acq_date":"2026-08-05","acq_time":1011,"confidence":"n","satellite":"N","instrument":"VIIRS","version":"2.0NRT","bright_ti4":298.35,"frp":0.99,"daynight":"N"},"geometry":{"type":"Point","coordinates":[-116.83207,42.78226]}},{"type":"Feature","properties":{"acq_date":"2026-08-05","acq_time":1011,"confidence":"n","satellite":"N","instrument":"VIIRS","version":"2.0NRT","bright_ti4":310.15,"frp":1.72,"daynight":"N"},"geometry":{"type":"Point","coordinates":[-122.53948,43.13127]}},{"type":"Feature","properties":{"acq_date":"2026-08-05","acq_time":1011,"confidence":"n","satellite":"N","instrument":"VIIRS","version":"2.0NRT","bright_ti4":304.15,"frp":1.75,"daynight":"N"},"geometry":{"type":"Point","coordinates":[-122.53273,43.13139]}},{"type":"Feature","properties":{"acq_date":"2026-08-05","acq_time":1011,"confidence":"n","satellite":"N","instrument":"VIIRS","version":"2.0NRT","bright_ti4":325.26,"frp":1.99,"daynight":"N"},"geometry":{"type":"Point","coordinates":[-122.53765,43.13208]}},{"type":"Feature","properties":{"acq_date":"2026-08-05","acq_time":1011,"confidence":"n","satellite":"N","instrument":"VIIRS","version":"2.0NRT","bright_ti4":320.89,"frp":3.09,"daynight":"N"},"geometry":{"type":"Point","coordinates":[-122.54942,43.13271]}},{"type":"Feature","properties":{"acq_date":"2026-08-05","acq_time":1011,"confidence":"n","satellite":"N","instrument":"VIIRS","version":"2.0NRT","bright_ti4":309.44,"frp":1.99,"daynight":"N"},"geometry":{"type":"Point","coordinates":[-122.54259,43.13279]}},{"type":"Feature","properties":{"acq_date":"2026-08-05","acq_time":1011,"confidence":"n","satellite":"N","instrument":"VIIRS","version":"2.0NRT","bright_ti4":333.84,"frp":5.12,"daynight":"N"},"geometry":{"type":"Point","coordinates":[-122.54755,43.13349]}},{"type":"Feature","properties":{"acq_date":"2026-08-05","acq_time":1011,"confidence":"n","satellite":"N","instrument":"VIIRS","version":"2.0NRT","bright_ti4":306.12,"frp":1.75,"daynight":"N"},"geometry":{"type":"Point","coordinates":[-122.52705,43.13404]}},{"type":"Feature","properties":{"acq_date":"2026-08-05","acq_time":1011,"confidence":"n","satellite":"N","instrument":"VIIRS","version":"2.0NRT","bright_ti4":301.29,"frp":1.37,"daynight":"N"},"geometry":{"type":"Point","coordinates":[-122.55925,43.13413]}},{"type":"Feature","properties":{"acq_date":"2026-08-05","acq_time":1011,"confidence":"n","satellite":"N","instrument":"VIIRS","version":"2.0NRT","bright_ti4":313.47,"frp":5.12,"daynight":"N"},"geometry":{"type":"Point","coordinates":[-122.55257,43.13419]}},{"type":"Feature","properties":{"acq_date":"2026-08-05","acq_time":1011,"confidence":"n","satellite":"N","instrument":"VIIRS","version":"2.0NRT","bright_ti4":334.05,"frp":1.75,"daynight":"N"},"geometry":{"type":"Point","coordinates":[-122.53195,43.13474]}},{"type":"Feature","properties":{"acq_date":"2026-08-05","acq_time":1011,"confidence":"n","satellite":"N","instrument":"VIIRS","version":"2.0NRT","bright_ti4":306.05,"frp":2.52,"daynight":"N"},"geometry":{"type":"Point","coordinates":[-122.55746,43.13489]}},{"type":"Feature","properties":{"acq_date":"2026-08-05","acq_time":1011,"confidence":"n","satellite":"N","instrument":"VIIRS","version":"2.0NRT","bright_ti4":323.59,"frp":1.99,"daynight":"N"},"geometry":{"type":"Point","coordinates":[-122.5369,43.13543]}},{"type":"Feature","properties":{"acq_date":"2026-08-05","acq_time":1011,"confidence":"n","satellite":"N","instrument":"VIIRS","version":"2.0NRT","bright_ti4":324.88,"frp":1.99,"daynight":"N"},"geometry":{"type":"Point","coordinates":[-122.54185,43.13613]}},{"type":"Feature","properties":{"acq_date":"2026-08-05","acq_time":1011,"confidence":"n","satellite":"N","instrument":"VIIRS","version":"2.0NRT","bright_ti4":349.31,"frp":5.12,"daynight":"N"},"geometry":{"type":"Point","coordinates":[-122.54679,43.13683]}},{"type":"Feature","properties":{"acq_date":"2026-08-05","acq_time":1011,"confidence":"n","satellite":"N","instrument":"VIIRS","version":"2.0NRT","bright_ti4":325.67,"frp":1.82,"daynight":"N"},"geometry":{"type":"Point","coordinates":[-122.52623,43.13738]}},{"type":"Feature","properties":{"acq_date":"2026-08-05","acq_time":1011,"confidence":"n","satellite":"N","instrument":"VIIRS","version":"2.0NRT","bright_ti4":321.45,"frp":5.12,"daynight":"N"},"geometry":{"type":"Point","coordinates":[-122.55177,43.13753]}},{"type":"Feature","properties":{"acq_date":"2026-08-05","acq_time":1011,"confidence":"n","satellite":"N","instrument":"VIIRS","version":"2.0NRT","bright_ti4":319.45,"frp":1.82,"daynight":"N"},"geometry":{"type":"Point","coordinates":[-122.53116,43.13808]}},{"type":"Feature","properties":{"acq_date":"2026-08-05","acq_time":1011,"confidence":"n","satellite":"N","instrument":"VIIRS","version":"2.0NRT","bright_ti4":338.54,"frp":2.52,"daynight":"N"},"geometry":{"type":"Point","coordinates":[-122.55666,43.13823]}},{"type":"Feature","properties":{"acq_date":"2026-08-05","acq_time":1011,"confidence":"n","satellite":"N","instrument":"VIIRS","version":"2.0NRT","bright_ti4":321.37,"frp":1.45,"daynight":"N"},"geometry":{"type":"Point","coordinates":[-122.53612,43.13877]}},{"type":"Feature","properties":{"acq_date":"2026-08-05","acq_time":1011,"confidence":"n","satellite":"N","instrument":"VIIRS","version":"2.0NRT","bright_ti4":304.88,"frp":1.82,"daynight":"N"},"geometry":{"type":"Point","coordinates":[-122.52545,43.14072]}},{"type":"Feature","properties":{"acq_date":"2026-08-05","acq_time":1011,"confidence":"n","satellite":"N","instrument":"VIIRS","version":"2.0NRT","bright_ti4":326.31,"frp":1.82,"daynight":"N"},"geometry":{"type":"Point","coordinates":[-122.53037,43.14142]}},{"type":"Feature","properties":{"acq_date":"2026-08-05","acq_time":1011,"confidence":"n","satellite":"N","instrument":"VIIRS","version":"2.0NRT","bright_ti4":304.63,"frp":1.31,"daynight":"N"},"geometry":{"type":"Point","coordinates":[-115.66682,43.14562]}},{"type":"Feature","properties":{"acq_date":"2026-08-05","acq_time":1011,"confidence":"n","satellite":"N","instrument":"VIIRS","version":"2.0NRT","bright_ti4":300.42,"frp":0.85,"daynight":"N"},"geometry":{"type":"Point","coordinates":[-115.73067,43.17842]}},{"type":"Feature","properties":{"acq_date":"2026-08-05","acq_time":1013,"confidence":"n","satellite":"N","instrument":"VIIRS","version":"2.0NRT","bright_ti4":302.83,"frp":0.8,"daynight":"N"},"geometry":{"type":"Point","coordinates":[-116.81659,32.45194]}},{"type":"Feature","properties":{"acq_date":"2026-08-05","acq_time":1013,"confidence":"n","satellite":"N","instrument":"VIIRS","version":"2.0NRT","bright_ti4":301.03,"frp":0.81,"daynight":"N"},"geometry":{"type":"Point","coordinates":[-116.81796,32.45233]}},{"type":"Feature","properties":{"acq_date":"2026-08-05","acq_time":1013,"confidence":"n","satellite":"N","instrument":"VIIRS","version":"2.0NRT","bright_ti4":301.7,"frp":0.43,"daynight":"N"},"geometry":{"type":"Point","coordinates":[-117.02846,32.85702]}},{"type":"Feature","properties":{"acq_date":"2026-08-05","acq_time":1013,"confidence":"n","satellite":"N","instrument":"VIIRS","version":"2.0NRT","bright_ti4":307.89,"frp":0.7,"daynight":"N"},"geometry":{"type":"Point","coordinates":[-117.82406,33.61192]}},{"type":"Feature","properties":{"acq_date":"2026-08-05","acq_time":1013,"confidence":"n","satellite":"N","instrument":"VIIRS","version":"2.0NRT","bright_ti4":312.87,"frp":0.93,"daynight":"N"},"geometry":{"type":"Point","coordinates":[-117.7103,33.71537]}},{"type":"Feature","properties":{"acq_date":"2026-08-05","acq_time":1013,"confidence":"n","satellite":"N","instrument":"VIIRS","version":"2.0NRT","bright_ti4":310.04,"frp":0.96,"daynight":"N"},"geometry":{"type":"Point","coordinates":[-117.47643,33.79322]}},{"type":"Feature","properties":{"acq_date":"2026-08-05","acq_time":1013,"confidence":"n","satellite":"N","instrument":"VIIRS","version":"2.0NRT","bright_ti4":304.1,"frp":0.76,"daynight":"N"},"geometry":{"type":"Point","coordinates":[-117.47334,33.79576]}},{"type":"Feature","properties":{"acq_date":"2026-08-05","acq_time":1013,"confidence":"n","satellite":"N","instrument":"VIIRS","version":"2.0NRT","bright_ti4":306.92,"frp":0.25,"daynight":"N"},"geometry":{"type":"Point","coordinates":[-117.42864,34.14213]}},{"type":"Feature","properties":{"acq_date":"2026-08-05","acq_time":1013,"confidence":"n","satellite":"N","instrument":"VIIRS","version":"2.0NRT","bright_ti4":314.63,"frp":1.12,"daynight":"N"},"geometry":{"type":"Point","coordinates":[-118.19513,34.15303]}},{"type":"Feature","properties":{"acq_date":"2026-08-05","acq_time":1013,"confidence":"n","satellite":"N","instrument":"VIIRS","version":"2.0NRT","bright_ti4":300.49,"frp":0.33,"daynight":"N"},"geometry":{"type":"Point","coordinates":[-118.38301,34.24462]}},{"type":"Feature","properties":{"acq_date":"2026-08-05","acq_time":1013,"confidence":"n","satellite":"N","instrument":"VIIRS","version":"2.0NRT","bright_ti4":300.88,"frp":0.65,"daynight":"N"},"geometry":{"type":"Point","coordinates":[-118.80074,34.29043]}},{"type":"Feature","properties":{"acq_date":"2026-08-05","acq_time":1013,"confidence":"n","satellite":"N","instrument":"VIIRS","version":"2.0NRT","bright_ti4":300.81,"frp":1.22,"daynight":"N"},"geometry":{"type":"Point","coordinates":[-118.52165,34.33706]}},{"type":"Feature","properties":{"acq_date":"2026-08-05","acq_time":1013,"confidence":"n","satellite":"N","instrument":"VIIRS","version":"2.0NRT","bright_ti4":308.41,"frp":1.42,"daynight":"N"},"geometry":{"type":"Point","coordinates":[-116.85336,34.35304]}},{"type":"Feature","properties":{"acq_date":"2026-08-05","acq_time":1013,"confidence":"n","satellite":"N","instrument":"VIIRS","version":"2.0NRT","bright_ti4":310.46,"frp":1.22,"daynight":"N"},"geometry":{"type":"Point","coordinates":[-118.6463,34.43169]}},{"type":"Feature","properties":{"acq_date":"2026-08-05","acq_time":1013,"confidence":"n","satellite":"N","instrument":"VIIRS","version":"2.0NRT","bright_ti4":305.76,"frp":1.38,"daynight":"N"},"geometry":{"type":"Point","coordinates":[-117.33653,34.60578]}},{"type":"Feature","properties":{"acq_date":"2026-08-05","acq_time":1013,"confidence":"n","satellite":"N","instrument":"VIIRS","version":"2.0NRT","bright_ti4":313.02,"frp":1.38,"daynight":"N"},"geometry":{"type":"Point","coordinates":[-117.33543,34.60979]}},{"type":"Feature","properties":{"acq_date":"2026-08-05","acq_time":1013,"confidence":"n","satellite":"N","instrument":"VIIRS","version":"2.0NRT","bright_ti4":319.96,"frp":1.59,"daynight":"N"},"geometry":{"type":"Point","coordinates":[-117.10041,34.62304]}},{"type":"Feature","properties":{"acq_date":"2026-08-05","acq_time":1013,"confidence":"n","satellite":"N","instrument":"VIIRS","version":"2.0NRT","bright_ti4":320.07,"frp":3.77,"daynight":"N"},"geometry":{"type":"Point","coordinates":[-114.91003,36.35715]}},{"type":"Feature","properties":{"acq_date":"2026-08-05","acq_time":1013,"confidence":"n","satellite":"N","instrument":"VIIRS","version":"2.0NRT","bright_ti4":303.01,"frp":0.34,"daynight":"N"},"geometry":{"type":"Point","coordinates":[-121.90291,37.2129]}},{"type":"Feature","properties":{"acq_date":"2026-08-05","acq_time":1013,"confidence":"n","satellite":"N","instrument":"VIIRS","version":"2.0NRT","bright_ti4":299.01,"frp":0.67,"daynight":"N"},"geometry":{"type":"Point","coordinates":[-116.15114,37.24993]}},{"type":"Feature","properties":{"acq_date":"2026-08-05","acq_time":1013,"confidence":"n","satellite":"N","instrument":"VIIRS","version":"2.0NRT","bright_ti4":314.39,"frp":2.05,"daynight":"N"},"geometry":{"type":"Point","coordinates":[-116.15736,37.25984]}},{"type":"Feature","properties":{"acq_date":"2026-08-05","acq_time":1013,"confidence":"n","satellite":"N","instrument":"VIIRS","version":"2.0NRT","bright_ti4":306.99,"frp":1.95,"daynight":"N"},"geometry":{"type":"Point","coordinates":[-116.16199,37.26083]}},{"type":"Feature","properties":{"acq_date":"2026-08-05","acq_time":1013,"confidence":"n","satellite":"N","instrument":"VIIRS","version":"2.0NRT","bright_ti4":298.63,"frp":0.27,"daynight":"N"},"geometry":{"type":"Point","coordinates":[-116.16327,37.2647]}},{"type":"Feature","properties":{"acq_date":"2026-08-05","acq_time":1013,"confidence":"n","satellite":"N","instrument":"VIIRS","version":"2.0NRT","bright_ti4":298.09,"frp":0.33,"daynight":"N"},"geometry":{"type":"Point","coordinates":[-121.93389,37.4567]}},{"type":"Feature","properties":{"acq_date":"2026-08-05","acq_time":1013,"confidence":"n","satellite":"N","instrument":"VIIRS","version":"2.0NRT","bright_ti4":296.65,"frp":0.16,"daynight":"N"},"geometry":{"type":"Point","coordinates":[-121.99207,37.49378]}},{"type":"Feature","properties":{"acq_date":"2026-08-05","acq_time":1013,"confidence":"n","satellite":"N","instrument":"VIIRS","version":"2.0NRT","bright_ti4":301.06,"frp":0.33,"daynight":"N"},"geometry":{"type":"Point","coordinates":[-121.66123,37.75588]}},{"type":"Feature","properties":{"acq_date":"2026-08-05","acq_time":1013,"confidence":"n","satellite":"N","instrument":"VIIRS","version":"2.0NRT","bright_ti4":311.73,"frp":0.86,"daynight":"N"},"geometry":{"type":"Point","coordinates":[-121.18477,37.88335]}},{"type":"Feature","properties":{"acq_date":"2026-08-05","acq_time":1013,"confidence":"n","satellite":"N","instrument":"VIIRS","version":"2.0NRT","bright_ti4":301.63,"frp":1.37,"daynight":"N"},"geometry":{"type":"Point","coordinates":[-122.11523,38.01428]}},{"type":"Feature","properties":{"acq_date":"2026-08-05","acq_time":1013,"confidence":"n","satellite":"N","instrument":"VIIRS","version":"2.0NRT","bright_ti4":301.19,"frp":1.16,"daynight":"N"},"geometry":{"type":"Point","coordinates":[-120.6853,38.08957]}},{"type":"Feature","properties":{"acq_date":"2026-08-05","acq_time":1013,"confidence":"n","satellite":"N","instrument":"VIIRS","version":"2.0NRT","bright_ti4":304.74,"frp":1.66,"daynight":"N"},"geometry":{"type":"Point","coordinates":[-120.69251,38.09784]}},{"type":"Feature","properties":{"acq_date":"2026-08-05","acq_time":1013,"confidence":"n","satellite":"N","instrument":"VIIRS","version":"2.0NRT","bright_ti4":306.32,"frp":0.94,"daynight":"N"},"geometry":{"type":"Point","coordinates":[-120.69152,38.10117]}},{"type":"Feature","properties":{"acq_date":"2026-08-05","acq_time":1013,"confidence":"n","satellite":"N","instrument":"VIIRS","version":"2.0NRT","bright_ti4":303.26,"frp":1.66,"daynight":"N"},"geometry":{"type":"Point","coordinates":[-120.69517,38.1053]}},{"type":"Feature","properties":{"acq_date":"2026-08-05","acq_time":1013,"confidence":"n","satellite":"N","instrument":"VIIRS","version":"2.0NRT","bright_ti4":307.42,"frp":1.51,"daynight":"N"},"geometry":{"type":"Point","coordinates":[-120.75538,38.10882]}},{"type":"Feature","properties":{"acq_date":"2026-08-05","acq_time":1013,"confidence":"n","satellite":"N","instrument":"VIIRS","version":"2.0NRT","bright_ti4":309.97,"frp":1.25,"daynight":"N"},"geometry":{"type":"Point","coordinates":[-120.75448,38.11216]}},{"type":"Feature","properties":{"acq_date":"2026-08-05","acq_time":1013,"confidence":"n","satellite":"N","instrument":"VIIRS","version":"2.0NRT","bright_ti4":331.47,"frp":3.73,"daynight":"N"},"geometry":{"type":"Point","coordinates":[-120.75889,38.11292]}},{"type":"Feature","properties":{"acq_date":"2026-08-05","acq_time":1013,"confidence":"n","satellite":"N","instrument":"VIIRS","version":"2.0NRT","bright_ti4":306.07,"frp":0.98,"daynight":"N"},"geometry":{"type":"Point","coordinates":[-120.72192,38.11347]}},{"type":"Feature","properties":{"acq_date":"2026-08-05","acq_time":1013,"confidence":"n","satellite":"N","instrument":"VIIRS","version":"2.0NRT","bright_ti4":304.47,"frp":2.06,"daynight":"N"},"geometry":{"type":"Point","coordinates":[-120.7025,38.11358]}},{"type":"Feature","properties":{"acq_date":"2026-08-05","acq_time":1013,"confidence":"n","satellite":"N","instrument":"VIIRS","version":"2.0NRT","bright_ti4":306.65,"frp":0.98,"daynight":"N"},"geometry":{"type":"Point","coordinates":[-120.72641,38.11425]}},{"type":"Feature","properties":{"acq_date":"2026-08-05","acq_time":1013,"confidence":"n","satellite":"N","instrument":"VIIRS","version":"2.0NRT","bright_ti4":309.91,"frp":1.22,"daynight":"N"},"geometry":{"type":"Point","coordinates":[-120.73089,38.11504]}},{"type":"Feature","properties":{"acq_date":"2026-08-05","acq_time":1013,"confidence":"n","satellite":"N","instrument":"VIIRS","version":"2.0NRT","bright_ti4":307.44,"frp":1.25,"daynight":"N"},"geometry":{"type":"Point","coordinates":[-120.75365,38.11551]}},{"type":"Feature","properties":{"acq_date":"2026-08-05","acq_time":1013,"confidence":"n","satellite":"N","instrument":"VIIRS","version":"2.0NRT","bright_ti4":348.33,"frp":3.73,"daynight":"N"},"geometry":{"type":"Point","coordinates":[-120.75803,38.11627]}},{"type":"Feature","properties":{"acq_date":"2026-08-05","acq_time":1013,"confidence":"n","satellite":"N","instrument":"VIIRS","version":"2.0NRT","bright_ti4":311.08,"frp":3.73,"daynight":"N"},"geometry":{"type":"Point","coordinates":[-120.76239,38.11703]}},{"type":"Feature","properties":{"acq_date":"2026-08-05","acq_time":1013,"confidence":"n","satellite":"N","instrument":"VIIRS","version":"2.0NRT","bright_ti4":306.75,"frp":0.98,"daynight":"N"},"geometry":{"type":"Point","coordinates":[-120.72551,38.11759]}},{"type":"Feature","properties":{"acq_date":"2026-08-05","acq_time":1013,"confidence":"n","satellite":"N","instrument":"VIIRS","version":"2.0NRT","bright_ti4":309.89,"frp":1.22,"daynight":"N"},"geometry":{"type":"Point","coordinates":[-120.73001,38.11838]}},{"type":"Feature","properties":{"acq_date":"2026-08-05","acq_time":1013,"confidence":"n","satellite":"N","instrument":"VIIRS","version":"2.0NRT","bright_ti4":326.11,"frp":5.83,"daynight":"N"},"geometry":{"type":"Point","coordinates":[-120.75284,38.11886]}},{"type":"Feature","properties":{"acq_date":"2026-08-05","acq_time":1013,"confidence":"n","satellite":"N","instrument":"VIIRS","version":"2.0NRT","bright_ti4":310.14,"frp":1.22,"daynight":"N"},"geometry":{"type":"Point","coordinates":[-120.7345,38.11916]}},{"type":"Feature","properties":{"acq_date":"2026-08-05","acq_time":1013,"confidence":"n","satellite":"N","instrument":"VIIRS","version":"2.0NRT","bright_ti4":349.94,"frp":50.09,"daynight":"N"},"geometry":{"type":"Point","coordinates":[-120.75716,38.11961]}},{"type":"Feature","properties":{"acq_date":"2026-08-05","acq_time":1013,"confidence":"n","satellite":"N","instrument":"VIIRS","version":"2.0NRT","bright_ti4":351.34,"frp":50.09,"daynight":"N"},"geometry":{"type":"Point","coordinates":[-120.76151,38.12037]}},{"type":"Feature","properties":{"acq_date":"2026-08-05","acq_time":1013,"confidence":"n","satellite":"N","instrument":"VIIRS","version":"2.0NRT","bright_ti4":308.5,"frp":2.53,"daynight":"N"},"geometry":{"type":"Point","coordinates":[-120.72456,38.12092]}},{"type":"Feature","properties":{"acq_date":"2026-08-05","acq_time":1013,"confidence":"n","satellite":"N","instrument":"VIIRS","version":"2.0NRT","bright_ti4":307.6,"frp":1.31,"daynight":"N"},"geometry":{"type":"Point","coordinates":[-120.72911,38.12172]}},{"type":"Feature","properties":{"acq_date":"2026-08-05","acq_time":1013,"confidence":"n","satellite":"N","instrument":"VIIRS","version":"2.0NRT","bright_ti4":335.99,"frp":5.83,"daynight":"N"},"geometry":{"type":"Point","coordinates":[-120.75201,38.12221]}},{"type":"Feature","properties":{"acq_date":"2026-08-05","acq_time":1013,"confidence":"n","satellite":"N","instrument":"VIIRS","version":"2.0NRT","bright_ti4":306.79,"frp":1.31,"daynight":"N"},"geometry":{"type":"Point","coordinates":[-120.73357,38.12249]}},{"type":"Feature","properties":{"acq_date":"2026-08-05","acq_time":1013,"confidence":"h","satellite":"N","instrument":"VIIRS","version":"2.0NRT","bright_ti4":367,"frp":50.09,"daynight":"N"},"geometry":{"type":"Point","coordinates":[-120.75635,38.12296]}},{"type":"Feature","properties":{"acq_date":"2026-08-05","acq_time":1013,"confidence":"n","satellite":"N","instrument":"VIIRS","version":"2.0NRT","bright_ti4":307.88,"frp":1.64,"daynight":"N"},"geometry":{"type":"Point","coordinates":[-120.73799,38.12326]}},{"type":"Feature","properties":{"acq_date":"2026-08-05","acq_time":1013,"confidence":"n","satellite":"N","instrument":"VIIRS","version":"2.0NRT","bright_ti4":306.73,"frp":0.9,"daynight":"N"},"geometry":{"type":"Point","coordinates":[-121.39605,38.12354]}},{"type":"Feature","properties":{"acq_date":"2026-08-05","acq_time":1013,"confidence":"n","satellite":"N","instrument":"VIIRS","version":"2.0NRT","bright_ti4":345.77,"frp":50.09,"daynight":"N"},"geometry":{"type":"Point","coordinates":[-120.76067,38.12372]}},{"type":"Feature","properties":{"acq_date":"2026-08-05","acq_time":1013,"confidence":"n","satellite":"N","instrument":"VIIRS","version":"2.0NRT","bright_ti4":307.94,"frp":1.64,"daynight":"N"},"geometry":{"type":"Point","coordinates":[-120.74238,38.12403]}},{"type":"Feature","properties":{"acq_date":"2026-08-05","acq_time":1013,"confidence":"n","satellite":"N","instrument":"VIIRS","version":"2.0NRT","bright_ti4":346.22,"frp":38.52,"daynight":"N"},"geometry":{"type":"Point","coordinates":[-120.76507,38.12449]}},{"type":"Feature","properties":{"acq_date":"2026-08-05","acq_time":1013,"confidence":"n","satellite":"N","instrument":"VIIRS","version":"2.0NRT","bright_ti4":319.74,"frp":17.18,"daynight":"N"},"geometry":{"type":"Point","coordinates":[-120.74675,38.12479]}},{"type":"Feature","properties":{"acq_date":"2026-08-05","acq_time":1013,"confidence":"n","satellite":"N","instrument":"VIIRS","version":"2.0NRT","bright_ti4":313.08,"frp":1.31,"daynight":"N"},"geometry":{"type":"Point","coordinates":[-120.72807,38.12503]}},{"type":"Feature","properties":{"acq_date":"2026-08-05","acq_time":1013,"confidence":"n","satellite":"N","instrument":"VIIRS","version":"2.0NRT","bright_ti4":336.17,"frp":17.18,"daynight":"N"},"geometry":{"type":"Point","coordinates":[-120.75116,38.12556]}},{"type":"Feature","properties":{"acq_date":"2026-08-05","acq_time":1013,"confidence":"n","satellite":"N","instrument":"VIIRS","version":"2.0NRT","bright_ti4":319.31,"frp":1.31,"daynight":"N"},"geometry":{"type":"Point","coordinates":[-120.73254,38.12581]}},{"type":"Feature","properties":{"acq_date":"2026-08-05","acq_time":1013,"confidence":"h","satellite":"N","instrument":"VIIRS","version":"2.0NRT","bright_ti4":367,"frp":72.27,"daynight":"N"},"geometry":{"type":"Point","coordinates":[-120.75555,38.12632]}},{"type":"Feature","properties":{"acq_date":"2026-08-05","acq_time":1013,"confidence":"n","satellite":"N","instrument":"VIIRS","version":"2.0NRT","bright_ti4":312.4,"frp":1.64,"daynight":"N"},"geometry":{"type":"Point","coordinates":[-120.73699,38.12658]}},{"type":"Feature","properties":{"acq_date":"2026-08-05","acq_time":1013,"confidence":"h","satellite":"N","instrument":"VIIRS","version":"2.0NRT","bright_ti4":367,"frp":72.27,"daynight":"N"},"geometry":{"type":"Point","coordinates":[-120.75987,38.12707]}},{"type":"Feature","properties":{"acq_date":"2026-08-05","acq_time":1013,"confidence":"n","satellite":"N","instrument":"VIIRS","version":"2.0NRT","bright_ti4":329.53,"frp":1.64,"daynight":"N"},"geometry":{"type":"Point","coordinates":[-120.74141,38.12735]}},{"type":"Feature","properties":{"acq_date":"2026-08-05","acq_time":1013,"confidence":"h","satellite":"N","instrument":"VIIRS","version":"2.0NRT","bright_ti4":367,"frp":39.69,"daynight":"N"},"geometry":{"type":"Point","coordinates":[-120.76424,38.12783]}},{"type":"Feature","properties":{"acq_date":"2026-08-05","acq_time":1013,"confidence":"n","satellite":"N","instrument":"VIIRS","version":"2.0NRT","bright_ti4":343.04,"frp":17.18,"daynight":"N"},"geometry":{"type":"Point","coordinates":[-120.74582,38.12812]}},{"type":"Feature","properties":{"acq_date":"2026-08-05","acq_time":1013,"confidence":"n","satellite":"N","instrument":"VIIRS","version":"2.0NRT","bright_ti4":337.54,"frp":6.04,"daynight":"N"},"geometry":{"type":"Point","coordinates":[-120.72705,38.12835]}},{"type":"Feature","properties":{"acq_date":"2026-08-05","acq_time":1013,"confidence":"n","satellite":"N","instrument":"VIIRS","version":"2.0NRT","bright_ti4":334.73,"frp":39.69,"daynight":"N"},"geometry":{"type":"Point","coordinates":[-120.76862,38.1286]}},{"type":"Feature","properties":{"acq_date":"2026-08-05","acq_time":1013,"confidence":"n","satellite":"N","instrument":"VIIRS","version":"2.0NRT","bright_ti4":350.41,"frp":17.18,"daynight":"N"},"geometry":{"type":"Point","coordinates":[-120.75027,38.12889]}},{"type":"Feature","properties":{"acq_date":"2026-08-05","acq_time":1013,"confidence":"n","satellite":"N","instrument":"VIIRS","version":"2.0NRT","bright_ti4":344,"frp":6.04,"daynight":"N"},"geometry":{"type":"Point","coordinates":[-120.73151,38.12913]}},{"type":"Feature","properties":{"acq_date":"2026-08-05","acq_time":1013,"confidence":"n","satellite":"N","instrument":"VIIRS","version":"2.0NRT","bright_ti4":348.17,"frp":72.27,"daynight":"N"},"geometry":{"type":"Point","coordinates":[-120.75471,38.12967]}},{"type":"Feature","properties":{"acq_date":"2026-08-05","acq_time":1013,"confidence":"n","satellite":"N","instrument":"VIIRS","version":"2.0NRT","bright_ti4":347.64,"frp":8.71,"daynight":"N"},"geometry":{"type":"Point","coordinates":[-120.736,38.12991]}},{"type":"Feature","properties":{"acq_date":"2026-08-05","acq_time":1013,"confidence":"n","satellite":"N","instrument":"VIIRS","version":"2.0NRT","bright_ti4":326.66,"frp":72.27,"daynight":"N"},"geometry":{"type":"Point","coordinates":[-120.75906,38.13042]}},{"type":"Feature","properties":{"acq_date":"2026-08-05","acq_time":1013,"confidence":"n","satellite":"N","instrument":"VIIRS","version":"2.0NRT","bright_ti4":352.26,"frp":8.71,"daynight":"N"},"geometry":{"type":"Point","coordinates":[-120.74043,38.13068]}},{"type":"Feature","properties":{"acq_date":"2026-08-05","acq_time":1013,"confidence":"n","satellite":"N","instrument":"VIIRS","version":"2.0NRT","bright_ti4":334.44,"frp":39.69,"daynight":"N"},"geometry":{"type":"Point","coordinates":[-120.7634,38.13118]}},{"type":"Feature","properties":{"acq_date":"2026-08-05","acq_time":1013,"confidence":"n","satellite":"N","instrument":"VIIRS","version":"2.0NRT","bright_ti4":332.7,"frp":4.77,"daynight":"N"},"geometry":{"type":"Point","coordinates":[-120.74483,38.13144]}},{"type":"Feature","properties":{"acq_date":"2026-08-05","acq_time":1013,"confidence":"n","satellite":"N","instrument":"VIIRS","version":"2.0NRT","bright_ti4":332.46,"frp":39.69,"daynight":"N"},"geometry":{"type":"Point","coordinates":[-120.76778,38.13194]}},{"type":"Feature","properties":{"acq_date":"2026-08-05","acq_time":1013,"confidence":"n","satellite":"N","instrument":"VIIRS","version":"2.0NRT","bright_ti4":351.15,"frp":6.04,"daynight":"N"},"geometry":{"type":"Point","coordinates":[-120.73056,38.13246]}},{"type":"Feature","properties":{"acq_date":"2026-08-05","acq_time":1013,"confidence":"n","satellite":"N","instrument":"VIIRS","version":"2.0NRT","bright_ti4":307.18,"frp":1,"daynight":"N"},"geometry":{"type":"Point","coordinates":[-120.75384,38.13301]}},{"type":"Feature","properties":{"acq_date":"2026-08-05","acq_time":1013,"confidence":"n","satellite":"N","instrument":"VIIRS","version":"2.0NRT","bright_ti4":324.5,"frp":8.71,"daynight":"N"},"geometry":{"type":"Point","coordinates":[-120.73502,38.13323]}},{"type":"Feature","properties":{"acq_date":"2026-08-05","acq_time":1013,"confidence":"n","satellite":"N","instrument":"VIIRS","version":"2.0NRT","bright_ti4":306.69,"frp":1,"daynight":"N"},"geometry":{"type":"Point","coordinates":[-120.75822,38.13377]}},{"type":"Feature","properties":{"acq_date":"2026-08-05","acq_time":1013,"confidence":"n","satellite":"N","instrument":"VIIRS","version":"2.0NRT","bright_ti4":305.57,"frp":1.49,"daynight":"N"},"geometry":{"type":"Point","coordinates":[-120.7626,38.13453]}},{"type":"Feature","properties":{"acq_date":"2026-08-05","acq_time":1013,"confidence":"n","satellite":"N","instrument":"VIIRS","version":"2.0NRT","bright_ti4":317.31,"frp":2.21,"daynight":"N"},"geometry":{"type":"Point","coordinates":[-120.72959,38.13578]}},{"type":"Feature","properties":{"acq_date":"2026-08-05","acq_time":1013,"confidence":"n","satellite":"N","instrument":"VIIRS","version":"2.0NRT","bright_ti4":347.95,"frp":2.94,"daynight":"N"},"geometry":{"type":"Point","coordinates":[-120.73405,38.13656]}},{"type":"Feature","properties":{"acq_date":"2026-08-05","acq_time":1013,"confidence":"n","satellite":"N","instrument":"VIIRS","version":"2.0NRT","bright_ti4":304.04,"frp":2.94,"daynight":"N"},"geometry":{"type":"Point","coordinates":[-120.73846,38.13733]}},{"type":"Feature","properties":{"acq_date":"2026-08-05","acq_time":1013,"confidence":"n","satellite":"N","instrument":"VIIRS","version":"2.0NRT","bright_ti4":310.58,"frp":2.94,"daynight":"N"},"geometry":{"type":"Point","coordinates":[-120.73307,38.13988]}},{"type":"Feature","properties":{"acq_date":"2026-08-05","acq_time":1013,"confidence":"n","satellite":"N","instrument":"VIIRS","version":"2.0NRT","bright_ti4":343.11,"frp":2.94,"daynight":"N"},"geometry":{"type":"Point","coordinates":[-120.73751,38.14066]}},{"type":"Feature","properties":{"acq_date":"2026-08-05","acq_time":1013,"confidence":"n","satellite":"N","instrument":"VIIRS","version":"2.0NRT","bright_ti4":340.31,"frp":3.26,"daynight":"N"},"geometry":{"type":"Point","coordinates":[-120.73657,38.14399]}},{"type":"Feature","properties":{"acq_date":"2026-08-05","acq_time":1013,"confidence":"h","satellite":"N","instrument":"VIIRS","version":"2.0NRT","bright_ti4":367,"frp":14.87,"daynight":"N"},"geometry":{"type":"Point","coordinates":[-120.74096,38.14475]}},{"type":"Feature","properties":{"acq_date":"2026-08-05","acq_time":1013,"confidence":"n","satellite":"N","instrument":"VIIRS","version":"2.0NRT","bright_ti4":303.35,"frp":14.87,"daynight":"N"},"geometry":{"type":"Point","coordinates":[-120.74533,38.14551]}},{"type":"Feature","properties":{"acq_date":"2026-08-05","acq_time":1013,"confidence":"n","satellite":"N","instrument":"VIIRS","version":"2.0NRT","bright_ti4":305.21,"frp":3.26,"daynight":"N"},"geometry":{"type":"Point","coordinates":[-120.73556,38.14731]}},{"type":"Feature","properties":{"acq_date":"2026-08-05","acq_time":1013,"confidence":"n","satellite":"N","instrument":"VIIRS","version":"2.0NRT","bright_ti4":350.29,"frp":14.87,"daynight":"N"},"geometry":{"type":"Point","coordinates":[-120.74001,38.14808]}},{"type":"Feature","properties":{"acq_date":"2026-08-05","acq_time":1013,"confidence":"n","satellite":"N","instrument":"VIIRS","version":"2.0NRT","bright_ti4":351.02,"frp":14.87,"daynight":"N"},"geometry":{"type":"Point","coordinates":[-120.74442,38.14884]}},{"type":"Feature","properties":{"acq_date":"2026-08-05","acq_time":1013,"confidence":"n","satellite":"N","instrument":"VIIRS","version":"2.0NRT","bright_ti4":320.73,"frp":7.67,"daynight":"N"},"geometry":{"type":"Point","coordinates":[-120.73904,38.15141]}},{"type":"Feature","properties":{"acq_date":"2026-08-05","acq_time":1013,"confidence":"n","satellite":"N","instrument":"VIIRS","version":"2.0NRT","bright_ti4":355.86,"frp":7.67,"daynight":"N"},"geometry":{"type":"Point","coordinates":[-120.74351,38.15219]}},{"type":"Feature","properties":{"acq_date":"2026-08-05","acq_time":1013,"confidence":"n","satellite":"N","instrument":"VIIRS","version":"2.0NRT","bright_ti4":335.72,"frp":7.07,"daynight":"N"},"geometry":{"type":"Point","coordinates":[-120.74795,38.15295]}},{"type":"Feature","properties":{"acq_date":"2026-08-05","acq_time":1013,"confidence":"n","satellite":"N","instrument":"VIIRS","version":"2.0NRT","bright_ti4":331.25,"frp":7.07,"daynight":"N"},"geometry":{"type":"Point","coordinates":[-120.74705,38.15629]}},{"type":"Feature","properties":{"acq_date":"2026-08-05","acq_time":1013,"confidence":"n","satellite":"N","instrument":"VIIRS","version":"2.0NRT","bright_ti4":302.55,"frp":0.43,"daynight":"N"},"geometry":{"type":"Point","coordinates":[-121.98472,38.21424]}},{"type":"Feature","properties":{"acq_date":"2026-08-05","acq_time":1013,"confidence":"n","satellite":"N","instrument":"VIIRS","version":"2.0NRT","bright_ti4":296.37,"frp":0.28,"daynight":"N"},"geometry":{"type":"Point","coordinates":[-114.92245,39.10622]}},{"type":"Feature","properties":{"acq_date":"2026-08-05","acq_time":1013,"confidence":"n","satellite":"N","instrument":"VIIRS","version":"2.0NRT","bright_ti4":298.07,"frp":0.73,"daynight":"N"},"geometry":{"type":"Point","coordinates":[-114.92715,39.14251]}},{"type":"Feature","properties":{"acq_date":"2026-08-05","acq_time":1013,"confidence":"n","satellite":"N","instrument":"VIIRS","version":"2.0NRT","bright_ti4":298.76,"frp":0.73,"daynight":"N"},"geometry":{"type":"Point","coordinates":[-114.93286,39.1438]}},{"type":"Feature","properties":{"acq_date":"2026-08-05","acq_time":1013,"confidence":"n","satellite":"N","instrument":"VIIRS","version":"2.0NRT","bright_ti4":309.55,"frp":1.06,"daynight":"N"},"geometry":{"type":"Point","coordinates":[-114.93095,39.14777]}},{"type":"Feature","properties":{"acq_date":"2026-08-05","acq_time":1013,"confidence":"n","satellite":"N","instrument":"VIIRS","version":"2.0NRT","bright_ti4":301.03,"frp":1.56,"daynight":"N"},"geometry":{"type":"Point","coordinates":[-114.93639,39.14899]}},{"type":"Feature","properties":{"acq_date":"2026-08-05","acq_time":1013,"confidence":"n","satellite":"N","instrument":"VIIRS","version":"2.0NRT","bright_ti4":303.11,"frp":1.06,"daynight":"N"},"geometry":{"type":"Point","coordinates":[-114.92901,39.15173]}},{"type":"Feature","properties":{"acq_date":"2026-08-05","acq_time":1013,"confidence":"n","satellite":"N","instrument":"VIIRS","version":"2.0NRT","bright_ti4":297.96,"frp":1.48,"daynight":"N"},"geometry":{"type":"Point","coordinates":[-117.49139,39.58071]}},{"type":"Feature","properties":{"acq_date":"2026-08-05","acq_time":1013,"confidence":"n","satellite":"N","instrument":"VIIRS","version":"2.0NRT","bright_ti4":297.88,"frp":1.47,"daynight":"N"},"geometry":{"type":"Point","coordinates":[-117.50127,39.58652]}},{"type":"Feature","properties":{"acq_date":"2026-08-05","acq_time":1013,"confidence":"n","satellite":"N","instrument":"VIIRS","version":"2.0NRT","bright_ti4":303.51,"frp":1.18,"daynight":"N"},"geometry":{"type":"Point","coordinates":[-117.50985,39.59591]}},{"type":"Feature","properties":{"acq_date":"2026-08-05","acq_time":1013,"confidence":"n","satellite":"N","instrument":"VIIRS","version":"2.0NRT","bright_ti4":311.13,"frp":1.58,"daynight":"N"},"geometry":{"type":"Point","coordinates":[-120.07848,39.59612]}},{"type":"Feature","properties":{"acq_date":"2026-08-05","acq_time":1013,"confidence":"n","satellite":"N","instrument":"VIIRS","version":"2.0NRT","bright_ti4":307.25,"frp":0.86,"daynight":"N"},"geometry":{"type":"Point","coordinates":[-120.07743,39.59943]}},{"type":"Feature","properties":{"acq_date":"2026-08-05","acq_time":1013,"confidence":"n","satellite":"N","instrument":"VIIRS","version":"2.0NRT","bright_ti4":327.91,"frp":3.48,"daynight":"N"},"geometry":{"type":"Point","coordinates":[-117.50753,39.60312]}},{"type":"Feature","properties":{"acq_date":"2026-08-05","acq_time":1013,"confidence":"n","satellite":"N","instrument":"VIIRS","version":"2.0NRT","bright_ti4":315.91,"frp":3.48,"daynight":"N"},"geometry":{"type":"Point","coordinates":[-117.51271,39.60415]}}]}