{"type":"FeatureCollection","name":"FIRMS VIIRS CA (last 1 day)","crs":{"type":"name","properties":{"name":"EPSG:4326"}},"fetched_at_utc":"2026-09-24T18:19:52.083Z","source":{"url":"https://firms.modaps.eosdis.nasa.gov/api/area/csv/8c4af552cf654445dd280dfb3ad9337c/VIIRS_SNPP_NRT/-125,32,-113,43.5/1","dataset":"VIIRS_SNPP_NRT","bbox":"-125,32,-113,43.5","day_range":"1"},"features":[{"type":"Feature","properties":{"acq_date":"2026-09-24","acq_time":934,"confidence":"n","satellite":"N","instrument":"VIIRS","version":"2.0NRT","bright_ti4":298.45,"frp":0.42,"daynight":"N"},"geometry":{"type":"Point","coordinates":[-121.08886,38.05015]}},{"type":"Feature","properties":{"acq_date":"2026-09-24","acq_time":934,"confidence":"n","satellite":"N","instrument":"VIIRS","version":"2.0NRT","bright_ti4":298.9,"frp":0.6,"daynight":"N"},"geometry":{"type":"Point","coordinates":[-121.65171,39.28499]}},{"type":"Feature","properties":{"acq_date":"2026-09-24","acq_time":934,"confidence":"n","satellite":"N","instrument":"VIIRS","version":"2.0NRT","bright_ti4":297.41,"frp":0.91,"daynight":"N"},"geometry":{"type":"Point","coordinates":[-119.26319,39.61724]}},{"type":"Feature","properties":{"acq_date":"2026-09-24","acq_time":934,"confidence":"n","satellite":"N","instrument":"VIIRS","version":"2.0NRT","bright_ti4":301.85,"frp":0.91,"daynight":"N"},"geometry":{"type":"Point","coordinates":[-119.2625,39.62138]}},{"type":"Feature","properties":{"acq_date":"2026-09-24","acq_time":934,"confidence":"n","satellite":"N","instrument":"VIIRS","version":"2.0NRT","bright_ti4":299.24,"frp":1.06,"daynight":"N"},"geometry":{"type":"Point","coordinates":[-122.2473,39.69962]}},{"type":"Feature","properties":{"acq_date":"2026-09-24","acq_time":934,"confidence":"n","satellite":"N","instrument":"VIIRS","version":"2.0NRT","bright_ti4":312.01,"frp":2.19,"daynight":"N"},"geometry":{"type":"Point","coordinates":[-122.20196,40.07406]}},{"type":"Feature","properties":{"acq_date":"2026-09-24","acq_time":934,"confidence":"n","satellite":"N","instrument":"VIIRS","version":"2.0NRT","bright_ti4":313.67,"frp":2.19,"daynight":"N"},"geometry":{"type":"Point","coordinates":[-122.20892,40.07455]}},{"type":"Feature","properties":{"acq_date":"2026-09-24","acq_time":934,"confidence":"n","satellite":"N","instrument":"VIIRS","version":"2.0NRT","bright_ti4":308.38,"frp":1.39,"daynight":"N"},"geometry":{"type":"Point","coordinates":[-114.25404,40.82035]}},{"type":"Feature","properties":{"acq_date":"2026-09-24","acq_time":934,"confidence":"n","satellite":"N","instrument":"VIIRS","version":"2.0NRT","bright_ti4":298.32,"frp":1.72,"daynight":"N"},"geometry":{"type":"Point","coordinates":[-114.25872,40.82099]}},{"type":"Feature","properties":{"acq_date":"2026-09-24","acq_time":937,"confidence":"n","satellite":"N","instrument":"VIIRS","version":"2.0NRT","bright_ti4":299.89,"frp":0.38,"daynight":"N"},"geometry":{"type":"Point","coordinates":[-116.521,32.28234]}},{"type":"Feature","properties":{"acq_date":"2026-09-24","acq_time":937,"confidence":"n","satellite":"N","instrument":"VIIRS","version":"2.0NRT","bright_ti4":304.15,"frp":0.42,"daynight":"N"},"geometry":{"type":"Point","coordinates":[-115.29848,32.461]}},{"type":"Feature","properties":{"acq_date":"2026-09-24","acq_time":937,"confidence":"n","satellite":"N","instrument":"VIIRS","version":"2.0NRT","bright_ti4":304.52,"frp":1.25,"daynight":"N"},"geometry":{"type":"Point","coordinates":[-116.77503,32.52341]}},{"type":"Feature","properties":{"acq_date":"2026-09-24","acq_time":937,"confidence":"n","satellite":"N","instrument":"VIIRS","version":"2.0NRT","bright_ti4":323.29,"frp":1.44,"daynight":"N"},"geometry":{"type":"Point","coordinates":[-116.77432,32.52682]}},{"type":"Feature","properties":{"acq_date":"2026-09-24","acq_time":937,"confidence":"n","satellite":"N","instrument":"VIIRS","version":"2.0NRT","bright_ti4":308.54,"frp":1.44,"daynight":"N"},"geometry":{"type":"Point","coordinates":[-116.77863,32.52742]}},{"type":"Feature","properties":{"acq_date":"2026-09-24","acq_time":937,"confidence":"n","satellite":"N","instrument":"VIIRS","version":"2.0NRT","bright_ti4":312.27,"frp":0.91,"daynight":"N"},"geometry":{"type":"Point","coordinates":[-115.35427,32.54387]}},{"type":"Feature","properties":{"acq_date":"2026-09-24","acq_time":937,"confidence":"n","satellite":"N","instrument":"VIIRS","version":"2.0NRT","bright_ti4":302.04,"frp":0.21,"daynight":"N"},"geometry":{"type":"Point","coordinates":[-115.51904,32.5687]}},{"type":"Feature","properties":{"acq_date":"2026-09-24","acq_time":937,"confidence":"n","satellite":"N","instrument":"VIIRS","version":"2.0NRT","bright_ti4":315.12,"frp":1.05,"daynight":"N"},"geometry":{"type":"Point","coordinates":[-114.66832,32.60079]}},{"type":"Feature","properties":{"acq_date":"2026-09-24","acq_time":937,"confidence":"n","satellite":"N","instrument":"VIIRS","version":"2.0NRT","bright_ti4":305.76,"frp":1.12,"daynight":"N"},"geometry":{"type":"Point","coordinates":[-118.2369,33.77709]}},{"type":"Feature","properties":{"acq_date":"2026-09-24","acq_time":937,"confidence":"n","satellite":"N","instrument":"VIIRS","version":"2.0NRT","bright_ti4":308.19,"frp":1.22,"daynight":"N"},"geometry":{"type":"Point","coordinates":[-117.47596,33.7935]}},{"type":"Feature","properties":{"acq_date":"2026-09-24","acq_time":937,"confidence":"n","satellite":"N","instrument":"VIIRS","version":"2.0NRT","bright_ti4":306.29,"frp":1.84,"daynight":"N"},"geometry":{"type":"Point","coordinates":[-118.33248,33.85172]}},{"type":"Feature","properties":{"acq_date":"2026-09-24","acq_time":937,"confidence":"n","satellite":"N","instrument":"VIIRS","version":"2.0NRT","bright_ti4":300.28,"frp":0.45,"daynight":"N"},"geometry":{"type":"Point","coordinates":[-116.99719,33.87664]}},{"type":"Feature","properties":{"acq_date":"2026-09-24","acq_time":937,"confidence":"n","satellite":"N","instrument":"VIIRS","version":"2.0NRT","bright_ti4":301.58,"frp":0.33,"daynight":"N"},"geometry":{"type":"Point","coordinates":[-118.1064,34.03468]}},{"type":"Feature","properties":{"acq_date":"2026-09-24","acq_time":937,"confidence":"n","satellite":"N","instrument":"VIIRS","version":"2.0NRT","bright_ti4":306.12,"frp":0.85,"daynight":"N"},"geometry":{"type":"Point","coordinates":[-117.82154,34.03935]}},{"type":"Feature","properties":{"acq_date":"2026-09-24","acq_time":937,"confidence":"n","satellite":"N","instrument":"VIIRS","version":"2.0NRT","bright_ti4":306.04,"frp":0.75,"daynight":"N"},"geometry":{"type":"Point","coordinates":[-117.42581,34.14114]}},{"type":"Feature","properties":{"acq_date":"2026-09-24","acq_time":937,"confidence":"n","satellite":"N","instrument":"VIIRS","version":"2.0NRT","bright_ti4":314.92,"frp":1.27,"daynight":"N"},"geometry":{"type":"Point","coordinates":[-118.1927,34.15253]}},{"type":"Feature","properties":{"acq_date":"2026-09-24","acq_time":937,"confidence":"n","satellite":"N","instrument":"VIIRS","version":"2.0NRT","bright_ti4":301.39,"frp":0.56,"daynight":"N"},"geometry":{"type":"Point","coordinates":[-118.38322,34.24183]}},{"type":"Feature","properties":{"acq_date":"2026-09-24","acq_time":937,"confidence":"n","satellite":"N","instrument":"VIIRS","version":"2.0NRT","bright_ti4":301.97,"frp":0.43,"daynight":"N"},"geometry":{"type":"Point","coordinates":[-118.3799,34.24363]}},{"type":"Feature","properties":{"acq_date":"2026-09-24","acq_time":937,"confidence":"n","satellite":"N","instrument":"VIIRS","version":"2.0NRT","bright_ti4":305.96,"frp":0.96,"daynight":"N"},"geometry":{"type":"Point","coordinates":[-118.8,34.29095]}},{"type":"Feature","properties":{"acq_date":"2026-09-24","acq_time":937,"confidence":"n","satellite":"N","instrument":"VIIRS","version":"2.0NRT","bright_ti4":299.52,"frp":0.47,"daynight":"N"},"geometry":{"type":"Point","coordinates":[-118.7964,34.29119]}},{"type":"Feature","properties":{"acq_date":"2026-09-24","acq_time":937,"confidence":"n","satellite":"N","instrument":"VIIRS","version":"2.0NRT","bright_ti4":298.88,"frp":0.47,"daynight":"N"},"geometry":{"type":"Point","coordinates":[-118.80202,34.29188]}},{"type":"Feature","properties":{"acq_date":"2026-09-24","acq_time":937,"confidence":"n","satellite":"N","instrument":"VIIRS","version":"2.0NRT","bright_ti4":316.94,"frp":1.26,"daynight":"N"},"geometry":{"type":"Point","coordinates":[-118.51772,34.33405]}},{"type":"Feature","properties":{"acq_date":"2026-09-24","acq_time":937,"confidence":"n","satellite":"N","instrument":"VIIRS","version":"2.0NRT","bright_ti4":305.22,"frp":0.83,"daynight":"N"},"geometry":{"type":"Point","coordinates":[-116.85418,34.35269]}},{"type":"Feature","properties":{"acq_date":"2026-09-24","acq_time":937,"confidence":"n","satellite":"N","instrument":"VIIRS","version":"2.0NRT","bright_ti4":319.97,"frp":2.31,"daynight":"N"},"geometry":{"type":"Point","coordinates":[-117.33695,34.6077]}},{"type":"Feature","properties":{"acq_date":"2026-09-24","acq_time":937,"confidence":"n","satellite":"N","instrument":"VIIRS","version":"2.0NRT","bright_ti4":313.42,"frp":2.11,"daynight":"N"},"geometry":{"type":"Point","coordinates":[-117.09933,34.62269]}},{"type":"Feature","properties":{"acq_date":"2026-09-24","acq_time":937,"confidence":"n","satellite":"N","instrument":"VIIRS","version":"2.0NRT","bright_ti4":305.69,"frp":0.65,"daynight":"N"},"geometry":{"type":"Point","coordinates":[-118.74885,34.81839]}},{"type":"Feature","properties":{"acq_date":"2026-09-24","acq_time":937,"confidence":"n","satellite":"N","instrument":"VIIRS","version":"2.0NRT","bright_ti4":302.29,"frp":1.28,"daynight":"N"},"geometry":{"type":"Point","coordinates":[-118.74773,34.82079]}},{"type":"Feature","properties":{"acq_date":"2026-09-24","acq_time":937,"confidence":"n","satellite":"N","instrument":"VIIRS","version":"2.0NRT","bright_ti4":309.04,"frp":1.82,"daynight":"N"},"geometry":{"type":"Point","coordinates":[-121.70387,36.30124]}},{"type":"Feature","properties":{"acq_date":"2026-09-24","acq_time":937,"confidence":"n","satellite":"N","instrument":"VIIRS","version":"2.0NRT","bright_ti4":339.7,"frp":25.5,"daynight":"N"},"geometry":{"type":"Point","coordinates":[-121.70433,36.30552]}},{"type":"Feature","properties":{"acq_date":"2026-09-24","acq_time":937,"confidence":"n","satellite":"N","instrument":"VIIRS","version":"2.0NRT","bright_ti4":338.84,"frp":14.57,"daynight":"N"},"geometry":{"type":"Point","coordinates":[-121.70356,36.30581]}},{"type":"Feature","properties":{"acq_date":"2026-09-24","acq_time":937,"confidence":"n","satellite":"N","instrument":"VIIRS","version":"2.0NRT","bright_ti4":338.61,"frp":25.5,"daynight":"N"},"geometry":{"type":"Point","coordinates":[-121.7089,36.30593]}},{"type":"Feature","properties":{"acq_date":"2026-09-24","acq_time":937,"confidence":"n","satellite":"N","instrument":"VIIRS","version":"2.0NRT","bright_ti4":341.89,"frp":29.68,"daynight":"N"},"geometry":{"type":"Point","coordinates":[-121.70815,36.30621]}},{"type":"Feature","properties":{"acq_date":"2026-09-24","acq_time":937,"confidence":"n","satellite":"N","instrument":"VIIRS","version":"2.0NRT","bright_ti4":312.46,"frp":1.25,"daynight":"N"},"geometry":{"type":"Point","coordinates":[-114.91206,36.35851]}},{"type":"Feature","properties":{"acq_date":"2026-09-24","acq_time":937,"confidence":"n","satellite":"N","instrument":"VIIRS","version":"2.0NRT","bright_ti4":310.18,"frp":0.73,"daynight":"N"},"geometry":{"type":"Point","coordinates":[-114.87701,36.38245]}},{"type":"Feature","properties":{"acq_date":"2026-09-24","acq_time":937,"confidence":"n","satellite":"N","instrument":"VIIRS","version":"2.0NRT","bright_ti4":302.32,"frp":0.77,"daynight":"N"},"geometry":{"type":"Point","coordinates":[-121.93359,37.45484]}},{"type":"Feature","properties":{"acq_date":"2026-09-24","acq_time":937,"confidence":"n","satellite":"N","instrument":"VIIRS","version":"2.0NRT","bright_ti4":317.23,"frp":2.05,"daynight":"N"},"geometry":{"type":"Point","coordinates":[-119.59298,37.58725]}},{"type":"Feature","properties":{"acq_date":"2026-09-24","acq_time":937,"confidence":"n","satellite":"N","instrument":"VIIRS","version":"2.0NRT","bright_ti4":306.02,"frp":0.78,"daynight":"N"},"geometry":{"type":"Point","coordinates":[-119.58574,37.58789]}},{"type":"Feature","properties":{"acq_date":"2026-09-24","acq_time":937,"confidence":"n","satellite":"N","instrument":"VIIRS","version":"2.0NRT","bright_ti4":325.19,"frp":2.57,"daynight":"N"},"geometry":{"type":"Point","coordinates":[-119.59033,37.58838]}},{"type":"Feature","properties":{"acq_date":"2026-09-24","acq_time":937,"confidence":"n","satellite":"N","instrument":"VIIRS","version":"2.0NRT","bright_ti4":311.72,"frp":2.57,"daynight":"N"},"geometry":{"type":"Point","coordinates":[-119.59473,37.58883]}},{"type":"Feature","properties":{"acq_date":"2026-09-24","acq_time":937,"confidence":"n","satellite":"N","instrument":"VIIRS","version":"2.0NRT","bright_ti4":345.92,"frp":8.46,"daynight":"N"},"geometry":{"type":"Point","coordinates":[-119.58745,37.59087]}},{"type":"Feature","properties":{"acq_date":"2026-09-24","acq_time":937,"confidence":"n","satellite":"N","instrument":"VIIRS","version":"2.0NRT","bright_ti4":321.96,"frp":5.39,"daynight":"N"},"geometry":{"type":"Point","coordinates":[-119.59205,37.59133]}},{"type":"Feature","properties":{"acq_date":"2026-09-24","acq_time":937,"confidence":"n","satellite":"N","instrument":"VIIRS","version":"2.0NRT","bright_ti4":336.08,"frp":5.39,"daynight":"N"},"geometry":{"type":"Point","coordinates":[-119.59579,37.59586]}},{"type":"Feature","properties":{"acq_date":"2026-09-24","acq_time":937,"confidence":"n","satellite":"N","instrument":"VIIRS","version":"2.0NRT","bright_ti4":314.3,"frp":2.96,"daynight":"N"},"geometry":{"type":"Point","coordinates":[-119.60031,37.59631]}},{"type":"Feature","properties":{"acq_date":"2026-09-24","acq_time":937,"confidence":"n","satellite":"N","instrument":"VIIRS","version":"2.0NRT","bright_ti4":335.73,"frp":3.31,"daynight":"N"},"geometry":{"type":"Point","coordinates":[-119.58512,37.59898]}},{"type":"Feature","properties":{"acq_date":"2026-09-24","acq_time":937,"confidence":"n","satellite":"N","instrument":"VIIRS","version":"2.0NRT","bright_ti4":311.74,"frp":3.26,"daynight":"N"},"geometry":{"type":"Point","coordinates":[-119.58987,37.59945]}},{"type":"Feature","properties":{"acq_date":"2026-09-24","acq_time":937,"confidence":"n","satellite":"N","instrument":"VIIRS","version":"2.0NRT","bright_ti4":354.42,"frp":3.85,"daynight":"N"},"geometry":{"type":"Point","coordinates":[-119.59943,37.60039]}},{"type":"Feature","properties":{"acq_date":"2026-09-24","acq_time":937,"confidence":"n","satellite":"N","instrument":"VIIRS","version":"2.0NRT","bright_ti4":310.51,"frp":3.85,"daynight":"N"},"geometry":{"type":"Point","coordinates":[-119.60418,37.60086]}},{"type":"Feature","properties":{"acq_date":"2026-09-24","acq_time":937,"confidence":"n","satellite":"N","instrument":"VIIRS","version":"2.0NRT","bright_ti4":317.34,"frp":3.26,"daynight":"N"},"geometry":{"type":"Point","coordinates":[-119.58885,37.60351]}},{"type":"Feature","properties":{"acq_date":"2026-09-24","acq_time":937,"confidence":"n","satellite":"N","instrument":"VIIRS","version":"2.0NRT","bright_ti4":316.29,"frp":3.85,"daynight":"N"},"geometry":{"type":"Point","coordinates":[-119.5985,37.60447]}},{"type":"Feature","properties":{"acq_date":"2026-09-24","acq_time":937,"confidence":"n","satellite":"N","instrument":"VIIRS","version":"2.0NRT","bright_ti4":305.54,"frp":3.85,"daynight":"N"},"geometry":{"type":"Point","coordinates":[-119.60351,37.60497]}},{"type":"Feature","properties":{"acq_date":"2026-09-24","acq_time":937,"confidence":"n","satellite":"N","instrument":"VIIRS","version":"2.0NRT","bright_ti4":328.77,"frp":5.81,"daynight":"N"},"geometry":{"type":"Point","coordinates":[-119.58817,37.60761]}},{"type":"Feature","properties":{"acq_date":"2026-09-24","acq_time":937,"confidence":"h","satellite":"N","instrument":"VIIRS","version":"2.0NRT","bright_ti4":367,"frp":5.81,"daynight":"N"},"geometry":{"type":"Point","coordinates":[-119.59293,37.60808]}},{"type":"Feature","properties":{"acq_date":"2026-09-24","acq_time":937,"confidence":"n","satellite":"N","instrument":"VIIRS","version":"2.0NRT","bright_ti4":346.37,"frp":3.75,"daynight":"N"},"geometry":{"type":"Point","coordinates":[-119.59772,37.60856]}},{"type":"Feature","properties":{"acq_date":"2026-09-24","acq_time":937,"confidence":"n","satellite":"N","instrument":"VIIRS","version":"2.0NRT","bright_ti4":301.99,"frp":3.75,"daynight":"N"},"geometry":{"type":"Point","coordinates":[-119.60268,37.60905]}},{"type":"Feature","properties":{"acq_date":"2026-09-24","acq_time":937,"confidence":"n","satellite":"N","instrument":"VIIRS","version":"2.0NRT","bright_ti4":325.86,"frp":2.62,"daynight":"N"},"geometry":{"type":"Point","coordinates":[-119.6077,37.60955]}},{"type":"Feature","properties":{"acq_date":"2026-09-24","acq_time":937,"confidence":"n","satellite":"N","instrument":"VIIRS","version":"2.0NRT","bright_ti4":328.37,"frp":2.62,"daynight":"N"},"geometry":{"type":"Point","coordinates":[-119.61292,37.61007]}},{"type":"Feature","properties":{"acq_date":"2026-09-24","acq_time":937,"confidence":"n","satellite":"N","instrument":"VIIRS","version":"2.0NRT","bright_ti4":301.29,"frp":1.37,"daynight":"N"},"geometry":{"type":"Point","coordinates":[-119.62373,37.61113]}},{"type":"Feature","properties":{"acq_date":"2026-09-24","acq_time":937,"confidence":"n","satellite":"N","instrument":"VIIRS","version":"2.0NRT","bright_ti4":307.87,"frp":5.81,"daynight":"N"},"geometry":{"type":"Point","coordinates":[-119.59238,37.61219]}},{"type":"Feature","properties":{"acq_date":"2026-09-24","acq_time":937,"confidence":"n","satellite":"N","instrument":"VIIRS","version":"2.0NRT","bright_ti4":322.94,"frp":3.75,"daynight":"N"},"geometry":{"type":"Point","coordinates":[-119.59711,37.61267]}},{"type":"Feature","properties":{"acq_date":"2026-09-24","acq_time":937,"confidence":"n","satellite":"N","instrument":"VIIRS","version":"2.0NRT","bright_ti4":319.66,"frp":3.75,"daynight":"N"},"geometry":{"type":"Point","coordinates":[-119.60202,37.61316]}},{"type":"Feature","properties":{"acq_date":"2026-09-24","acq_time":937,"confidence":"n","satellite":"N","instrument":"VIIRS","version":"2.0NRT","bright_ti4":307.37,"frp":2.62,"daynight":"N"},"geometry":{"type":"Point","coordinates":[-119.60705,37.61366]}},{"type":"Feature","properties":{"acq_date":"2026-09-24","acq_time":937,"confidence":"n","satellite":"N","instrument":"VIIRS","version":"2.0NRT","bright_ti4":316.4,"frp":1.37,"daynight":"N"},"geometry":{"type":"Point","coordinates":[-119.62295,37.61523]}},{"type":"Feature","properties":{"acq_date":"2026-09-24","acq_time":937,"confidence":"n","satellite":"N","instrument":"VIIRS","version":"2.0NRT","bright_ti4":317.6,"frp":10.5,"daynight":"N"},"geometry":{"type":"Point","coordinates":[-119.61678,37.61879]}},{"type":"Feature","properties":{"acq_date":"2026-09-24","acq_time":937,"confidence":"h","satellite":"N","instrument":"VIIRS","version":"2.0NRT","bright_ti4":367,"frp":10.5,"daynight":"N"},"geometry":{"type":"Point","coordinates":[-119.62201,37.61931]}},{"type":"Feature","properties":{"acq_date":"2026-09-24","acq_time":937,"confidence":"n","satellite":"N","instrument":"VIIRS","version":"2.0NRT","bright_ti4":313.63,"frp":7.06,"daynight":"N"},"geometry":{"type":"Point","coordinates":[-119.62702,37.61981]}},{"type":"Feature","properties":{"acq_date":"2026-09-24","acq_time":937,"confidence":"n","satellite":"N","instrument":"VIIRS","version":"2.0NRT","bright_ti4":307.01,"frp":1.37,"daynight":"N"},"geometry":{"type":"Point","coordinates":[-119.60153,37.62144]}},{"type":"Feature","properties":{"acq_date":"2026-09-24","acq_time":937,"confidence":"n","satellite":"N","instrument":"VIIRS","version":"2.0NRT","bright_ti4":320.59,"frp":10.5,"daynight":"N"},"geometry":{"type":"Point","coordinates":[-119.61588,37.62288]}},{"type":"Feature","properties":{"acq_date":"2026-09-24","acq_time":937,"confidence":"n","satellite":"N","instrument":"VIIRS","version":"2.0NRT","bright_ti4":353.48,"frp":10.5,"daynight":"N"},"geometry":{"type":"Point","coordinates":[-119.62085,37.62337]}},{"type":"Feature","properties":{"acq_date":"2026-09-24","acq_time":937,"confidence":"n","satellite":"N","instrument":"VIIRS","version":"2.0NRT","bright_ti4":324.47,"frp":7.06,"daynight":"N"},"geometry":{"type":"Point","coordinates":[-119.62585,37.62387]}},{"type":"Feature","properties":{"acq_date":"2026-09-24","acq_time":937,"confidence":"n","satellite":"N","instrument":"VIIRS","version":"2.0NRT","bright_ti4":323.43,"frp":2.8,"daynight":"N"},"geometry":{"type":"Point","coordinates":[-119.59624,37.62508]}},{"type":"Feature","properties":{"acq_date":"2026-09-24","acq_time":937,"confidence":"n","satellite":"N","instrument":"VIIRS","version":"2.0NRT","bright_ti4":317.02,"frp":2.8,"daynight":"N"},"geometry":{"type":"Point","coordinates":[-119.60115,37.62557]}},{"type":"Feature","properties":{"acq_date":"2026-09-24","acq_time":937,"confidence":"n","satellite":"N","instrument":"VIIRS","version":"2.0NRT","bright_ti4":300.15,"frp":2.14,"daynight":"N"},"geometry":{"type":"Point","coordinates":[-119.61045,37.6265]}},{"type":"Feature","properties":{"acq_date":"2026-09-24","acq_time":937,"confidence":"n","satellite":"N","instrument":"VIIRS","version":"2.0NRT","bright_ti4":356.81,"frp":14.68,"daynight":"N"},"geometry":{"type":"Point","coordinates":[-119.61503,37.62696]}},{"type":"Feature","properties":{"acq_date":"2026-09-24","acq_time":937,"confidence":"n","satellite":"N","instrument":"VIIRS","version":"2.0NRT","bright_ti4":316.7,"frp":14.68,"daynight":"N"},"geometry":{"type":"Point","coordinates":[-119.61966,37.62743]}},{"type":"Feature","properties":{"acq_date":"2026-09-24","acq_time":937,"confidence":"n","satellite":"N","instrument":"VIIRS","version":"2.0NRT","bright_ti4":338.19,"frp":2.8,"daynight":"N"},"geometry":{"type":"Point","coordinates":[-119.59587,37.62921]}},{"type":"Feature","properties":{"acq_date":"2026-09-24","acq_time":937,"confidence":"n","satellite":"N","instrument":"VIIRS","version":"2.0NRT","bright_ti4":304.63,"frp":2.8,"daynight":"N"},"geometry":{"type":"Point","coordinates":[-119.60071,37.6297]}},{"type":"Feature","properties":{"acq_date":"2026-09-24","acq_time":937,"confidence":"n","satellite":"N","instrument":"VIIRS","version":"2.0NRT","bright_ti4":311.12,"frp":2.14,"daynight":"N"},"geometry":{"type":"Point","coordinates":[-119.60985,37.63062]}},{"type":"Feature","properties":{"acq_date":"2026-09-24","acq_time":937,"confidence":"h","satellite":"N","instrument":"VIIRS","version":"2.0NRT","bright_ti4":367,"frp":14.68,"daynight":"N"},"geometry":{"type":"Point","coordinates":[-119.61426,37.63106]}},{"type":"Feature","properties":{"acq_date":"2026-09-24","acq_time":937,"confidence":"n","satellite":"N","instrument":"VIIRS","version":"2.0NRT","bright_ti4":310.17,"frp":0.89,"daynight":"N"},"geometry":{"type":"Point","coordinates":[-119.60017,37.63381]}},{"type":"Feature","properties":{"acq_date":"2026-09-24","acq_time":937,"confidence":"n","satellite":"N","instrument":"VIIRS","version":"2.0NRT","bright_ti4":311.59,"frp":3.09,"daynight":"N"},"geometry":{"type":"Point","coordinates":[-119.60474,37.63427]}},{"type":"Feature","properties":{"acq_date":"2026-09-24","acq_time":937,"confidence":"n","satellite":"N","instrument":"VIIRS","version":"2.0NRT","bright_ti4":336.85,"frp":3.09,"daynight":"N"},"geometry":{"type":"Point","coordinates":[-119.60912,37.63472]}},{"type":"Feature","properties":{"acq_date":"2026-09-24","acq_time":937,"confidence":"n","satellite":"N","instrument":"VIIRS","version":"2.0NRT","bright_ti4":308.19,"frp":1.83,"daynight":"N"},"geometry":{"type":"Point","coordinates":[-119.61353,37.63516]}},{"type":"Feature","properties":{"acq_date":"2026-09-24","acq_time":937,"confidence":"n","satellite":"N","instrument":"VIIRS","version":"2.0NRT","bright_ti4":295.95,"frp":0.29,"daynight":"N"},"geometry":{"type":"Point","coordinates":[-122.77575,42.38421]}},{"type":"Feature","properties":{"acq_date":"2026-09-24","acq_time":937,"confidence":"n","satellite":"N","instrument":"VIIRS","version":"2.0NRT","bright_ti4":303.46,"frp":0.9,"daynight":"N"},"geometry":{"type":"Point","coordinates":[-115.73412,43.18]}},{"type":"Feature","properties":{"acq_date":"2026-09-24","acq_time":1117,"confidence":"n","satellite":"N","instrument":"VIIRS","version":"2.0NRT","bright_ti4":298.55,"frp":1.28,"daynight":"N"},"geometry":{"type":"Point","coordinates":[-119.26513,39.61968]}},{"type":"Feature","properties":{"acq_date":"2026-09-24","acq_time":1117,"confidence":"n","satellite":"N","instrument":"VIIRS","version":"2.0NRT","bright_ti4":296.71,"frp":0.67,"daynight":"N"},"geometry":{"type":"Point","coordinates":[-122.24706,39.70158]}},{"type":"Feature","properties":{"acq_date":"2026-09-24","acq_time":1117,"confidence":"n","satellite":"N","instrument":"VIIRS","version":"2.0NRT","bright_ti4":303.36,"frp":1.1,"daynight":"N"},"geometry":{"type":"Point","coordinates":[-122.20501,40.07041]}},{"type":"Feature","properties":{"acq_date":"2026-09-24","acq_time":1117,"confidence":"n","satellite":"N","instrument":"VIIRS","version":"2.0NRT","bright_ti4":299.62,"frp":1.1,"daynight":"N"},"geometry":{"type":"Point","coordinates":[-122.21095,40.07221]}},{"type":"Feature","properties":{"acq_date":"2026-09-24","acq_time":1117,"confidence":"n","satellite":"N","instrument":"VIIRS","version":"2.0NRT","bright_ti4":308.04,"frp":2.13,"daynight":"N"},"geometry":{"type":"Point","coordinates":[-122.20309,40.07502]}},{"type":"Feature","properties":{"acq_date":"2026-09-24","acq_time":1117,"confidence":"n","satellite":"N","instrument":"VIIRS","version":"2.0NRT","bright_ti4":298.72,"frp":0.96,"daynight":"N"},"geometry":{"type":"Point","coordinates":[-122.20195,40.07622]}}]}