{"type":"FeatureCollection","name":"FIRMS VIIRS CA (last 1 day)","crs":{"type":"name","properties":{"name":"EPSG:4326"}},"fetched_at_utc":"2026-08-15T14:26:38.488Z","source":{"url":"https://firms.modaps.eosdis.nasa.gov/api/area/csv/8c4af552cf654445dd280dfb3ad9337c/VIIRS_SNPP_NRT/-125,32,-113,43.5/1","dataset":"VIIRS_SNPP_NRT","bbox":"-125,32,-113,43.5","day_range":"1"},"features":[{"type":"Feature","properties":{"acq_date":"2026-08-15","acq_time":845,"confidence":"n","satellite":"N","instrument":"VIIRS","version":"2.0NRT","bright_ti4":301.81,"frp":1.86,"daynight":"N"},"geometry":{"type":"Point","coordinates":[-117.33759,34.60499]}},{"type":"Feature","properties":{"acq_date":"2026-08-15","acq_time":845,"confidence":"n","satellite":"N","instrument":"VIIRS","version":"2.0NRT","bright_ti4":303.22,"frp":1.29,"daynight":"N"},"geometry":{"type":"Point","coordinates":[-117.34131,34.60963]}},{"type":"Feature","properties":{"acq_date":"2026-08-15","acq_time":845,"confidence":"n","satellite":"N","instrument":"VIIRS","version":"2.0NRT","bright_ti4":298.17,"frp":0.49,"daynight":"N"},"geometry":{"type":"Point","coordinates":[-113.31551,35.51503]}},{"type":"Feature","properties":{"acq_date":"2026-08-15","acq_time":845,"confidence":"n","satellite":"N","instrument":"VIIRS","version":"2.0NRT","bright_ti4":302.86,"frp":1.6,"daynight":"N"},"geometry":{"type":"Point","coordinates":[-114.91525,36.35526]}},{"type":"Feature","properties":{"acq_date":"2026-08-15","acq_time":1026,"confidence":"n","satellite":"N","instrument":"VIIRS","version":"2.0NRT","bright_ti4":297.94,"frp":0.99,"daynight":"N"},"geometry":{"type":"Point","coordinates":[-121.70635,36.19786]}},{"type":"Feature","properties":{"acq_date":"2026-08-15","acq_time":1026,"confidence":"n","satellite":"N","instrument":"VIIRS","version":"2.0NRT","bright_ti4":303.15,"frp":1.11,"daynight":"N"},"geometry":{"type":"Point","coordinates":[-121.70081,36.20063]}},{"type":"Feature","properties":{"acq_date":"2026-08-15","acq_time":1026,"confidence":"n","satellite":"N","instrument":"VIIRS","version":"2.0NRT","bright_ti4":303.08,"frp":0.99,"daynight":"N"},"geometry":{"type":"Point","coordinates":[-121.70576,36.20161]}},{"type":"Feature","properties":{"acq_date":"2026-08-15","acq_time":1026,"confidence":"n","satellite":"N","instrument":"VIIRS","version":"2.0NRT","bright_ti4":315.13,"frp":0.99,"daynight":"N"},"geometry":{"type":"Point","coordinates":[-121.71082,36.20261]}},{"type":"Feature","properties":{"acq_date":"2026-08-15","acq_time":1026,"confidence":"n","satellite":"N","instrument":"VIIRS","version":"2.0NRT","bright_ti4":305.45,"frp":1.25,"daynight":"N"},"geometry":{"type":"Point","coordinates":[-121.71621,36.24236]}},{"type":"Feature","properties":{"acq_date":"2026-08-15","acq_time":1026,"confidence":"n","satellite":"N","instrument":"VIIRS","version":"2.0NRT","bright_ti4":304.51,"frp":1.25,"daynight":"N"},"geometry":{"type":"Point","coordinates":[-121.72169,36.24343]}},{"type":"Feature","properties":{"acq_date":"2026-08-15","acq_time":1026,"confidence":"n","satellite":"N","instrument":"VIIRS","version":"2.0NRT","bright_ti4":309.97,"frp":2.22,"daynight":"N"},"geometry":{"type":"Point","coordinates":[-121.73267,36.24558]}},{"type":"Feature","properties":{"acq_date":"2026-08-15","acq_time":1026,"confidence":"n","satellite":"N","instrument":"VIIRS","version":"2.0NRT","bright_ti4":304.64,"frp":1.11,"daynight":"N"},"geometry":{"type":"Point","coordinates":[-121.72039,36.24704]}},{"type":"Feature","properties":{"acq_date":"2026-08-15","acq_time":1026,"confidence":"n","satellite":"N","instrument":"VIIRS","version":"2.0NRT","bright_ti4":300.21,"frp":0.69,"daynight":"N"},"geometry":{"type":"Point","coordinates":[-121.72578,36.24809]}},{"type":"Feature","properties":{"acq_date":"2026-08-15","acq_time":1026,"confidence":"n","satellite":"N","instrument":"VIIRS","version":"2.0NRT","bright_ti4":310.95,"frp":0.86,"daynight":"N"},"geometry":{"type":"Point","coordinates":[-114.91188,36.35619]}},{"type":"Feature","properties":{"acq_date":"2026-08-15","acq_time":1026,"confidence":"n","satellite":"N","instrument":"VIIRS","version":"2.0NRT","bright_ti4":308.06,"frp":0.76,"daynight":"N"},"geometry":{"type":"Point","coordinates":[-114.91351,36.35624]}},{"type":"Feature","properties":{"acq_date":"2026-08-15","acq_time":1026,"confidence":"n","satellite":"N","instrument":"VIIRS","version":"2.0NRT","bright_ti4":297.33,"frp":0.45,"daynight":"N"},"geometry":{"type":"Point","coordinates":[-121.9359,38.00467]}},{"type":"Feature","properties":{"acq_date":"2026-08-15","acq_time":1026,"confidence":"n","satellite":"N","instrument":"VIIRS","version":"2.0NRT","bright_ti4":305.67,"frp":0.91,"daynight":"N"},"geometry":{"type":"Point","coordinates":[-121.14996,38.13098]}},{"type":"Feature","properties":{"acq_date":"2026-08-15","acq_time":1026,"confidence":"n","satellite":"N","instrument":"VIIRS","version":"2.0NRT","bright_ti4":300.87,"frp":1.29,"daynight":"N"},"geometry":{"type":"Point","coordinates":[-119.26184,39.62105]}},{"type":"Feature","properties":{"acq_date":"2026-08-15","acq_time":1026,"confidence":"n","satellite":"N","instrument":"VIIRS","version":"2.0NRT","bright_ti4":298.81,"frp":0.64,"daynight":"N"},"geometry":{"type":"Point","coordinates":[-117.86042,40.94005]}},{"type":"Feature","properties":{"acq_date":"2026-08-15","acq_time":1026,"confidence":"n","satellite":"N","instrument":"VIIRS","version":"2.0NRT","bright_ti4":334.36,"frp":5.57,"daynight":"N"},"geometry":{"type":"Point","coordinates":[-123.66001,41.09201]}},{"type":"Feature","properties":{"acq_date":"2026-08-15","acq_time":1026,"confidence":"n","satellite":"N","instrument":"VIIRS","version":"2.0NRT","bright_ti4":327.02,"frp":20.77,"daynight":"N"},"geometry":{"type":"Point","coordinates":[-123.66451,41.09277]}},{"type":"Feature","properties":{"acq_date":"2026-08-15","acq_time":1026,"confidence":"n","satellite":"N","instrument":"VIIRS","version":"2.0NRT","bright_ti4":314.98,"frp":5.57,"daynight":"N"},"geometry":{"type":"Point","coordinates":[-123.65904,41.0953]}},{"type":"Feature","properties":{"acq_date":"2026-08-15","acq_time":1026,"confidence":"n","satellite":"N","instrument":"VIIRS","version":"2.0NRT","bright_ti4":321.08,"frp":20.77,"daynight":"N"},"geometry":{"type":"Point","coordinates":[-123.66353,41.09605]}},{"type":"Feature","properties":{"acq_date":"2026-08-15","acq_time":1026,"confidence":"n","satellite":"N","instrument":"VIIRS","version":"2.0NRT","bright_ti4":309.15,"frp":1.18,"daynight":"N"},"geometry":{"type":"Point","coordinates":[-123.63462,41.09808]}},{"type":"Feature","properties":{"acq_date":"2026-08-15","acq_time":1026,"confidence":"n","satellite":"N","instrument":"VIIRS","version":"2.0NRT","bright_ti4":300.31,"frp":0.91,"daynight":"N"},"geometry":{"type":"Point","coordinates":[-123.65302,41.1072]}},{"type":"Feature","properties":{"acq_date":"2026-08-15","acq_time":1026,"confidence":"n","satellite":"N","instrument":"VIIRS","version":"2.0NRT","bright_ti4":299.64,"frp":0.71,"daynight":"N"},"geometry":{"type":"Point","coordinates":[-123.63103,41.11731]}},{"type":"Feature","properties":{"acq_date":"2026-08-15","acq_time":1026,"confidence":"n","satellite":"N","instrument":"VIIRS","version":"2.0NRT","bright_ti4":295.43,"frp":0.33,"daynight":"N"},"geometry":{"type":"Point","coordinates":[-123.64011,41.11884]}},{"type":"Feature","properties":{"acq_date":"2026-08-15","acq_time":1026,"confidence":"n","satellite":"N","instrument":"VIIRS","version":"2.0NRT","bright_ti4":309.15,"frp":1.77,"daynight":"N"},"geometry":{"type":"Point","coordinates":[-123.62559,41.11985]}},{"type":"Feature","properties":{"acq_date":"2026-08-15","acq_time":1026,"confidence":"n","satellite":"N","instrument":"VIIRS","version":"2.0NRT","bright_ti4":325.66,"frp":2.45,"daynight":"N"},"geometry":{"type":"Point","coordinates":[-123.63021,41.12062]}},{"type":"Feature","properties":{"acq_date":"2026-08-15","acq_time":1026,"confidence":"n","satellite":"N","instrument":"VIIRS","version":"2.0NRT","bright_ti4":306.69,"frp":0.83,"daynight":"N"},"geometry":{"type":"Point","coordinates":[-123.62384,41.12646]}},{"type":"Feature","properties":{"acq_date":"2026-08-15","acq_time":1026,"confidence":"n","satellite":"N","instrument":"VIIRS","version":"2.0NRT","bright_ti4":296.54,"frp":0.83,"daynight":"N"},"geometry":{"type":"Point","coordinates":[-123.61819,41.12896]}},{"type":"Feature","properties":{"acq_date":"2026-08-15","acq_time":1026,"confidence":"n","satellite":"N","instrument":"VIIRS","version":"2.0NRT","bright_ti4":300.55,"frp":0.77,"daynight":"N"},"geometry":{"type":"Point","coordinates":[-123.61726,41.13225]}},{"type":"Feature","properties":{"acq_date":"2026-08-15","acq_time":1026,"confidence":"n","satellite":"N","instrument":"VIIRS","version":"2.0NRT","bright_ti4":301.1,"frp":0.77,"daynight":"N"},"geometry":{"type":"Point","coordinates":[-123.61634,41.13555]}},{"type":"Feature","properties":{"acq_date":"2026-08-15","acq_time":1026,"confidence":"n","satellite":"N","instrument":"VIIRS","version":"2.0NRT","bright_ti4":302.69,"frp":0.8,"daynight":"N"},"geometry":{"type":"Point","coordinates":[-123.62574,41.13713]}},{"type":"Feature","properties":{"acq_date":"2026-08-15","acq_time":1026,"confidence":"n","satellite":"N","instrument":"VIIRS","version":"2.0NRT","bright_ti4":296.48,"frp":0.8,"daynight":"N"},"geometry":{"type":"Point","coordinates":[-123.63041,41.13792]}},{"type":"Feature","properties":{"acq_date":"2026-08-15","acq_time":1026,"confidence":"n","satellite":"N","instrument":"VIIRS","version":"2.0NRT","bright_ti4":301.53,"frp":5.18,"daynight":"N"},"geometry":{"type":"Point","coordinates":[-123.61543,41.13885]}},{"type":"Feature","properties":{"acq_date":"2026-08-15","acq_time":1026,"confidence":"n","satellite":"N","instrument":"VIIRS","version":"2.0NRT","bright_ti4":320.47,"frp":5.18,"daynight":"N"},"geometry":{"type":"Point","coordinates":[-123.6201,41.13963]}},{"type":"Feature","properties":{"acq_date":"2026-08-15","acq_time":1026,"confidence":"n","satellite":"N","instrument":"VIIRS","version":"2.0NRT","bright_ti4":351.51,"frp":28.43,"daynight":"N"},"geometry":{"type":"Point","coordinates":[-123.62482,41.14043]}},{"type":"Feature","properties":{"acq_date":"2026-08-15","acq_time":1026,"confidence":"n","satellite":"N","instrument":"VIIRS","version":"2.0NRT","bright_ti4":321.53,"frp":5.18,"daynight":"N"},"geometry":{"type":"Point","coordinates":[-123.61449,41.14213]}},{"type":"Feature","properties":{"acq_date":"2026-08-15","acq_time":1026,"confidence":"n","satellite":"N","instrument":"VIIRS","version":"2.0NRT","bright_ti4":345.54,"frp":5.18,"daynight":"N"},"geometry":{"type":"Point","coordinates":[-123.61919,41.14293]}},{"type":"Feature","properties":{"acq_date":"2026-08-15","acq_time":1026,"confidence":"n","satellite":"N","instrument":"VIIRS","version":"2.0NRT","bright_ti4":353.97,"frp":28.43,"daynight":"N"},"geometry":{"type":"Point","coordinates":[-123.62391,41.14372]}},{"type":"Feature","properties":{"acq_date":"2026-08-15","acq_time":1026,"confidence":"n","satellite":"N","instrument":"VIIRS","version":"2.0NRT","bright_ti4":327.6,"frp":2.96,"daynight":"N"},"geometry":{"type":"Point","coordinates":[-123.64217,41.14679]}},{"type":"Feature","properties":{"acq_date":"2026-08-15","acq_time":1026,"confidence":"n","satellite":"N","instrument":"VIIRS","version":"2.0NRT","bright_ti4":300.27,"frp":1.28,"daynight":"N"},"geometry":{"type":"Point","coordinates":[-123.66277,41.15715]}},{"type":"Feature","properties":{"acq_date":"2026-08-15","acq_time":1026,"confidence":"n","satellite":"N","instrument":"VIIRS","version":"2.0NRT","bright_ti4":329.15,"frp":2.62,"daynight":"N"},"geometry":{"type":"Point","coordinates":[-123.66725,41.1579]}},{"type":"Feature","properties":{"acq_date":"2026-08-15","acq_time":1026,"confidence":"n","satellite":"N","instrument":"VIIRS","version":"2.0NRT","bright_ti4":295.3,"frp":0.51,"daynight":"N"},"geometry":{"type":"Point","coordinates":[-121.57549,42.35006]}},{"type":"Feature","properties":{"acq_date":"2026-08-15","acq_time":1026,"confidence":"n","satellite":"N","instrument":"VIIRS","version":"2.0NRT","bright_ti4":300.1,"frp":0.6,"daynight":"N"},"geometry":{"type":"Point","coordinates":[-121.59199,42.36377]}},{"type":"Feature","properties":{"acq_date":"2026-08-15","acq_time":1026,"confidence":"n","satellite":"N","instrument":"VIIRS","version":"2.0NRT","bright_ti4":300.31,"frp":0.68,"daynight":"N"},"geometry":{"type":"Point","coordinates":[-122.77471,42.3828]}},{"type":"Feature","properties":{"acq_date":"2026-08-15","acq_time":1026,"confidence":"n","satellite":"N","instrument":"VIIRS","version":"2.0NRT","bright_ti4":313.53,"frp":1.42,"daynight":"N"},"geometry":{"type":"Point","coordinates":[-121.6747,42.41372]}},{"type":"Feature","properties":{"acq_date":"2026-08-15","acq_time":1026,"confidence":"n","satellite":"N","instrument":"VIIRS","version":"2.0NRT","bright_ti4":325.29,"frp":3.05,"daynight":"N"},"geometry":{"type":"Point","coordinates":[-121.69519,42.41391]}},{"type":"Feature","properties":{"acq_date":"2026-08-15","acq_time":1026,"confidence":"n","satellite":"N","instrument":"VIIRS","version":"2.0NRT","bright_ti4":296.23,"frp":0.76,"daynight":"N"},"geometry":{"type":"Point","coordinates":[-121.67831,42.41794]}},{"type":"Feature","properties":{"acq_date":"2026-08-15","acq_time":1026,"confidence":"n","satellite":"N","instrument":"VIIRS","version":"2.0NRT","bright_ti4":298.84,"frp":0.66,"daynight":"N"},"geometry":{"type":"Point","coordinates":[-121.67941,42.42881]}},{"type":"Feature","properties":{"acq_date":"2026-08-15","acq_time":1026,"confidence":"n","satellite":"N","instrument":"VIIRS","version":"2.0NRT","bright_ti4":297.33,"frp":0.66,"daynight":"N"},"geometry":{"type":"Point","coordinates":[-121.67817,42.43213]}},{"type":"Feature","properties":{"acq_date":"2026-08-15","acq_time":1026,"confidence":"n","satellite":"N","instrument":"VIIRS","version":"2.0NRT","bright_ti4":303.13,"frp":1.39,"daynight":"N"},"geometry":{"type":"Point","coordinates":[-121.6832,42.43306]}},{"type":"Feature","properties":{"acq_date":"2026-08-15","acq_time":1028,"confidence":"n","satellite":"N","instrument":"VIIRS","version":"2.0NRT","bright_ti4":300.63,"frp":0.61,"daynight":"N"},"geometry":{"type":"Point","coordinates":[-118.19261,34.15106]}},{"type":"Feature","properties":{"acq_date":"2026-08-15","acq_time":1028,"confidence":"n","satellite":"N","instrument":"VIIRS","version":"2.0NRT","bright_ti4":313.52,"frp":1.74,"daynight":"N"},"geometry":{"type":"Point","coordinates":[-118.51765,34.33573]}},{"type":"Feature","properties":{"acq_date":"2026-08-15","acq_time":1028,"confidence":"n","satellite":"N","instrument":"VIIRS","version":"2.0NRT","bright_ti4":301.75,"frp":1.54,"daynight":"N"},"geometry":{"type":"Point","coordinates":[-116.85169,34.35493]}},{"type":"Feature","properties":{"acq_date":"2026-08-15","acq_time":1028,"confidence":"n","satellite":"N","instrument":"VIIRS","version":"2.0NRT","bright_ti4":297.84,"frp":0.58,"daynight":"N"},"geometry":{"type":"Point","coordinates":[-118.64574,34.42818]}},{"type":"Feature","properties":{"acq_date":"2026-08-15","acq_time":1028,"confidence":"n","satellite":"N","instrument":"VIIRS","version":"2.0NRT","bright_ti4":299.69,"frp":0.67,"daynight":"N"},"geometry":{"type":"Point","coordinates":[-118.64457,34.43266]}},{"type":"Feature","properties":{"acq_date":"2026-08-15","acq_time":1028,"confidence":"n","satellite":"N","instrument":"VIIRS","version":"2.0NRT","bright_ti4":312.24,"frp":2.57,"daynight":"N"},"geometry":{"type":"Point","coordinates":[-117.33738,34.60913]}},{"type":"Feature","properties":{"acq_date":"2026-08-15","acq_time":1028,"confidence":"n","satellite":"N","instrument":"VIIRS","version":"2.0NRT","bright_ti4":308.46,"frp":1.63,"daynight":"N"},"geometry":{"type":"Point","coordinates":[-117.10316,34.6222]}}]}