{"type":"FeatureCollection","name":"FIRMS VIIRS CA (last 1 day)","crs":{"type":"name","properties":{"name":"EPSG:4326"}},"fetched_at_utc":"2026-09-13T17:20:31.191Z","source":{"url":"https://firms.modaps.eosdis.nasa.gov/api/area/csv/8c4af552cf654445dd280dfb3ad9337c/VIIRS_SNPP_NRT/-125,32,-113,43.5/1","dataset":"VIIRS_SNPP_NRT","bbox":"-125,32,-113,43.5","day_range":"1"},"features":[{"type":"Feature","properties":{"acq_date":"2026-09-13","acq_time":941,"confidence":"n","satellite":"N","instrument":"VIIRS","version":"2.0NRT","bright_ti4":335.58,"frp":4.69,"daynight":"N"},"geometry":{"type":"Point","coordinates":[-122.95545,39.20446]}},{"type":"Feature","properties":{"acq_date":"2026-09-13","acq_time":941,"confidence":"n","satellite":"N","instrument":"VIIRS","version":"2.0NRT","bright_ti4":345.76,"frp":4.69,"daynight":"N"},"geometry":{"type":"Point","coordinates":[-122.96231,39.20502]}},{"type":"Feature","properties":{"acq_date":"2026-09-13","acq_time":941,"confidence":"n","satellite":"N","instrument":"VIIRS","version":"2.0NRT","bright_ti4":302.14,"frp":4.69,"daynight":"N"},"geometry":{"type":"Point","coordinates":[-122.95346,39.20895]}},{"type":"Feature","properties":{"acq_date":"2026-09-13","acq_time":941,"confidence":"n","satellite":"N","instrument":"VIIRS","version":"2.0NRT","bright_ti4":303.98,"frp":4.69,"daynight":"N"},"geometry":{"type":"Point","coordinates":[-122.96014,39.2095]}},{"type":"Feature","properties":{"acq_date":"2026-09-13","acq_time":941,"confidence":"n","satellite":"N","instrument":"VIIRS","version":"2.0NRT","bright_ti4":303.25,"frp":2.23,"daynight":"N"},"geometry":{"type":"Point","coordinates":[-122.94702,39.21307]}},{"type":"Feature","properties":{"acq_date":"2026-09-13","acq_time":941,"confidence":"n","satellite":"N","instrument":"VIIRS","version":"2.0NRT","bright_ti4":308.62,"frp":2.43,"daynight":"N"},"geometry":{"type":"Point","coordinates":[-122.95219,39.2135]}},{"type":"Feature","properties":{"acq_date":"2026-09-13","acq_time":941,"confidence":"n","satellite":"N","instrument":"VIIRS","version":"2.0NRT","bright_ti4":327.67,"frp":2.23,"daynight":"N"},"geometry":{"type":"Point","coordinates":[-122.94712,39.21773]}},{"type":"Feature","properties":{"acq_date":"2026-09-13","acq_time":941,"confidence":"n","satellite":"N","instrument":"VIIRS","version":"2.0NRT","bright_ti4":314.07,"frp":2.43,"daynight":"N"},"geometry":{"type":"Point","coordinates":[-122.95206,39.21814]}},{"type":"Feature","properties":{"acq_date":"2026-09-13","acq_time":941,"confidence":"n","satellite":"N","instrument":"VIIRS","version":"2.0NRT","bright_ti4":349.09,"frp":11.78,"daynight":"N"},"geometry":{"type":"Point","coordinates":[-122.94712,39.22238]}},{"type":"Feature","properties":{"acq_date":"2026-09-13","acq_time":941,"confidence":"n","satellite":"N","instrument":"VIIRS","version":"2.0NRT","bright_ti4":327.46,"frp":4.13,"daynight":"N"},"geometry":{"type":"Point","coordinates":[-122.95186,39.22277]}},{"type":"Feature","properties":{"acq_date":"2026-09-13","acq_time":941,"confidence":"n","satellite":"N","instrument":"VIIRS","version":"2.0NRT","bright_ti4":295.52,"frp":4.13,"daynight":"N"},"geometry":{"type":"Point","coordinates":[-122.95678,39.22318]}},{"type":"Feature","properties":{"acq_date":"2026-09-13","acq_time":941,"confidence":"n","satellite":"N","instrument":"VIIRS","version":"2.0NRT","bright_ti4":297.38,"frp":1.12,"daynight":"N"},"geometry":{"type":"Point","coordinates":[-122.94697,39.22575]}},{"type":"Feature","properties":{"acq_date":"2026-09-13","acq_time":941,"confidence":"n","satellite":"N","instrument":"VIIRS","version":"2.0NRT","bright_ti4":296.54,"frp":1.12,"daynight":"N"},"geometry":{"type":"Point","coordinates":[-122.95139,39.23075]}},{"type":"Feature","properties":{"acq_date":"2026-09-13","acq_time":941,"confidence":"n","satellite":"N","instrument":"VIIRS","version":"2.0NRT","bright_ti4":298.1,"frp":0.98,"daynight":"N"},"geometry":{"type":"Point","coordinates":[-122.95132,39.23204]}},{"type":"Feature","properties":{"acq_date":"2026-09-13","acq_time":941,"confidence":"n","satellite":"N","instrument":"VIIRS","version":"2.0NRT","bright_ti4":299.51,"frp":6.24,"daynight":"N"},"geometry":{"type":"Point","coordinates":[-122.95132,39.23539]}},{"type":"Feature","properties":{"acq_date":"2026-09-13","acq_time":941,"confidence":"n","satellite":"N","instrument":"VIIRS","version":"2.0NRT","bright_ti4":300.6,"frp":0.98,"daynight":"N"},"geometry":{"type":"Point","coordinates":[-122.95125,39.23668]}},{"type":"Feature","properties":{"acq_date":"2026-09-13","acq_time":941,"confidence":"n","satellite":"N","instrument":"VIIRS","version":"2.0NRT","bright_ti4":298.84,"frp":0.51,"daynight":"N"},"geometry":{"type":"Point","coordinates":[-114.13284,39.23785]}},{"type":"Feature","properties":{"acq_date":"2026-09-13","acq_time":941,"confidence":"n","satellite":"N","instrument":"VIIRS","version":"2.0NRT","bright_ti4":340.69,"frp":6.24,"daynight":"N"},"geometry":{"type":"Point","coordinates":[-122.95115,39.24003]}},{"type":"Feature","properties":{"acq_date":"2026-09-13","acq_time":941,"confidence":"n","satellite":"N","instrument":"VIIRS","version":"2.0NRT","bright_ti4":313.4,"frp":7.59,"daynight":"N"},"geometry":{"type":"Point","coordinates":[-122.95604,39.24042]}},{"type":"Feature","properties":{"acq_date":"2026-09-13","acq_time":941,"confidence":"n","satellite":"N","instrument":"VIIRS","version":"2.0NRT","bright_ti4":344.62,"frp":11.2,"daynight":"N"},"geometry":{"type":"Point","coordinates":[-122.951,39.24132]}},{"type":"Feature","properties":{"acq_date":"2026-09-13","acq_time":941,"confidence":"n","satellite":"N","instrument":"VIIRS","version":"2.0NRT","bright_ti4":325.92,"frp":11.2,"daynight":"N"},"geometry":{"type":"Point","coordinates":[-122.95599,39.24174]}},{"type":"Feature","properties":{"acq_date":"2026-09-13","acq_time":941,"confidence":"n","satellite":"N","instrument":"VIIRS","version":"2.0NRT","bright_ti4":295.21,"frp":1.33,"daynight":"N"},"geometry":{"type":"Point","coordinates":[-122.96067,39.24214]}},{"type":"Feature","properties":{"acq_date":"2026-09-13","acq_time":941,"confidence":"n","satellite":"N","instrument":"VIIRS","version":"2.0NRT","bright_ti4":297,"frp":1.33,"daynight":"N"},"geometry":{"type":"Point","coordinates":[-122.96571,39.24256]}},{"type":"Feature","properties":{"acq_date":"2026-09-13","acq_time":941,"confidence":"h","satellite":"N","instrument":"VIIRS","version":"2.0NRT","bright_ti4":367,"frp":18.43,"daynight":"N"},"geometry":{"type":"Point","coordinates":[-122.95085,39.24466]}},{"type":"Feature","properties":{"acq_date":"2026-09-13","acq_time":941,"confidence":"n","satellite":"N","instrument":"VIIRS","version":"2.0NRT","bright_ti4":333.15,"frp":6.23,"daynight":"N"},"geometry":{"type":"Point","coordinates":[-122.95602,39.24508]}},{"type":"Feature","properties":{"acq_date":"2026-09-13","acq_time":941,"confidence":"n","satellite":"N","instrument":"VIIRS","version":"2.0NRT","bright_ti4":304.03,"frp":6.23,"daynight":"N"},"geometry":{"type":"Point","coordinates":[-122.96085,39.24545]}},{"type":"Feature","properties":{"acq_date":"2026-09-13","acq_time":941,"confidence":"n","satellite":"N","instrument":"VIIRS","version":"2.0NRT","bright_ti4":321.72,"frp":3.16,"daynight":"N"},"geometry":{"type":"Point","coordinates":[-122.96597,39.24586]}},{"type":"Feature","properties":{"acq_date":"2026-09-13","acq_time":941,"confidence":"h","satellite":"N","instrument":"VIIRS","version":"2.0NRT","bright_ti4":367,"frp":11.2,"daynight":"N"},"geometry":{"type":"Point","coordinates":[-122.95068,39.24595]}},{"type":"Feature","properties":{"acq_date":"2026-09-13","acq_time":941,"confidence":"n","satellite":"N","instrument":"VIIRS","version":"2.0NRT","bright_ti4":317.62,"frp":11.2,"daynight":"N"},"geometry":{"type":"Point","coordinates":[-122.95599,39.2464]}},{"type":"Feature","properties":{"acq_date":"2026-09-13","acq_time":941,"confidence":"n","satellite":"N","instrument":"VIIRS","version":"2.0NRT","bright_ti4":304.91,"frp":1.33,"daynight":"N"},"geometry":{"type":"Point","coordinates":[-122.96085,39.24681]}},{"type":"Feature","properties":{"acq_date":"2026-09-13","acq_time":941,"confidence":"n","satellite":"N","instrument":"VIIRS","version":"2.0NRT","bright_ti4":317.34,"frp":1.33,"daynight":"N"},"geometry":{"type":"Point","coordinates":[-122.96604,39.24725]}},{"type":"Feature","properties":{"acq_date":"2026-09-13","acq_time":941,"confidence":"n","satellite":"N","instrument":"VIIRS","version":"2.0NRT","bright_ti4":296.29,"frp":0.28,"daynight":"N"},"geometry":{"type":"Point","coordinates":[-119.62064,39.49092]}},{"type":"Feature","properties":{"acq_date":"2026-09-13","acq_time":941,"confidence":"n","satellite":"N","instrument":"VIIRS","version":"2.0NRT","bright_ti4":300.22,"frp":0.49,"daynight":"N"},"geometry":{"type":"Point","coordinates":[-119.26514,39.61945]}},{"type":"Feature","properties":{"acq_date":"2026-09-13","acq_time":941,"confidence":"n","satellite":"N","instrument":"VIIRS","version":"2.0NRT","bright_ti4":300.68,"frp":1.15,"daynight":"N"},"geometry":{"type":"Point","coordinates":[-114.25547,40.81966]}},{"type":"Feature","properties":{"acq_date":"2026-09-13","acq_time":941,"confidence":"n","satellite":"N","instrument":"VIIRS","version":"2.0NRT","bright_ti4":315.66,"frp":1.15,"daynight":"N"},"geometry":{"type":"Point","coordinates":[-114.25464,40.82296]}},{"type":"Feature","properties":{"acq_date":"2026-09-13","acq_time":941,"confidence":"n","satellite":"N","instrument":"VIIRS","version":"2.0NRT","bright_ti4":298.29,"frp":1.21,"daynight":"N"},"geometry":{"type":"Point","coordinates":[-117.66256,41.54182]}},{"type":"Feature","properties":{"acq_date":"2026-09-13","acq_time":943,"confidence":"n","satellite":"N","instrument":"VIIRS","version":"2.0NRT","bright_ti4":313.64,"frp":1.94,"daynight":"N"},"geometry":{"type":"Point","coordinates":[-114.75946,32.71291]}},{"type":"Feature","properties":{"acq_date":"2026-09-13","acq_time":943,"confidence":"n","satellite":"N","instrument":"VIIRS","version":"2.0NRT","bright_ti4":314.06,"frp":1.78,"daynight":"N"},"geometry":{"type":"Point","coordinates":[-117.47443,33.79514]}},{"type":"Feature","properties":{"acq_date":"2026-09-13","acq_time":943,"confidence":"n","satellite":"N","instrument":"VIIRS","version":"2.0NRT","bright_ti4":301.91,"frp":0.39,"daynight":"N"},"geometry":{"type":"Point","coordinates":[-117.00069,33.87658]}},{"type":"Feature","properties":{"acq_date":"2026-09-13","acq_time":943,"confidence":"n","satellite":"N","instrument":"VIIRS","version":"2.0NRT","bright_ti4":310.89,"frp":1.46,"daynight":"N"},"geometry":{"type":"Point","coordinates":[-118.4043,33.90613]}},{"type":"Feature","properties":{"acq_date":"2026-09-13","acq_time":943,"confidence":"n","satellite":"N","instrument":"VIIRS","version":"2.0NRT","bright_ti4":300.77,"frp":0.39,"daynight":"N"},"geometry":{"type":"Point","coordinates":[-117.12302,33.95657]}},{"type":"Feature","properties":{"acq_date":"2026-09-13","acq_time":943,"confidence":"n","satellite":"N","instrument":"VIIRS","version":"2.0NRT","bright_ti4":309.47,"frp":0.61,"daynight":"N"},"geometry":{"type":"Point","coordinates":[-117.42693,34.14155]}},{"type":"Feature","properties":{"acq_date":"2026-09-13","acq_time":943,"confidence":"n","satellite":"N","instrument":"VIIRS","version":"2.0NRT","bright_ti4":303.49,"frp":0.56,"daynight":"N"},"geometry":{"type":"Point","coordinates":[-118.80248,34.29133]}},{"type":"Feature","properties":{"acq_date":"2026-09-13","acq_time":943,"confidence":"n","satellite":"N","instrument":"VIIRS","version":"2.0NRT","bright_ti4":321.59,"frp":1.92,"daynight":"N"},"geometry":{"type":"Point","coordinates":[-118.52061,34.33598]}},{"type":"Feature","properties":{"acq_date":"2026-09-13","acq_time":943,"confidence":"n","satellite":"N","instrument":"VIIRS","version":"2.0NRT","bright_ti4":308.37,"frp":0.96,"daynight":"N"},"geometry":{"type":"Point","coordinates":[-116.85155,34.35296]}},{"type":"Feature","properties":{"acq_date":"2026-09-13","acq_time":943,"confidence":"n","satellite":"N","instrument":"VIIRS","version":"2.0NRT","bright_ti4":305.3,"frp":0.74,"daynight":"N"},"geometry":{"type":"Point","coordinates":[-116.85281,34.35535]}},{"type":"Feature","properties":{"acq_date":"2026-09-13","acq_time":943,"confidence":"n","satellite":"N","instrument":"VIIRS","version":"2.0NRT","bright_ti4":303.5,"frp":1.12,"daynight":"N"},"geometry":{"type":"Point","coordinates":[-118.64425,34.43193]}},{"type":"Feature","properties":{"acq_date":"2026-09-13","acq_time":943,"confidence":"n","satellite":"N","instrument":"VIIRS","version":"2.0NRT","bright_ti4":302.36,"frp":0.2,"daynight":"N"},"geometry":{"type":"Point","coordinates":[-118.15091,34.5671]}},{"type":"Feature","properties":{"acq_date":"2026-09-13","acq_time":943,"confidence":"n","satellite":"N","instrument":"VIIRS","version":"2.0NRT","bright_ti4":306.2,"frp":1.16,"daynight":"N"},"geometry":{"type":"Point","coordinates":[-117.33614,34.60616]}},{"type":"Feature","properties":{"acq_date":"2026-09-13","acq_time":943,"confidence":"n","satellite":"N","instrument":"VIIRS","version":"2.0NRT","bright_ti4":307.18,"frp":0.78,"daynight":"N"},"geometry":{"type":"Point","coordinates":[-117.0982,34.62149]}},{"type":"Feature","properties":{"acq_date":"2026-09-13","acq_time":943,"confidence":"n","satellite":"N","instrument":"VIIRS","version":"2.0NRT","bright_ti4":311.68,"frp":1.18,"daynight":"N"},"geometry":{"type":"Point","coordinates":[-117.10253,34.62211]}},{"type":"Feature","properties":{"acq_date":"2026-09-13","acq_time":943,"confidence":"n","satellite":"N","instrument":"VIIRS","version":"2.0NRT","bright_ti4":321.63,"frp":1.41,"daynight":"N"},"geometry":{"type":"Point","coordinates":[-114.61649,34.86691]}},{"type":"Feature","properties":{"acq_date":"2026-09-13","acq_time":943,"confidence":"n","satellite":"N","instrument":"VIIRS","version":"2.0NRT","bright_ti4":323.48,"frp":1.44,"daynight":"N"},"geometry":{"type":"Point","coordinates":[-113.31272,35.51761]}},{"type":"Feature","properties":{"acq_date":"2026-09-13","acq_time":943,"confidence":"n","satellite":"N","instrument":"VIIRS","version":"2.0NRT","bright_ti4":299.35,"frp":0.54,"daynight":"N"},"geometry":{"type":"Point","coordinates":[-121.40498,35.91065]}},{"type":"Feature","properties":{"acq_date":"2026-09-13","acq_time":943,"confidence":"n","satellite":"N","instrument":"VIIRS","version":"2.0NRT","bright_ti4":315.26,"frp":1.43,"daynight":"N"},"geometry":{"type":"Point","coordinates":[-114.91304,36.35637]}},{"type":"Feature","properties":{"acq_date":"2026-09-13","acq_time":943,"confidence":"n","satellite":"N","instrument":"VIIRS","version":"2.0NRT","bright_ti4":298.26,"frp":0.69,"daynight":"N"},"geometry":{"type":"Point","coordinates":[-120.86974,36.97163]}},{"type":"Feature","properties":{"acq_date":"2026-09-13","acq_time":943,"confidence":"n","satellite":"N","instrument":"VIIRS","version":"2.0NRT","bright_ti4":304.75,"frp":1.06,"daynight":"N"},"geometry":{"type":"Point","coordinates":[-121.93206,37.45436]}},{"type":"Feature","properties":{"acq_date":"2026-09-13","acq_time":943,"confidence":"n","satellite":"N","instrument":"VIIRS","version":"2.0NRT","bright_ti4":312.06,"frp":2.5,"daynight":"N"},"geometry":{"type":"Point","coordinates":[-121.65218,37.76039]}},{"type":"Feature","properties":{"acq_date":"2026-09-13","acq_time":943,"confidence":"n","satellite":"N","instrument":"VIIRS","version":"2.0NRT","bright_ti4":322.84,"frp":2.5,"daynight":"N"},"geometry":{"type":"Point","coordinates":[-121.65694,37.76085]}},{"type":"Feature","properties":{"acq_date":"2026-09-13","acq_time":943,"confidence":"n","satellite":"N","instrument":"VIIRS","version":"2.0NRT","bright_ti4":329.62,"frp":2.5,"daynight":"N"},"geometry":{"type":"Point","coordinates":[-121.65175,37.76461]}},{"type":"Feature","properties":{"acq_date":"2026-09-13","acq_time":943,"confidence":"n","satellite":"N","instrument":"VIIRS","version":"2.0NRT","bright_ti4":315.22,"frp":2.5,"daynight":"N"},"geometry":{"type":"Point","coordinates":[-121.65642,37.76506]}},{"type":"Feature","properties":{"acq_date":"2026-09-13","acq_time":943,"confidence":"n","satellite":"N","instrument":"VIIRS","version":"2.0NRT","bright_ti4":298.03,"frp":0.4,"daynight":"N"},"geometry":{"type":"Point","coordinates":[-121.18537,37.88389]}},{"type":"Feature","properties":{"acq_date":"2026-09-13","acq_time":943,"confidence":"n","satellite":"N","instrument":"VIIRS","version":"2.0NRT","bright_ti4":298.79,"frp":0.53,"daynight":"N"},"geometry":{"type":"Point","coordinates":[-121.93488,38.0042]}},{"type":"Feature","properties":{"acq_date":"2026-09-13","acq_time":943,"confidence":"n","satellite":"N","instrument":"VIIRS","version":"2.0NRT","bright_ti4":295.4,"frp":0.23,"daynight":"N"},"geometry":{"type":"Point","coordinates":[-121.83321,38.31373]}},{"type":"Feature","properties":{"acq_date":"2026-09-13","acq_time":943,"confidence":"n","satellite":"N","instrument":"VIIRS","version":"2.0NRT","bright_ti4":299.7,"frp":0.54,"daynight":"N"},"geometry":{"type":"Point","coordinates":[-115.73276,43.17764]}},{"type":"Feature","properties":{"acq_date":"2026-09-13","acq_time":943,"confidence":"n","satellite":"N","instrument":"VIIRS","version":"2.0NRT","bright_ti4":298.09,"frp":0.32,"daynight":"N"},"geometry":{"type":"Point","coordinates":[-115.73191,43.18108]}},{"type":"Feature","properties":{"acq_date":"2026-09-13","acq_time":943,"confidence":"n","satellite":"N","instrument":"VIIRS","version":"2.0NRT","bright_ti4":311.85,"frp":1.36,"daynight":"N"},"geometry":{"type":"Point","coordinates":[-116.107,43.19342]}},{"type":"Feature","properties":{"acq_date":"2026-09-13","acq_time":943,"confidence":"n","satellite":"N","instrument":"VIIRS","version":"2.0NRT","bright_ti4":311.55,"frp":1.36,"daynight":"N"},"geometry":{"type":"Point","coordinates":[-116.10614,43.19689]}},{"type":"Feature","properties":{"acq_date":"2026-09-13","acq_time":1121,"confidence":"n","satellite":"N","instrument":"VIIRS","version":"2.0NRT","bright_ti4":307.88,"frp":3.13,"daynight":"N"},"geometry":{"type":"Point","coordinates":[-122.95965,39.20112]}},{"type":"Feature","properties":{"acq_date":"2026-09-13","acq_time":1121,"confidence":"n","satellite":"N","instrument":"VIIRS","version":"2.0NRT","bright_ti4":318.7,"frp":3.13,"daynight":"N"},"geometry":{"type":"Point","coordinates":[-122.95317,39.20627]}},{"type":"Feature","properties":{"acq_date":"2026-09-13","acq_time":1121,"confidence":"n","satellite":"N","instrument":"VIIRS","version":"2.0NRT","bright_ti4":327.96,"frp":3.13,"daynight":"N"},"geometry":{"type":"Point","coordinates":[-122.95954,39.20828]}},{"type":"Feature","properties":{"acq_date":"2026-09-13","acq_time":1121,"confidence":"n","satellite":"N","instrument":"VIIRS","version":"2.0NRT","bright_ti4":300.05,"frp":4.99,"daynight":"N"},"geometry":{"type":"Point","coordinates":[-122.96593,39.2103]}},{"type":"Feature","properties":{"acq_date":"2026-09-13","acq_time":1121,"confidence":"n","satellite":"N","instrument":"VIIRS","version":"2.0NRT","bright_ti4":306.84,"frp":1.89,"daynight":"N"},"geometry":{"type":"Point","coordinates":[-122.94966,39.21762]}},{"type":"Feature","properties":{"acq_date":"2026-09-13","acq_time":1121,"confidence":"n","satellite":"N","instrument":"VIIRS","version":"2.0NRT","bright_ti4":304.7,"frp":1.55,"daynight":"N"},"geometry":{"type":"Point","coordinates":[-122.94507,39.21811]}},{"type":"Feature","properties":{"acq_date":"2026-09-13","acq_time":1121,"confidence":"n","satellite":"N","instrument":"VIIRS","version":"2.0NRT","bright_ti4":308.19,"frp":1.55,"daynight":"N"},"geometry":{"type":"Point","coordinates":[-122.95616,39.22159]}},{"type":"Feature","properties":{"acq_date":"2026-09-13","acq_time":1121,"confidence":"n","satellite":"N","instrument":"VIIRS","version":"2.0NRT","bright_ti4":301.06,"frp":1.29,"daynight":"N"},"geometry":{"type":"Point","coordinates":[-122.95445,39.22637]}},{"type":"Feature","properties":{"acq_date":"2026-09-13","acq_time":1121,"confidence":"n","satellite":"N","instrument":"VIIRS","version":"2.0NRT","bright_ti4":309.11,"frp":4.78,"daynight":"N"},"geometry":{"type":"Point","coordinates":[-122.95032,39.23945]}},{"type":"Feature","properties":{"acq_date":"2026-09-13","acq_time":1121,"confidence":"n","satellite":"N","instrument":"VIIRS","version":"2.0NRT","bright_ti4":324.47,"frp":4.11,"daynight":"N"},"geometry":{"type":"Point","coordinates":[-122.96235,39.2433]}},{"type":"Feature","properties":{"acq_date":"2026-09-13","acq_time":1121,"confidence":"n","satellite":"N","instrument":"VIIRS","version":"2.0NRT","bright_ti4":343.55,"frp":8.1,"daynight":"N"},"geometry":{"type":"Point","coordinates":[-122.95683,39.24337]}},{"type":"Feature","properties":{"acq_date":"2026-09-13","acq_time":1121,"confidence":"n","satellite":"N","instrument":"VIIRS","version":"2.0NRT","bright_ti4":312.04,"frp":4.11,"daynight":"N"},"geometry":{"type":"Point","coordinates":[-122.95377,39.24776]}},{"type":"Feature","properties":{"acq_date":"2026-09-13","acq_time":1123,"confidence":"n","satellite":"N","instrument":"VIIRS","version":"2.0NRT","bright_ti4":329.81,"frp":5.89,"daynight":"N"},"geometry":{"type":"Point","coordinates":[-121.6523,37.76163]}},{"type":"Feature","properties":{"acq_date":"2026-09-13","acq_time":1123,"confidence":"n","satellite":"N","instrument":"VIIRS","version":"2.0NRT","bright_ti4":319.82,"frp":4.85,"daynight":"N"},"geometry":{"type":"Point","coordinates":[-121.65379,37.76532]}}]}