{"type":"FeatureCollection","name":"FIRMS VIIRS CA (last 1 day)","crs":{"type":"name","properties":{"name":"EPSG:4326"}},"fetched_at_utc":"2026-08-30T17:59:04.508Z","source":{"url":"https://firms.modaps.eosdis.nasa.gov/api/area/csv/8c4af552cf654445dd280dfb3ad9337c/VIIRS_SNPP_NRT/-125,32,-113,43.5/1","dataset":"VIIRS_SNPP_NRT","bbox":"-125,32,-113,43.5","day_range":"1"},"features":[{"type":"Feature","properties":{"acq_date":"2026-08-30","acq_time":905,"confidence":"n","satellite":"N","instrument":"VIIRS","version":"2.0NRT","bright_ti4":303.78,"frp":0.44,"daynight":"N"},"geometry":{"type":"Point","coordinates":[-116.59447,32.35144]}},{"type":"Feature","properties":{"acq_date":"2026-08-30","acq_time":905,"confidence":"n","satellite":"N","instrument":"VIIRS","version":"2.0NRT","bright_ti4":311.16,"frp":4.6,"daynight":"N"},"geometry":{"type":"Point","coordinates":[-116.83204,32.49551]}},{"type":"Feature","properties":{"acq_date":"2026-08-30","acq_time":905,"confidence":"h","satellite":"N","instrument":"VIIRS","version":"2.0NRT","bright_ti4":367,"frp":4.6,"daynight":"N"},"geometry":{"type":"Point","coordinates":[-116.83562,32.49578]}},{"type":"Feature","properties":{"acq_date":"2026-08-30","acq_time":905,"confidence":"n","satellite":"N","instrument":"VIIRS","version":"2.0NRT","bright_ti4":303.86,"frp":0.66,"daynight":"N"},"geometry":{"type":"Point","coordinates":[-117.71281,33.71428]}},{"type":"Feature","properties":{"acq_date":"2026-08-30","acq_time":905,"confidence":"n","satellite":"N","instrument":"VIIRS","version":"2.0NRT","bright_ti4":304.28,"frp":0.59,"daynight":"N"},"geometry":{"type":"Point","coordinates":[-117.47677,33.7923]}},{"type":"Feature","properties":{"acq_date":"2026-08-30","acq_time":905,"confidence":"n","satellite":"N","instrument":"VIIRS","version":"2.0NRT","bright_ti4":307.21,"frp":0.48,"daynight":"N"},"geometry":{"type":"Point","coordinates":[-117.4751,33.79278]}},{"type":"Feature","properties":{"acq_date":"2026-08-30","acq_time":905,"confidence":"n","satellite":"N","instrument":"VIIRS","version":"2.0NRT","bright_ti4":304.36,"frp":0.95,"daynight":"N"},"geometry":{"type":"Point","coordinates":[-117.49995,34.08146]}},{"type":"Feature","properties":{"acq_date":"2026-08-30","acq_time":905,"confidence":"n","satellite":"N","instrument":"VIIRS","version":"2.0NRT","bright_ti4":299.23,"frp":2.11,"daynight":"N"},"geometry":{"type":"Point","coordinates":[-118.19617,34.15162]}},{"type":"Feature","properties":{"acq_date":"2026-08-30","acq_time":905,"confidence":"n","satellite":"N","instrument":"VIIRS","version":"2.0NRT","bright_ti4":310.17,"frp":0.85,"daynight":"N"},"geometry":{"type":"Point","coordinates":[-118.52077,34.33253]}},{"type":"Feature","properties":{"acq_date":"2026-08-30","acq_time":905,"confidence":"n","satellite":"N","instrument":"VIIRS","version":"2.0NRT","bright_ti4":321.44,"frp":3.14,"daynight":"N"},"geometry":{"type":"Point","coordinates":[-120.68091,37.33793]}},{"type":"Feature","properties":{"acq_date":"2026-08-30","acq_time":905,"confidence":"n","satellite":"N","instrument":"VIIRS","version":"2.0NRT","bright_ti4":305.51,"frp":3.47,"daynight":"N"},"geometry":{"type":"Point","coordinates":[-120.68808,37.33813]}},{"type":"Feature","properties":{"acq_date":"2026-08-30","acq_time":905,"confidence":"n","satellite":"N","instrument":"VIIRS","version":"2.0NRT","bright_ti4":295.13,"frp":0.7,"daynight":"N"},"geometry":{"type":"Point","coordinates":[-119.26539,39.61694]}},{"type":"Feature","properties":{"acq_date":"2026-08-30","acq_time":905,"confidence":"n","satellite":"N","instrument":"VIIRS","version":"2.0NRT","bright_ti4":297.01,"frp":1.04,"daynight":"N"},"geometry":{"type":"Point","coordinates":[-119.26491,39.61984]}},{"type":"Feature","properties":{"acq_date":"2026-08-30","acq_time":905,"confidence":"n","satellite":"N","instrument":"VIIRS","version":"2.0NRT","bright_ti4":300.89,"frp":3.88,"daynight":"N"},"geometry":{"type":"Point","coordinates":[-117.64597,41.58215]}},{"type":"Feature","properties":{"acq_date":"2026-08-30","acq_time":905,"confidence":"h","satellite":"N","instrument":"VIIRS","version":"2.0NRT","bright_ti4":367,"frp":11.28,"daynight":"N"},"geometry":{"type":"Point","coordinates":[-117.6503,41.58231]}},{"type":"Feature","properties":{"acq_date":"2026-08-30","acq_time":905,"confidence":"n","satellite":"N","instrument":"VIIRS","version":"2.0NRT","bright_ti4":337.22,"frp":11.28,"daynight":"N"},"geometry":{"type":"Point","coordinates":[-117.65421,41.58245]}},{"type":"Feature","properties":{"acq_date":"2026-08-30","acq_time":905,"confidence":"n","satellite":"N","instrument":"VIIRS","version":"2.0NRT","bright_ti4":299.82,"frp":0.84,"daynight":"N"},"geometry":{"type":"Point","coordinates":[-115.66736,43.14717]}},{"type":"Feature","properties":{"acq_date":"2026-08-30","acq_time":905,"confidence":"n","satellite":"N","instrument":"VIIRS","version":"2.0NRT","bright_ti4":299.39,"frp":0.85,"daynight":"N"},"geometry":{"type":"Point","coordinates":[-115.73407,43.17741]}},{"type":"Feature","properties":{"acq_date":"2026-08-30","acq_time":907,"confidence":"n","satellite":"N","instrument":"VIIRS","version":"2.0NRT","bright_ti4":302.21,"frp":0.61,"daynight":"N"},"geometry":{"type":"Point","coordinates":[-118.75043,34.81696]}},{"type":"Feature","properties":{"acq_date":"2026-08-30","acq_time":907,"confidence":"n","satellite":"N","instrument":"VIIRS","version":"2.0NRT","bright_ti4":311.19,"frp":1.95,"daynight":"N"},"geometry":{"type":"Point","coordinates":[-113.31404,35.51764]}},{"type":"Feature","properties":{"acq_date":"2026-08-30","acq_time":907,"confidence":"n","satellite":"N","instrument":"VIIRS","version":"2.0NRT","bright_ti4":337.91,"frp":8.36,"daynight":"N"},"geometry":{"type":"Point","coordinates":[-121.36848,35.87588]}},{"type":"Feature","properties":{"acq_date":"2026-08-30","acq_time":907,"confidence":"n","satellite":"N","instrument":"VIIRS","version":"2.0NRT","bright_ti4":304.95,"frp":2,"daynight":"N"},"geometry":{"type":"Point","coordinates":[-121.38894,35.8764]}},{"type":"Feature","properties":{"acq_date":"2026-08-30","acq_time":907,"confidence":"n","satellite":"N","instrument":"VIIRS","version":"2.0NRT","bright_ti4":351.2,"frp":10.42,"daynight":"N"},"geometry":{"type":"Point","coordinates":[-121.3624,35.88254]}},{"type":"Feature","properties":{"acq_date":"2026-08-30","acq_time":907,"confidence":"n","satellite":"N","instrument":"VIIRS","version":"2.0NRT","bright_ti4":334.09,"frp":7.52,"daynight":"N"},"geometry":{"type":"Point","coordinates":[-121.36787,35.88269]}},{"type":"Feature","properties":{"acq_date":"2026-08-30","acq_time":907,"confidence":"n","satellite":"N","instrument":"VIIRS","version":"2.0NRT","bright_ti4":326.3,"frp":7.52,"daynight":"N"},"geometry":{"type":"Point","coordinates":[-121.37686,35.88293]}},{"type":"Feature","properties":{"acq_date":"2026-08-30","acq_time":907,"confidence":"n","satellite":"N","instrument":"VIIRS","version":"2.0NRT","bright_ti4":321.2,"frp":4.54,"daynight":"N"},"geometry":{"type":"Point","coordinates":[-121.38633,35.88318]}},{"type":"Feature","properties":{"acq_date":"2026-08-30","acq_time":907,"confidence":"n","satellite":"N","instrument":"VIIRS","version":"2.0NRT","bright_ti4":315.1,"frp":4.54,"daynight":"N"},"geometry":{"type":"Point","coordinates":[-121.39347,35.88337]}},{"type":"Feature","properties":{"acq_date":"2026-08-30","acq_time":907,"confidence":"n","satellite":"N","instrument":"VIIRS","version":"2.0NRT","bright_ti4":313.59,"frp":7.52,"daynight":"N"},"geometry":{"type":"Point","coordinates":[-121.36786,35.88952]}},{"type":"Feature","properties":{"acq_date":"2026-08-30","acq_time":907,"confidence":"n","satellite":"N","instrument":"VIIRS","version":"2.0NRT","bright_ti4":344.67,"frp":7.52,"daynight":"N"},"geometry":{"type":"Point","coordinates":[-121.37621,35.88975]}},{"type":"Feature","properties":{"acq_date":"2026-08-30","acq_time":907,"confidence":"n","satellite":"N","instrument":"VIIRS","version":"2.0NRT","bright_ti4":318.28,"frp":4.54,"daynight":"N"},"geometry":{"type":"Point","coordinates":[-121.38523,35.88999]}},{"type":"Feature","properties":{"acq_date":"2026-08-30","acq_time":907,"confidence":"n","satellite":"N","instrument":"VIIRS","version":"2.0NRT","bright_ti4":310.3,"frp":4.54,"daynight":"N"},"geometry":{"type":"Point","coordinates":[-121.39344,35.89021]}},{"type":"Feature","properties":{"acq_date":"2026-08-30","acq_time":907,"confidence":"n","satellite":"N","instrument":"VIIRS","version":"2.0NRT","bright_ti4":306.58,"frp":1.09,"daynight":"N"},"geometry":{"type":"Point","coordinates":[-121.45986,35.89195]}},{"type":"Feature","properties":{"acq_date":"2026-08-30","acq_time":907,"confidence":"n","satellite":"N","instrument":"VIIRS","version":"2.0NRT","bright_ti4":317.98,"frp":5.91,"daynight":"N"},"geometry":{"type":"Point","coordinates":[-121.37909,35.89666]}},{"type":"Feature","properties":{"acq_date":"2026-08-30","acq_time":907,"confidence":"n","satellite":"N","instrument":"VIIRS","version":"2.0NRT","bright_ti4":303.88,"frp":4.7,"daynight":"N"},"geometry":{"type":"Point","coordinates":[-121.38863,35.89692]}},{"type":"Feature","properties":{"acq_date":"2026-08-30","acq_time":907,"confidence":"n","satellite":"N","instrument":"VIIRS","version":"2.0NRT","bright_ti4":311.1,"frp":2.94,"daynight":"N"},"geometry":{"type":"Point","coordinates":[-121.40745,35.89742]}},{"type":"Feature","properties":{"acq_date":"2026-08-30","acq_time":907,"confidence":"n","satellite":"N","instrument":"VIIRS","version":"2.0NRT","bright_ti4":335.72,"frp":4.28,"daynight":"N"},"geometry":{"type":"Point","coordinates":[-121.45615,35.89872]}},{"type":"Feature","properties":{"acq_date":"2026-08-30","acq_time":907,"confidence":"n","satellite":"N","instrument":"VIIRS","version":"2.0NRT","bright_ti4":317.6,"frp":3.09,"daynight":"N"},"geometry":{"type":"Point","coordinates":[-121.34949,35.90268]}},{"type":"Feature","properties":{"acq_date":"2026-08-30","acq_time":907,"confidence":"n","satellite":"N","instrument":"VIIRS","version":"2.0NRT","bright_ti4":336.26,"frp":5.91,"daynight":"N"},"geometry":{"type":"Point","coordinates":[-121.37123,35.90328]}},{"type":"Feature","properties":{"acq_date":"2026-08-30","acq_time":907,"confidence":"n","satellite":"N","instrument":"VIIRS","version":"2.0NRT","bright_ti4":337.03,"frp":5.91,"daynight":"N"},"geometry":{"type":"Point","coordinates":[-121.38342,35.90361]}},{"type":"Feature","properties":{"acq_date":"2026-08-30","acq_time":907,"confidence":"n","satellite":"N","instrument":"VIIRS","version":"2.0NRT","bright_ti4":304.4,"frp":4.7,"daynight":"N"},"geometry":{"type":"Point","coordinates":[-121.39217,35.90385]}},{"type":"Feature","properties":{"acq_date":"2026-08-30","acq_time":907,"confidence":"n","satellite":"N","instrument":"VIIRS","version":"2.0NRT","bright_ti4":303.29,"frp":1.5,"daynight":"N"},"geometry":{"type":"Point","coordinates":[-121.34837,35.90947]}},{"type":"Feature","properties":{"acq_date":"2026-08-30","acq_time":907,"confidence":"n","satellite":"N","instrument":"VIIRS","version":"2.0NRT","bright_ti4":322.43,"frp":4.35,"daynight":"N"},"geometry":{"type":"Point","coordinates":[-121.37,35.91008]}},{"type":"Feature","properties":{"acq_date":"2026-08-30","acq_time":907,"confidence":"n","satellite":"N","instrument":"VIIRS","version":"2.0NRT","bright_ti4":319.96,"frp":4.35,"daynight":"N"},"geometry":{"type":"Point","coordinates":[-121.38227,35.91042]}},{"type":"Feature","properties":{"acq_date":"2026-08-30","acq_time":907,"confidence":"n","satellite":"N","instrument":"VIIRS","version":"2.0NRT","bright_ti4":312.36,"frp":1.5,"daynight":"N"},"geometry":{"type":"Point","coordinates":[-121.34274,35.91614]}},{"type":"Feature","properties":{"acq_date":"2026-08-30","acq_time":907,"confidence":"n","satellite":"N","instrument":"VIIRS","version":"2.0NRT","bright_ti4":300.51,"frp":1.5,"daynight":"N"},"geometry":{"type":"Point","coordinates":[-121.34958,35.91634]}},{"type":"Feature","properties":{"acq_date":"2026-08-30","acq_time":907,"confidence":"n","satellite":"N","instrument":"VIIRS","version":"2.0NRT","bright_ti4":300.12,"frp":1.66,"daynight":"N"},"geometry":{"type":"Point","coordinates":[-121.34135,35.91741]}},{"type":"Feature","properties":{"acq_date":"2026-08-30","acq_time":907,"confidence":"n","satellite":"N","instrument":"VIIRS","version":"2.0NRT","bright_ti4":307.71,"frp":3.73,"daynight":"N"},"geometry":{"type":"Point","coordinates":[-121.34828,35.91758]}},{"type":"Feature","properties":{"acq_date":"2026-08-30","acq_time":907,"confidence":"n","satellite":"N","instrument":"VIIRS","version":"2.0NRT","bright_ti4":303.09,"frp":2,"daynight":"N"},"geometry":{"type":"Point","coordinates":[-121.46368,35.91952]}},{"type":"Feature","properties":{"acq_date":"2026-08-30","acq_time":907,"confidence":"n","satellite":"N","instrument":"VIIRS","version":"2.0NRT","bright_ti4":304.09,"frp":0.99,"daynight":"N"},"geometry":{"type":"Point","coordinates":[-121.45744,35.92002]}},{"type":"Feature","properties":{"acq_date":"2026-08-30","acq_time":907,"confidence":"n","satellite":"N","instrument":"VIIRS","version":"2.0NRT","bright_ti4":298.9,"frp":1.58,"daynight":"N"},"geometry":{"type":"Point","coordinates":[-121.39119,35.94488]}},{"type":"Feature","properties":{"acq_date":"2026-08-30","acq_time":907,"confidence":"n","satellite":"N","instrument":"VIIRS","version":"2.0NRT","bright_ti4":297.68,"frp":1.18,"daynight":"N"},"geometry":{"type":"Point","coordinates":[-121.37209,35.94546]}},{"type":"Feature","properties":{"acq_date":"2026-08-30","acq_time":907,"confidence":"n","satellite":"N","instrument":"VIIRS","version":"2.0NRT","bright_ti4":297.17,"frp":1.01,"daynight":"N"},"geometry":{"type":"Point","coordinates":[-121.38361,35.94574]}},{"type":"Feature","properties":{"acq_date":"2026-08-30","acq_time":907,"confidence":"n","satellite":"N","instrument":"VIIRS","version":"2.0NRT","bright_ti4":302.91,"frp":1.7,"daynight":"N"},"geometry":{"type":"Point","coordinates":[-121.38946,35.94588]}},{"type":"Feature","properties":{"acq_date":"2026-08-30","acq_time":907,"confidence":"n","satellite":"N","instrument":"VIIRS","version":"2.0NRT","bright_ti4":320.1,"frp":7.31,"daynight":"N"},"geometry":{"type":"Point","coordinates":[-121.44873,35.94656]}},{"type":"Feature","properties":{"acq_date":"2026-08-30","acq_time":907,"confidence":"n","satellite":"N","instrument":"VIIRS","version":"2.0NRT","bright_ti4":300.32,"frp":3.32,"daynight":"N"},"geometry":{"type":"Point","coordinates":[-121.42682,35.94678]}},{"type":"Feature","properties":{"acq_date":"2026-08-30","acq_time":907,"confidence":"n","satellite":"N","instrument":"VIIRS","version":"2.0NRT","bright_ti4":324.24,"frp":6.97,"daynight":"N"},"geometry":{"type":"Point","coordinates":[-121.45796,35.94682]}},{"type":"Feature","properties":{"acq_date":"2026-08-30","acq_time":907,"confidence":"n","satellite":"N","instrument":"VIIRS","version":"2.0NRT","bright_ti4":310.33,"frp":4.52,"daynight":"N"},"geometry":{"type":"Point","coordinates":[-121.4449,35.94719]}},{"type":"Feature","properties":{"acq_date":"2026-08-30","acq_time":907,"confidence":"n","satellite":"N","instrument":"VIIRS","version":"2.0NRT","bright_ti4":338.64,"frp":4.52,"daynight":"N"},"geometry":{"type":"Point","coordinates":[-121.45547,35.94744]}},{"type":"Feature","properties":{"acq_date":"2026-08-30","acq_time":907,"confidence":"n","satellite":"N","instrument":"VIIRS","version":"2.0NRT","bright_ti4":309.64,"frp":1.09,"daynight":"N"},"geometry":{"type":"Point","coordinates":[-121.38638,35.95158]}},{"type":"Feature","properties":{"acq_date":"2026-08-30","acq_time":907,"confidence":"n","satellite":"N","instrument":"VIIRS","version":"2.0NRT","bright_ti4":305.24,"frp":1.09,"daynight":"N"},"geometry":{"type":"Point","coordinates":[-121.39259,35.95176]}},{"type":"Feature","properties":{"acq_date":"2026-08-30","acq_time":907,"confidence":"n","satellite":"N","instrument":"VIIRS","version":"2.0NRT","bright_ti4":302.36,"frp":2.44,"daynight":"N"},"geometry":{"type":"Point","coordinates":[-121.41228,35.95235]}},{"type":"Feature","properties":{"acq_date":"2026-08-30","acq_time":907,"confidence":"n","satellite":"N","instrument":"VIIRS","version":"2.0NRT","bright_ti4":308.13,"frp":2.44,"daynight":"N"},"geometry":{"type":"Point","coordinates":[-121.41879,35.95254]}},{"type":"Feature","properties":{"acq_date":"2026-08-30","acq_time":907,"confidence":"n","satellite":"N","instrument":"VIIRS","version":"2.0NRT","bright_ti4":302,"frp":1.01,"daynight":"N"},"geometry":{"type":"Point","coordinates":[-121.38474,35.95261]}},{"type":"Feature","properties":{"acq_date":"2026-08-30","acq_time":907,"confidence":"n","satellite":"N","instrument":"VIIRS","version":"2.0NRT","bright_ti4":302.95,"frp":1.7,"daynight":"N"},"geometry":{"type":"Point","coordinates":[-121.39093,35.95276]}},{"type":"Feature","properties":{"acq_date":"2026-08-30","acq_time":907,"confidence":"n","satellite":"N","instrument":"VIIRS","version":"2.0NRT","bright_ti4":335.07,"frp":4.54,"daynight":"N"},"geometry":{"type":"Point","coordinates":[-121.42848,35.95282]}},{"type":"Feature","properties":{"acq_date":"2026-08-30","acq_time":907,"confidence":"n","satellite":"N","instrument":"VIIRS","version":"2.0NRT","bright_ti4":311.67,"frp":4.54,"daynight":"N"},"geometry":{"type":"Point","coordinates":[-121.44351,35.95327]}},{"type":"Feature","properties":{"acq_date":"2026-08-30","acq_time":907,"confidence":"n","satellite":"N","instrument":"VIIRS","version":"2.0NRT","bright_ti4":301.83,"frp":3.32,"daynight":"N"},"geometry":{"type":"Point","coordinates":[-121.41683,35.9534]}},{"type":"Feature","properties":{"acq_date":"2026-08-30","acq_time":907,"confidence":"n","satellite":"N","instrument":"VIIRS","version":"2.0NRT","bright_ti4":308.34,"frp":3.95,"daynight":"N"},"geometry":{"type":"Point","coordinates":[-121.4547,35.95359]}},{"type":"Feature","properties":{"acq_date":"2026-08-30","acq_time":907,"confidence":"n","satellite":"N","instrument":"VIIRS","version":"2.0NRT","bright_ti4":332,"frp":3.32,"daynight":"N"},"geometry":{"type":"Point","coordinates":[-121.42473,35.95359]}},{"type":"Feature","properties":{"acq_date":"2026-08-30","acq_time":907,"confidence":"n","satellite":"N","instrument":"VIIRS","version":"2.0NRT","bright_ti4":325.56,"frp":4.52,"daynight":"N"},"geometry":{"type":"Point","coordinates":[-121.43854,35.95391]}},{"type":"Feature","properties":{"acq_date":"2026-08-30","acq_time":907,"confidence":"n","satellite":"N","instrument":"VIIRS","version":"2.0NRT","bright_ti4":303.57,"frp":4.52,"daynight":"N"},"geometry":{"type":"Point","coordinates":[-121.45142,35.95421]}},{"type":"Feature","properties":{"acq_date":"2026-08-30","acq_time":907,"confidence":"n","satellite":"N","instrument":"VIIRS","version":"2.0NRT","bright_ti4":313.38,"frp":4.54,"daynight":"N"},"geometry":{"type":"Point","coordinates":[-121.42535,35.95958]}},{"type":"Feature","properties":{"acq_date":"2026-08-30","acq_time":907,"confidence":"n","satellite":"N","instrument":"VIIRS","version":"2.0NRT","bright_ti4":299.01,"frp":0.9,"daynight":"N"},"geometry":{"type":"Point","coordinates":[-121.43085,35.96059]}},{"type":"Feature","properties":{"acq_date":"2026-08-30","acq_time":907,"confidence":"n","satellite":"N","instrument":"VIIRS","version":"2.0NRT","bright_ti4":300.49,"frp":2.28,"daynight":"N"},"geometry":{"type":"Point","coordinates":[-113.17308,36.26634]}},{"type":"Feature","properties":{"acq_date":"2026-08-30","acq_time":907,"confidence":"n","satellite":"N","instrument":"VIIRS","version":"2.0NRT","bright_ti4":299.75,"frp":2.34,"daynight":"N"},"geometry":{"type":"Point","coordinates":[-113.16225,36.26971]}},{"type":"Feature","properties":{"acq_date":"2026-08-30","acq_time":907,"confidence":"n","satellite":"N","instrument":"VIIRS","version":"2.0NRT","bright_ti4":331.79,"frp":2.34,"daynight":"N"},"geometry":{"type":"Point","coordinates":[-113.16711,36.27018]}},{"type":"Feature","properties":{"acq_date":"2026-08-30","acq_time":907,"confidence":"n","satellite":"N","instrument":"VIIRS","version":"2.0NRT","bright_ti4":330.46,"frp":2.28,"daynight":"N"},"geometry":{"type":"Point","coordinates":[-113.17223,36.27068]}},{"type":"Feature","properties":{"acq_date":"2026-08-30","acq_time":907,"confidence":"n","satellite":"N","instrument":"VIIRS","version":"2.0NRT","bright_ti4":304.91,"frp":3.17,"daynight":"N"},"geometry":{"type":"Point","coordinates":[-113.15688,36.27361]}},{"type":"Feature","properties":{"acq_date":"2026-08-30","acq_time":907,"confidence":"n","satellite":"N","instrument":"VIIRS","version":"2.0NRT","bright_ti4":323.65,"frp":1.55,"daynight":"N"},"geometry":{"type":"Point","coordinates":[-113.16164,36.27407]}},{"type":"Feature","properties":{"acq_date":"2026-08-30","acq_time":907,"confidence":"n","satellite":"N","instrument":"VIIRS","version":"2.0NRT","bright_ti4":309.62,"frp":1.55,"daynight":"N"},"geometry":{"type":"Point","coordinates":[-113.1665,36.27454]}},{"type":"Feature","properties":{"acq_date":"2026-08-30","acq_time":907,"confidence":"n","satellite":"N","instrument":"VIIRS","version":"2.0NRT","bright_ti4":299.04,"frp":0.66,"daynight":"N"},"geometry":{"type":"Point","coordinates":[-113.17151,36.27502]}},{"type":"Feature","properties":{"acq_date":"2026-08-30","acq_time":907,"confidence":"n","satellite":"N","instrument":"VIIRS","version":"2.0NRT","bright_ti4":338.29,"frp":3.17,"daynight":"N"},"geometry":{"type":"Point","coordinates":[-113.15635,36.27798]}},{"type":"Feature","properties":{"acq_date":"2026-08-30","acq_time":907,"confidence":"n","satellite":"N","instrument":"VIIRS","version":"2.0NRT","bright_ti4":304.35,"frp":1.55,"daynight":"N"},"geometry":{"type":"Point","coordinates":[-113.16114,36.27844]}},{"type":"Feature","properties":{"acq_date":"2026-08-30","acq_time":907,"confidence":"n","satellite":"N","instrument":"VIIRS","version":"2.0NRT","bright_ti4":304.35,"frp":1.55,"daynight":"N"},"geometry":{"type":"Point","coordinates":[-113.16594,36.2789]}},{"type":"Feature","properties":{"acq_date":"2026-08-30","acq_time":907,"confidence":"n","satellite":"N","instrument":"VIIRS","version":"2.0NRT","bright_ti4":329.78,"frp":3.73,"daynight":"N"},"geometry":{"type":"Point","coordinates":[-113.15582,36.28234]}},{"type":"Feature","properties":{"acq_date":"2026-08-30","acq_time":907,"confidence":"n","satellite":"N","instrument":"VIIRS","version":"2.0NRT","bright_ti4":306.82,"frp":1.84,"daynight":"N"},"geometry":{"type":"Point","coordinates":[-113.16065,36.28281]}},{"type":"Feature","properties":{"acq_date":"2026-08-30","acq_time":907,"confidence":"n","satellite":"N","instrument":"VIIRS","version":"2.0NRT","bright_ti4":313.78,"frp":2.11,"daynight":"N"},"geometry":{"type":"Point","coordinates":[-113.15435,36.28289]}},{"type":"Feature","properties":{"acq_date":"2026-08-30","acq_time":907,"confidence":"n","satellite":"N","instrument":"VIIRS","version":"2.0NRT","bright_ti4":324.66,"frp":2.11,"daynight":"N"},"geometry":{"type":"Point","coordinates":[-113.15919,36.28333]}},{"type":"Feature","properties":{"acq_date":"2026-08-30","acq_time":907,"confidence":"n","satellite":"N","instrument":"VIIRS","version":"2.0NRT","bright_ti4":301.6,"frp":2.09,"daynight":"N"},"geometry":{"type":"Point","coordinates":[-121.77951,36.28445]}},{"type":"Feature","properties":{"acq_date":"2026-08-30","acq_time":907,"confidence":"n","satellite":"N","instrument":"VIIRS","version":"2.0NRT","bright_ti4":337.29,"frp":6.95,"daynight":"N"},"geometry":{"type":"Point","coordinates":[-121.77546,36.28632]}},{"type":"Feature","properties":{"acq_date":"2026-08-30","acq_time":907,"confidence":"n","satellite":"N","instrument":"VIIRS","version":"2.0NRT","bright_ti4":305.38,"frp":2.83,"daynight":"N"},"geometry":{"type":"Point","coordinates":[-121.77126,36.29126]}},{"type":"Feature","properties":{"acq_date":"2026-08-30","acq_time":907,"confidence":"n","satellite":"N","instrument":"VIIRS","version":"2.0NRT","bright_ti4":329.13,"frp":5.48,"daynight":"N"},"geometry":{"type":"Point","coordinates":[-121.77998,36.29144]}},{"type":"Feature","properties":{"acq_date":"2026-08-30","acq_time":907,"confidence":"n","satellite":"N","instrument":"VIIRS","version":"2.0NRT","bright_ti4":306.79,"frp":3.3,"daynight":"N"},"geometry":{"type":"Point","coordinates":[-114.91416,36.35647]}},{"type":"Feature","properties":{"acq_date":"2026-08-30","acq_time":1043,"confidence":"n","satellite":"N","instrument":"VIIRS","version":"2.0NRT","bright_ti4":295.78,"frp":1.37,"daynight":"N"},"geometry":{"type":"Point","coordinates":[-119.26195,39.61896]}},{"type":"Feature","properties":{"acq_date":"2026-08-30","acq_time":1043,"confidence":"n","satellite":"N","instrument":"VIIRS","version":"2.0NRT","bright_ti4":320.96,"frp":2.08,"daynight":"N"},"geometry":{"type":"Point","coordinates":[-117.65511,41.58387]}},{"type":"Feature","properties":{"acq_date":"2026-08-30","acq_time":1043,"confidence":"n","satellite":"N","instrument":"VIIRS","version":"2.0NRT","bright_ti4":302.97,"frp":0.74,"daynight":"N"},"geometry":{"type":"Point","coordinates":[-115.66679,43.14726]}},{"type":"Feature","properties":{"acq_date":"2026-08-30","acq_time":1043,"confidence":"n","satellite":"N","instrument":"VIIRS","version":"2.0NRT","bright_ti4":298.89,"frp":0.6,"daynight":"N"},"geometry":{"type":"Point","coordinates":[-115.73523,43.17843]}},{"type":"Feature","properties":{"acq_date":"2026-08-30","acq_time":1043,"confidence":"n","satellite":"N","instrument":"VIIRS","version":"2.0NRT","bright_ti4":340.41,"frp":26.02,"daynight":"N"},"geometry":{"type":"Point","coordinates":[-123.5303,43.41621]}},{"type":"Feature","properties":{"acq_date":"2026-08-30","acq_time":1045,"confidence":"n","satellite":"N","instrument":"VIIRS","version":"2.0NRT","bright_ti4":304.18,"frp":1.99,"daynight":"N"},"geometry":{"type":"Point","coordinates":[-116.83705,32.49996]}},{"type":"Feature","properties":{"acq_date":"2026-08-30","acq_time":1045,"confidence":"n","satellite":"N","instrument":"VIIRS","version":"2.0NRT","bright_ti4":299.05,"frp":0.85,"daynight":"N"},"geometry":{"type":"Point","coordinates":[-116.85447,34.35257]}},{"type":"Feature","properties":{"acq_date":"2026-08-30","acq_time":1045,"confidence":"n","satellite":"N","instrument":"VIIRS","version":"2.0NRT","bright_ti4":302.69,"frp":0.81,"daynight":"N"},"geometry":{"type":"Point","coordinates":[-118.64373,34.43215]}},{"type":"Feature","properties":{"acq_date":"2026-08-30","acq_time":1045,"confidence":"n","satellite":"N","instrument":"VIIRS","version":"2.0NRT","bright_ti4":307.94,"frp":0.96,"daynight":"N"},"geometry":{"type":"Point","coordinates":[-117.33691,34.60475]}},{"type":"Feature","properties":{"acq_date":"2026-08-30","acq_time":1045,"confidence":"n","satellite":"N","instrument":"VIIRS","version":"2.0NRT","bright_ti4":315.71,"frp":1.89,"daynight":"N"},"geometry":{"type":"Point","coordinates":[-117.33749,34.60557]}},{"type":"Feature","properties":{"acq_date":"2026-08-30","acq_time":1045,"confidence":"n","satellite":"N","instrument":"VIIRS","version":"2.0NRT","bright_ti4":304.67,"frp":0.96,"daynight":"N"},"geometry":{"type":"Point","coordinates":[-117.33496,34.61082]}},{"type":"Feature","properties":{"acq_date":"2026-08-30","acq_time":1045,"confidence":"n","satellite":"N","instrument":"VIIRS","version":"2.0NRT","bright_ti4":304.2,"frp":1.23,"daynight":"N"},"geometry":{"type":"Point","coordinates":[-117.09941,34.62076]}},{"type":"Feature","properties":{"acq_date":"2026-08-30","acq_time":1045,"confidence":"n","satellite":"N","instrument":"VIIRS","version":"2.0NRT","bright_ti4":303.24,"frp":1.31,"daynight":"N"},"geometry":{"type":"Point","coordinates":[-117.1016,34.6241]}},{"type":"Feature","properties":{"acq_date":"2026-08-30","acq_time":1045,"confidence":"n","satellite":"N","instrument":"VIIRS","version":"2.0NRT","bright_ti4":312.65,"frp":2.94,"daynight":"N"},"geometry":{"type":"Point","coordinates":[-121.38673,35.87822]}},{"type":"Feature","properties":{"acq_date":"2026-08-30","acq_time":1045,"confidence":"n","satellite":"N","instrument":"VIIRS","version":"2.0NRT","bright_ti4":311.81,"frp":2.13,"daynight":"N"},"geometry":{"type":"Point","coordinates":[-121.36008,35.87846]}},{"type":"Feature","properties":{"acq_date":"2026-08-30","acq_time":1045,"confidence":"n","satellite":"N","instrument":"VIIRS","version":"2.0NRT","bright_ti4":321.13,"frp":3.39,"daynight":"N"},"geometry":{"type":"Point","coordinates":[-121.38628,35.87966]}},{"type":"Feature","properties":{"acq_date":"2026-08-30","acq_time":1045,"confidence":"n","satellite":"N","instrument":"VIIRS","version":"2.0NRT","bright_ti4":300.08,"frp":3.2,"daynight":"N"},"geometry":{"type":"Point","coordinates":[-121.39357,35.87992]}},{"type":"Feature","properties":{"acq_date":"2026-08-30","acq_time":1045,"confidence":"n","satellite":"N","instrument":"VIIRS","version":"2.0NRT","bright_ti4":305.61,"frp":2.13,"daynight":"N"},"geometry":{"type":"Point","coordinates":[-121.36764,35.88028]}},{"type":"Feature","properties":{"acq_date":"2026-08-30","acq_time":1045,"confidence":"n","satellite":"N","instrument":"VIIRS","version":"2.0NRT","bright_ti4":324,"frp":5.88,"daynight":"N"},"geometry":{"type":"Point","coordinates":[-121.37436,35.88029]}},{"type":"Feature","properties":{"acq_date":"2026-08-30","acq_time":1045,"confidence":"n","satellite":"N","instrument":"VIIRS","version":"2.0NRT","bright_ti4":315.19,"frp":3.39,"daynight":"N"},"geometry":{"type":"Point","coordinates":[-121.39317,35.88132]}},{"type":"Feature","properties":{"acq_date":"2026-08-30","acq_time":1045,"confidence":"n","satellite":"N","instrument":"VIIRS","version":"2.0NRT","bright_ti4":316.58,"frp":2.35,"daynight":"N"},"geometry":{"type":"Point","coordinates":[-121.35838,35.88148]}},{"type":"Feature","properties":{"acq_date":"2026-08-30","acq_time":1045,"confidence":"n","satellite":"N","instrument":"VIIRS","version":"2.0NRT","bright_ti4":303.74,"frp":2.94,"daynight":"N"},"geometry":{"type":"Point","coordinates":[-121.37975,35.88163]}},{"type":"Feature","properties":{"acq_date":"2026-08-30","acq_time":1045,"confidence":"n","satellite":"N","instrument":"VIIRS","version":"2.0NRT","bright_ti4":342.81,"frp":8.86,"daynight":"N"},"geometry":{"type":"Point","coordinates":[-121.37387,35.88179]}},{"type":"Feature","properties":{"acq_date":"2026-08-30","acq_time":1045,"confidence":"n","satellite":"N","instrument":"VIIRS","version":"2.0NRT","bright_ti4":307.15,"frp":3.2,"daynight":"N"},"geometry":{"type":"Point","coordinates":[-121.35732,35.88295]}},{"type":"Feature","properties":{"acq_date":"2026-08-30","acq_time":1045,"confidence":"n","satellite":"N","instrument":"VIIRS","version":"2.0NRT","bright_ti4":310.41,"frp":8.86,"daynight":"N"},"geometry":{"type":"Point","coordinates":[-121.37933,35.88311]}},{"type":"Feature","properties":{"acq_date":"2026-08-30","acq_time":1045,"confidence":"n","satellite":"N","instrument":"VIIRS","version":"2.0NRT","bright_ti4":319.55,"frp":2.94,"daynight":"N"},"geometry":{"type":"Point","coordinates":[-121.38586,35.88315]}},{"type":"Feature","properties":{"acq_date":"2026-08-30","acq_time":1045,"confidence":"n","satellite":"N","instrument":"VIIRS","version":"2.0NRT","bright_ti4":313.61,"frp":5.6,"daynight":"N"},"geometry":{"type":"Point","coordinates":[-121.36632,35.88345]}},{"type":"Feature","properties":{"acq_date":"2026-08-30","acq_time":1045,"confidence":"n","satellite":"N","instrument":"VIIRS","version":"2.0NRT","bright_ti4":311.81,"frp":3.39,"daynight":"N"},"geometry":{"type":"Point","coordinates":[-121.38554,35.88461]}},{"type":"Feature","properties":{"acq_date":"2026-08-30","acq_time":1045,"confidence":"n","satellite":"N","instrument":"VIIRS","version":"2.0NRT","bright_ti4":336.29,"frp":3.2,"daynight":"N"},"geometry":{"type":"Point","coordinates":[-121.39264,35.88483]}},{"type":"Feature","properties":{"acq_date":"2026-08-30","acq_time":1045,"confidence":"n","satellite":"N","instrument":"VIIRS","version":"2.0NRT","bright_ti4":310.62,"frp":3.2,"daynight":"N"},"geometry":{"type":"Point","coordinates":[-121.3653,35.88486]}},{"type":"Feature","properties":{"acq_date":"2026-08-30","acq_time":1045,"confidence":"n","satellite":"N","instrument":"VIIRS","version":"2.0NRT","bright_ti4":342.11,"frp":5.6,"daynight":"N"},"geometry":{"type":"Point","coordinates":[-121.37313,35.88514]}},{"type":"Feature","properties":{"acq_date":"2026-08-30","acq_time":1045,"confidence":"n","satellite":"N","instrument":"VIIRS","version":"2.0NRT","bright_ti4":330.46,"frp":3.39,"daynight":"N"},"geometry":{"type":"Point","coordinates":[-121.39219,35.88622]}},{"type":"Feature","properties":{"acq_date":"2026-08-30","acq_time":1045,"confidence":"n","satellite":"N","instrument":"VIIRS","version":"2.0NRT","bright_ti4":310.04,"frp":3.2,"daynight":"N"},"geometry":{"type":"Point","coordinates":[-121.39893,35.88639]}},{"type":"Feature","properties":{"acq_date":"2026-08-30","acq_time":1045,"confidence":"n","satellite":"N","instrument":"VIIRS","version":"2.0NRT","bright_ti4":310.54,"frp":4.39,"daynight":"N"},"geometry":{"type":"Point","coordinates":[-121.37865,35.88651]}},{"type":"Feature","properties":{"acq_date":"2026-08-30","acq_time":1045,"confidence":"n","satellite":"N","instrument":"VIIRS","version":"2.0NRT","bright_ti4":311.89,"frp":3.63,"daynight":"N"},"geometry":{"type":"Point","coordinates":[-121.37251,35.8866]}},{"type":"Feature","properties":{"acq_date":"2026-08-30","acq_time":1045,"confidence":"n","satellite":"N","instrument":"VIIRS","version":"2.0NRT","bright_ti4":322.65,"frp":4.31,"daynight":"N"},"geometry":{"type":"Point","coordinates":[-121.39831,35.88769]}},{"type":"Feature","properties":{"acq_date":"2026-08-30","acq_time":1045,"confidence":"n","satellite":"N","instrument":"VIIRS","version":"2.0NRT","bright_ti4":305.44,"frp":3.63,"daynight":"N"},"geometry":{"type":"Point","coordinates":[-121.37804,35.88793]}},{"type":"Feature","properties":{"acq_date":"2026-08-30","acq_time":1045,"confidence":"n","satellite":"N","instrument":"VIIRS","version":"2.0NRT","bright_ti4":299.58,"frp":5.6,"daynight":"N"},"geometry":{"type":"Point","coordinates":[-121.36388,35.88799]}},{"type":"Feature","properties":{"acq_date":"2026-08-30","acq_time":1045,"confidence":"n","satellite":"N","instrument":"VIIRS","version":"2.0NRT","bright_ti4":305.03,"frp":4.39,"daynight":"N"},"geometry":{"type":"Point","coordinates":[-121.38477,35.88802]}},{"type":"Feature","properties":{"acq_date":"2026-08-30","acq_time":1045,"confidence":"n","satellite":"N","instrument":"VIIRS","version":"2.0NRT","bright_ti4":303.81,"frp":3.54,"daynight":"N"},"geometry":{"type":"Point","coordinates":[-121.38398,35.88937]}},{"type":"Feature","properties":{"acq_date":"2026-08-30","acq_time":1045,"confidence":"n","satellite":"N","instrument":"VIIRS","version":"2.0NRT","bright_ti4":341.12,"frp":5.6,"daynight":"N"},"geometry":{"type":"Point","coordinates":[-121.37134,35.88984]}},{"type":"Feature","properties":{"acq_date":"2026-08-30","acq_time":1045,"confidence":"n","satellite":"N","instrument":"VIIRS","version":"2.0NRT","bright_ti4":318.33,"frp":4.42,"daynight":"N"},"geometry":{"type":"Point","coordinates":[-121.39653,35.89094]}},{"type":"Feature","properties":{"acq_date":"2026-08-30","acq_time":1045,"confidence":"n","satellite":"N","instrument":"VIIRS","version":"2.0NRT","bright_ti4":341.49,"frp":3.63,"daynight":"N"},"geometry":{"type":"Point","coordinates":[-121.37057,35.89127]}},{"type":"Feature","properties":{"acq_date":"2026-08-30","acq_time":1045,"confidence":"n","satellite":"N","instrument":"VIIRS","version":"2.0NRT","bright_ti4":304.83,"frp":3.05,"daynight":"N"},"geometry":{"type":"Point","coordinates":[-121.39559,35.89217]}},{"type":"Feature","properties":{"acq_date":"2026-08-30","acq_time":1045,"confidence":"n","satellite":"N","instrument":"VIIRS","version":"2.0NRT","bright_ti4":319.27,"frp":5.22,"daynight":"N"},"geometry":{"type":"Point","coordinates":[-121.40202,35.8923]}},{"type":"Feature","properties":{"acq_date":"2026-08-30","acq_time":1045,"confidence":"n","satellite":"N","instrument":"VIIRS","version":"2.0NRT","bright_ti4":307.19,"frp":3.63,"daynight":"N"},"geometry":{"type":"Point","coordinates":[-121.37604,35.89259]}},{"type":"Feature","properties":{"acq_date":"2026-08-30","acq_time":1045,"confidence":"n","satellite":"N","instrument":"VIIRS","version":"2.0NRT","bright_ti4":323.13,"frp":3.05,"daynight":"N"},"geometry":{"type":"Point","coordinates":[-121.40118,35.89352]}},{"type":"Feature","properties":{"acq_date":"2026-08-30","acq_time":1045,"confidence":"n","satellite":"N","instrument":"VIIRS","version":"2.0NRT","bright_ti4":322.42,"frp":3.54,"daynight":"N"},"geometry":{"type":"Point","coordinates":[-121.38151,35.89391]}},{"type":"Feature","properties":{"acq_date":"2026-08-30","acq_time":1045,"confidence":"n","satellite":"N","instrument":"VIIRS","version":"2.0NRT","bright_ti4":321.95,"frp":4.51,"daynight":"N"},"geometry":{"type":"Point","coordinates":[-121.4066,35.89482]}},{"type":"Feature","properties":{"acq_date":"2026-08-30","acq_time":1045,"confidence":"n","satellite":"N","instrument":"VIIRS","version":"2.0NRT","bright_ti4":342.72,"frp":10.97,"daynight":"N"},"geometry":{"type":"Point","coordinates":[-121.45494,35.89512]}},{"type":"Feature","properties":{"acq_date":"2026-08-30","acq_time":1045,"confidence":"n","satellite":"N","instrument":"VIIRS","version":"2.0NRT","bright_ti4":308.8,"frp":5.09,"daynight":"N"},"geometry":{"type":"Point","coordinates":[-121.37474,35.89583]}},{"type":"Feature","properties":{"acq_date":"2026-08-30","acq_time":1045,"confidence":"n","satellite":"N","instrument":"VIIRS","version":"2.0NRT","bright_ti4":348.48,"frp":20.46,"daynight":"N"},"geometry":{"type":"Point","coordinates":[-121.45445,35.89613]}},{"type":"Feature","properties":{"acq_date":"2026-08-30","acq_time":1045,"confidence":"n","satellite":"N","instrument":"VIIRS","version":"2.0NRT","bright_ti4":337.96,"frp":20.4,"daynight":"N"},"geometry":{"type":"Point","coordinates":[-121.46016,35.89642]}},{"type":"Feature","properties":{"acq_date":"2026-08-30","acq_time":1045,"confidence":"n","satellite":"N","instrument":"VIIRS","version":"2.0NRT","bright_ti4":330.14,"frp":5.09,"daynight":"N"},"geometry":{"type":"Point","coordinates":[-121.37989,35.8971]}},{"type":"Feature","properties":{"acq_date":"2026-08-30","acq_time":1045,"confidence":"n","satellite":"N","instrument":"VIIRS","version":"2.0NRT","bright_ti4":302.89,"frp":2.97,"daynight":"N"},"geometry":{"type":"Point","coordinates":[-121.37389,35.89721]}},{"type":"Feature","properties":{"acq_date":"2026-08-30","acq_time":1045,"confidence":"n","satellite":"N","instrument":"VIIRS","version":"2.0NRT","bright_ti4":335.24,"frp":20.46,"daynight":"N"},"geometry":{"type":"Point","coordinates":[-121.45976,35.89742]}},{"type":"Feature","properties":{"acq_date":"2026-08-30","acq_time":1045,"confidence":"n","satellite":"N","instrument":"VIIRS","version":"2.0NRT","bright_ti4":332.89,"frp":5.22,"daynight":"N"},"geometry":{"type":"Point","coordinates":[-121.40484,35.89812]}},{"type":"Feature","properties":{"acq_date":"2026-08-30","acq_time":1045,"confidence":"n","satellite":"N","instrument":"VIIRS","version":"2.0NRT","bright_ti4":314.48,"frp":10.21,"daynight":"N"},"geometry":{"type":"Point","coordinates":[-121.37901,35.89844]}},{"type":"Feature","properties":{"acq_date":"2026-08-30","acq_time":1045,"confidence":"n","satellite":"N","instrument":"VIIRS","version":"2.0NRT","bright_ti4":305.28,"frp":9,"daynight":"N"},"geometry":{"type":"Point","coordinates":[-121.3854,35.89846]}},{"type":"Feature","properties":{"acq_date":"2026-08-30","acq_time":1045,"confidence":"n","satellite":"N","instrument":"VIIRS","version":"2.0NRT","bright_ti4":322.11,"frp":4.51,"daynight":"N"},"geometry":{"type":"Point","coordinates":[-121.40401,35.89933]}},{"type":"Feature","properties":{"acq_date":"2026-08-30","acq_time":1045,"confidence":"n","satellite":"N","instrument":"VIIRS","version":"2.0NRT","bright_ti4":314.19,"frp":10.21,"daynight":"N"},"geometry":{"type":"Point","coordinates":[-121.38443,35.89975]}},{"type":"Feature","properties":{"acq_date":"2026-08-30","acq_time":1045,"confidence":"n","satellite":"N","instrument":"VIIRS","version":"2.0NRT","bright_ti4":307.59,"frp":10.97,"daynight":"N"},"geometry":{"type":"Point","coordinates":[-121.45434,35.9001]}},{"type":"Feature","properties":{"acq_date":"2026-08-30","acq_time":1045,"confidence":"n","satellite":"N","instrument":"VIIRS","version":"2.0NRT","bright_ti4":323.87,"frp":5.09,"daynight":"N"},"geometry":{"type":"Point","coordinates":[-121.37738,35.90163]}},{"type":"Feature","properties":{"acq_date":"2026-08-30","acq_time":1045,"confidence":"n","satellite":"N","instrument":"VIIRS","version":"2.0NRT","bright_ti4":305.74,"frp":1.38,"daynight":"N"},"geometry":{"type":"Point","coordinates":[-121.40221,35.90261]}},{"type":"Feature","properties":{"acq_date":"2026-08-30","acq_time":1045,"confidence":"h","satellite":"N","instrument":"VIIRS","version":"2.0NRT","bright_ti4":367,"frp":9,"daynight":"N"},"geometry":{"type":"Point","coordinates":[-121.38267,35.90292]}},{"type":"Feature","properties":{"acq_date":"2026-08-30","acq_time":1045,"confidence":"n","satellite":"N","instrument":"VIIRS","version":"2.0NRT","bright_ti4":336.3,"frp":10.21,"daynight":"N"},"geometry":{"type":"Point","coordinates":[-121.37656,35.90299]}},{"type":"Feature","properties":{"acq_date":"2026-08-30","acq_time":1045,"confidence":"n","satellite":"N","instrument":"VIIRS","version":"2.0NRT","bright_ti4":309.2,"frp":2.19,"daynight":"N"},"geometry":{"type":"Point","coordinates":[-121.34237,35.90327]}},{"type":"Feature","properties":{"acq_date":"2026-08-30","acq_time":1045,"confidence":"h","satellite":"N","instrument":"VIIRS","version":"2.0NRT","bright_ti4":367,"frp":10.21,"daynight":"N"},"geometry":{"type":"Point","coordinates":[-121.38186,35.90427]}},{"type":"Feature","properties":{"acq_date":"2026-08-30","acq_time":1045,"confidence":"n","satellite":"N","instrument":"VIIRS","version":"2.0NRT","bright_ti4":304.32,"frp":9,"daynight":"N"},"geometry":{"type":"Point","coordinates":[-121.38839,35.90434]}},{"type":"Feature","properties":{"acq_date":"2026-08-30","acq_time":1045,"confidence":"n","satellite":"N","instrument":"VIIRS","version":"2.0NRT","bright_ti4":339.1,"frp":11.23,"daynight":"N"},"geometry":{"type":"Point","coordinates":[-121.37033,35.90503]}},{"type":"Feature","properties":{"acq_date":"2026-08-30","acq_time":1045,"confidence":"n","satellite":"N","instrument":"VIIRS","version":"2.0NRT","bright_ti4":304.16,"frp":4.93,"daynight":"N"},"geometry":{"type":"Point","coordinates":[-121.38775,35.90568]}},{"type":"Feature","properties":{"acq_date":"2026-08-30","acq_time":1045,"confidence":"n","satellite":"N","instrument":"VIIRS","version":"2.0NRT","bright_ti4":348.84,"frp":11.23,"daynight":"N"},"geometry":{"type":"Point","coordinates":[-121.37552,35.90631]}},{"type":"Feature","properties":{"acq_date":"2026-08-30","acq_time":1045,"confidence":"n","satellite":"N","instrument":"VIIRS","version":"2.0NRT","bright_ti4":342.71,"frp":13.29,"daynight":"N"},"geometry":{"type":"Point","coordinates":[-121.381,35.90766]}},{"type":"Feature","properties":{"acq_date":"2026-08-30","acq_time":1045,"confidence":"n","satellite":"N","instrument":"VIIRS","version":"2.0NRT","bright_ti4":305.8,"frp":3.76,"daynight":"N"},"geometry":{"type":"Point","coordinates":[-121.36333,35.90845]}},{"type":"Feature","properties":{"acq_date":"2026-08-30","acq_time":1045,"confidence":"n","satellite":"N","instrument":"VIIRS","version":"2.0NRT","bright_ti4":304.24,"frp":11.23,"daynight":"N"},"geometry":{"type":"Point","coordinates":[-121.37446,35.91119]}},{"type":"Feature","properties":{"acq_date":"2026-08-30","acq_time":1045,"confidence":"n","satellite":"N","instrument":"VIIRS","version":"2.0NRT","bright_ti4":325.72,"frp":22.58,"daynight":"N"},"geometry":{"type":"Point","coordinates":[-121.37346,35.91608]}},{"type":"Feature","properties":{"acq_date":"2026-08-30","acq_time":1045,"confidence":"n","satellite":"N","instrument":"VIIRS","version":"2.0NRT","bright_ti4":338.51,"frp":31.93,"daynight":"N"},"geometry":{"type":"Point","coordinates":[-121.3788,35.91739]}},{"type":"Feature","properties":{"acq_date":"2026-08-30","acq_time":1045,"confidence":"n","satellite":"N","instrument":"VIIRS","version":"2.0NRT","bright_ti4":310.22,"frp":3.09,"daynight":"N"},"geometry":{"type":"Point","coordinates":[-121.46007,35.922]}},{"type":"Feature","properties":{"acq_date":"2026-08-30","acq_time":1045,"confidence":"n","satellite":"N","instrument":"VIIRS","version":"2.0NRT","bright_ti4":318.68,"frp":3.99,"daynight":"N"},"geometry":{"type":"Point","coordinates":[-121.45988,35.92299]}},{"type":"Feature","properties":{"acq_date":"2026-08-30","acq_time":1045,"confidence":"n","satellite":"N","instrument":"VIIRS","version":"2.0NRT","bright_ti4":298.89,"frp":0.97,"daynight":"N"},"geometry":{"type":"Point","coordinates":[-121.46494,35.9232]}},{"type":"Feature","properties":{"acq_date":"2026-08-30","acq_time":1045,"confidence":"n","satellite":"N","instrument":"VIIRS","version":"2.0NRT","bright_ti4":327.06,"frp":3.99,"daynight":"N"},"geometry":{"type":"Point","coordinates":[-121.46497,35.92421]}},{"type":"Feature","properties":{"acq_date":"2026-08-30","acq_time":1045,"confidence":"n","satellite":"N","instrument":"VIIRS","version":"2.0NRT","bright_ti4":320.35,"frp":7,"daynight":"N"},"geometry":{"type":"Point","coordinates":[-121.45907,35.92688]}},{"type":"Feature","properties":{"acq_date":"2026-08-30","acq_time":1045,"confidence":"n","satellite":"N","instrument":"VIIRS","version":"2.0NRT","bright_ti4":339.37,"frp":9.17,"daynight":"N"},"geometry":{"type":"Point","coordinates":[-121.46396,35.92807]}},{"type":"Feature","properties":{"acq_date":"2026-08-30","acq_time":1045,"confidence":"n","satellite":"N","instrument":"VIIRS","version":"2.0NRT","bright_ti4":302.2,"frp":1.29,"daynight":"N"},"geometry":{"type":"Point","coordinates":[-121.34393,35.92941]}},{"type":"Feature","properties":{"acq_date":"2026-08-30","acq_time":1045,"confidence":"n","satellite":"N","instrument":"VIIRS","version":"2.0NRT","bright_ti4":338.8,"frp":9.17,"daynight":"N"},"geometry":{"type":"Point","coordinates":[-121.46246,35.93282]}},{"type":"Feature","properties":{"acq_date":"2026-08-30","acq_time":1045,"confidence":"n","satellite":"N","instrument":"VIIRS","version":"2.0NRT","bright_ti4":299.75,"frp":0.64,"daynight":"N"},"geometry":{"type":"Point","coordinates":[-121.38687,35.93479]}},{"type":"Feature","properties":{"acq_date":"2026-08-30","acq_time":1045,"confidence":"n","satellite":"N","instrument":"VIIRS","version":"2.0NRT","bright_ti4":316.44,"frp":2.8,"daynight":"N"},"geometry":{"type":"Point","coordinates":[-121.4612,35.93763]}},{"type":"Feature","properties":{"acq_date":"2026-08-30","acq_time":1045,"confidence":"n","satellite":"N","instrument":"VIIRS","version":"2.0NRT","bright_ti4":305.21,"frp":1.9,"daynight":"N"},"geometry":{"type":"Point","coordinates":[-121.45454,35.94112]}},{"type":"Feature","properties":{"acq_date":"2026-08-30","acq_time":1045,"confidence":"n","satellite":"N","instrument":"VIIRS","version":"2.0NRT","bright_ti4":305.35,"frp":12.12,"daynight":"N"},"geometry":{"type":"Point","coordinates":[-121.4473,35.94445]}},{"type":"Feature","properties":{"acq_date":"2026-08-30","acq_time":1045,"confidence":"n","satellite":"N","instrument":"VIIRS","version":"2.0NRT","bright_ti4":327.94,"frp":12.12,"daynight":"N"},"geometry":{"type":"Point","coordinates":[-121.45251,35.94573]}},{"type":"Feature","properties":{"acq_date":"2026-08-30","acq_time":1045,"confidence":"n","satellite":"N","instrument":"VIIRS","version":"2.0NRT","bright_ti4":308.34,"frp":1.47,"daynight":"N"},"geometry":{"type":"Point","coordinates":[-121.39017,35.94585]}},{"type":"Feature","properties":{"acq_date":"2026-08-30","acq_time":1045,"confidence":"n","satellite":"N","instrument":"VIIRS","version":"2.0NRT","bright_ti4":317.52,"frp":6.1,"daynight":"N"},"geometry":{"type":"Point","coordinates":[-121.43548,35.94668]}},{"type":"Feature","properties":{"acq_date":"2026-08-30","acq_time":1045,"confidence":"n","satellite":"N","instrument":"VIIRS","version":"2.0NRT","bright_ti4":314.51,"frp":2.65,"daynight":"N"},"geometry":{"type":"Point","coordinates":[-121.37303,35.9468]}},{"type":"Feature","properties":{"acq_date":"2026-08-30","acq_time":1045,"confidence":"n","satellite":"N","instrument":"VIIRS","version":"2.0NRT","bright_ti4":300.44,"frp":1.35,"daynight":"N"},"geometry":{"type":"Point","coordinates":[-121.41908,35.9478]}},{"type":"Feature","properties":{"acq_date":"2026-08-30","acq_time":1045,"confidence":"n","satellite":"N","instrument":"VIIRS","version":"2.0NRT","bright_ti4":335.4,"frp":6.1,"daynight":"N"},"geometry":{"type":"Point","coordinates":[-121.44057,35.94793]}},{"type":"Feature","properties":{"acq_date":"2026-08-30","acq_time":1045,"confidence":"n","satellite":"N","instrument":"VIIRS","version":"2.0NRT","bright_ti4":301.19,"frp":1.76,"daynight":"N"},"geometry":{"type":"Point","coordinates":[-121.40351,35.94911]}},{"type":"Feature","properties":{"acq_date":"2026-08-30","acq_time":1045,"confidence":"n","satellite":"N","instrument":"VIIRS","version":"2.0NRT","bright_ti4":302.28,"frp":9.47,"daynight":"N"},"geometry":{"type":"Point","coordinates":[-121.42463,35.94915]}},{"type":"Feature","properties":{"acq_date":"2026-08-30","acq_time":1045,"confidence":"n","satellite":"N","instrument":"VIIRS","version":"2.0NRT","bright_ti4":344.63,"frp":12.12,"daynight":"N"},"geometry":{"type":"Point","coordinates":[-121.44612,35.94928]}},{"type":"Feature","properties":{"acq_date":"2026-08-30","acq_time":1045,"confidence":"n","satellite":"N","instrument":"VIIRS","version":"2.0NRT","bright_ti4":315.58,"frp":3.04,"daynight":"N"},"geometry":{"type":"Point","coordinates":[-121.38746,35.95033]}},{"type":"Feature","properties":{"acq_date":"2026-08-30","acq_time":1045,"confidence":"n","satellite":"N","instrument":"VIIRS","version":"2.0NRT","bright_ti4":313.77,"frp":9.47,"daynight":"N"},"geometry":{"type":"Point","coordinates":[-121.42981,35.95041]}},{"type":"Feature","properties":{"acq_date":"2026-08-30","acq_time":1045,"confidence":"n","satellite":"N","instrument":"VIIRS","version":"2.0NRT","bright_ti4":348.34,"frp":12.12,"daynight":"N"},"geometry":{"type":"Point","coordinates":[-121.45177,35.95066]}},{"type":"Feature","properties":{"acq_date":"2026-08-30","acq_time":1045,"confidence":"n","satellite":"N","instrument":"VIIRS","version":"2.0NRT","bright_ti4":303.93,"frp":1.35,"daynight":"N"},"geometry":{"type":"Point","coordinates":[-121.4101,35.95072]}},{"type":"Feature","properties":{"acq_date":"2026-08-30","acq_time":1045,"confidence":"n","satellite":"N","instrument":"VIIRS","version":"2.0NRT","bright_ti4":347.24,"frp":14.8,"daynight":"N"},"geometry":{"type":"Point","coordinates":[-121.43484,35.95164]}},{"type":"Feature","properties":{"acq_date":"2026-08-30","acq_time":1045,"confidence":"n","satellite":"N","instrument":"VIIRS","version":"2.0NRT","bright_ti4":305.67,"frp":1.35,"daynight":"N"},"geometry":{"type":"Point","coordinates":[-121.41694,35.9524]}},{"type":"Feature","properties":{"acq_date":"2026-08-30","acq_time":1045,"confidence":"n","satellite":"N","instrument":"VIIRS","version":"2.0NRT","bright_ti4":314.34,"frp":14.8,"daynight":"N"},"geometry":{"type":"Point","coordinates":[-121.44016,35.95294]}},{"type":"Feature","properties":{"acq_date":"2026-08-30","acq_time":1045,"confidence":"n","satellite":"N","instrument":"VIIRS","version":"2.0NRT","bright_ti4":331.2,"frp":9.47,"daynight":"N"},"geometry":{"type":"Point","coordinates":[-121.42326,35.95393]}},{"type":"Feature","properties":{"acq_date":"2026-08-30","acq_time":1045,"confidence":"n","satellite":"N","instrument":"VIIRS","version":"2.0NRT","bright_ti4":356.06,"frp":9.47,"daynight":"N"},"geometry":{"type":"Point","coordinates":[-121.42902,35.95534]}},{"type":"Feature","properties":{"acq_date":"2026-08-30","acq_time":1045,"confidence":"n","satellite":"N","instrument":"VIIRS","version":"2.0NRT","bright_ti4":341.21,"frp":14.8,"daynight":"N"},"geometry":{"type":"Point","coordinates":[-121.43455,35.95669]}},{"type":"Feature","properties":{"acq_date":"2026-08-30","acq_time":1045,"confidence":"n","satellite":"N","instrument":"VIIRS","version":"2.0NRT","bright_ti4":313.79,"frp":4.69,"daynight":"N"},"geometry":{"type":"Point","coordinates":[-121.42197,35.95873]}},{"type":"Feature","properties":{"acq_date":"2026-08-30","acq_time":1045,"confidence":"n","satellite":"N","instrument":"VIIRS","version":"2.0NRT","bright_ti4":336.17,"frp":4.69,"daynight":"N"},"geometry":{"type":"Point","coordinates":[-121.4284,35.96031]}},{"type":"Feature","properties":{"acq_date":"2026-08-30","acq_time":1045,"confidence":"n","satellite":"N","instrument":"VIIRS","version":"2.0NRT","bright_ti4":306.54,"frp":1.22,"daynight":"N"},"geometry":{"type":"Point","coordinates":[-121.43446,35.96177]}},{"type":"Feature","properties":{"acq_date":"2026-08-30","acq_time":1045,"confidence":"n","satellite":"N","instrument":"VIIRS","version":"2.0NRT","bright_ti4":299.95,"frp":0.95,"daynight":"N"},"geometry":{"type":"Point","coordinates":[-121.62611,36.21018]}},{"type":"Feature","properties":{"acq_date":"2026-08-30","acq_time":1045,"confidence":"n","satellite":"N","instrument":"VIIRS","version":"2.0NRT","bright_ti4":300.93,"frp":0.57,"daynight":"N"},"geometry":{"type":"Point","coordinates":[-113.16907,36.26599]}},{"type":"Feature","properties":{"acq_date":"2026-08-30","acq_time":1045,"confidence":"n","satellite":"N","instrument":"VIIRS","version":"2.0NRT","bright_ti4":314.81,"frp":2.32,"daynight":"N"},"geometry":{"type":"Point","coordinates":[-113.17046,36.27026]}},{"type":"Feature","properties":{"acq_date":"2026-08-30","acq_time":1045,"confidence":"n","satellite":"N","instrument":"VIIRS","version":"2.0NRT","bright_ti4":313.26,"frp":2.93,"daynight":"N"},"geometry":{"type":"Point","coordinates":[-113.16545,36.27266]}},{"type":"Feature","properties":{"acq_date":"2026-08-30","acq_time":1045,"confidence":"n","satellite":"N","instrument":"VIIRS","version":"2.0NRT","bright_ti4":299.8,"frp":1.51,"daynight":"N"},"geometry":{"type":"Point","coordinates":[-113.15652,36.27356]}},{"type":"Feature","properties":{"acq_date":"2026-08-30","acq_time":1045,"confidence":"n","satellite":"N","instrument":"VIIRS","version":"2.0NRT","bright_ti4":303.04,"frp":1.51,"daynight":"N"},"geometry":{"type":"Point","coordinates":[-113.16683,36.27693]}},{"type":"Feature","properties":{"acq_date":"2026-08-30","acq_time":1045,"confidence":"n","satellite":"N","instrument":"VIIRS","version":"2.0NRT","bright_ti4":310.97,"frp":2.93,"daynight":"N"},"geometry":{"type":"Point","coordinates":[-113.16093,36.27904]}},{"type":"Feature","properties":{"acq_date":"2026-08-30","acq_time":1045,"confidence":"n","satellite":"N","instrument":"VIIRS","version":"2.0NRT","bright_ti4":307.71,"frp":1.51,"daynight":"N"},"geometry":{"type":"Point","coordinates":[-113.15176,36.27985]}},{"type":"Feature","properties":{"acq_date":"2026-08-30","acq_time":1045,"confidence":"n","satellite":"N","instrument":"VIIRS","version":"2.0NRT","bright_ti4":301.59,"frp":1.51,"daynight":"N"},"geometry":{"type":"Point","coordinates":[-113.1621,36.28323]}},{"type":"Feature","properties":{"acq_date":"2026-08-30","acq_time":1045,"confidence":"n","satellite":"N","instrument":"VIIRS","version":"2.0NRT","bright_ti4":315.08,"frp":2.34,"daynight":"N"},"geometry":{"type":"Point","coordinates":[-121.77769,36.28666]}},{"type":"Feature","properties":{"acq_date":"2026-08-30","acq_time":1045,"confidence":"n","satellite":"N","instrument":"VIIRS","version":"2.0NRT","bright_ti4":328.54,"frp":2.34,"daynight":"N"},"geometry":{"type":"Point","coordinates":[-121.7756,36.29114]}},{"type":"Feature","properties":{"acq_date":"2026-08-30","acq_time":1045,"confidence":"n","satellite":"N","instrument":"VIIRS","version":"2.0NRT","bright_ti4":296.54,"frp":0.68,"daynight":"N"},"geometry":{"type":"Point","coordinates":[-121.93168,37.45695]}},{"type":"Feature","properties":{"acq_date":"2026-08-30","acq_time":1045,"confidence":"n","satellite":"N","instrument":"VIIRS","version":"2.0NRT","bright_ti4":296.94,"frp":1.23,"daynight":"N"},"geometry":{"type":"Point","coordinates":[-122.39456,37.94276]}},{"type":"Feature","properties":{"acq_date":"2026-08-30","acq_time":1045,"confidence":"n","satellite":"N","instrument":"VIIRS","version":"2.0NRT","bright_ti4":304.77,"frp":1.7,"daynight":"N"},"geometry":{"type":"Point","coordinates":[-122.11118,38.0156]}}]}