{"type":"FeatureCollection","name":"FIRMS VIIRS CA (last 1 day)","crs":{"type":"name","properties":{"name":"EPSG:4326"}},"fetched_at_utc":"2026-10-02T19:03:56.099Z","source":{"url":"https://firms.modaps.eosdis.nasa.gov/api/area/csv/8c4af552cf654445dd280dfb3ad9337c/VIIRS_SNPP_NRT/-125,32,-113,43.5/1","dataset":"VIIRS_SNPP_NRT","bbox":"-125,32,-113,43.5","day_range":"1"},"features":[{"type":"Feature","properties":{"acq_date":"2026-10-02","acq_time":845,"confidence":"n","satellite":"N","instrument":"VIIRS","version":"2.0NRT","bright_ti4":306.62,"frp":1.83,"daynight":"N"},"geometry":{"type":"Point","coordinates":[-114.91035,36.35518]}},{"type":"Feature","properties":{"acq_date":"2026-10-02","acq_time":845,"confidence":"n","satellite":"N","instrument":"VIIRS","version":"2.0NRT","bright_ti4":296.86,"frp":1.08,"daynight":"N"},"geometry":{"type":"Point","coordinates":[-114.25446,40.82041]}},{"type":"Feature","properties":{"acq_date":"2026-10-02","acq_time":845,"confidence":"n","satellite":"N","instrument":"VIIRS","version":"2.0NRT","bright_ti4":295.15,"frp":0.95,"daynight":"N"},"geometry":{"type":"Point","coordinates":[-113.71005,42.21448]}},{"type":"Feature","properties":{"acq_date":"2026-10-02","acq_time":848,"confidence":"n","satellite":"N","instrument":"VIIRS","version":"2.0NRT","bright_ti4":305.42,"frp":0.57,"daynight":"N"},"geometry":{"type":"Point","coordinates":[-116.77875,32.52551]}},{"type":"Feature","properties":{"acq_date":"2026-10-02","acq_time":848,"confidence":"n","satellite":"N","instrument":"VIIRS","version":"2.0NRT","bright_ti4":300.48,"frp":1.77,"daynight":"N"},"geometry":{"type":"Point","coordinates":[-117.33543,34.60707]}},{"type":"Feature","properties":{"acq_date":"2026-10-02","acq_time":1026,"confidence":"n","satellite":"N","instrument":"VIIRS","version":"2.0NRT","bright_ti4":295.51,"frp":0.26,"daynight":"N"},"geometry":{"type":"Point","coordinates":[-119.61956,39.49353]}},{"type":"Feature","properties":{"acq_date":"2026-10-02","acq_time":1026,"confidence":"n","satellite":"N","instrument":"VIIRS","version":"2.0NRT","bright_ti4":308.76,"frp":1.87,"daynight":"N"},"geometry":{"type":"Point","coordinates":[-119.26289,39.62017]}},{"type":"Feature","properties":{"acq_date":"2026-10-02","acq_time":1026,"confidence":"n","satellite":"N","instrument":"VIIRS","version":"2.0NRT","bright_ti4":322.09,"frp":2.66,"daynight":"N"},"geometry":{"type":"Point","coordinates":[-122.20438,40.06844]}},{"type":"Feature","properties":{"acq_date":"2026-10-02","acq_time":1026,"confidence":"n","satellite":"N","instrument":"VIIRS","version":"2.0NRT","bright_ti4":327.46,"frp":2.27,"daynight":"N"},"geometry":{"type":"Point","coordinates":[-122.20919,40.06932]}},{"type":"Feature","properties":{"acq_date":"2026-10-02","acq_time":1026,"confidence":"n","satellite":"N","instrument":"VIIRS","version":"2.0NRT","bright_ti4":331.28,"frp":2.66,"daynight":"N"},"geometry":{"type":"Point","coordinates":[-122.20332,40.07183]}},{"type":"Feature","properties":{"acq_date":"2026-10-02","acq_time":1026,"confidence":"n","satellite":"N","instrument":"VIIRS","version":"2.0NRT","bright_ti4":317.61,"frp":2.27,"daynight":"N"},"geometry":{"type":"Point","coordinates":[-122.20814,40.07271]}},{"type":"Feature","properties":{"acq_date":"2026-10-02","acq_time":1026,"confidence":"n","satellite":"N","instrument":"VIIRS","version":"2.0NRT","bright_ti4":295.31,"frp":0.55,"daynight":"N"},"geometry":{"type":"Point","coordinates":[-122.54152,40.44071]}},{"type":"Feature","properties":{"acq_date":"2026-10-02","acq_time":1026,"confidence":"n","satellite":"N","instrument":"VIIRS","version":"2.0NRT","bright_ti4":304.41,"frp":0.44,"daynight":"N"},"geometry":{"type":"Point","coordinates":[-122.32486,40.73748]}},{"type":"Feature","properties":{"acq_date":"2026-10-02","acq_time":1026,"confidence":"n","satellite":"N","instrument":"VIIRS","version":"2.0NRT","bright_ti4":301.33,"frp":1.39,"daynight":"N"},"geometry":{"type":"Point","coordinates":[-114.2533,40.82106]}},{"type":"Feature","properties":{"acq_date":"2026-10-02","acq_time":1026,"confidence":"n","satellite":"N","instrument":"VIIRS","version":"2.0NRT","bright_ti4":325.34,"frp":1.56,"daynight":"N"},"geometry":{"type":"Point","coordinates":[-117.68101,41.5381]}},{"type":"Feature","properties":{"acq_date":"2026-10-02","acq_time":1026,"confidence":"n","satellite":"N","instrument":"VIIRS","version":"2.0NRT","bright_ti4":301.72,"frp":1.15,"daynight":"N"},"geometry":{"type":"Point","coordinates":[-117.67445,41.5409]}},{"type":"Feature","properties":{"acq_date":"2026-10-02","acq_time":1026,"confidence":"n","satellite":"N","instrument":"VIIRS","version":"2.0NRT","bright_ti4":297.82,"frp":0.8,"daynight":"N"},"geometry":{"type":"Point","coordinates":[-117.67655,41.5423]}},{"type":"Feature","properties":{"acq_date":"2026-10-02","acq_time":1026,"confidence":"n","satellite":"N","instrument":"VIIRS","version":"2.0NRT","bright_ti4":317.3,"frp":8.8,"daynight":"N"},"geometry":{"type":"Point","coordinates":[-113.70334,42.21149]}},{"type":"Feature","properties":{"acq_date":"2026-10-02","acq_time":1026,"confidence":"n","satellite":"N","instrument":"VIIRS","version":"2.0NRT","bright_ti4":352.44,"frp":8.8,"daynight":"N"},"geometry":{"type":"Point","coordinates":[-113.70653,42.21744]}},{"type":"Feature","properties":{"acq_date":"2026-10-02","acq_time":1026,"confidence":"n","satellite":"N","instrument":"VIIRS","version":"2.0NRT","bright_ti4":300.99,"frp":1.55,"daynight":"N"},"geometry":{"type":"Point","coordinates":[-120.19935,42.38495]}},{"type":"Feature","properties":{"acq_date":"2026-10-02","acq_time":1026,"confidence":"n","satellite":"N","instrument":"VIIRS","version":"2.0NRT","bright_ti4":303.74,"frp":1.55,"daynight":"N"},"geometry":{"type":"Point","coordinates":[-120.20481,42.386]}},{"type":"Feature","properties":{"acq_date":"2026-10-02","acq_time":1026,"confidence":"n","satellite":"N","instrument":"VIIRS","version":"2.0NRT","bright_ti4":321.45,"frp":3.48,"daynight":"N"},"geometry":{"type":"Point","coordinates":[-120.20354,42.38947]}},{"type":"Feature","properties":{"acq_date":"2026-10-02","acq_time":1026,"confidence":"n","satellite":"N","instrument":"VIIRS","version":"2.0NRT","bright_ti4":296.63,"frp":1.63,"daynight":"N"},"geometry":{"type":"Point","coordinates":[-120.18597,42.38982]}},{"type":"Feature","properties":{"acq_date":"2026-10-02","acq_time":1026,"confidence":"n","satellite":"N","instrument":"VIIRS","version":"2.0NRT","bright_ti4":299.02,"frp":0.87,"daynight":"N"},"geometry":{"type":"Point","coordinates":[-120.1883,42.39294]}},{"type":"Feature","properties":{"acq_date":"2026-10-02","acq_time":1026,"confidence":"n","satellite":"N","instrument":"VIIRS","version":"2.0NRT","bright_ti4":299.74,"frp":0.87,"daynight":"N"},"geometry":{"type":"Point","coordinates":[-120.1937,42.39399]}},{"type":"Feature","properties":{"acq_date":"2026-10-02","acq_time":1026,"confidence":"n","satellite":"N","instrument":"VIIRS","version":"2.0NRT","bright_ti4":297.59,"frp":1.86,"daynight":"N"},"geometry":{"type":"Point","coordinates":[-120.19019,42.39434]}},{"type":"Feature","properties":{"acq_date":"2026-10-02","acq_time":1026,"confidence":"n","satellite":"N","instrument":"VIIRS","version":"2.0NRT","bright_ti4":301.29,"frp":0.87,"daynight":"N"},"geometry":{"type":"Point","coordinates":[-120.19244,42.39747]}},{"type":"Feature","properties":{"acq_date":"2026-10-02","acq_time":1026,"confidence":"n","satellite":"N","instrument":"VIIRS","version":"2.0NRT","bright_ti4":297.26,"frp":1.19,"daynight":"N"},"geometry":{"type":"Point","coordinates":[-120.1943,42.39884]}},{"type":"Feature","properties":{"acq_date":"2026-10-02","acq_time":1026,"confidence":"n","satellite":"N","instrument":"VIIRS","version":"2.0NRT","bright_ti4":308.54,"frp":1.55,"daynight":"N"},"geometry":{"type":"Point","coordinates":[-120.19117,42.40094]}},{"type":"Feature","properties":{"acq_date":"2026-10-02","acq_time":1026,"confidence":"n","satellite":"N","instrument":"VIIRS","version":"2.0NRT","bright_ti4":310.84,"frp":1.55,"daynight":"N"},"geometry":{"type":"Point","coordinates":[-120.18991,42.40441]}},{"type":"Feature","properties":{"acq_date":"2026-10-02","acq_time":1026,"confidence":"n","satellite":"N","instrument":"VIIRS","version":"2.0NRT","bright_ti4":317.19,"frp":3.08,"daynight":"N"},"geometry":{"type":"Point","coordinates":[-121.63521,42.91006]}},{"type":"Feature","properties":{"acq_date":"2026-10-02","acq_time":1026,"confidence":"n","satellite":"N","instrument":"VIIRS","version":"2.0NRT","bright_ti4":301.92,"frp":1.39,"daynight":"N"},"geometry":{"type":"Point","coordinates":[-121.62918,42.91252]}},{"type":"Feature","properties":{"acq_date":"2026-10-02","acq_time":1026,"confidence":"n","satellite":"N","instrument":"VIIRS","version":"2.0NRT","bright_ti4":313.99,"frp":2.87,"daynight":"N"},"geometry":{"type":"Point","coordinates":[-121.6341,42.91341]}},{"type":"Feature","properties":{"acq_date":"2026-10-02","acq_time":1026,"confidence":"n","satellite":"N","instrument":"VIIRS","version":"2.0NRT","bright_ti4":297.7,"frp":0.85,"daynight":"N"},"geometry":{"type":"Point","coordinates":[-115.73312,43.18049]}},{"type":"Feature","properties":{"acq_date":"2026-10-02","acq_time":1026,"confidence":"n","satellite":"N","instrument":"VIIRS","version":"2.0NRT","bright_ti4":302.72,"frp":2.01,"daynight":"N"},"geometry":{"type":"Point","coordinates":[-121.84174,43.32495]}},{"type":"Feature","properties":{"acq_date":"2026-10-02","acq_time":1028,"confidence":"n","satellite":"N","instrument":"VIIRS","version":"2.0NRT","bright_ti4":301.53,"frp":0.36,"daynight":"N"},"geometry":{"type":"Point","coordinates":[-116.77943,32.52475]}},{"type":"Feature","properties":{"acq_date":"2026-10-02","acq_time":1028,"confidence":"n","satellite":"N","instrument":"VIIRS","version":"2.0NRT","bright_ti4":306.11,"frp":1.26,"daynight":"N"},"geometry":{"type":"Point","coordinates":[-117.7093,33.71409]}},{"type":"Feature","properties":{"acq_date":"2026-10-02","acq_time":1028,"confidence":"n","satellite":"N","instrument":"VIIRS","version":"2.0NRT","bright_ti4":311.52,"frp":0.96,"daynight":"N"},"geometry":{"type":"Point","coordinates":[-118.19122,34.15402]}},{"type":"Feature","properties":{"acq_date":"2026-10-02","acq_time":1028,"confidence":"n","satellite":"N","instrument":"VIIRS","version":"2.0NRT","bright_ti4":300.89,"frp":0.32,"daynight":"N"},"geometry":{"type":"Point","coordinates":[-118.79666,34.28882]}},{"type":"Feature","properties":{"acq_date":"2026-10-02","acq_time":1028,"confidence":"n","satellite":"N","instrument":"VIIRS","version":"2.0NRT","bright_ti4":302.7,"frp":0.78,"daynight":"N"},"geometry":{"type":"Point","coordinates":[-118.52898,34.3241]}},{"type":"Feature","properties":{"acq_date":"2026-10-02","acq_time":1028,"confidence":"n","satellite":"N","instrument":"VIIRS","version":"2.0NRT","bright_ti4":306.67,"frp":0.83,"daynight":"N"},"geometry":{"type":"Point","coordinates":[-118.51829,34.33584]}},{"type":"Feature","properties":{"acq_date":"2026-10-02","acq_time":1028,"confidence":"n","satellite":"N","instrument":"VIIRS","version":"2.0NRT","bright_ti4":302.75,"frp":1.28,"daynight":"N"},"geometry":{"type":"Point","coordinates":[-116.85317,34.35485]}},{"type":"Feature","properties":{"acq_date":"2026-10-02","acq_time":1028,"confidence":"n","satellite":"N","instrument":"VIIRS","version":"2.0NRT","bright_ti4":307.45,"frp":0.74,"daynight":"N"},"geometry":{"type":"Point","coordinates":[-118.64316,34.43023]}},{"type":"Feature","properties":{"acq_date":"2026-10-02","acq_time":1028,"confidence":"n","satellite":"N","instrument":"VIIRS","version":"2.0NRT","bright_ti4":304.3,"frp":1.23,"daynight":"N"},"geometry":{"type":"Point","coordinates":[-117.33728,34.60558]}},{"type":"Feature","properties":{"acq_date":"2026-10-02","acq_time":1028,"confidence":"n","satellite":"N","instrument":"VIIRS","version":"2.0NRT","bright_ti4":301.02,"frp":1.23,"daynight":"N"},"geometry":{"type":"Point","coordinates":[-117.33589,34.61029]}},{"type":"Feature","properties":{"acq_date":"2026-10-02","acq_time":1028,"confidence":"n","satellite":"N","instrument":"VIIRS","version":"2.0NRT","bright_ti4":310.06,"frp":1.89,"daynight":"N"},"geometry":{"type":"Point","coordinates":[-117.10164,34.62012]}},{"type":"Feature","properties":{"acq_date":"2026-10-02","acq_time":1028,"confidence":"n","satellite":"N","instrument":"VIIRS","version":"2.0NRT","bright_ti4":299.47,"frp":0.29,"daynight":"N"},"geometry":{"type":"Point","coordinates":[-118.94998,36.10479]}},{"type":"Feature","properties":{"acq_date":"2026-10-02","acq_time":1028,"confidence":"n","satellite":"N","instrument":"VIIRS","version":"2.0NRT","bright_ti4":302.17,"frp":0.68,"daynight":"N"},"geometry":{"type":"Point","coordinates":[-114.91164,36.3544]}},{"type":"Feature","properties":{"acq_date":"2026-10-02","acq_time":1028,"confidence":"n","satellite":"N","instrument":"VIIRS","version":"2.0NRT","bright_ti4":305.04,"frp":0.68,"daynight":"N"},"geometry":{"type":"Point","coordinates":[-114.90949,36.3594]}},{"type":"Feature","properties":{"acq_date":"2026-10-02","acq_time":1028,"confidence":"n","satellite":"N","instrument":"VIIRS","version":"2.0NRT","bright_ti4":304.71,"frp":0.79,"daynight":"N"},"geometry":{"type":"Point","coordinates":[-114.66284,36.66288]}},{"type":"Feature","properties":{"acq_date":"2026-10-02","acq_time":1028,"confidence":"n","satellite":"N","instrument":"VIIRS","version":"2.0NRT","bright_ti4":295.15,"frp":1.35,"daynight":"N"},"geometry":{"type":"Point","coordinates":[-120.19418,37.023]}},{"type":"Feature","properties":{"acq_date":"2026-10-02","acq_time":1028,"confidence":"n","satellite":"N","instrument":"VIIRS","version":"2.0NRT","bright_ti4":297.34,"frp":1.34,"daynight":"N"},"geometry":{"type":"Point","coordinates":[-120.13985,37.03207]}},{"type":"Feature","properties":{"acq_date":"2026-10-02","acq_time":1028,"confidence":"n","satellite":"N","instrument":"VIIRS","version":"2.0NRT","bright_ti4":298.18,"frp":0.38,"daynight":"N"},"geometry":{"type":"Point","coordinates":[-121.67933,37.18366]}},{"type":"Feature","properties":{"acq_date":"2026-10-02","acq_time":1028,"confidence":"n","satellite":"N","instrument":"VIIRS","version":"2.0NRT","bright_ti4":295.39,"frp":0.54,"daynight":"N"},"geometry":{"type":"Point","coordinates":[-121.93046,37.45457]}},{"type":"Feature","properties":{"acq_date":"2026-10-02","acq_time":1028,"confidence":"n","satellite":"N","instrument":"VIIRS","version":"2.0NRT","bright_ti4":341.36,"frp":14.83,"daynight":"N"},"geometry":{"type":"Point","coordinates":[-119.58731,37.59406]}},{"type":"Feature","properties":{"acq_date":"2026-10-02","acq_time":1028,"confidence":"n","satellite":"N","instrument":"VIIRS","version":"2.0NRT","bright_ti4":321.42,"frp":14.83,"daynight":"N"},"geometry":{"type":"Point","coordinates":[-119.5864,37.59802]}},{"type":"Feature","properties":{"acq_date":"2026-10-02","acq_time":1028,"confidence":"n","satellite":"N","instrument":"VIIRS","version":"2.0NRT","bright_ti4":307.47,"frp":2.37,"daynight":"N"},"geometry":{"type":"Point","coordinates":[-119.58543,37.60197]}},{"type":"Feature","properties":{"acq_date":"2026-10-02","acq_time":1028,"confidence":"n","satellite":"N","instrument":"VIIRS","version":"2.0NRT","bright_ti4":304.99,"frp":1.89,"daynight":"N"},"geometry":{"type":"Point","coordinates":[-119.59158,37.60327]}},{"type":"Feature","properties":{"acq_date":"2026-10-02","acq_time":1028,"confidence":"n","satellite":"N","instrument":"VIIRS","version":"2.0NRT","bright_ti4":313.66,"frp":1.89,"daynight":"N"},"geometry":{"type":"Point","coordinates":[-119.59033,37.60716]}},{"type":"Feature","properties":{"acq_date":"2026-10-02","acq_time":1028,"confidence":"n","satellite":"N","instrument":"VIIRS","version":"2.0NRT","bright_ti4":327.48,"frp":3.41,"daynight":"N"},"geometry":{"type":"Point","coordinates":[-119.58894,37.61101]}},{"type":"Feature","properties":{"acq_date":"2026-10-02","acq_time":1028,"confidence":"n","satellite":"N","instrument":"VIIRS","version":"2.0NRT","bright_ti4":316.72,"frp":3.41,"daynight":"N"},"geometry":{"type":"Point","coordinates":[-119.59507,37.6123]}},{"type":"Feature","properties":{"acq_date":"2026-10-02","acq_time":1028,"confidence":"n","satellite":"N","instrument":"VIIRS","version":"2.0NRT","bright_ti4":297.7,"frp":2.05,"daynight":"N"},"geometry":{"type":"Point","coordinates":[-119.60105,37.61356]}},{"type":"Feature","properties":{"acq_date":"2026-10-02","acq_time":1028,"confidence":"n","satellite":"N","instrument":"VIIRS","version":"2.0NRT","bright_ti4":321.95,"frp":2.05,"daynight":"N"},"geometry":{"type":"Point","coordinates":[-119.59944,37.61737]}},{"type":"Feature","properties":{"acq_date":"2026-10-02","acq_time":1028,"confidence":"n","satellite":"N","instrument":"VIIRS","version":"2.0NRT","bright_ti4":338.06,"frp":5.46,"daynight":"N"},"geometry":{"type":"Point","coordinates":[-119.62986,37.61964]}},{"type":"Feature","properties":{"acq_date":"2026-10-02","acq_time":1028,"confidence":"n","satellite":"N","instrument":"VIIRS","version":"2.0NRT","bright_ti4":331.35,"frp":5.46,"daynight":"N"},"geometry":{"type":"Point","coordinates":[-119.62892,37.62359]}},{"type":"Feature","properties":{"acq_date":"2026-10-02","acq_time":1028,"confidence":"n","satellite":"N","instrument":"VIIRS","version":"2.0NRT","bright_ti4":320.82,"frp":4.46,"daynight":"N"},"geometry":{"type":"Point","coordinates":[-119.62807,37.62754]}},{"type":"Feature","properties":{"acq_date":"2026-10-02","acq_time":1028,"confidence":"n","satellite":"N","instrument":"VIIRS","version":"2.0NRT","bright_ti4":324.83,"frp":30.18,"daynight":"N"},"geometry":{"type":"Point","coordinates":[-119.58746,37.62999]}},{"type":"Feature","properties":{"acq_date":"2026-10-02","acq_time":1028,"confidence":"n","satellite":"N","instrument":"VIIRS","version":"2.0NRT","bright_ti4":346.01,"frp":30.18,"daynight":"N"},"geometry":{"type":"Point","coordinates":[-119.59348,37.63128]}},{"type":"Feature","properties":{"acq_date":"2026-10-02","acq_time":1028,"confidence":"n","satellite":"N","instrument":"VIIRS","version":"2.0NRT","bright_ti4":336.53,"frp":38.16,"daynight":"N"},"geometry":{"type":"Point","coordinates":[-119.58726,37.63142]}},{"type":"Feature","properties":{"acq_date":"2026-10-02","acq_time":1028,"confidence":"n","satellite":"N","instrument":"VIIRS","version":"2.0NRT","bright_ti4":335.26,"frp":4.46,"daynight":"N"},"geometry":{"type":"Point","coordinates":[-119.62713,37.63149]}},{"type":"Feature","properties":{"acq_date":"2026-10-02","acq_time":1028,"confidence":"n","satellite":"N","instrument":"VIIRS","version":"2.0NRT","bright_ti4":354.86,"frp":25.76,"daynight":"N"},"geometry":{"type":"Point","coordinates":[-119.59332,37.63269]}},{"type":"Feature","properties":{"acq_date":"2026-10-02","acq_time":1028,"confidence":"n","satellite":"N","instrument":"VIIRS","version":"2.0NRT","bright_ti4":337.78,"frp":30.18,"daynight":"N"},"geometry":{"type":"Point","coordinates":[-119.58589,37.6338]}},{"type":"Feature","properties":{"acq_date":"2026-10-02","acq_time":1028,"confidence":"n","satellite":"N","instrument":"VIIRS","version":"2.0NRT","bright_ti4":340.76,"frp":30.18,"daynight":"N"},"geometry":{"type":"Point","coordinates":[-119.59194,37.63511]}},{"type":"Feature","properties":{"acq_date":"2026-10-02","acq_time":1028,"confidence":"n","satellite":"N","instrument":"VIIRS","version":"2.0NRT","bright_ti4":355.55,"frp":45.22,"daynight":"N"},"geometry":{"type":"Point","coordinates":[-119.58569,37.63524]}},{"type":"Feature","properties":{"acq_date":"2026-10-02","acq_time":1028,"confidence":"n","satellite":"N","instrument":"VIIRS","version":"2.0NRT","bright_ti4":348.95,"frp":18.92,"daynight":"N"},"geometry":{"type":"Point","coordinates":[-119.62608,37.63541]}},{"type":"Feature","properties":{"acq_date":"2026-10-02","acq_time":1028,"confidence":"n","satellite":"N","instrument":"VIIRS","version":"2.0NRT","bright_ti4":327.6,"frp":22.81,"daynight":"N"},"geometry":{"type":"Point","coordinates":[-119.59811,37.63643]}},{"type":"Feature","properties":{"acq_date":"2026-10-02","acq_time":1028,"confidence":"n","satellite":"N","instrument":"VIIRS","version":"2.0NRT","bright_ti4":336.89,"frp":17.8,"daynight":"N"},"geometry":{"type":"Point","coordinates":[-119.59177,37.63651]}},{"type":"Feature","properties":{"acq_date":"2026-10-02","acq_time":1028,"confidence":"n","satellite":"N","instrument":"VIIRS","version":"2.0NRT","bright_ti4":303.09,"frp":6.31,"daynight":"N"},"geometry":{"type":"Point","coordinates":[-119.63186,37.63662]}},{"type":"Feature","properties":{"acq_date":"2026-10-02","acq_time":1028,"confidence":"n","satellite":"N","instrument":"VIIRS","version":"2.0NRT","bright_ti4":349.17,"frp":19.73,"daynight":"N"},"geometry":{"type":"Point","coordinates":[-119.58444,37.63765]}},{"type":"Feature","properties":{"acq_date":"2026-10-02","acq_time":1028,"confidence":"n","satellite":"N","instrument":"VIIRS","version":"2.0NRT","bright_ti4":316.31,"frp":17.8,"daynight":"N"},"geometry":{"type":"Point","coordinates":[-119.59801,37.63782]}},{"type":"Feature","properties":{"acq_date":"2026-10-02","acq_time":1028,"confidence":"n","satellite":"N","instrument":"VIIRS","version":"2.0NRT","bright_ti4":344.6,"frp":12.09,"daynight":"N"},"geometry":{"type":"Point","coordinates":[-119.62488,37.63805]}},{"type":"Feature","properties":{"acq_date":"2026-10-02","acq_time":1028,"confidence":"n","satellite":"N","instrument":"VIIRS","version":"2.0NRT","bright_ti4":328.1,"frp":19.73,"daynight":"N"},"geometry":{"type":"Point","coordinates":[-119.59049,37.63894]}},{"type":"Feature","properties":{"acq_date":"2026-10-02","acq_time":1028,"confidence":"n","satellite":"N","instrument":"VIIRS","version":"2.0NRT","bright_ti4":348.93,"frp":45.22,"daynight":"N"},"geometry":{"type":"Point","coordinates":[-119.58436,37.63911]}},{"type":"Feature","properties":{"acq_date":"2026-10-02","acq_time":1028,"confidence":"n","satellite":"N","instrument":"VIIRS","version":"2.0NRT","bright_ti4":352.69,"frp":18.92,"daynight":"N"},"geometry":{"type":"Point","coordinates":[-119.6249,37.6393]}},{"type":"Feature","properties":{"acq_date":"2026-10-02","acq_time":1028,"confidence":"n","satellite":"N","instrument":"VIIRS","version":"2.0NRT","bright_ti4":328.1,"frp":12.09,"daynight":"N"},"geometry":{"type":"Point","coordinates":[-119.63079,37.63932]}},{"type":"Feature","properties":{"acq_date":"2026-10-02","acq_time":1028,"confidence":"n","satellite":"N","instrument":"VIIRS","version":"2.0NRT","bright_ti4":301.79,"frp":1.86,"daynight":"N"},"geometry":{"type":"Point","coordinates":[-119.59671,37.64028]}},{"type":"Feature","properties":{"acq_date":"2026-10-02","acq_time":1028,"confidence":"n","satellite":"N","instrument":"VIIRS","version":"2.0NRT","bright_ti4":320.09,"frp":17.8,"daynight":"N"},"geometry":{"type":"Point","coordinates":[-119.59041,37.64038]}},{"type":"Feature","properties":{"acq_date":"2026-10-02","acq_time":1028,"confidence":"n","satellite":"N","instrument":"VIIRS","version":"2.0NRT","bright_ti4":325.99,"frp":6.31,"daynight":"N"},"geometry":{"type":"Point","coordinates":[-119.63083,37.64054]}},{"type":"Feature","properties":{"acq_date":"2026-10-02","acq_time":1028,"confidence":"n","satellite":"N","instrument":"VIIRS","version":"2.0NRT","bright_ti4":354.15,"frp":19.73,"daynight":"N"},"geometry":{"type":"Point","coordinates":[-119.58332,37.64156]}},{"type":"Feature","properties":{"acq_date":"2026-10-02","acq_time":1028,"confidence":"n","satellite":"N","instrument":"VIIRS","version":"2.0NRT","bright_ti4":316.02,"frp":12.09,"daynight":"N"},"geometry":{"type":"Point","coordinates":[-119.62359,37.64192]}},{"type":"Feature","properties":{"acq_date":"2026-10-02","acq_time":1028,"confidence":"n","satellite":"N","instrument":"VIIRS","version":"2.0NRT","bright_ti4":331.25,"frp":19.73,"daynight":"N"},"geometry":{"type":"Point","coordinates":[-119.5893,37.64284]}},{"type":"Feature","properties":{"acq_date":"2026-10-02","acq_time":1028,"confidence":"n","satellite":"N","instrument":"VIIRS","version":"2.0NRT","bright_ti4":307.84,"frp":2.64,"daynight":"N"},"geometry":{"type":"Point","coordinates":[-119.60947,37.64303]}},{"type":"Feature","properties":{"acq_date":"2026-10-02","acq_time":1028,"confidence":"n","satellite":"N","instrument":"VIIRS","version":"2.0NRT","bright_ti4":352.24,"frp":12.39,"daynight":"N"},"geometry":{"type":"Point","coordinates":[-119.58327,37.64303]}},{"type":"Feature","properties":{"acq_date":"2026-10-02","acq_time":1028,"confidence":"n","satellite":"N","instrument":"VIIRS","version":"2.0NRT","bright_ti4":311.24,"frp":2.18,"daynight":"N"},"geometry":{"type":"Point","coordinates":[-119.6236,37.64317]}},{"type":"Feature","properties":{"acq_date":"2026-10-02","acq_time":1028,"confidence":"n","satellite":"N","instrument":"VIIRS","version":"2.0NRT","bright_ti4":350.24,"frp":12.09,"daynight":"N"},"geometry":{"type":"Point","coordinates":[-119.6296,37.64321]}},{"type":"Feature","properties":{"acq_date":"2026-10-02","acq_time":1028,"confidence":"n","satellite":"N","instrument":"VIIRS","version":"2.0NRT","bright_ti4":327.97,"frp":5.47,"daynight":"N"},"geometry":{"type":"Point","coordinates":[-119.58925,37.64428]}},{"type":"Feature","properties":{"acq_date":"2026-10-02","acq_time":1028,"confidence":"n","satellite":"N","instrument":"VIIRS","version":"2.0NRT","bright_ti4":304.89,"frp":1.39,"daynight":"N"},"geometry":{"type":"Point","coordinates":[-119.60937,37.64434]}},{"type":"Feature","properties":{"acq_date":"2026-10-02","acq_time":1028,"confidence":"h","satellite":"N","instrument":"VIIRS","version":"2.0NRT","bright_ti4":367,"frp":9.52,"daynight":"N"},"geometry":{"type":"Point","coordinates":[-119.62965,37.64443]}},{"type":"Feature","properties":{"acq_date":"2026-10-02","acq_time":1028,"confidence":"n","satellite":"N","instrument":"VIIRS","version":"2.0NRT","bright_ti4":344.88,"frp":7.39,"daynight":"N"},"geometry":{"type":"Point","coordinates":[-119.58223,37.64548]}},{"type":"Feature","properties":{"acq_date":"2026-10-02","acq_time":1028,"confidence":"n","satellite":"N","instrument":"VIIRS","version":"2.0NRT","bright_ti4":295.91,"frp":9.52,"daynight":"N"},"geometry":{"type":"Point","coordinates":[-119.63579,37.64572]}},{"type":"Feature","properties":{"acq_date":"2026-10-02","acq_time":1028,"confidence":"n","satellite":"N","instrument":"VIIRS","version":"2.0NRT","bright_ti4":309.26,"frp":6.11,"daynight":"N"},"geometry":{"type":"Point","coordinates":[-119.62225,37.64578]}},{"type":"Feature","properties":{"acq_date":"2026-10-02","acq_time":1028,"confidence":"n","satellite":"N","instrument":"VIIRS","version":"2.0NRT","bright_ti4":313.75,"frp":7.39,"daynight":"N"},"geometry":{"type":"Point","coordinates":[-119.58813,37.64674]}},{"type":"Feature","properties":{"acq_date":"2026-10-02","acq_time":1028,"confidence":"n","satellite":"N","instrument":"VIIRS","version":"2.0NRT","bright_ti4":320.5,"frp":12.39,"daynight":"N"},"geometry":{"type":"Point","coordinates":[-119.58211,37.64693]}},{"type":"Feature","properties":{"acq_date":"2026-10-02","acq_time":1028,"confidence":"n","satellite":"N","instrument":"VIIRS","version":"2.0NRT","bright_ti4":306.32,"frp":2.18,"daynight":"N"},"geometry":{"type":"Point","coordinates":[-119.62222,37.64702]}},{"type":"Feature","properties":{"acq_date":"2026-10-02","acq_time":1028,"confidence":"n","satellite":"N","instrument":"VIIRS","version":"2.0NRT","bright_ti4":344.93,"frp":6.11,"daynight":"N"},"geometry":{"type":"Point","coordinates":[-119.6283,37.64708]}},{"type":"Feature","properties":{"acq_date":"2026-10-02","acq_time":1028,"confidence":"n","satellite":"N","instrument":"VIIRS","version":"2.0NRT","bright_ti4":296.44,"frp":0.39,"daynight":"N"},"geometry":{"type":"Point","coordinates":[-119.60787,37.64817]}},{"type":"Feature","properties":{"acq_date":"2026-10-02","acq_time":1028,"confidence":"n","satellite":"N","instrument":"VIIRS","version":"2.0NRT","bright_ti4":332.01,"frp":9.52,"daynight":"N"},"geometry":{"type":"Point","coordinates":[-119.62829,37.64829]}},{"type":"Feature","properties":{"acq_date":"2026-10-02","acq_time":1028,"confidence":"n","satellite":"N","instrument":"VIIRS","version":"2.0NRT","bright_ti4":327.62,"frp":12.32,"daynight":"N"},"geometry":{"type":"Point","coordinates":[-119.63445,37.6484]}},{"type":"Feature","properties":{"acq_date":"2026-10-02","acq_time":1028,"confidence":"n","satellite":"N","instrument":"VIIRS","version":"2.0NRT","bright_ti4":326.81,"frp":9.52,"daynight":"N"},"geometry":{"type":"Point","coordinates":[-119.63444,37.64958]}},{"type":"Feature","properties":{"acq_date":"2026-10-02","acq_time":1028,"confidence":"n","satellite":"N","instrument":"VIIRS","version":"2.0NRT","bright_ti4":317.59,"frp":6.11,"daynight":"N"},"geometry":{"type":"Point","coordinates":[-119.6269,37.65092]}},{"type":"Feature","properties":{"acq_date":"2026-10-02","acq_time":1028,"confidence":"n","satellite":"N","instrument":"VIIRS","version":"2.0NRT","bright_ti4":309.63,"frp":1.17,"daynight":"N"},"geometry":{"type":"Point","coordinates":[-119.62685,37.65213]}},{"type":"Feature","properties":{"acq_date":"2026-10-02","acq_time":1028,"confidence":"n","satellite":"N","instrument":"VIIRS","version":"2.0NRT","bright_ti4":297.67,"frp":1.27,"daynight":"N"},"geometry":{"type":"Point","coordinates":[-119.62547,37.65475]}},{"type":"Feature","properties":{"acq_date":"2026-10-02","acq_time":1028,"confidence":"n","satellite":"N","instrument":"VIIRS","version":"2.0NRT","bright_ti4":299.01,"frp":1.17,"daynight":"N"},"geometry":{"type":"Point","coordinates":[-119.62541,37.65597]}},{"type":"Feature","properties":{"acq_date":"2026-10-02","acq_time":1028,"confidence":"n","satellite":"N","instrument":"VIIRS","version":"2.0NRT","bright_ti4":328.44,"frp":5.83,"daynight":"N"},"geometry":{"type":"Point","coordinates":[-119.57816,37.65707]}},{"type":"Feature","properties":{"acq_date":"2026-10-02","acq_time":1028,"confidence":"n","satellite":"N","instrument":"VIIRS","version":"2.0NRT","bright_ti4":312.44,"frp":3.18,"daynight":"N"},"geometry":{"type":"Point","coordinates":[-119.80265,38.16266]}},{"type":"Feature","properties":{"acq_date":"2026-10-02","acq_time":1028,"confidence":"n","satellite":"N","instrument":"VIIRS","version":"2.0NRT","bright_ti4":295.52,"frp":1.01,"daynight":"N"},"geometry":{"type":"Point","coordinates":[-119.80168,38.16652]}}]}