{"type":"FeatureCollection","name":"FIRMS VIIRS CA (last 1 day)","crs":{"type":"name","properties":{"name":"EPSG:4326"}},"fetched_at_utc":"2026-08-12T15:00:23.933Z","source":{"url":"https://firms.modaps.eosdis.nasa.gov/api/area/csv/8c4af552cf654445dd280dfb3ad9337c/VIIRS_SNPP_NRT/-125,32,-113,43.5/1","dataset":"VIIRS_SNPP_NRT","bbox":"-125,32,-113,43.5","day_range":"1"},"features":[{"type":"Feature","properties":{"acq_date":"2026-08-12","acq_time":941,"confidence":"n","satellite":"N","instrument":"VIIRS","version":"2.0NRT","bright_ti4":297.81,"frp":0.33,"daynight":"N"},"geometry":{"type":"Point","coordinates":[-113.31326,35.51847]}},{"type":"Feature","properties":{"acq_date":"2026-08-12","acq_time":941,"confidence":"n","satellite":"N","instrument":"VIIRS","version":"2.0NRT","bright_ti4":315.18,"frp":2.49,"daynight":"N"},"geometry":{"type":"Point","coordinates":[-114.91262,36.35876]}},{"type":"Feature","properties":{"acq_date":"2026-08-12","acq_time":941,"confidence":"n","satellite":"N","instrument":"VIIRS","version":"2.0NRT","bright_ti4":301.63,"frp":0.9,"daynight":"N"},"geometry":{"type":"Point","coordinates":[-121.93488,37.45514]}},{"type":"Feature","properties":{"acq_date":"2026-08-12","acq_time":941,"confidence":"n","satellite":"N","instrument":"VIIRS","version":"2.0NRT","bright_ti4":301.04,"frp":0.93,"daynight":"N"},"geometry":{"type":"Point","coordinates":[-121.93269,37.45548]}},{"type":"Feature","properties":{"acq_date":"2026-08-12","acq_time":941,"confidence":"n","satellite":"N","instrument":"VIIRS","version":"2.0NRT","bright_ti4":299.26,"frp":1.08,"daynight":"N"},"geometry":{"type":"Point","coordinates":[-122.11515,38.01636]}},{"type":"Feature","properties":{"acq_date":"2026-08-12","acq_time":941,"confidence":"n","satellite":"N","instrument":"VIIRS","version":"2.0NRT","bright_ti4":312.06,"frp":0.86,"daynight":"N"},"geometry":{"type":"Point","coordinates":[-121.39236,38.20774]}},{"type":"Feature","properties":{"acq_date":"2026-08-12","acq_time":941,"confidence":"n","satellite":"N","instrument":"VIIRS","version":"2.0NRT","bright_ti4":306.94,"frp":1.74,"daynight":"N"},"geometry":{"type":"Point","coordinates":[-119.83403,38.40823]}},{"type":"Feature","properties":{"acq_date":"2026-08-12","acq_time":941,"confidence":"n","satellite":"N","instrument":"VIIRS","version":"2.0NRT","bright_ti4":311.13,"frp":1.74,"daynight":"N"},"geometry":{"type":"Point","coordinates":[-119.84008,38.40889]}},{"type":"Feature","properties":{"acq_date":"2026-08-12","acq_time":941,"confidence":"n","satellite":"N","instrument":"VIIRS","version":"2.0NRT","bright_ti4":326.23,"frp":2.61,"daynight":"N"},"geometry":{"type":"Point","coordinates":[-119.83438,38.41058]}},{"type":"Feature","properties":{"acq_date":"2026-08-12","acq_time":941,"confidence":"n","satellite":"N","instrument":"VIIRS","version":"2.0NRT","bright_ti4":333.43,"frp":7.02,"daynight":"N"},"geometry":{"type":"Point","coordinates":[-119.84037,38.41127]}},{"type":"Feature","properties":{"acq_date":"2026-08-12","acq_time":941,"confidence":"n","satellite":"N","instrument":"VIIRS","version":"2.0NRT","bright_ti4":308.75,"frp":6.83,"daynight":"N"},"geometry":{"type":"Point","coordinates":[-119.834,38.41211]}},{"type":"Feature","properties":{"acq_date":"2026-08-12","acq_time":941,"confidence":"n","satellite":"N","instrument":"VIIRS","version":"2.0NRT","bright_ti4":344.25,"frp":6.83,"daynight":"N"},"geometry":{"type":"Point","coordinates":[-119.83994,38.41277]}},{"type":"Feature","properties":{"acq_date":"2026-08-12","acq_time":941,"confidence":"n","satellite":"N","instrument":"VIIRS","version":"2.0NRT","bright_ti4":330.94,"frp":5.86,"daynight":"N"},"geometry":{"type":"Point","coordinates":[-119.8399,38.41512]}},{"type":"Feature","properties":{"acq_date":"2026-08-12","acq_time":941,"confidence":"n","satellite":"N","instrument":"VIIRS","version":"2.0NRT","bright_ti4":299.28,"frp":0.63,"daynight":"N"},"geometry":{"type":"Point","coordinates":[-119.50965,38.77876]}},{"type":"Feature","properties":{"acq_date":"2026-08-12","acq_time":941,"confidence":"n","satellite":"N","instrument":"VIIRS","version":"2.0NRT","bright_ti4":302.31,"frp":0.78,"daynight":"N"},"geometry":{"type":"Point","coordinates":[-119.51573,38.77947]}},{"type":"Feature","properties":{"acq_date":"2026-08-12","acq_time":941,"confidence":"n","satellite":"N","instrument":"VIIRS","version":"2.0NRT","bright_ti4":306.91,"frp":1.81,"daynight":"N"},"geometry":{"type":"Point","coordinates":[-119.51485,38.78323]}},{"type":"Feature","properties":{"acq_date":"2026-08-12","acq_time":941,"confidence":"n","satellite":"N","instrument":"VIIRS","version":"2.0NRT","bright_ti4":338.12,"frp":4.02,"daynight":"N"},"geometry":{"type":"Point","coordinates":[-122.79213,39.09473]}},{"type":"Feature","properties":{"acq_date":"2026-08-12","acq_time":941,"confidence":"n","satellite":"N","instrument":"VIIRS","version":"2.0NRT","bright_ti4":309.11,"frp":4.56,"daynight":"N"},"geometry":{"type":"Point","coordinates":[-122.79833,39.09527]}},{"type":"Feature","properties":{"acq_date":"2026-08-12","acq_time":941,"confidence":"n","satellite":"N","instrument":"VIIRS","version":"2.0NRT","bright_ti4":311.09,"frp":1.79,"daynight":"N"},"geometry":{"type":"Point","coordinates":[-119.26151,39.6199]}},{"type":"Feature","properties":{"acq_date":"2026-08-12","acq_time":941,"confidence":"n","satellite":"N","instrument":"VIIRS","version":"2.0NRT","bright_ti4":339.6,"frp":8.96,"daynight":"N"},"geometry":{"type":"Point","coordinates":[-119.99144,39.73232]}},{"type":"Feature","properties":{"acq_date":"2026-08-12","acq_time":941,"confidence":"n","satellite":"N","instrument":"VIIRS","version":"2.0NRT","bright_ti4":329.18,"frp":7.25,"daynight":"N"},"geometry":{"type":"Point","coordinates":[-119.9987,39.73307]}},{"type":"Feature","properties":{"acq_date":"2026-08-12","acq_time":941,"confidence":"n","satellite":"N","instrument":"VIIRS","version":"2.0NRT","bright_ti4":331.89,"frp":5.58,"daynight":"N"},"geometry":{"type":"Point","coordinates":[-119.99825,39.73701]}},{"type":"Feature","properties":{"acq_date":"2026-08-12","acq_time":941,"confidence":"n","satellite":"N","instrument":"VIIRS","version":"2.0NRT","bright_ti4":302.7,"frp":27.6,"daynight":"N"},"geometry":{"type":"Point","coordinates":[-119.43535,39.7389]}},{"type":"Feature","properties":{"acq_date":"2026-08-12","acq_time":941,"confidence":"n","satellite":"N","instrument":"VIIRS","version":"2.0NRT","bright_ti4":320.87,"frp":27.6,"daynight":"N"},"geometry":{"type":"Point","coordinates":[-119.44086,39.73952]}},{"type":"Feature","properties":{"acq_date":"2026-08-12","acq_time":941,"confidence":"n","satellite":"N","instrument":"VIIRS","version":"2.0NRT","bright_ti4":307.02,"frp":3.95,"daynight":"N"},"geometry":{"type":"Point","coordinates":[-119.99032,39.74018]}},{"type":"Feature","properties":{"acq_date":"2026-08-12","acq_time":941,"confidence":"n","satellite":"N","instrument":"VIIRS","version":"2.0NRT","bright_ti4":329.37,"frp":5.58,"daynight":"N"},"geometry":{"type":"Point","coordinates":[-119.99767,39.74094]}},{"type":"Feature","properties":{"acq_date":"2026-08-12","acq_time":941,"confidence":"n","satellite":"N","instrument":"VIIRS","version":"2.0NRT","bright_ti4":345.21,"frp":27.6,"daynight":"N"},"geometry":{"type":"Point","coordinates":[-119.43468,39.74272]}},{"type":"Feature","properties":{"acq_date":"2026-08-12","acq_time":941,"confidence":"n","satellite":"N","instrument":"VIIRS","version":"2.0NRT","bright_ti4":342.58,"frp":27.6,"daynight":"N"},"geometry":{"type":"Point","coordinates":[-119.44016,39.74334]}},{"type":"Feature","properties":{"acq_date":"2026-08-12","acq_time":941,"confidence":"n","satellite":"N","instrument":"VIIRS","version":"2.0NRT","bright_ti4":329.86,"frp":65.52,"daynight":"N"},"geometry":{"type":"Point","coordinates":[-119.44559,39.74395]}},{"type":"Feature","properties":{"acq_date":"2026-08-12","acq_time":941,"confidence":"n","satellite":"N","instrument":"VIIRS","version":"2.0NRT","bright_ti4":333.3,"frp":65.52,"daynight":"N"},"geometry":{"type":"Point","coordinates":[-119.45094,39.74454]}},{"type":"Feature","properties":{"acq_date":"2026-08-12","acq_time":941,"confidence":"n","satellite":"N","instrument":"VIIRS","version":"2.0NRT","bright_ti4":328.33,"frp":5,"daynight":"N"},"geometry":{"type":"Point","coordinates":[-119.99704,39.74487]}},{"type":"Feature","properties":{"acq_date":"2026-08-12","acq_time":941,"confidence":"n","satellite":"N","instrument":"VIIRS","version":"2.0NRT","bright_ti4":330.01,"frp":16.11,"daynight":"N"},"geometry":{"type":"Point","coordinates":[-119.45638,39.74516]}},{"type":"Feature","properties":{"acq_date":"2026-08-12","acq_time":941,"confidence":"n","satellite":"N","instrument":"VIIRS","version":"2.0NRT","bright_ti4":305.37,"frp":1.23,"daynight":"N"},"geometry":{"type":"Point","coordinates":[-119.43946,39.74715]}},{"type":"Feature","properties":{"acq_date":"2026-08-12","acq_time":941,"confidence":"n","satellite":"N","instrument":"VIIRS","version":"2.0NRT","bright_ti4":303.72,"frp":1.85,"daynight":"N"},"geometry":{"type":"Point","coordinates":[-119.44485,39.74776]}},{"type":"Feature","properties":{"acq_date":"2026-08-12","acq_time":941,"confidence":"n","satellite":"N","instrument":"VIIRS","version":"2.0NRT","bright_ti4":325.61,"frp":1.85,"daynight":"N"},"geometry":{"type":"Point","coordinates":[-119.45021,39.74836]}},{"type":"Feature","properties":{"acq_date":"2026-08-12","acq_time":941,"confidence":"n","satellite":"N","instrument":"VIIRS","version":"2.0NRT","bright_ti4":336.37,"frp":5,"daynight":"N"},"geometry":{"type":"Point","coordinates":[-119.99638,39.7488]}},{"type":"Feature","properties":{"acq_date":"2026-08-12","acq_time":941,"confidence":"n","satellite":"N","instrument":"VIIRS","version":"2.0NRT","bright_ti4":325.1,"frp":4.01,"daynight":"N"},"geometry":{"type":"Point","coordinates":[-119.4556,39.74897]}},{"type":"Feature","properties":{"acq_date":"2026-08-12","acq_time":941,"confidence":"n","satellite":"N","instrument":"VIIRS","version":"2.0NRT","bright_ti4":299.21,"frp":1.23,"daynight":"N"},"geometry":{"type":"Point","coordinates":[-119.43877,39.75097]}},{"type":"Feature","properties":{"acq_date":"2026-08-12","acq_time":941,"confidence":"n","satellite":"N","instrument":"VIIRS","version":"2.0NRT","bright_ti4":300.56,"frp":1.85,"daynight":"N"},"geometry":{"type":"Point","coordinates":[-119.44412,39.75156]}},{"type":"Feature","properties":{"acq_date":"2026-08-12","acq_time":941,"confidence":"n","satellite":"N","instrument":"VIIRS","version":"2.0NRT","bright_ti4":340.24,"frp":9.11,"daynight":"N"},"geometry":{"type":"Point","coordinates":[-119.4269,39.75192]}},{"type":"Feature","properties":{"acq_date":"2026-08-12","acq_time":941,"confidence":"n","satellite":"N","instrument":"VIIRS","version":"2.0NRT","bright_ti4":299.02,"frp":1.85,"daynight":"N"},"geometry":{"type":"Point","coordinates":[-119.4495,39.75217]}},{"type":"Feature","properties":{"acq_date":"2026-08-12","acq_time":941,"confidence":"n","satellite":"N","instrument":"VIIRS","version":"2.0NRT","bright_ti4":342.98,"frp":6.21,"daynight":"N"},"geometry":{"type":"Point","coordinates":[-119.99569,39.75272]}},{"type":"Feature","properties":{"acq_date":"2026-08-12","acq_time":941,"confidence":"n","satellite":"N","instrument":"VIIRS","version":"2.0NRT","bright_ti4":342.52,"frp":9.21,"daynight":"N"},"geometry":{"type":"Point","coordinates":[-119.42719,39.75355]}},{"type":"Feature","properties":{"acq_date":"2026-08-12","acq_time":941,"confidence":"n","satellite":"N","instrument":"VIIRS","version":"2.0NRT","bright_ti4":300.61,"frp":1.92,"daynight":"N"},"geometry":{"type":"Point","coordinates":[-119.4327,39.75417]}},{"type":"Feature","properties":{"acq_date":"2026-08-12","acq_time":941,"confidence":"n","satellite":"N","instrument":"VIIRS","version":"2.0NRT","bright_ti4":344.93,"frp":9.11,"daynight":"N"},"geometry":{"type":"Point","coordinates":[-119.42613,39.75573]}},{"type":"Feature","properties":{"acq_date":"2026-08-12","acq_time":941,"confidence":"n","satellite":"N","instrument":"VIIRS","version":"2.0NRT","bright_ti4":299.46,"frp":1.89,"daynight":"N"},"geometry":{"type":"Point","coordinates":[-119.987,39.7558]}},{"type":"Feature","properties":{"acq_date":"2026-08-12","acq_time":941,"confidence":"n","satellite":"N","instrument":"VIIRS","version":"2.0NRT","bright_ti4":329.81,"frp":6.21,"daynight":"N"},"geometry":{"type":"Point","coordinates":[-119.99488,39.75663]}},{"type":"Feature","properties":{"acq_date":"2026-08-12","acq_time":941,"confidence":"n","satellite":"N","instrument":"VIIRS","version":"2.0NRT","bright_ti4":314.8,"frp":2.16,"daynight":"N"},"geometry":{"type":"Point","coordinates":[-119.47167,39.7568]}},{"type":"Feature","properties":{"acq_date":"2026-08-12","acq_time":941,"confidence":"n","satellite":"N","instrument":"VIIRS","version":"2.0NRT","bright_ti4":306.71,"frp":9.21,"daynight":"N"},"geometry":{"type":"Point","coordinates":[-119.42634,39.75734]}},{"type":"Feature","properties":{"acq_date":"2026-08-12","acq_time":941,"confidence":"n","satellite":"N","instrument":"VIIRS","version":"2.0NRT","bright_ti4":300.26,"frp":6.21,"daynight":"N"},"geometry":{"type":"Point","coordinates":[-120.00176,39.75735]}},{"type":"Feature","properties":{"acq_date":"2026-08-12","acq_time":941,"confidence":"n","satellite":"N","instrument":"VIIRS","version":"2.0NRT","bright_ti4":307.43,"frp":2.16,"daynight":"N"},"geometry":{"type":"Point","coordinates":[-119.47832,39.75751]}},{"type":"Feature","properties":{"acq_date":"2026-08-12","acq_time":941,"confidence":"n","satellite":"N","instrument":"VIIRS","version":"2.0NRT","bright_ti4":303.71,"frp":3.94,"daynight":"N"},"geometry":{"type":"Point","coordinates":[-119.48513,39.75823]}},{"type":"Feature","properties":{"acq_date":"2026-08-12","acq_time":941,"confidence":"n","satellite":"N","instrument":"VIIRS","version":"2.0NRT","bright_ti4":335,"frp":2.46,"daynight":"N"},"geometry":{"type":"Point","coordinates":[-119.47184,39.75859]}},{"type":"Feature","properties":{"acq_date":"2026-08-12","acq_time":941,"confidence":"n","satellite":"N","instrument":"VIIRS","version":"2.0NRT","bright_ti4":302.01,"frp":1.29,"daynight":"N"},"geometry":{"type":"Point","coordinates":[-119.97822,39.75887]}},{"type":"Feature","properties":{"acq_date":"2026-08-12","acq_time":941,"confidence":"n","satellite":"N","instrument":"VIIRS","version":"2.0NRT","bright_ti4":319.98,"frp":4,"daynight":"N"},"geometry":{"type":"Point","coordinates":[-119.47853,39.75935]}},{"type":"Feature","properties":{"acq_date":"2026-08-12","acq_time":941,"confidence":"n","satellite":"N","instrument":"VIIRS","version":"2.0NRT","bright_ti4":311.01,"frp":1.29,"daynight":"N"},"geometry":{"type":"Point","coordinates":[-119.98598,39.75969]}},{"type":"Feature","properties":{"acq_date":"2026-08-12","acq_time":941,"confidence":"n","satellite":"N","instrument":"VIIRS","version":"2.0NRT","bright_ti4":337.85,"frp":4,"daynight":"N"},"geometry":{"type":"Point","coordinates":[-119.48542,39.76013]}},{"type":"Feature","properties":{"acq_date":"2026-08-12","acq_time":941,"confidence":"n","satellite":"N","instrument":"VIIRS","version":"2.0NRT","bright_ti4":320.03,"frp":2.16,"daynight":"N"},"geometry":{"type":"Point","coordinates":[-119.47058,39.76058]}},{"type":"Feature","properties":{"acq_date":"2026-08-12","acq_time":941,"confidence":"n","satellite":"N","instrument":"VIIRS","version":"2.0NRT","bright_ti4":312.16,"frp":2.16,"daynight":"N"},"geometry":{"type":"Point","coordinates":[-119.47737,39.7613]}},{"type":"Feature","properties":{"acq_date":"2026-08-12","acq_time":941,"confidence":"n","satellite":"N","instrument":"VIIRS","version":"2.0NRT","bright_ti4":336.3,"frp":3.94,"daynight":"N"},"geometry":{"type":"Point","coordinates":[-119.48431,39.76204]}},{"type":"Feature","properties":{"acq_date":"2026-08-12","acq_time":941,"confidence":"n","satellite":"N","instrument":"VIIRS","version":"2.0NRT","bright_ti4":296.26,"frp":2.46,"daynight":"N"},"geometry":{"type":"Point","coordinates":[-119.47083,39.76237]}},{"type":"Feature","properties":{"acq_date":"2026-08-12","acq_time":941,"confidence":"n","satellite":"N","instrument":"VIIRS","version":"2.0NRT","bright_ti4":328.25,"frp":3.94,"daynight":"N"},"geometry":{"type":"Point","coordinates":[-119.49121,39.76278]}},{"type":"Feature","properties":{"acq_date":"2026-08-12","acq_time":941,"confidence":"n","satellite":"N","instrument":"VIIRS","version":"2.0NRT","bright_ti4":310.16,"frp":4,"daynight":"N"},"geometry":{"type":"Point","coordinates":[-119.48453,39.76393]}},{"type":"Feature","properties":{"acq_date":"2026-08-12","acq_time":941,"confidence":"n","satellite":"N","instrument":"VIIRS","version":"2.0NRT","bright_ti4":329.68,"frp":5.25,"daynight":"N"},"geometry":{"type":"Point","coordinates":[-119.4914,39.76471]}},{"type":"Feature","properties":{"acq_date":"2026-08-12","acq_time":941,"confidence":"n","satellite":"N","instrument":"VIIRS","version":"2.0NRT","bright_ti4":313.9,"frp":3.59,"daynight":"N"},"geometry":{"type":"Point","coordinates":[-119.49024,39.76657]}},{"type":"Feature","properties":{"acq_date":"2026-08-12","acq_time":941,"confidence":"n","satellite":"N","instrument":"VIIRS","version":"2.0NRT","bright_ti4":300.96,"frp":1.2,"daynight":"N"},"geometry":{"type":"Point","coordinates":[-119.49039,39.7685]}},{"type":"Feature","properties":{"acq_date":"2026-08-12","acq_time":941,"confidence":"n","satellite":"N","instrument":"VIIRS","version":"2.0NRT","bright_ti4":297.23,"frp":1.2,"daynight":"N"},"geometry":{"type":"Point","coordinates":[-119.49706,39.76926]}},{"type":"Feature","properties":{"acq_date":"2026-08-12","acq_time":941,"confidence":"n","satellite":"N","instrument":"VIIRS","version":"2.0NRT","bright_ti4":311.1,"frp":7.6,"daynight":"N"},"geometry":{"type":"Point","coordinates":[-119.45714,39.7708]}},{"type":"Feature","properties":{"acq_date":"2026-08-12","acq_time":941,"confidence":"n","satellite":"N","instrument":"VIIRS","version":"2.0NRT","bright_ti4":297.16,"frp":1.21,"daynight":"N"},"geometry":{"type":"Point","coordinates":[-119.49595,39.77109]}},{"type":"Feature","properties":{"acq_date":"2026-08-12","acq_time":941,"confidence":"n","satellite":"N","instrument":"VIIRS","version":"2.0NRT","bright_ti4":319.4,"frp":5.05,"daynight":"N"},"geometry":{"type":"Point","coordinates":[-119.45131,39.77405]}},{"type":"Feature","properties":{"acq_date":"2026-08-12","acq_time":941,"confidence":"n","satellite":"N","instrument":"VIIRS","version":"2.0NRT","bright_ti4":339.72,"frp":7.6,"daynight":"N"},"geometry":{"type":"Point","coordinates":[-119.45693,39.77467]}},{"type":"Feature","properties":{"acq_date":"2026-08-12","acq_time":941,"confidence":"n","satellite":"N","instrument":"VIIRS","version":"2.0NRT","bright_ti4":309.7,"frp":1.89,"daynight":"N"},"geometry":{"type":"Point","coordinates":[-119.45117,39.77792]}},{"type":"Feature","properties":{"acq_date":"2026-08-12","acq_time":941,"confidence":"n","satellite":"N","instrument":"VIIRS","version":"2.0NRT","bright_ti4":308.64,"frp":3.58,"daynight":"N"},"geometry":{"type":"Point","coordinates":[-119.45677,39.77854]}},{"type":"Feature","properties":{"acq_date":"2026-08-12","acq_time":941,"confidence":"n","satellite":"N","instrument":"VIIRS","version":"2.0NRT","bright_ti4":297.45,"frp":2.28,"daynight":"N"},"geometry":{"type":"Point","coordinates":[-119.98961,39.78004]}},{"type":"Feature","properties":{"acq_date":"2026-08-12","acq_time":941,"confidence":"n","satellite":"N","instrument":"VIIRS","version":"2.0NRT","bright_ti4":323.98,"frp":2.28,"daynight":"N"},"geometry":{"type":"Point","coordinates":[-119.99692,39.78082]}},{"type":"Feature","properties":{"acq_date":"2026-08-12","acq_time":941,"confidence":"n","satellite":"N","instrument":"VIIRS","version":"2.0NRT","bright_ti4":297.16,"frp":1.49,"daynight":"N"},"geometry":{"type":"Point","coordinates":[-119.51392,39.78083]}},{"type":"Feature","properties":{"acq_date":"2026-08-12","acq_time":941,"confidence":"n","satellite":"N","instrument":"VIIRS","version":"2.0NRT","bright_ti4":318.75,"frp":2.8,"daynight":"N"},"geometry":{"type":"Point","coordinates":[-119.53974,39.78752]}},{"type":"Feature","properties":{"acq_date":"2026-08-12","acq_time":941,"confidence":"n","satellite":"N","instrument":"VIIRS","version":"2.0NRT","bright_ti4":314.2,"frp":2.58,"daynight":"N"},"geometry":{"type":"Point","coordinates":[-119.98768,39.78782]}},{"type":"Feature","properties":{"acq_date":"2026-08-12","acq_time":941,"confidence":"n","satellite":"N","instrument":"VIIRS","version":"2.0NRT","bright_ti4":305.29,"frp":1.05,"daynight":"N"},"geometry":{"type":"Point","coordinates":[-119.98664,39.7917]}},{"type":"Feature","properties":{"acq_date":"2026-08-12","acq_time":941,"confidence":"n","satellite":"N","instrument":"VIIRS","version":"2.0NRT","bright_ti4":315,"frp":2.58,"daynight":"N"},"geometry":{"type":"Point","coordinates":[-119.54518,39.79202]}},{"type":"Feature","properties":{"acq_date":"2026-08-12","acq_time":941,"confidence":"n","satellite":"N","instrument":"VIIRS","version":"2.0NRT","bright_ti4":300.4,"frp":2.16,"daynight":"N"},"geometry":{"type":"Point","coordinates":[-119.76123,39.79493]}},{"type":"Feature","properties":{"acq_date":"2026-08-12","acq_time":941,"confidence":"n","satellite":"N","instrument":"VIIRS","version":"2.0NRT","bright_ti4":300.59,"frp":1.95,"daynight":"N"},"geometry":{"type":"Point","coordinates":[-119.76073,39.79539]}},{"type":"Feature","properties":{"acq_date":"2026-08-12","acq_time":941,"confidence":"n","satellite":"N","instrument":"VIIRS","version":"2.0NRT","bright_ti4":299.95,"frp":1.05,"daynight":"N"},"geometry":{"type":"Point","coordinates":[-119.98559,39.79559]}},{"type":"Feature","properties":{"acq_date":"2026-08-12","acq_time":941,"confidence":"n","satellite":"N","instrument":"VIIRS","version":"2.0NRT","bright_ti4":301.54,"frp":1.25,"daynight":"N"},"geometry":{"type":"Point","coordinates":[-119.55985,39.80928]}},{"type":"Feature","properties":{"acq_date":"2026-08-12","acq_time":941,"confidence":"n","satellite":"N","instrument":"VIIRS","version":"2.0NRT","bright_ti4":309.37,"frp":1.57,"daynight":"N"},"geometry":{"type":"Point","coordinates":[-119.96305,39.81254]}},{"type":"Feature","properties":{"acq_date":"2026-08-12","acq_time":941,"confidence":"n","satellite":"N","instrument":"VIIRS","version":"2.0NRT","bright_ti4":301.5,"frp":1.17,"daynight":"N"},"geometry":{"type":"Point","coordinates":[-119.55869,39.81307]}},{"type":"Feature","properties":{"acq_date":"2026-08-12","acq_time":941,"confidence":"n","satellite":"N","instrument":"VIIRS","version":"2.0NRT","bright_ti4":300.35,"frp":1.57,"daynight":"N"},"geometry":{"type":"Point","coordinates":[-119.96856,39.81312]}},{"type":"Feature","properties":{"acq_date":"2026-08-12","acq_time":941,"confidence":"n","satellite":"N","instrument":"VIIRS","version":"2.0NRT","bright_ti4":310.79,"frp":1.3,"daynight":"N"},"geometry":{"type":"Point","coordinates":[-119.96323,39.81313]}},{"type":"Feature","properties":{"acq_date":"2026-08-12","acq_time":941,"confidence":"n","satellite":"N","instrument":"VIIRS","version":"2.0NRT","bright_ti4":302.14,"frp":1.57,"daynight":"N"},"geometry":{"type":"Point","coordinates":[-119.96875,39.81372]}},{"type":"Feature","properties":{"acq_date":"2026-08-12","acq_time":941,"confidence":"n","satellite":"N","instrument":"VIIRS","version":"2.0NRT","bright_ti4":301.8,"frp":1.34,"daynight":"N"},"geometry":{"type":"Point","coordinates":[-119.96288,39.81651]}},{"type":"Feature","properties":{"acq_date":"2026-08-12","acq_time":941,"confidence":"n","satellite":"N","instrument":"VIIRS","version":"2.0NRT","bright_ti4":305.01,"frp":1.17,"daynight":"N"},"geometry":{"type":"Point","coordinates":[-119.55746,39.81686]}},{"type":"Feature","properties":{"acq_date":"2026-08-12","acq_time":941,"confidence":"n","satellite":"N","instrument":"VIIRS","version":"2.0NRT","bright_ti4":309.13,"frp":1.34,"daynight":"N"},"geometry":{"type":"Point","coordinates":[-119.96841,39.81709]}},{"type":"Feature","properties":{"acq_date":"2026-08-12","acq_time":941,"confidence":"n","satellite":"N","instrument":"VIIRS","version":"2.0NRT","bright_ti4":301.64,"frp":1.3,"daynight":"N"},"geometry":{"type":"Point","coordinates":[-119.9631,39.81711]}},{"type":"Feature","properties":{"acq_date":"2026-08-12","acq_time":941,"confidence":"n","satellite":"N","instrument":"VIIRS","version":"2.0NRT","bright_ti4":308.01,"frp":1.57,"daynight":"N"},"geometry":{"type":"Point","coordinates":[-119.96863,39.81771]}},{"type":"Feature","properties":{"acq_date":"2026-08-12","acq_time":941,"confidence":"n","satellite":"N","instrument":"VIIRS","version":"2.0NRT","bright_ti4":302.12,"frp":1.08,"daynight":"N"},"geometry":{"type":"Point","coordinates":[-119.54997,39.81995]}},{"type":"Feature","properties":{"acq_date":"2026-08-12","acq_time":941,"confidence":"n","satellite":"N","instrument":"VIIRS","version":"2.0NRT","bright_ti4":303.09,"frp":1.08,"daynight":"N"},"geometry":{"type":"Point","coordinates":[-119.55624,39.82064]}},{"type":"Feature","properties":{"acq_date":"2026-08-12","acq_time":941,"confidence":"n","satellite":"N","instrument":"VIIRS","version":"2.0NRT","bright_ti4":309.04,"frp":1.34,"daynight":"N"},"geometry":{"type":"Point","coordinates":[-119.96832,39.82106]}},{"type":"Feature","properties":{"acq_date":"2026-08-12","acq_time":941,"confidence":"n","satellite":"N","instrument":"VIIRS","version":"2.0NRT","bright_ti4":306.07,"frp":1.85,"daynight":"N"},"geometry":{"type":"Point","coordinates":[-119.96856,39.82169]}},{"type":"Feature","properties":{"acq_date":"2026-08-12","acq_time":941,"confidence":"n","satellite":"N","instrument":"VIIRS","version":"2.0NRT","bright_ti4":296.05,"frp":0.68,"daynight":"N"},"geometry":{"type":"Point","coordinates":[-119.97392,39.82564]}},{"type":"Feature","properties":{"acq_date":"2026-08-12","acq_time":941,"confidence":"n","satellite":"N","instrument":"VIIRS","version":"2.0NRT","bright_ti4":296.15,"frp":0.68,"daynight":"N"},"geometry":{"type":"Point","coordinates":[-119.97981,39.82625]}},{"type":"Feature","properties":{"acq_date":"2026-08-12","acq_time":941,"confidence":"n","satellite":"N","instrument":"VIIRS","version":"2.0NRT","bright_ti4":334.66,"frp":3.23,"daynight":"N"},"geometry":{"type":"Point","coordinates":[-119.56747,39.8297]}},{"type":"Feature","properties":{"acq_date":"2026-08-12","acq_time":941,"confidence":"n","satellite":"N","instrument":"VIIRS","version":"2.0NRT","bright_ti4":301.44,"frp":3.23,"daynight":"N"},"geometry":{"type":"Point","coordinates":[-119.56673,39.83355]}},{"type":"Feature","properties":{"acq_date":"2026-08-12","acq_time":941,"confidence":"n","satellite":"N","instrument":"VIIRS","version":"2.0NRT","bright_ti4":302.43,"frp":0.93,"daynight":"N"},"geometry":{"type":"Point","coordinates":[-119.57369,39.83431]}},{"type":"Feature","properties":{"acq_date":"2026-08-12","acq_time":941,"confidence":"n","satellite":"N","instrument":"VIIRS","version":"2.0NRT","bright_ti4":336.43,"frp":6.7,"daynight":"N"},"geometry":{"type":"Point","coordinates":[-119.75517,39.83432]}},{"type":"Feature","properties":{"acq_date":"2026-08-12","acq_time":941,"confidence":"n","satellite":"N","instrument":"VIIRS","version":"2.0NRT","bright_ti4":296.46,"frp":0.77,"daynight":"N"},"geometry":{"type":"Point","coordinates":[-119.56483,39.84509]}},{"type":"Feature","properties":{"acq_date":"2026-08-12","acq_time":941,"confidence":"n","satellite":"N","instrument":"VIIRS","version":"2.0NRT","bright_ti4":308.97,"frp":2.13,"daynight":"N"},"geometry":{"type":"Point","coordinates":[-119.57217,39.8459]}},{"type":"Feature","properties":{"acq_date":"2026-08-12","acq_time":941,"confidence":"n","satellite":"N","instrument":"VIIRS","version":"2.0NRT","bright_ti4":325.43,"frp":2.13,"daynight":"N"},"geometry":{"type":"Point","coordinates":[-119.57152,39.84975]}},{"type":"Feature","properties":{"acq_date":"2026-08-12","acq_time":941,"confidence":"n","satellite":"N","instrument":"VIIRS","version":"2.0NRT","bright_ti4":297.2,"frp":1.59,"daynight":"N"},"geometry":{"type":"Point","coordinates":[-119.55171,39.85147]}},{"type":"Feature","properties":{"acq_date":"2026-08-12","acq_time":941,"confidence":"n","satellite":"N","instrument":"VIIRS","version":"2.0NRT","bright_ti4":300.06,"frp":0.96,"daynight":"N"},"geometry":{"type":"Point","coordinates":[-119.56407,39.85284]}},{"type":"Feature","properties":{"acq_date":"2026-08-12","acq_time":941,"confidence":"n","satellite":"N","instrument":"VIIRS","version":"2.0NRT","bright_ti4":314.05,"frp":1.39,"daynight":"N"},"geometry":{"type":"Point","coordinates":[-119.57095,39.85361]}},{"type":"Feature","properties":{"acq_date":"2026-08-12","acq_time":941,"confidence":"n","satellite":"N","instrument":"VIIRS","version":"2.0NRT","bright_ti4":309.11,"frp":2.12,"daynight":"N"},"geometry":{"type":"Point","coordinates":[-119.75661,39.85425]}},{"type":"Feature","properties":{"acq_date":"2026-08-12","acq_time":941,"confidence":"n","satellite":"N","instrument":"VIIRS","version":"2.0NRT","bright_ti4":316.21,"frp":3.39,"daynight":"N"},"geometry":{"type":"Point","coordinates":[-119.76199,39.85483]}},{"type":"Feature","properties":{"acq_date":"2026-08-12","acq_time":941,"confidence":"n","satellite":"N","instrument":"VIIRS","version":"2.0NRT","bright_ti4":303.73,"frp":0.96,"daynight":"N"},"geometry":{"type":"Point","coordinates":[-119.55761,39.85605]}},{"type":"Feature","properties":{"acq_date":"2026-08-12","acq_time":941,"confidence":"n","satellite":"N","instrument":"VIIRS","version":"2.0NRT","bright_ti4":307.17,"frp":0.96,"daynight":"N"},"geometry":{"type":"Point","coordinates":[-119.56393,39.85675]}},{"type":"Feature","properties":{"acq_date":"2026-08-12","acq_time":941,"confidence":"n","satellite":"N","instrument":"VIIRS","version":"2.0NRT","bright_ti4":305.7,"frp":1.39,"daynight":"N"},"geometry":{"type":"Point","coordinates":[-119.57062,39.8575]}},{"type":"Feature","properties":{"acq_date":"2026-08-12","acq_time":941,"confidence":"n","satellite":"N","instrument":"VIIRS","version":"2.0NRT","bright_ti4":302.11,"frp":1.74,"daynight":"N"},"geometry":{"type":"Point","coordinates":[-119.75565,39.8581]}},{"type":"Feature","properties":{"acq_date":"2026-08-12","acq_time":941,"confidence":"n","satellite":"N","instrument":"VIIRS","version":"2.0NRT","bright_ti4":316.68,"frp":2.68,"daynight":"N"},"geometry":{"type":"Point","coordinates":[-119.76093,39.85868]}},{"type":"Feature","properties":{"acq_date":"2026-08-12","acq_time":941,"confidence":"n","satellite":"N","instrument":"VIIRS","version":"2.0NRT","bright_ti4":302.92,"frp":1.32,"daynight":"N"},"geometry":{"type":"Point","coordinates":[-119.55766,39.85998]}},{"type":"Feature","properties":{"acq_date":"2026-08-12","acq_time":941,"confidence":"n","satellite":"N","instrument":"VIIRS","version":"2.0NRT","bright_ti4":311.53,"frp":1.32,"daynight":"N"},"geometry":{"type":"Point","coordinates":[-119.5639,39.86067]}},{"type":"Feature","properties":{"acq_date":"2026-08-12","acq_time":941,"confidence":"n","satellite":"N","instrument":"VIIRS","version":"2.0NRT","bright_ti4":302.17,"frp":2.2,"daynight":"N"},"geometry":{"type":"Point","coordinates":[-119.55177,39.86324]}},{"type":"Feature","properties":{"acq_date":"2026-08-12","acq_time":941,"confidence":"n","satellite":"N","instrument":"VIIRS","version":"2.0NRT","bright_ti4":307.93,"frp":1.32,"daynight":"N"},"geometry":{"type":"Point","coordinates":[-119.55768,39.8639]}},{"type":"Feature","properties":{"acq_date":"2026-08-12","acq_time":941,"confidence":"n","satellite":"N","instrument":"VIIRS","version":"2.0NRT","bright_ti4":311.37,"frp":1.32,"daynight":"N"},"geometry":{"type":"Point","coordinates":[-119.56383,39.86459]}},{"type":"Feature","properties":{"acq_date":"2026-08-12","acq_time":941,"confidence":"n","satellite":"N","instrument":"VIIRS","version":"2.0NRT","bright_ti4":300.99,"frp":1.17,"daynight":"N"},"geometry":{"type":"Point","coordinates":[-119.5576,39.86781]}},{"type":"Feature","properties":{"acq_date":"2026-08-12","acq_time":941,"confidence":"n","satellite":"N","instrument":"VIIRS","version":"2.0NRT","bright_ti4":311.4,"frp":1.17,"daynight":"N"},"geometry":{"type":"Point","coordinates":[-119.56379,39.86851]}},{"type":"Feature","properties":{"acq_date":"2026-08-12","acq_time":941,"confidence":"n","satellite":"N","instrument":"VIIRS","version":"2.0NRT","bright_ti4":301.73,"frp":0.76,"daynight":"N"},"geometry":{"type":"Point","coordinates":[-119.83234,39.87036]}},{"type":"Feature","properties":{"acq_date":"2026-08-12","acq_time":941,"confidence":"n","satellite":"N","instrument":"VIIRS","version":"2.0NRT","bright_ti4":306.8,"frp":1.47,"daynight":"N"},"geometry":{"type":"Point","coordinates":[-119.54537,39.87037]}},{"type":"Feature","properties":{"acq_date":"2026-08-12","acq_time":941,"confidence":"n","satellite":"N","instrument":"VIIRS","version":"2.0NRT","bright_ti4":304.5,"frp":1.47,"daynight":"N"},"geometry":{"type":"Point","coordinates":[-119.55141,39.87105]}},{"type":"Feature","properties":{"acq_date":"2026-08-12","acq_time":941,"confidence":"n","satellite":"N","instrument":"VIIRS","version":"2.0NRT","bright_ti4":302.96,"frp":0.82,"daynight":"N"},"geometry":{"type":"Point","coordinates":[-119.54511,39.87136]}},{"type":"Feature","properties":{"acq_date":"2026-08-12","acq_time":941,"confidence":"n","satellite":"N","instrument":"VIIRS","version":"2.0NRT","bright_ti4":302.33,"frp":1.17,"daynight":"N"},"geometry":{"type":"Point","coordinates":[-119.55745,39.87172]}},{"type":"Feature","properties":{"acq_date":"2026-08-12","acq_time":941,"confidence":"n","satellite":"N","instrument":"VIIRS","version":"2.0NRT","bright_ti4":309.4,"frp":1.3,"daynight":"N"},"geometry":{"type":"Point","coordinates":[-119.55119,39.87201]}},{"type":"Feature","properties":{"acq_date":"2026-08-12","acq_time":941,"confidence":"n","satellite":"N","instrument":"VIIRS","version":"2.0NRT","bright_ti4":301.13,"frp":1.3,"daynight":"N"},"geometry":{"type":"Point","coordinates":[-119.55723,39.87265]}},{"type":"Feature","properties":{"acq_date":"2026-08-12","acq_time":941,"confidence":"n","satellite":"N","instrument":"VIIRS","version":"2.0NRT","bright_ti4":339.39,"frp":11.21,"daynight":"N"},"geometry":{"type":"Point","coordinates":[-119.825,39.87354]}},{"type":"Feature","properties":{"acq_date":"2026-08-12","acq_time":941,"confidence":"n","satellite":"N","instrument":"VIIRS","version":"2.0NRT","bright_ti4":302.03,"frp":11.21,"daynight":"N"},"geometry":{"type":"Point","coordinates":[-119.8315,39.87424]}},{"type":"Feature","properties":{"acq_date":"2026-08-12","acq_time":941,"confidence":"n","satellite":"N","instrument":"VIIRS","version":"2.0NRT","bright_ti4":299.7,"frp":1.52,"daynight":"N"},"geometry":{"type":"Point","coordinates":[-119.54488,39.87424]}},{"type":"Feature","properties":{"acq_date":"2026-08-12","acq_time":941,"confidence":"n","satellite":"N","instrument":"VIIRS","version":"2.0NRT","bright_ti4":313.18,"frp":1.52,"daynight":"N"},"geometry":{"type":"Point","coordinates":[-119.551,39.87492]}},{"type":"Feature","properties":{"acq_date":"2026-08-12","acq_time":941,"confidence":"n","satellite":"N","instrument":"VIIRS","version":"2.0NRT","bright_ti4":300.96,"frp":0.82,"daynight":"N"},"geometry":{"type":"Point","coordinates":[-119.54462,39.87522]}},{"type":"Feature","properties":{"acq_date":"2026-08-12","acq_time":941,"confidence":"n","satellite":"N","instrument":"VIIRS","version":"2.0NRT","bright_ti4":311.7,"frp":1.3,"daynight":"N"},"geometry":{"type":"Point","coordinates":[-119.55073,39.87587]}},{"type":"Feature","properties":{"acq_date":"2026-08-12","acq_time":941,"confidence":"n","satellite":"N","instrument":"VIIRS","version":"2.0NRT","bright_ti4":303.81,"frp":0.97,"daynight":"N"},"geometry":{"type":"Point","coordinates":[-119.74167,39.87635]}},{"type":"Feature","properties":{"acq_date":"2026-08-12","acq_time":941,"confidence":"n","satellite":"N","instrument":"VIIRS","version":"2.0NRT","bright_ti4":302.1,"frp":1.87,"daynight":"N"},"geometry":{"type":"Point","coordinates":[-119.74728,39.87697]}},{"type":"Feature","properties":{"acq_date":"2026-08-12","acq_time":941,"confidence":"n","satellite":"N","instrument":"VIIRS","version":"2.0NRT","bright_ti4":318.84,"frp":11.21,"daynight":"N"},"geometry":{"type":"Point","coordinates":[-119.82408,39.87741]}},{"type":"Feature","properties":{"acq_date":"2026-08-12","acq_time":941,"confidence":"n","satellite":"N","instrument":"VIIRS","version":"2.0NRT","bright_ti4":327.59,"frp":11.21,"daynight":"N"},"geometry":{"type":"Point","coordinates":[-119.83064,39.87812]}},{"type":"Feature","properties":{"acq_date":"2026-08-12","acq_time":941,"confidence":"n","satellite":"N","instrument":"VIIRS","version":"2.0NRT","bright_ti4":300.72,"frp":1.08,"daynight":"N"},"geometry":{"type":"Point","coordinates":[-119.75729,39.88202]}},{"type":"Feature","properties":{"acq_date":"2026-08-12","acq_time":941,"confidence":"n","satellite":"N","instrument":"VIIRS","version":"2.0NRT","bright_ti4":312.28,"frp":1.67,"daynight":"N"},"geometry":{"type":"Point","coordinates":[-119.7399,39.88803]}},{"type":"Feature","properties":{"acq_date":"2026-08-12","acq_time":941,"confidence":"n","satellite":"N","instrument":"VIIRS","version":"2.0NRT","bright_ti4":342.28,"frp":8.39,"daynight":"N"},"geometry":{"type":"Point","coordinates":[-119.79122,39.89365]}},{"type":"Feature","properties":{"acq_date":"2026-08-12","acq_time":941,"confidence":"n","satellite":"N","instrument":"VIIRS","version":"2.0NRT","bright_ti4":320.24,"frp":2.86,"daynight":"N"},"geometry":{"type":"Point","coordinates":[-119.77394,39.90345]}},{"type":"Feature","properties":{"acq_date":"2026-08-12","acq_time":941,"confidence":"n","satellite":"N","instrument":"VIIRS","version":"2.0NRT","bright_ti4":323.24,"frp":2.71,"daynight":"N"},"geometry":{"type":"Point","coordinates":[-119.7739,39.90364]}},{"type":"Feature","properties":{"acq_date":"2026-08-12","acq_time":941,"confidence":"n","satellite":"N","instrument":"VIIRS","version":"2.0NRT","bright_ti4":322.83,"frp":2.86,"daynight":"N"},"geometry":{"type":"Point","coordinates":[-119.77376,39.90739]}},{"type":"Feature","properties":{"acq_date":"2026-08-12","acq_time":941,"confidence":"n","satellite":"N","instrument":"VIIRS","version":"2.0NRT","bright_ti4":320.04,"frp":2.04,"daynight":"N"},"geometry":{"type":"Point","coordinates":[-119.77372,39.90759]}},{"type":"Feature","properties":{"acq_date":"2026-08-12","acq_time":941,"confidence":"n","satellite":"N","instrument":"VIIRS","version":"2.0NRT","bright_ti4":324.55,"frp":3.04,"daynight":"N"},"geometry":{"type":"Point","coordinates":[-123.38768,43.1846]}},{"type":"Feature","properties":{"acq_date":"2026-08-12","acq_time":941,"confidence":"n","satellite":"N","instrument":"VIIRS","version":"2.0NRT","bright_ti4":331.35,"frp":5.31,"daynight":"N"},"geometry":{"type":"Point","coordinates":[-123.38545,43.18772]}},{"type":"Feature","properties":{"acq_date":"2026-08-12","acq_time":941,"confidence":"n","satellite":"N","instrument":"VIIRS","version":"2.0NRT","bright_ti4":319.02,"frp":3.04,"daynight":"N"},"geometry":{"type":"Point","coordinates":[-123.38674,43.18947]}},{"type":"Feature","properties":{"acq_date":"2026-08-12","acq_time":943,"confidence":"n","satellite":"N","instrument":"VIIRS","version":"2.0NRT","bright_ti4":327.07,"frp":1.23,"daynight":"N"},"geometry":{"type":"Point","coordinates":[-114.78484,32.43736]}},{"type":"Feature","properties":{"acq_date":"2026-08-12","acq_time":943,"confidence":"n","satellite":"N","instrument":"VIIRS","version":"2.0NRT","bright_ti4":311.07,"frp":0.53,"daynight":"N"},"geometry":{"type":"Point","coordinates":[-115.511,32.58339]}},{"type":"Feature","properties":{"acq_date":"2026-08-12","acq_time":943,"confidence":"n","satellite":"N","instrument":"VIIRS","version":"2.0NRT","bright_ti4":301.96,"frp":0.55,"daynight":"N"},"geometry":{"type":"Point","coordinates":[-117.14778,32.8587]}},{"type":"Feature","properties":{"acq_date":"2026-08-12","acq_time":943,"confidence":"n","satellite":"N","instrument":"VIIRS","version":"2.0NRT","bright_ti4":299.48,"frp":0.29,"daynight":"N"},"geometry":{"type":"Point","coordinates":[-117.82159,33.6115]}},{"type":"Feature","properties":{"acq_date":"2026-08-12","acq_time":943,"confidence":"n","satellite":"N","instrument":"VIIRS","version":"2.0NRT","bright_ti4":301.2,"frp":0.29,"daynight":"N"},"geometry":{"type":"Point","coordinates":[-117.82094,33.61488]}},{"type":"Feature","properties":{"acq_date":"2026-08-12","acq_time":943,"confidence":"n","satellite":"N","instrument":"VIIRS","version":"2.0NRT","bright_ti4":308.47,"frp":0.81,"daynight":"N"},"geometry":{"type":"Point","coordinates":[-117.25103,33.70679]}},{"type":"Feature","properties":{"acq_date":"2026-08-12","acq_time":943,"confidence":"n","satellite":"N","instrument":"VIIRS","version":"2.0NRT","bright_ti4":307.46,"frp":0.84,"daynight":"N"},"geometry":{"type":"Point","coordinates":[-118.21825,33.77584]}},{"type":"Feature","properties":{"acq_date":"2026-08-12","acq_time":943,"confidence":"n","satellite":"N","instrument":"VIIRS","version":"2.0NRT","bright_ti4":308.23,"frp":0.78,"daynight":"N"},"geometry":{"type":"Point","coordinates":[-117.47293,33.79451]}},{"type":"Feature","properties":{"acq_date":"2026-08-12","acq_time":943,"confidence":"n","satellite":"N","instrument":"VIIRS","version":"2.0NRT","bright_ti4":304.52,"frp":0.78,"daynight":"N"},"geometry":{"type":"Point","coordinates":[-117.4772,33.79514]}},{"type":"Feature","properties":{"acq_date":"2026-08-12","acq_time":943,"confidence":"n","satellite":"N","instrument":"VIIRS","version":"2.0NRT","bright_ti4":302.55,"frp":0.66,"daynight":"N"},"geometry":{"type":"Point","coordinates":[-118.40461,33.90651]}},{"type":"Feature","properties":{"acq_date":"2026-08-12","acq_time":943,"confidence":"n","satellite":"N","instrument":"VIIRS","version":"2.0NRT","bright_ti4":301.35,"frp":0.52,"daynight":"N"},"geometry":{"type":"Point","coordinates":[-117.12296,33.95582]}},{"type":"Feature","properties":{"acq_date":"2026-08-12","acq_time":943,"confidence":"n","satellite":"N","instrument":"VIIRS","version":"2.0NRT","bright_ti4":300.81,"frp":0.35,"daynight":"N"},"geometry":{"type":"Point","coordinates":[-118.10745,34.03541]}},{"type":"Feature","properties":{"acq_date":"2026-08-12","acq_time":943,"confidence":"n","satellite":"N","instrument":"VIIRS","version":"2.0NRT","bright_ti4":302.94,"frp":0.35,"daynight":"N"},"geometry":{"type":"Point","coordinates":[-117.82117,34.04044]}},{"type":"Feature","properties":{"acq_date":"2026-08-12","acq_time":943,"confidence":"n","satellite":"N","instrument":"VIIRS","version":"2.0NRT","bright_ti4":303.55,"frp":0.85,"daynight":"N"},"geometry":{"type":"Point","coordinates":[-117.50314,34.07842]}},{"type":"Feature","properties":{"acq_date":"2026-08-12","acq_time":943,"confidence":"n","satellite":"N","instrument":"VIIRS","version":"2.0NRT","bright_ti4":305.06,"frp":0.7,"daynight":"N"},"geometry":{"type":"Point","coordinates":[-117.92558,34.11434]}},{"type":"Feature","properties":{"acq_date":"2026-08-12","acq_time":943,"confidence":"n","satellite":"N","instrument":"VIIRS","version":"2.0NRT","bright_ti4":308.14,"frp":0.75,"daynight":"N"},"geometry":{"type":"Point","coordinates":[-117.42878,34.14154]}},{"type":"Feature","properties":{"acq_date":"2026-08-12","acq_time":943,"confidence":"n","satellite":"N","instrument":"VIIRS","version":"2.0NRT","bright_ti4":306.92,"frp":0.54,"daynight":"N"},"geometry":{"type":"Point","coordinates":[-118.19553,34.15194]}},{"type":"Feature","properties":{"acq_date":"2026-08-12","acq_time":943,"confidence":"n","satellite":"N","instrument":"VIIRS","version":"2.0NRT","bright_ti4":305.36,"frp":0.54,"daynight":"N"},"geometry":{"type":"Point","coordinates":[-118.1947,34.15534]}},{"type":"Feature","properties":{"acq_date":"2026-08-12","acq_time":943,"confidence":"n","satellite":"N","instrument":"VIIRS","version":"2.0NRT","bright_ti4":304.27,"frp":0.54,"daynight":"N"},"geometry":{"type":"Point","coordinates":[-118.38107,34.24457]}},{"type":"Feature","properties":{"acq_date":"2026-08-12","acq_time":943,"confidence":"n","satellite":"N","instrument":"VIIRS","version":"2.0NRT","bright_ti4":301.71,"frp":0.75,"daynight":"N"},"geometry":{"type":"Point","coordinates":[-118.8028,34.29145]}},{"type":"Feature","properties":{"acq_date":"2026-08-12","acq_time":943,"confidence":"n","satellite":"N","instrument":"VIIRS","version":"2.0NRT","bright_ti4":303.57,"frp":0.76,"daynight":"N"},"geometry":{"type":"Point","coordinates":[-118.51905,34.33264]}},{"type":"Feature","properties":{"acq_date":"2026-08-12","acq_time":943,"confidence":"n","satellite":"N","instrument":"VIIRS","version":"2.0NRT","bright_ti4":317.17,"frp":0.76,"daynight":"N"},"geometry":{"type":"Point","coordinates":[-118.51834,34.33609]}},{"type":"Feature","properties":{"acq_date":"2026-08-12","acq_time":943,"confidence":"n","satellite":"N","instrument":"VIIRS","version":"2.0NRT","bright_ti4":302.81,"frp":0.41,"daynight":"N"},"geometry":{"type":"Point","coordinates":[-116.85167,34.3522]}},{"type":"Feature","properties":{"acq_date":"2026-08-12","acq_time":943,"confidence":"n","satellite":"N","instrument":"VIIRS","version":"2.0NRT","bright_ti4":303.67,"frp":0.41,"daynight":"N"},"geometry":{"type":"Point","coordinates":[-116.85101,34.35552]}},{"type":"Feature","properties":{"acq_date":"2026-08-12","acq_time":943,"confidence":"n","satellite":"N","instrument":"VIIRS","version":"2.0NRT","bright_ti4":312.49,"frp":0.9,"daynight":"N"},"geometry":{"type":"Point","coordinates":[-118.64627,34.42895]}},{"type":"Feature","properties":{"acq_date":"2026-08-12","acq_time":943,"confidence":"n","satellite":"N","instrument":"VIIRS","version":"2.0NRT","bright_ti4":301.02,"frp":0.9,"daynight":"N"},"geometry":{"type":"Point","coordinates":[-118.64549,34.43242]}},{"type":"Feature","properties":{"acq_date":"2026-08-12","acq_time":943,"confidence":"n","satellite":"N","instrument":"VIIRS","version":"2.0NRT","bright_ti4":304.68,"frp":0.45,"daynight":"N"},"geometry":{"type":"Point","coordinates":[-118.15128,34.56726]}},{"type":"Feature","properties":{"acq_date":"2026-08-12","acq_time":943,"confidence":"n","satellite":"N","instrument":"VIIRS","version":"2.0NRT","bright_ti4":308.49,"frp":1.25,"daynight":"N"},"geometry":{"type":"Point","coordinates":[-117.33656,34.6095]}},{"type":"Feature","properties":{"acq_date":"2026-08-12","acq_time":943,"confidence":"n","satellite":"N","instrument":"VIIRS","version":"2.0NRT","bright_ti4":320.67,"frp":2.32,"daynight":"N"},"geometry":{"type":"Point","coordinates":[-117.10084,34.62125]}},{"type":"Feature","properties":{"acq_date":"2026-08-12","acq_time":943,"confidence":"n","satellite":"N","instrument":"VIIRS","version":"2.0NRT","bright_ti4":303.98,"frp":0.39,"daynight":"N"},"geometry":{"type":"Point","coordinates":[-118.74799,34.81999]}},{"type":"Feature","properties":{"acq_date":"2026-08-12","acq_time":943,"confidence":"n","satellite":"N","instrument":"VIIRS","version":"2.0NRT","bright_ti4":317.83,"frp":4,"daynight":"N"},"geometry":{"type":"Point","coordinates":[-117.6365,35.98164]}},{"type":"Feature","properties":{"acq_date":"2026-08-12","acq_time":943,"confidence":"n","satellite":"N","instrument":"VIIRS","version":"2.0NRT","bright_ti4":302.95,"frp":0.94,"daynight":"N"},"geometry":{"type":"Point","coordinates":[-117.64098,35.98226]}},{"type":"Feature","properties":{"acq_date":"2026-08-12","acq_time":943,"confidence":"n","satellite":"N","instrument":"VIIRS","version":"2.0NRT","bright_ti4":342.51,"frp":2.96,"daynight":"N"},"geometry":{"type":"Point","coordinates":[-117.63399,35.98389]}},{"type":"Feature","properties":{"acq_date":"2026-08-12","acq_time":943,"confidence":"n","satellite":"N","instrument":"VIIRS","version":"2.0NRT","bright_ti4":320.13,"frp":2.96,"daynight":"N"},"geometry":{"type":"Point","coordinates":[-117.63845,35.98451]}},{"type":"Feature","properties":{"acq_date":"2026-08-12","acq_time":943,"confidence":"n","satellite":"N","instrument":"VIIRS","version":"2.0NRT","bright_ti4":341.24,"frp":4,"daynight":"N"},"geometry":{"type":"Point","coordinates":[-117.63565,35.98502]}},{"type":"Feature","properties":{"acq_date":"2026-08-12","acq_time":943,"confidence":"n","satellite":"N","instrument":"VIIRS","version":"2.0NRT","bright_ti4":308.38,"frp":0.94,"daynight":"N"},"geometry":{"type":"Point","coordinates":[-117.64012,35.98565]}},{"type":"Feature","properties":{"acq_date":"2026-08-12","acq_time":943,"confidence":"n","satellite":"N","instrument":"VIIRS","version":"2.0NRT","bright_ti4":316.23,"frp":2.96,"daynight":"N"},"geometry":{"type":"Point","coordinates":[-117.63318,35.98729]}},{"type":"Feature","properties":{"acq_date":"2026-08-12","acq_time":943,"confidence":"n","satellite":"N","instrument":"VIIRS","version":"2.0NRT","bright_ti4":336.48,"frp":2.31,"daynight":"N"},"geometry":{"type":"Point","coordinates":[-117.66177,36.00874]}},{"type":"Feature","properties":{"acq_date":"2026-08-12","acq_time":943,"confidence":"n","satellite":"N","instrument":"VIIRS","version":"2.0NRT","bright_ti4":308.43,"frp":2.31,"daynight":"N"},"geometry":{"type":"Point","coordinates":[-117.66093,36.01213]}},{"type":"Feature","properties":{"acq_date":"2026-08-12","acq_time":943,"confidence":"n","satellite":"N","instrument":"VIIRS","version":"2.0NRT","bright_ti4":302.77,"frp":0.46,"daynight":"N"},"geometry":{"type":"Point","coordinates":[-121.70499,36.20428]}},{"type":"Feature","properties":{"acq_date":"2026-08-12","acq_time":943,"confidence":"n","satellite":"N","instrument":"VIIRS","version":"2.0NRT","bright_ti4":314.73,"frp":0.46,"daynight":"N"},"geometry":{"type":"Point","coordinates":[-121.70986,36.20478]}},{"type":"Feature","properties":{"acq_date":"2026-08-12","acq_time":943,"confidence":"n","satellite":"N","instrument":"VIIRS","version":"2.0NRT","bright_ti4":305.55,"frp":2.26,"daynight":"N"},"geometry":{"type":"Point","coordinates":[-121.69787,36.20773]}},{"type":"Feature","properties":{"acq_date":"2026-08-12","acq_time":943,"confidence":"n","satellite":"N","instrument":"VIIRS","version":"2.0NRT","bright_ti4":309.59,"frp":2.56,"daynight":"N"},"geometry":{"type":"Point","coordinates":[-121.70292,36.20824]}},{"type":"Feature","properties":{"acq_date":"2026-08-12","acq_time":943,"confidence":"n","satellite":"N","instrument":"VIIRS","version":"2.0NRT","bright_ti4":303.86,"frp":0.5,"daynight":"N"},"geometry":{"type":"Point","coordinates":[-121.70454,36.22512]}},{"type":"Feature","properties":{"acq_date":"2026-08-12","acq_time":943,"confidence":"n","satellite":"N","instrument":"VIIRS","version":"2.0NRT","bright_ti4":295.3,"frp":1.3,"daynight":"N"},"geometry":{"type":"Point","coordinates":[-121.70919,36.22561]}},{"type":"Feature","properties":{"acq_date":"2026-08-12","acq_time":943,"confidence":"n","satellite":"N","instrument":"VIIRS","version":"2.0NRT","bright_ti4":300.5,"frp":0.5,"daynight":"N"},"geometry":{"type":"Point","coordinates":[-121.70441,36.22929]}},{"type":"Feature","properties":{"acq_date":"2026-08-12","acq_time":943,"confidence":"n","satellite":"N","instrument":"VIIRS","version":"2.0NRT","bright_ti4":322.99,"frp":1.3,"daynight":"N"},"geometry":{"type":"Point","coordinates":[-121.70918,36.22978]}},{"type":"Feature","properties":{"acq_date":"2026-08-12","acq_time":943,"confidence":"n","satellite":"N","instrument":"VIIRS","version":"2.0NRT","bright_ti4":310.44,"frp":1.3,"daynight":"N"},"geometry":{"type":"Point","coordinates":[-121.71389,36.23027]}},{"type":"Feature","properties":{"acq_date":"2026-08-12","acq_time":943,"confidence":"n","satellite":"N","instrument":"VIIRS","version":"2.0NRT","bright_ti4":333.33,"frp":3.42,"daynight":"N"},"geometry":{"type":"Point","coordinates":[-121.71837,36.23074]}},{"type":"Feature","properties":{"acq_date":"2026-08-12","acq_time":943,"confidence":"n","satellite":"N","instrument":"VIIRS","version":"2.0NRT","bright_ti4":327.96,"frp":3.42,"daynight":"N"},"geometry":{"type":"Point","coordinates":[-121.72267,36.23119]}},{"type":"Feature","properties":{"acq_date":"2026-08-12","acq_time":943,"confidence":"n","satellite":"N","instrument":"VIIRS","version":"2.0NRT","bright_ti4":297.52,"frp":0.81,"daynight":"N"},"geometry":{"type":"Point","coordinates":[-121.73112,36.23206]}},{"type":"Feature","properties":{"acq_date":"2026-08-12","acq_time":943,"confidence":"n","satellite":"N","instrument":"VIIRS","version":"2.0NRT","bright_ti4":336.11,"frp":2.77,"daynight":"N"},"geometry":{"type":"Point","coordinates":[-121.7357,36.23254]}},{"type":"Feature","properties":{"acq_date":"2026-08-12","acq_time":943,"confidence":"n","satellite":"N","instrument":"VIIRS","version":"2.0NRT","bright_ti4":311.35,"frp":2.77,"daynight":"N"},"geometry":{"type":"Point","coordinates":[-121.74061,36.23305]}},{"type":"Feature","properties":{"acq_date":"2026-08-12","acq_time":943,"confidence":"n","satellite":"N","instrument":"VIIRS","version":"2.0NRT","bright_ti4":309.04,"frp":1.8,"daynight":"N"},"geometry":{"type":"Point","coordinates":[-121.71821,36.23491]}},{"type":"Feature","properties":{"acq_date":"2026-08-12","acq_time":943,"confidence":"n","satellite":"N","instrument":"VIIRS","version":"2.0NRT","bright_ti4":325.08,"frp":1.8,"daynight":"N"},"geometry":{"type":"Point","coordinates":[-121.72246,36.23534]}},{"type":"Feature","properties":{"acq_date":"2026-08-12","acq_time":943,"confidence":"n","satellite":"N","instrument":"VIIRS","version":"2.0NRT","bright_ti4":322.39,"frp":3.4,"daynight":"N"},"geometry":{"type":"Point","coordinates":[-121.72655,36.23577]}},{"type":"Feature","properties":{"acq_date":"2026-08-12","acq_time":943,"confidence":"n","satellite":"N","instrument":"VIIRS","version":"2.0NRT","bright_ti4":305.05,"frp":3.4,"daynight":"N"},"geometry":{"type":"Point","coordinates":[-121.73077,36.23621]}},{"type":"Feature","properties":{"acq_date":"2026-08-12","acq_time":943,"confidence":"n","satellite":"N","instrument":"VIIRS","version":"2.0NRT","bright_ti4":341.55,"frp":7.62,"daynight":"N"},"geometry":{"type":"Point","coordinates":[-121.73521,36.23668]}},{"type":"Feature","properties":{"acq_date":"2026-08-12","acq_time":943,"confidence":"n","satellite":"N","instrument":"VIIRS","version":"2.0NRT","bright_ti4":333.56,"frp":7.62,"daynight":"N"},"geometry":{"type":"Point","coordinates":[-121.73983,36.23716]}},{"type":"Feature","properties":{"acq_date":"2026-08-12","acq_time":943,"confidence":"n","satellite":"N","instrument":"VIIRS","version":"2.0NRT","bright_ti4":296.55,"frp":1.76,"daynight":"N"},"geometry":{"type":"Point","coordinates":[-121.74458,36.23766]}},{"type":"Feature","properties":{"acq_date":"2026-08-12","acq_time":943,"confidence":"n","satellite":"N","instrument":"VIIRS","version":"2.0NRT","bright_ti4":306.76,"frp":1.58,"daynight":"N"},"geometry":{"type":"Point","coordinates":[-121.75551,36.23879]}},{"type":"Feature","properties":{"acq_date":"2026-08-12","acq_time":943,"confidence":"n","satellite":"N","instrument":"VIIRS","version":"2.0NRT","bright_ti4":301.77,"frp":1.58,"daynight":"N"},"geometry":{"type":"Point","coordinates":[-121.76112,36.23937]}},{"type":"Feature","properties":{"acq_date":"2026-08-12","acq_time":943,"confidence":"n","satellite":"N","instrument":"VIIRS","version":"2.0NRT","bright_ti4":311.33,"frp":1.8,"daynight":"N"},"geometry":{"type":"Point","coordinates":[-121.72236,36.23952]}},{"type":"Feature","properties":{"acq_date":"2026-08-12","acq_time":943,"confidence":"n","satellite":"N","instrument":"VIIRS","version":"2.0NRT","bright_ti4":355.81,"frp":3.4,"daynight":"N"},"geometry":{"type":"Point","coordinates":[-121.72654,36.23996]}},{"type":"Feature","properties":{"acq_date":"2026-08-12","acq_time":943,"confidence":"n","satellite":"N","instrument":"VIIRS","version":"2.0NRT","bright_ti4":307,"frp":3.4,"daynight":"N"},"geometry":{"type":"Point","coordinates":[-121.73084,36.24041]}},{"type":"Feature","properties":{"acq_date":"2026-08-12","acq_time":943,"confidence":"n","satellite":"N","instrument":"VIIRS","version":"2.0NRT","bright_ti4":352.11,"frp":7.62,"daynight":"N"},"geometry":{"type":"Point","coordinates":[-121.73513,36.24085]}},{"type":"Feature","properties":{"acq_date":"2026-08-12","acq_time":943,"confidence":"n","satellite":"N","instrument":"VIIRS","version":"2.0NRT","bright_ti4":347.54,"frp":7.62,"daynight":"N"},"geometry":{"type":"Point","coordinates":[-121.73964,36.24133]}},{"type":"Feature","properties":{"acq_date":"2026-08-12","acq_time":943,"confidence":"n","satellite":"N","instrument":"VIIRS","version":"2.0NRT","bright_ti4":300.81,"frp":1.76,"daynight":"N"},"geometry":{"type":"Point","coordinates":[-121.74434,36.24181]}},{"type":"Feature","properties":{"acq_date":"2026-08-12","acq_time":943,"confidence":"n","satellite":"N","instrument":"VIIRS","version":"2.0NRT","bright_ti4":301.97,"frp":7.21,"daynight":"N"},"geometry":{"type":"Point","coordinates":[-121.73524,36.24506]}},{"type":"Feature","properties":{"acq_date":"2026-08-12","acq_time":943,"confidence":"n","satellite":"N","instrument":"VIIRS","version":"2.0NRT","bright_ti4":356.7,"frp":7.21,"daynight":"N"},"geometry":{"type":"Point","coordinates":[-121.73961,36.24551]}},{"type":"Feature","properties":{"acq_date":"2026-08-12","acq_time":943,"confidence":"n","satellite":"N","instrument":"VIIRS","version":"2.0NRT","bright_ti4":327.04,"frp":6.22,"daynight":"N"},"geometry":{"type":"Point","coordinates":[-121.74431,36.246]}},{"type":"Feature","properties":{"acq_date":"2026-08-12","acq_time":943,"confidence":"n","satellite":"N","instrument":"VIIRS","version":"2.0NRT","bright_ti4":311.23,"frp":1.68,"daynight":"N"},"geometry":{"type":"Point","coordinates":[-123.66116,41.10899]}},{"type":"Feature","properties":{"acq_date":"2026-08-12","acq_time":943,"confidence":"n","satellite":"N","instrument":"VIIRS","version":"2.0NRT","bright_ti4":305.09,"frp":3.25,"daynight":"N"},"geometry":{"type":"Point","coordinates":[-123.66562,41.11156]}},{"type":"Feature","properties":{"acq_date":"2026-08-12","acq_time":943,"confidence":"n","satellite":"N","instrument":"VIIRS","version":"2.0NRT","bright_ti4":298.87,"frp":1.19,"daynight":"N"},"geometry":{"type":"Point","coordinates":[-123.64288,41.12243]}},{"type":"Feature","properties":{"acq_date":"2026-08-12","acq_time":943,"confidence":"n","satellite":"N","instrument":"VIIRS","version":"2.0NRT","bright_ti4":301.79,"frp":1.19,"daynight":"N"},"geometry":{"type":"Point","coordinates":[-123.63966,41.12711]}},{"type":"Feature","properties":{"acq_date":"2026-08-12","acq_time":943,"confidence":"n","satellite":"N","instrument":"VIIRS","version":"2.0NRT","bright_ti4":302.32,"frp":1.7,"daynight":"N"},"geometry":{"type":"Point","coordinates":[-123.64815,41.12768]}},{"type":"Feature","properties":{"acq_date":"2026-08-12","acq_time":943,"confidence":"n","satellite":"N","instrument":"VIIRS","version":"2.0NRT","bright_ti4":318.63,"frp":1.7,"daynight":"N"},"geometry":{"type":"Point","coordinates":[-123.65398,41.12808]}},{"type":"Feature","properties":{"acq_date":"2026-08-12","acq_time":943,"confidence":"n","satellite":"N","instrument":"VIIRS","version":"2.0NRT","bright_ti4":307.01,"frp":7.11,"daynight":"N"},"geometry":{"type":"Point","coordinates":[-123.64613,41.13243]}},{"type":"Feature","properties":{"acq_date":"2026-08-12","acq_time":943,"confidence":"n","satellite":"N","instrument":"VIIRS","version":"2.0NRT","bright_ti4":319.91,"frp":7.11,"daynight":"N"},"geometry":{"type":"Point","coordinates":[-123.6531,41.13292]}},{"type":"Feature","properties":{"acq_date":"2026-08-12","acq_time":943,"confidence":"n","satellite":"N","instrument":"VIIRS","version":"2.0NRT","bright_ti4":300.41,"frp":3.09,"daynight":"N"},"geometry":{"type":"Point","coordinates":[-123.6607,41.13343]}},{"type":"Feature","properties":{"acq_date":"2026-08-12","acq_time":943,"confidence":"n","satellite":"N","instrument":"VIIRS","version":"2.0NRT","bright_ti4":311.77,"frp":7.11,"daynight":"N"},"geometry":{"type":"Point","coordinates":[-123.64357,41.13715]}},{"type":"Feature","properties":{"acq_date":"2026-08-12","acq_time":943,"confidence":"h","satellite":"N","instrument":"VIIRS","version":"2.0NRT","bright_ti4":367,"frp":7.11,"daynight":"N"},"geometry":{"type":"Point","coordinates":[-123.65199,41.13773]}},{"type":"Feature","properties":{"acq_date":"2026-08-12","acq_time":943,"confidence":"n","satellite":"N","instrument":"VIIRS","version":"2.0NRT","bright_ti4":315.7,"frp":3.09,"daynight":"N"},"geometry":{"type":"Point","coordinates":[-123.6608,41.13834]}},{"type":"Feature","properties":{"acq_date":"2026-08-12","acq_time":943,"confidence":"n","satellite":"N","instrument":"VIIRS","version":"2.0NRT","bright_ti4":312.66,"frp":3.09,"daynight":"N"},"geometry":{"type":"Point","coordinates":[-123.6703,41.13898]}},{"type":"Feature","properties":{"acq_date":"2026-08-12","acq_time":943,"confidence":"n","satellite":"N","instrument":"VIIRS","version":"2.0NRT","bright_ti4":309.59,"frp":11.95,"daynight":"N"},"geometry":{"type":"Point","coordinates":[-123.64149,41.1419]}},{"type":"Feature","properties":{"acq_date":"2026-08-12","acq_time":943,"confidence":"n","satellite":"N","instrument":"VIIRS","version":"2.0NRT","bright_ti4":357.28,"frp":11.95,"daynight":"N"},"geometry":{"type":"Point","coordinates":[-123.64966,41.14246]}},{"type":"Feature","properties":{"acq_date":"2026-08-12","acq_time":943,"confidence":"n","satellite":"N","instrument":"VIIRS","version":"2.0NRT","bright_ti4":315.38,"frp":8.23,"daynight":"N"},"geometry":{"type":"Point","coordinates":[-123.65806,41.14304]}},{"type":"Feature","properties":{"acq_date":"2026-08-12","acq_time":943,"confidence":"n","satellite":"N","instrument":"VIIRS","version":"2.0NRT","bright_ti4":302.91,"frp":8.23,"daynight":"N"},"geometry":{"type":"Point","coordinates":[-123.66764,41.1437]}},{"type":"Feature","properties":{"acq_date":"2026-08-12","acq_time":943,"confidence":"h","satellite":"N","instrument":"VIIRS","version":"2.0NRT","bright_ti4":367,"frp":11.95,"daynight":"N"},"geometry":{"type":"Point","coordinates":[-123.6485,41.14728]}},{"type":"Feature","properties":{"acq_date":"2026-08-12","acq_time":943,"confidence":"n","satellite":"N","instrument":"VIIRS","version":"2.0NRT","bright_ti4":356.64,"frp":8.23,"daynight":"N"},"geometry":{"type":"Point","coordinates":[-123.65662,41.14784]}},{"type":"Feature","properties":{"acq_date":"2026-08-12","acq_time":943,"confidence":"n","satellite":"N","instrument":"VIIRS","version":"2.0NRT","bright_ti4":312.28,"frp":8.23,"daynight":"N"},"geometry":{"type":"Point","coordinates":[-123.66544,41.14845]}},{"type":"Feature","properties":{"acq_date":"2026-08-12","acq_time":943,"confidence":"n","satellite":"N","instrument":"VIIRS","version":"2.0NRT","bright_ti4":322.92,"frp":3.71,"daynight":"N"},"geometry":{"type":"Point","coordinates":[-121.55919,42.34127]}},{"type":"Feature","properties":{"acq_date":"2026-08-12","acq_time":943,"confidence":"n","satellite":"N","instrument":"VIIRS","version":"2.0NRT","bright_ti4":299.27,"frp":1.44,"daynight":"N"},"geometry":{"type":"Point","coordinates":[-121.56439,42.34169]}},{"type":"Feature","properties":{"acq_date":"2026-08-12","acq_time":943,"confidence":"n","satellite":"N","instrument":"VIIRS","version":"2.0NRT","bright_ti4":316.3,"frp":1.44,"daynight":"N"},"geometry":{"type":"Point","coordinates":[-121.56387,42.3461]}},{"type":"Feature","properties":{"acq_date":"2026-08-12","acq_time":943,"confidence":"n","satellite":"N","instrument":"VIIRS","version":"2.0NRT","bright_ti4":303.33,"frp":1.44,"daynight":"N"},"geometry":{"type":"Point","coordinates":[-121.5692,42.34654]}},{"type":"Feature","properties":{"acq_date":"2026-08-12","acq_time":943,"confidence":"n","satellite":"N","instrument":"VIIRS","version":"2.0NRT","bright_ti4":303.21,"frp":1.2,"daynight":"N"},"geometry":{"type":"Point","coordinates":[-121.59132,42.34837]}},{"type":"Feature","properties":{"acq_date":"2026-08-12","acq_time":943,"confidence":"n","satellite":"N","instrument":"VIIRS","version":"2.0NRT","bright_ti4":315.71,"frp":2.51,"daynight":"N"},"geometry":{"type":"Point","coordinates":[-121.54742,42.34918]}},{"type":"Feature","properties":{"acq_date":"2026-08-12","acq_time":943,"confidence":"n","satellite":"N","instrument":"VIIRS","version":"2.0NRT","bright_ti4":316.31,"frp":3.4,"daynight":"N"},"geometry":{"type":"Point","coordinates":[-121.5528,42.34962]}},{"type":"Feature","properties":{"acq_date":"2026-08-12","acq_time":943,"confidence":"n","satellite":"N","instrument":"VIIRS","version":"2.0NRT","bright_ti4":309.7,"frp":2.39,"daynight":"N"},"geometry":{"type":"Point","coordinates":[-121.56345,42.35051]}},{"type":"Feature","properties":{"acq_date":"2026-08-12","acq_time":943,"confidence":"n","satellite":"N","instrument":"VIIRS","version":"2.0NRT","bright_ti4":320.95,"frp":2.39,"daynight":"N"},"geometry":{"type":"Point","coordinates":[-121.56876,42.35095]}},{"type":"Feature","properties":{"acq_date":"2026-08-12","acq_time":943,"confidence":"n","satellite":"N","instrument":"VIIRS","version":"2.0NRT","bright_ti4":300.5,"frp":1.03,"daynight":"N"},"geometry":{"type":"Point","coordinates":[-121.57417,42.3514]}},{"type":"Feature","properties":{"acq_date":"2026-08-12","acq_time":943,"confidence":"n","satellite":"N","instrument":"VIIRS","version":"2.0NRT","bright_ti4":296.55,"frp":1.03,"daynight":"N"},"geometry":{"type":"Point","coordinates":[-121.57966,42.35186]}},{"type":"Feature","properties":{"acq_date":"2026-08-12","acq_time":943,"confidence":"n","satellite":"N","instrument":"VIIRS","version":"2.0NRT","bright_ti4":299.38,"frp":2.25,"daynight":"N"},"geometry":{"type":"Point","coordinates":[-121.58514,42.35231]}},{"type":"Feature","properties":{"acq_date":"2026-08-12","acq_time":943,"confidence":"n","satellite":"N","instrument":"VIIRS","version":"2.0NRT","bright_ti4":323.31,"frp":2.25,"daynight":"N"},"geometry":{"type":"Point","coordinates":[-121.59068,42.35277]}},{"type":"Feature","properties":{"acq_date":"2026-08-12","acq_time":943,"confidence":"n","satellite":"N","instrument":"VIIRS","version":"2.0NRT","bright_ti4":323.62,"frp":2.51,"daynight":"N"},"geometry":{"type":"Point","coordinates":[-121.54697,42.35358]}},{"type":"Feature","properties":{"acq_date":"2026-08-12","acq_time":943,"confidence":"n","satellite":"N","instrument":"VIIRS","version":"2.0NRT","bright_ti4":312.21,"frp":3.4,"daynight":"N"},"geometry":{"type":"Point","coordinates":[-121.5523,42.35403]}},{"type":"Feature","properties":{"acq_date":"2026-08-12","acq_time":943,"confidence":"n","satellite":"N","instrument":"VIIRS","version":"2.0NRT","bright_ti4":301.95,"frp":1.03,"daynight":"N"},"geometry":{"type":"Point","coordinates":[-121.57917,42.35627]}},{"type":"Feature","properties":{"acq_date":"2026-08-12","acq_time":943,"confidence":"n","satellite":"N","instrument":"VIIRS","version":"2.0NRT","bright_ti4":296.23,"frp":1.49,"daynight":"N"},"geometry":{"type":"Point","coordinates":[-121.59573,42.35764]}},{"type":"Feature","properties":{"acq_date":"2026-08-12","acq_time":943,"confidence":"n","satellite":"N","instrument":"VIIRS","version":"2.0NRT","bright_ti4":303.9,"frp":1.5,"daynight":"N"},"geometry":{"type":"Point","coordinates":[-121.55195,42.35844]}},{"type":"Feature","properties":{"acq_date":"2026-08-12","acq_time":943,"confidence":"n","satellite":"N","instrument":"VIIRS","version":"2.0NRT","bright_ti4":299.32,"frp":0.64,"daynight":"N"},"geometry":{"type":"Point","coordinates":[-121.57336,42.36024]}},{"type":"Feature","properties":{"acq_date":"2026-08-12","acq_time":943,"confidence":"n","satellite":"N","instrument":"VIIRS","version":"2.0NRT","bright_ti4":300.44,"frp":0.64,"daynight":"N"},"geometry":{"type":"Point","coordinates":[-121.57867,42.36068]}},{"type":"Feature","properties":{"acq_date":"2026-08-12","acq_time":943,"confidence":"n","satellite":"N","instrument":"VIIRS","version":"2.0NRT","bright_ti4":306.33,"frp":0.88,"daynight":"N"},"geometry":{"type":"Point","coordinates":[-121.58961,42.36159]}},{"type":"Feature","properties":{"acq_date":"2026-08-12","acq_time":943,"confidence":"n","satellite":"N","instrument":"VIIRS","version":"2.0NRT","bright_ti4":297.94,"frp":0.64,"daynight":"N"},"geometry":{"type":"Point","coordinates":[-121.57301,42.36465]}},{"type":"Feature","properties":{"acq_date":"2026-08-12","acq_time":943,"confidence":"n","satellite":"N","instrument":"VIIRS","version":"2.0NRT","bright_ti4":297.17,"frp":0.88,"daynight":"N"},"geometry":{"type":"Point","coordinates":[-121.58916,42.36601]}},{"type":"Feature","properties":{"acq_date":"2026-08-12","acq_time":943,"confidence":"n","satellite":"N","instrument":"VIIRS","version":"2.0NRT","bright_ti4":296.33,"frp":1.41,"daynight":"N"},"geometry":{"type":"Point","coordinates":[-121.59459,42.36646]}},{"type":"Feature","properties":{"acq_date":"2026-08-12","acq_time":943,"confidence":"n","satellite":"N","instrument":"VIIRS","version":"2.0NRT","bright_ti4":315.79,"frp":1.55,"daynight":"N"},"geometry":{"type":"Point","coordinates":[-121.54554,42.3668]}},{"type":"Feature","properties":{"acq_date":"2026-08-12","acq_time":943,"confidence":"n","satellite":"N","instrument":"VIIRS","version":"2.0NRT","bright_ti4":303.8,"frp":1.2,"daynight":"N"},"geometry":{"type":"Point","coordinates":[-121.59407,42.37087]}},{"type":"Feature","properties":{"acq_date":"2026-08-12","acq_time":943,"confidence":"n","satellite":"N","instrument":"VIIRS","version":"2.0NRT","bright_ti4":307.69,"frp":1.2,"daynight":"N"},"geometry":{"type":"Point","coordinates":[-121.59942,42.37132]}},{"type":"Feature","properties":{"acq_date":"2026-08-12","acq_time":943,"confidence":"n","satellite":"N","instrument":"VIIRS","version":"2.0NRT","bright_ti4":302.69,"frp":1.2,"daynight":"N"},"geometry":{"type":"Point","coordinates":[-121.59894,42.37573]}},{"type":"Feature","properties":{"acq_date":"2026-08-12","acq_time":943,"confidence":"n","satellite":"N","instrument":"VIIRS","version":"2.0NRT","bright_ti4":311.05,"frp":1.27,"daynight":"N"},"geometry":{"type":"Point","coordinates":[-121.61388,42.39037]}},{"type":"Feature","properties":{"acq_date":"2026-08-12","acq_time":943,"confidence":"n","satellite":"N","instrument":"VIIRS","version":"2.0NRT","bright_ti4":303.37,"frp":1.27,"daynight":"N"},"geometry":{"type":"Point","coordinates":[-121.61933,42.39083]}},{"type":"Feature","properties":{"acq_date":"2026-08-12","acq_time":943,"confidence":"n","satellite":"N","instrument":"VIIRS","version":"2.0NRT","bright_ti4":297.83,"frp":1.17,"daynight":"N"},"geometry":{"type":"Point","coordinates":[-121.63018,42.39174]}},{"type":"Feature","properties":{"acq_date":"2026-08-12","acq_time":943,"confidence":"n","satellite":"N","instrument":"VIIRS","version":"2.0NRT","bright_ti4":297.18,"frp":1.27,"daynight":"N"},"geometry":{"type":"Point","coordinates":[-121.61904,42.39527]}},{"type":"Feature","properties":{"acq_date":"2026-08-12","acq_time":943,"confidence":"n","satellite":"N","instrument":"VIIRS","version":"2.0NRT","bright_ti4":299,"frp":0.83,"daynight":"N"},"geometry":{"type":"Point","coordinates":[-121.64462,42.4019]}},{"type":"Feature","properties":{"acq_date":"2026-08-12","acq_time":943,"confidence":"n","satellite":"N","instrument":"VIIRS","version":"2.0NRT","bright_ti4":296.27,"frp":0.83,"daynight":"N"},"geometry":{"type":"Point","coordinates":[-121.64923,42.40676]}},{"type":"Feature","properties":{"acq_date":"2026-08-12","acq_time":943,"confidence":"n","satellite":"N","instrument":"VIIRS","version":"2.0NRT","bright_ti4":313.91,"frp":3.06,"daynight":"N"},"geometry":{"type":"Point","coordinates":[-121.67549,42.41345]}},{"type":"Feature","properties":{"acq_date":"2026-08-12","acq_time":943,"confidence":"n","satellite":"N","instrument":"VIIRS","version":"2.0NRT","bright_ti4":296.67,"frp":0.73,"daynight":"N"},"geometry":{"type":"Point","coordinates":[-121.69362,42.41498]}},{"type":"Feature","properties":{"acq_date":"2026-08-12","acq_time":943,"confidence":"n","satellite":"N","instrument":"VIIRS","version":"2.0NRT","bright_ti4":300.1,"frp":1.28,"daynight":"N"},"geometry":{"type":"Point","coordinates":[-121.65405,42.4161]}},{"type":"Feature","properties":{"acq_date":"2026-08-12","acq_time":943,"confidence":"n","satellite":"N","instrument":"VIIRS","version":"2.0NRT","bright_ti4":301.91,"frp":0.73,"daynight":"N"},"geometry":{"type":"Point","coordinates":[-121.6925,42.41937]}},{"type":"Feature","properties":{"acq_date":"2026-08-12","acq_time":943,"confidence":"n","satellite":"N","instrument":"VIIRS","version":"2.0NRT","bright_ti4":299.23,"frp":1.47,"daynight":"N"},"geometry":{"type":"Point","coordinates":[-121.66508,42.4245]}},{"type":"Feature","properties":{"acq_date":"2026-08-12","acq_time":943,"confidence":"n","satellite":"N","instrument":"VIIRS","version":"2.0NRT","bright_ti4":297.81,"frp":1.07,"daynight":"N"},"geometry":{"type":"Point","coordinates":[-121.66528,42.42601]}},{"type":"Feature","properties":{"acq_date":"2026-08-12","acq_time":943,"confidence":"n","satellite":"N","instrument":"VIIRS","version":"2.0NRT","bright_ti4":305.5,"frp":1.92,"daynight":"N"},"geometry":{"type":"Point","coordinates":[-121.68111,42.43026]}},{"type":"Feature","properties":{"acq_date":"2026-08-12","acq_time":943,"confidence":"n","satellite":"N","instrument":"VIIRS","version":"2.0NRT","bright_ti4":304.92,"frp":1.18,"daynight":"N"},"geometry":{"type":"Point","coordinates":[-121.68111,42.43184]}},{"type":"Feature","properties":{"acq_date":"2026-08-12","acq_time":1121,"confidence":"n","satellite":"N","instrument":"VIIRS","version":"2.0NRT","bright_ti4":302.05,"frp":2.05,"daynight":"N"},"geometry":{"type":"Point","coordinates":[-123.63813,41.12847]}},{"type":"Feature","properties":{"acq_date":"2026-08-12","acq_time":1121,"confidence":"n","satellite":"N","instrument":"VIIRS","version":"2.0NRT","bright_ti4":301.77,"frp":3.68,"daynight":"N"},"geometry":{"type":"Point","coordinates":[-123.63837,41.12883]}},{"type":"Feature","properties":{"acq_date":"2026-08-12","acq_time":1121,"confidence":"n","satellite":"N","instrument":"VIIRS","version":"2.0NRT","bright_ti4":307.46,"frp":2.05,"daynight":"N"},"geometry":{"type":"Point","coordinates":[-123.64249,41.1298]}},{"type":"Feature","properties":{"acq_date":"2026-08-12","acq_time":1121,"confidence":"n","satellite":"N","instrument":"VIIRS","version":"2.0NRT","bright_ti4":306.84,"frp":5.28,"daynight":"N"},"geometry":{"type":"Point","coordinates":[-123.64272,41.13018]}},{"type":"Feature","properties":{"acq_date":"2026-08-12","acq_time":1121,"confidence":"n","satellite":"N","instrument":"VIIRS","version":"2.0NRT","bright_ti4":320.26,"frp":5.18,"daynight":"N"},"geometry":{"type":"Point","coordinates":[-123.64761,41.13136]}},{"type":"Feature","properties":{"acq_date":"2026-08-12","acq_time":1121,"confidence":"n","satellite":"N","instrument":"VIIRS","version":"2.0NRT","bright_ti4":320.26,"frp":5.28,"daynight":"N"},"geometry":{"type":"Point","coordinates":[-123.64795,41.13179]}},{"type":"Feature","properties":{"acq_date":"2026-08-12","acq_time":1121,"confidence":"n","satellite":"N","instrument":"VIIRS","version":"2.0NRT","bright_ti4":332.58,"frp":5.18,"daynight":"N"},"geometry":{"type":"Point","coordinates":[-123.65391,41.13327]}},{"type":"Feature","properties":{"acq_date":"2026-08-12","acq_time":1121,"confidence":"n","satellite":"N","instrument":"VIIRS","version":"2.0NRT","bright_ti4":334.41,"frp":9.25,"daynight":"N"},"geometry":{"type":"Point","coordinates":[-123.65403,41.13368]}},{"type":"Feature","properties":{"acq_date":"2026-08-12","acq_time":1121,"confidence":"n","satellite":"N","instrument":"VIIRS","version":"2.0NRT","bright_ti4":328.62,"frp":5.01,"daynight":"N"},"geometry":{"type":"Point","coordinates":[-123.65884,41.13477]}},{"type":"Feature","properties":{"acq_date":"2026-08-12","acq_time":1121,"confidence":"n","satellite":"N","instrument":"VIIRS","version":"2.0NRT","bright_ti4":338.37,"frp":9.25,"daynight":"N"},"geometry":{"type":"Point","coordinates":[-123.65884,41.13517]}},{"type":"Feature","properties":{"acq_date":"2026-08-12","acq_time":1121,"confidence":"n","satellite":"N","instrument":"VIIRS","version":"2.0NRT","bright_ti4":313.42,"frp":5.01,"daynight":"N"},"geometry":{"type":"Point","coordinates":[-123.66287,41.136]}},{"type":"Feature","properties":{"acq_date":"2026-08-12","acq_time":1121,"confidence":"n","satellite":"N","instrument":"VIIRS","version":"2.0NRT","bright_ti4":315.47,"frp":5.13,"daynight":"N"},"geometry":{"type":"Point","coordinates":[-123.66283,41.13641]}},{"type":"Feature","properties":{"acq_date":"2026-08-12","acq_time":1121,"confidence":"n","satellite":"N","instrument":"VIIRS","version":"2.0NRT","bright_ti4":311.59,"frp":6.49,"daynight":"N"},"geometry":{"type":"Point","coordinates":[-123.64235,41.13641]}},{"type":"Feature","properties":{"acq_date":"2026-08-12","acq_time":1121,"confidence":"n","satellite":"N","instrument":"VIIRS","version":"2.0NRT","bright_ti4":311.74,"frp":5.28,"daynight":"N"},"geometry":{"type":"Point","coordinates":[-123.64262,41.13682]}},{"type":"Feature","properties":{"acq_date":"2026-08-12","acq_time":1121,"confidence":"n","satellite":"N","instrument":"VIIRS","version":"2.0NRT","bright_ti4":353.37,"frp":10.6,"daynight":"N"},"geometry":{"type":"Point","coordinates":[-123.64741,41.13794]}},{"type":"Feature","properties":{"acq_date":"2026-08-12","acq_time":1121,"confidence":"n","satellite":"N","instrument":"VIIRS","version":"2.0NRT","bright_ti4":357.14,"frp":5.28,"daynight":"N"},"geometry":{"type":"Point","coordinates":[-123.64768,41.13838]}},{"type":"Feature","properties":{"acq_date":"2026-08-12","acq_time":1121,"confidence":"n","satellite":"N","instrument":"VIIRS","version":"2.0NRT","bright_ti4":349.76,"frp":10.6,"daynight":"N"},"geometry":{"type":"Point","coordinates":[-123.65228,41.13943]}},{"type":"Feature","properties":{"acq_date":"2026-08-12","acq_time":1121,"confidence":"n","satellite":"N","instrument":"VIIRS","version":"2.0NRT","bright_ti4":343.83,"frp":9.25,"daynight":"N"},"geometry":{"type":"Point","coordinates":[-123.65256,41.1399]}},{"type":"Feature","properties":{"acq_date":"2026-08-12","acq_time":1121,"confidence":"n","satellite":"N","instrument":"VIIRS","version":"2.0NRT","bright_ti4":340.23,"frp":15.53,"daynight":"N"},"geometry":{"type":"Point","coordinates":[-123.65719,41.14092]}},{"type":"Feature","properties":{"acq_date":"2026-08-12","acq_time":1121,"confidence":"n","satellite":"N","instrument":"VIIRS","version":"2.0NRT","bright_ti4":338.63,"frp":9.25,"daynight":"N"},"geometry":{"type":"Point","coordinates":[-123.65753,41.14143]}},{"type":"Feature","properties":{"acq_date":"2026-08-12","acq_time":1121,"confidence":"n","satellite":"N","instrument":"VIIRS","version":"2.0NRT","bright_ti4":312.09,"frp":15.53,"daynight":"N"},"geometry":{"type":"Point","coordinates":[-123.6621,41.14241]}},{"type":"Feature","properties":{"acq_date":"2026-08-12","acq_time":1121,"confidence":"n","satellite":"N","instrument":"VIIRS","version":"2.0NRT","bright_ti4":327.91,"frp":6.49,"daynight":"N"},"geometry":{"type":"Point","coordinates":[-123.64169,41.14285]}},{"type":"Feature","properties":{"acq_date":"2026-08-12","acq_time":1121,"confidence":"n","satellite":"N","instrument":"VIIRS","version":"2.0NRT","bright_ti4":329.14,"frp":5.13,"daynight":"N"},"geometry":{"type":"Point","coordinates":[-123.66243,41.14296]}},{"type":"Feature","properties":{"acq_date":"2026-08-12","acq_time":1121,"confidence":"n","satellite":"N","instrument":"VIIRS","version":"2.0NRT","bright_ti4":321.93,"frp":6.65,"daynight":"N"},"geometry":{"type":"Point","coordinates":[-123.64194,41.14328]}},{"type":"Feature","properties":{"acq_date":"2026-08-12","acq_time":1121,"confidence":"n","satellite":"N","instrument":"VIIRS","version":"2.0NRT","bright_ti4":299.24,"frp":9.08,"daynight":"N"},"geometry":{"type":"Point","coordinates":[-123.66637,41.14371]}},{"type":"Feature","properties":{"acq_date":"2026-08-12","acq_time":1121,"confidence":"n","satellite":"N","instrument":"VIIRS","version":"2.0NRT","bright_ti4":302.91,"frp":5.13,"daynight":"N"},"geometry":{"type":"Point","coordinates":[-123.66661,41.14425]}},{"type":"Feature","properties":{"acq_date":"2026-08-12","acq_time":1121,"confidence":"n","satellite":"N","instrument":"VIIRS","version":"2.0NRT","bright_ti4":352.19,"frp":10.6,"daynight":"N"},"geometry":{"type":"Point","coordinates":[-123.64684,41.14441]}},{"type":"Feature","properties":{"acq_date":"2026-08-12","acq_time":1121,"confidence":"n","satellite":"N","instrument":"VIIRS","version":"2.0NRT","bright_ti4":308.62,"frp":9.08,"daynight":"N"},"geometry":{"type":"Point","coordinates":[-123.67015,41.14486]}},{"type":"Feature","properties":{"acq_date":"2026-08-12","acq_time":1121,"confidence":"n","satellite":"N","instrument":"VIIRS","version":"2.0NRT","bright_ti4":350.47,"frp":6.65,"daynight":"N"},"geometry":{"type":"Point","coordinates":[-123.64703,41.14486]}},{"type":"Feature","properties":{"acq_date":"2026-08-12","acq_time":1121,"confidence":"n","satellite":"N","instrument":"VIIRS","version":"2.0NRT","bright_ti4":308.07,"frp":1.49,"daynight":"N"},"geometry":{"type":"Point","coordinates":[-123.67033,41.14539]}},{"type":"Feature","properties":{"acq_date":"2026-08-12","acq_time":1121,"confidence":"n","satellite":"N","instrument":"VIIRS","version":"2.0NRT","bright_ti4":332.53,"frp":10.6,"daynight":"N"},"geometry":{"type":"Point","coordinates":[-123.65144,41.14582]}},{"type":"Feature","properties":{"acq_date":"2026-08-12","acq_time":1121,"confidence":"n","satellite":"N","instrument":"VIIRS","version":"2.0NRT","bright_ti4":303.31,"frp":1.73,"daynight":"N"},"geometry":{"type":"Point","coordinates":[-123.67371,41.14594]}},{"type":"Feature","properties":{"acq_date":"2026-08-12","acq_time":1121,"confidence":"n","satellite":"N","instrument":"VIIRS","version":"2.0NRT","bright_ti4":331.27,"frp":10.99,"daynight":"N"},"geometry":{"type":"Point","coordinates":[-123.65159,41.14626]}},{"type":"Feature","properties":{"acq_date":"2026-08-12","acq_time":1121,"confidence":"n","satellite":"N","instrument":"VIIRS","version":"2.0NRT","bright_ti4":302.69,"frp":1.49,"daynight":"N"},"geometry":{"type":"Point","coordinates":[-123.67383,41.14648]}},{"type":"Feature","properties":{"acq_date":"2026-08-12","acq_time":1121,"confidence":"n","satellite":"N","instrument":"VIIRS","version":"2.0NRT","bright_ti4":333.87,"frp":15.53,"daynight":"N"},"geometry":{"type":"Point","coordinates":[-123.65629,41.14729]}},{"type":"Feature","properties":{"acq_date":"2026-08-12","acq_time":1121,"confidence":"n","satellite":"N","instrument":"VIIRS","version":"2.0NRT","bright_ti4":334.16,"frp":10.99,"daynight":"N"},"geometry":{"type":"Point","coordinates":[-123.65639,41.14775]}},{"type":"Feature","properties":{"acq_date":"2026-08-12","acq_time":1121,"confidence":"h","satellite":"N","instrument":"VIIRS","version":"2.0NRT","bright_ti4":367,"frp":15.53,"daynight":"N"},"geometry":{"type":"Point","coordinates":[-123.66112,41.14875]}},{"type":"Feature","properties":{"acq_date":"2026-08-12","acq_time":1121,"confidence":"h","satellite":"N","instrument":"VIIRS","version":"2.0NRT","bright_ti4":367,"frp":22.49,"daynight":"N"},"geometry":{"type":"Point","coordinates":[-123.66122,41.14924]}},{"type":"Feature","properties":{"acq_date":"2026-08-12","acq_time":1121,"confidence":"n","satellite":"N","instrument":"VIIRS","version":"2.0NRT","bright_ti4":314.88,"frp":9.08,"daynight":"N"},"geometry":{"type":"Point","coordinates":[-123.66516,41.14998]}},{"type":"Feature","properties":{"acq_date":"2026-08-12","acq_time":1121,"confidence":"n","satellite":"N","instrument":"VIIRS","version":"2.0NRT","bright_ti4":323.55,"frp":22.49,"daynight":"N"},"geometry":{"type":"Point","coordinates":[-123.66526,41.15049]}},{"type":"Feature","properties":{"acq_date":"2026-08-12","acq_time":1121,"confidence":"n","satellite":"N","instrument":"VIIRS","version":"2.0NRT","bright_ti4":320.47,"frp":3.63,"daynight":"N"},"geometry":{"type":"Point","coordinates":[-121.5508,42.34714]}},{"type":"Feature","properties":{"acq_date":"2026-08-12","acq_time":1121,"confidence":"n","satellite":"N","instrument":"VIIRS","version":"2.0NRT","bright_ti4":326.22,"frp":5.52,"daynight":"N"},"geometry":{"type":"Point","coordinates":[-121.55256,42.3482]}},{"type":"Feature","properties":{"acq_date":"2026-08-12","acq_time":1121,"confidence":"n","satellite":"N","instrument":"VIIRS","version":"2.0NRT","bright_ti4":300.53,"frp":4.58,"daynight":"N"},"geometry":{"type":"Point","coordinates":[-121.55861,42.34965]}},{"type":"Feature","properties":{"acq_date":"2026-08-12","acq_time":1121,"confidence":"n","satellite":"N","instrument":"VIIRS","version":"2.0NRT","bright_ti4":296.53,"frp":2.25,"daynight":"N"},"geometry":{"type":"Point","coordinates":[-121.58727,42.35242]}},{"type":"Feature","properties":{"acq_date":"2026-08-12","acq_time":1121,"confidence":"n","satellite":"N","instrument":"VIIRS","version":"2.0NRT","bright_ti4":296.04,"frp":2.19,"daynight":"N"},"geometry":{"type":"Point","coordinates":[-121.59293,42.35354]}},{"type":"Feature","properties":{"acq_date":"2026-08-12","acq_time":1121,"confidence":"n","satellite":"N","instrument":"VIIRS","version":"2.0NRT","bright_ti4":296.47,"frp":0.72,"daynight":"N"},"geometry":{"type":"Point","coordinates":[-121.54604,42.36748]}},{"type":"Feature","properties":{"acq_date":"2026-08-12","acq_time":1121,"confidence":"n","satellite":"N","instrument":"VIIRS","version":"2.0NRT","bright_ti4":296.28,"frp":0.98,"daynight":"N"},"geometry":{"type":"Point","coordinates":[-121.60074,42.37106]}},{"type":"Feature","properties":{"acq_date":"2026-08-12","acq_time":1121,"confidence":"n","satellite":"N","instrument":"VIIRS","version":"2.0NRT","bright_ti4":295.29,"frp":0.94,"daynight":"N"},"geometry":{"type":"Point","coordinates":[-121.67271,42.41574]}},{"type":"Feature","properties":{"acq_date":"2026-08-12","acq_time":1121,"confidence":"n","satellite":"N","instrument":"VIIRS","version":"2.0NRT","bright_ti4":308.84,"frp":2.21,"daynight":"N"},"geometry":{"type":"Point","coordinates":[-121.6954,42.41602]}},{"type":"Feature","properties":{"acq_date":"2026-08-12","acq_time":1121,"confidence":"n","satellite":"N","instrument":"VIIRS","version":"2.0NRT","bright_ti4":313.4,"frp":3.18,"daynight":"N"},"geometry":{"type":"Point","coordinates":[-121.70088,42.41779]}}]}