{"type":"FeatureCollection","name":"FIRMS VIIRS CA (last 1 day)","crs":{"type":"name","properties":{"name":"EPSG:4326"}},"fetched_at_utc":"2026-08-29T17:35:41.207Z","source":{"url":"https://firms.modaps.eosdis.nasa.gov/api/area/csv/8c4af552cf654445dd280dfb3ad9337c/VIIRS_SNPP_NRT/-125,32,-113,43.5/1","dataset":"VIIRS_SNPP_NRT","bbox":"-125,32,-113,43.5","day_range":"1"},"features":[{"type":"Feature","properties":{"acq_date":"2026-08-29","acq_time":922,"confidence":"n","satellite":"N","instrument":"VIIRS","version":"2.0NRT","bright_ti4":316.55,"frp":3.61,"daynight":"N"},"geometry":{"type":"Point","coordinates":[-117.64043,41.65993]}},{"type":"Feature","properties":{"acq_date":"2026-08-29","acq_time":922,"confidence":"n","satellite":"N","instrument":"VIIRS","version":"2.0NRT","bright_ti4":315.29,"frp":3.16,"daynight":"N"},"geometry":{"type":"Point","coordinates":[-117.64133,41.66052]}},{"type":"Feature","properties":{"acq_date":"2026-08-29","acq_time":922,"confidence":"n","satellite":"N","instrument":"VIIRS","version":"2.0NRT","bright_ti4":319.37,"frp":3.63,"daynight":"N"},"geometry":{"type":"Point","coordinates":[-117.63596,41.67345]}},{"type":"Feature","properties":{"acq_date":"2026-08-29","acq_time":922,"confidence":"n","satellite":"N","instrument":"VIIRS","version":"2.0NRT","bright_ti4":317.77,"frp":2.11,"daynight":"N"},"geometry":{"type":"Point","coordinates":[-117.63693,41.67401]}},{"type":"Feature","properties":{"acq_date":"2026-08-29","acq_time":922,"confidence":"n","satellite":"N","instrument":"VIIRS","version":"2.0NRT","bright_ti4":304.84,"frp":1.39,"daynight":"N"},"geometry":{"type":"Point","coordinates":[-117.67638,41.67649]}},{"type":"Feature","properties":{"acq_date":"2026-08-29","acq_time":922,"confidence":"n","satellite":"N","instrument":"VIIRS","version":"2.0NRT","bright_ti4":301.4,"frp":2.65,"daynight":"N"},"geometry":{"type":"Point","coordinates":[-117.67044,41.67674]}},{"type":"Feature","properties":{"acq_date":"2026-08-29","acq_time":922,"confidence":"n","satellite":"N","instrument":"VIIRS","version":"2.0NRT","bright_ti4":303.64,"frp":2.13,"daynight":"N"},"geometry":{"type":"Point","coordinates":[-117.63449,41.67796]}},{"type":"Feature","properties":{"acq_date":"2026-08-29","acq_time":922,"confidence":"n","satellite":"N","instrument":"VIIRS","version":"2.0NRT","bright_ti4":315.82,"frp":2.63,"daynight":"N"},"geometry":{"type":"Point","coordinates":[-117.69672,41.67801]}},{"type":"Feature","properties":{"acq_date":"2026-08-29","acq_time":922,"confidence":"n","satellite":"N","instrument":"VIIRS","version":"2.0NRT","bright_ti4":302.97,"frp":1.49,"daynight":"N"},"geometry":{"type":"Point","coordinates":[-117.69118,41.67843]}},{"type":"Feature","properties":{"acq_date":"2026-08-29","acq_time":922,"confidence":"n","satellite":"N","instrument":"VIIRS","version":"2.0NRT","bright_ti4":300.74,"frp":2.11,"daynight":"N"},"geometry":{"type":"Point","coordinates":[-117.63561,41.67852]}},{"type":"Feature","properties":{"acq_date":"2026-08-29","acq_time":922,"confidence":"n","satellite":"N","instrument":"VIIRS","version":"2.0NRT","bright_ti4":295.24,"frp":2.21,"daynight":"N"},"geometry":{"type":"Point","coordinates":[-117.69786,41.67897]}},{"type":"Feature","properties":{"acq_date":"2026-08-29","acq_time":922,"confidence":"n","satellite":"N","instrument":"VIIRS","version":"2.0NRT","bright_ti4":306.33,"frp":1.49,"daynight":"N"},"geometry":{"type":"Point","coordinates":[-117.68427,41.6825]}},{"type":"Feature","properties":{"acq_date":"2026-08-29","acq_time":922,"confidence":"n","satellite":"N","instrument":"VIIRS","version":"2.0NRT","bright_ti4":320.47,"frp":4.03,"daynight":"N"},"geometry":{"type":"Point","coordinates":[-117.68305,41.68624]}},{"type":"Feature","properties":{"acq_date":"2026-08-29","acq_time":922,"confidence":"n","satellite":"N","instrument":"VIIRS","version":"2.0NRT","bright_ti4":309.6,"frp":0.74,"daynight":"N"},"geometry":{"type":"Point","coordinates":[-115.66669,43.14615]}},{"type":"Feature","properties":{"acq_date":"2026-08-29","acq_time":922,"confidence":"n","satellite":"N","instrument":"VIIRS","version":"2.0NRT","bright_ti4":300.85,"frp":1.04,"daynight":"N"},"geometry":{"type":"Point","coordinates":[-115.73614,43.17805]}},{"type":"Feature","properties":{"acq_date":"2026-08-29","acq_time":924,"confidence":"n","satellite":"N","instrument":"VIIRS","version":"2.0NRT","bright_ti4":313.29,"frp":1.21,"daynight":"N"},"geometry":{"type":"Point","coordinates":[-118.19298,34.15347]}},{"type":"Feature","properties":{"acq_date":"2026-08-29","acq_time":924,"confidence":"n","satellite":"N","instrument":"VIIRS","version":"2.0NRT","bright_ti4":312.8,"frp":1.22,"daynight":"N"},"geometry":{"type":"Point","coordinates":[-118.51837,34.33599]}},{"type":"Feature","properties":{"acq_date":"2026-08-29","acq_time":924,"confidence":"n","satellite":"N","instrument":"VIIRS","version":"2.0NRT","bright_ti4":305.74,"frp":1.57,"daynight":"N"},"geometry":{"type":"Point","coordinates":[-118.64504,34.42879]}},{"type":"Feature","properties":{"acq_date":"2026-08-29","acq_time":924,"confidence":"n","satellite":"N","instrument":"VIIRS","version":"2.0NRT","bright_ti4":302.71,"frp":0.62,"daynight":"N"},"geometry":{"type":"Point","coordinates":[-118.6431,34.43161]}},{"type":"Feature","properties":{"acq_date":"2026-08-29","acq_time":924,"confidence":"n","satellite":"N","instrument":"VIIRS","version":"2.0NRT","bright_ti4":312.03,"frp":1.13,"daynight":"N"},"geometry":{"type":"Point","coordinates":[-117.10079,34.62209]}},{"type":"Feature","properties":{"acq_date":"2026-08-29","acq_time":924,"confidence":"n","satellite":"N","instrument":"VIIRS","version":"2.0NRT","bright_ti4":297.89,"frp":1.35,"daynight":"N"},"geometry":{"type":"Point","coordinates":[-118.75028,34.81885]}},{"type":"Feature","properties":{"acq_date":"2026-08-29","acq_time":924,"confidence":"n","satellite":"N","instrument":"VIIRS","version":"2.0NRT","bright_ti4":315.74,"frp":1.57,"daynight":"N"},"geometry":{"type":"Point","coordinates":[-113.31274,35.5181]}},{"type":"Feature","properties":{"acq_date":"2026-08-29","acq_time":924,"confidence":"n","satellite":"N","instrument":"VIIRS","version":"2.0NRT","bright_ti4":316.16,"frp":1.48,"daynight":"N"},"geometry":{"type":"Point","coordinates":[-121.44314,35.89367]}},{"type":"Feature","properties":{"acq_date":"2026-08-29","acq_time":924,"confidence":"n","satellite":"N","instrument":"VIIRS","version":"2.0NRT","bright_ti4":305.45,"frp":1.62,"daynight":"N"},"geometry":{"type":"Point","coordinates":[-121.39481,35.89576]}},{"type":"Feature","properties":{"acq_date":"2026-08-29","acq_time":924,"confidence":"n","satellite":"N","instrument":"VIIRS","version":"2.0NRT","bright_ti4":323.97,"frp":3.8,"daynight":"N"},"geometry":{"type":"Point","coordinates":[-121.39931,35.89607]}},{"type":"Feature","properties":{"acq_date":"2026-08-29","acq_time":924,"confidence":"n","satellite":"N","instrument":"VIIRS","version":"2.0NRT","bright_ti4":354.44,"frp":5.54,"daynight":"N"},"geometry":{"type":"Point","coordinates":[-121.45525,35.89984]}},{"type":"Feature","properties":{"acq_date":"2026-08-29","acq_time":924,"confidence":"h","satellite":"N","instrument":"VIIRS","version":"2.0NRT","bright_ti4":367,"frp":5.54,"daynight":"N"},"geometry":{"type":"Point","coordinates":[-121.46045,35.90019]}},{"type":"Feature","properties":{"acq_date":"2026-08-29","acq_time":924,"confidence":"n","satellite":"N","instrument":"VIIRS","version":"2.0NRT","bright_ti4":314.11,"frp":2.46,"daynight":"N"},"geometry":{"type":"Point","coordinates":[-121.38705,35.90057]}},{"type":"Feature","properties":{"acq_date":"2026-08-29","acq_time":924,"confidence":"n","satellite":"N","instrument":"VIIRS","version":"2.0NRT","bright_ti4":303.98,"frp":3.44,"daynight":"N"},"geometry":{"type":"Point","coordinates":[-121.46627,35.90058]}},{"type":"Feature","properties":{"acq_date":"2026-08-29","acq_time":924,"confidence":"n","satellite":"N","instrument":"VIIRS","version":"2.0NRT","bright_ti4":316.01,"frp":1.62,"daynight":"N"},"geometry":{"type":"Point","coordinates":[-121.39153,35.90088]}},{"type":"Feature","properties":{"acq_date":"2026-08-29","acq_time":924,"confidence":"n","satellite":"N","instrument":"VIIRS","version":"2.0NRT","bright_ti4":310.05,"frp":1.62,"daynight":"N"},"geometry":{"type":"Point","coordinates":[-121.39596,35.90118]}},{"type":"Feature","properties":{"acq_date":"2026-08-29","acq_time":924,"confidence":"n","satellite":"N","instrument":"VIIRS","version":"2.0NRT","bright_ti4":304.18,"frp":5.54,"daynight":"N"},"geometry":{"type":"Point","coordinates":[-121.45803,35.90538]}},{"type":"Feature","properties":{"acq_date":"2026-08-29","acq_time":924,"confidence":"n","satellite":"N","instrument":"VIIRS","version":"2.0NRT","bright_ti4":351.88,"frp":8.6,"daynight":"N"},"geometry":{"type":"Point","coordinates":[-121.38312,35.90564]}},{"type":"Feature","properties":{"acq_date":"2026-08-29","acq_time":924,"confidence":"n","satellite":"N","instrument":"VIIRS","version":"2.0NRT","bright_ti4":304.27,"frp":3.44,"daynight":"N"},"geometry":{"type":"Point","coordinates":[-121.4647,35.90584]}},{"type":"Feature","properties":{"acq_date":"2026-08-29","acq_time":924,"confidence":"h","satellite":"N","instrument":"VIIRS","version":"2.0NRT","bright_ti4":367,"frp":8.6,"daynight":"N"},"geometry":{"type":"Point","coordinates":[-121.38758,35.90595]}},{"type":"Feature","properties":{"acq_date":"2026-08-29","acq_time":924,"confidence":"n","satellite":"N","instrument":"VIIRS","version":"2.0NRT","bright_ti4":304.72,"frp":9.31,"daynight":"N"},"geometry":{"type":"Point","coordinates":[-121.39179,35.90623]}},{"type":"Feature","properties":{"acq_date":"2026-08-29","acq_time":924,"confidence":"n","satellite":"N","instrument":"VIIRS","version":"2.0NRT","bright_ti4":342.21,"frp":8.6,"daynight":"N"},"geometry":{"type":"Point","coordinates":[-121.38187,35.91089]}},{"type":"Feature","properties":{"acq_date":"2026-08-29","acq_time":924,"confidence":"n","satellite":"N","instrument":"VIIRS","version":"2.0NRT","bright_ti4":322,"frp":2.53,"daynight":"N"},"geometry":{"type":"Point","coordinates":[-121.46246,35.91105]}},{"type":"Feature","properties":{"acq_date":"2026-08-29","acq_time":924,"confidence":"n","satellite":"N","instrument":"VIIRS","version":"2.0NRT","bright_ti4":319.3,"frp":8.6,"daynight":"N"},"geometry":{"type":"Point","coordinates":[-121.38628,35.91119]}},{"type":"Feature","properties":{"acq_date":"2026-08-29","acq_time":924,"confidence":"n","satellite":"N","instrument":"VIIRS","version":"2.0NRT","bright_ti4":339.52,"frp":5.65,"daynight":"N"},"geometry":{"type":"Point","coordinates":[-121.37795,35.91468]}},{"type":"Feature","properties":{"acq_date":"2026-08-29","acq_time":924,"confidence":"h","satellite":"N","instrument":"VIIRS","version":"2.0NRT","bright_ti4":367,"frp":4.63,"daynight":"N"},"geometry":{"type":"Point","coordinates":[-121.38277,35.91498]}},{"type":"Feature","properties":{"acq_date":"2026-08-29","acq_time":924,"confidence":"n","satellite":"N","instrument":"VIIRS","version":"2.0NRT","bright_ti4":319.87,"frp":4.63,"daynight":"N"},"geometry":{"type":"Point","coordinates":[-121.38737,35.91526]}},{"type":"Feature","properties":{"acq_date":"2026-08-29","acq_time":924,"confidence":"n","satellite":"N","instrument":"VIIRS","version":"2.0NRT","bright_ti4":307.94,"frp":3.66,"daynight":"N"},"geometry":{"type":"Point","coordinates":[-121.39202,35.91555]}},{"type":"Feature","properties":{"acq_date":"2026-08-29","acq_time":924,"confidence":"n","satellite":"N","instrument":"VIIRS","version":"2.0NRT","bright_ti4":319.2,"frp":3.1,"daynight":"N"},"geometry":{"type":"Point","coordinates":[-121.37524,35.91577]}},{"type":"Feature","properties":{"acq_date":"2026-08-29","acq_time":924,"confidence":"n","satellite":"N","instrument":"VIIRS","version":"2.0NRT","bright_ti4":345.86,"frp":3.78,"daynight":"N"},"geometry":{"type":"Point","coordinates":[-121.38049,35.91613]}},{"type":"Feature","properties":{"acq_date":"2026-08-29","acq_time":924,"confidence":"n","satellite":"N","instrument":"VIIRS","version":"2.0NRT","bright_ti4":330.65,"frp":3.78,"daynight":"N"},"geometry":{"type":"Point","coordinates":[-121.38523,35.91646]}},{"type":"Feature","properties":{"acq_date":"2026-08-29","acq_time":924,"confidence":"n","satellite":"N","instrument":"VIIRS","version":"2.0NRT","bright_ti4":313.4,"frp":2.52,"daynight":"N"},"geometry":{"type":"Point","coordinates":[-121.38993,35.91679]}},{"type":"Feature","properties":{"acq_date":"2026-08-29","acq_time":924,"confidence":"n","satellite":"N","instrument":"VIIRS","version":"2.0NRT","bright_ti4":304.9,"frp":4.63,"daynight":"N"},"geometry":{"type":"Point","coordinates":[-121.38637,35.92054]}},{"type":"Feature","properties":{"acq_date":"2026-08-29","acq_time":924,"confidence":"n","satellite":"N","instrument":"VIIRS","version":"2.0NRT","bright_ti4":309.67,"frp":3.19,"daynight":"N"},"geometry":{"type":"Point","coordinates":[-121.45448,35.92123]}},{"type":"Feature","properties":{"acq_date":"2026-08-29","acq_time":924,"confidence":"n","satellite":"N","instrument":"VIIRS","version":"2.0NRT","bright_ti4":300.79,"frp":1.38,"daynight":"N"},"geometry":{"type":"Point","coordinates":[-121.46119,35.92168]}},{"type":"Feature","properties":{"acq_date":"2026-08-29","acq_time":924,"confidence":"n","satellite":"N","instrument":"VIIRS","version":"2.0NRT","bright_ti4":315.05,"frp":3.78,"daynight":"N"},"geometry":{"type":"Point","coordinates":[-121.38399,35.92171]}},{"type":"Feature","properties":{"acq_date":"2026-08-29","acq_time":924,"confidence":"n","satellite":"N","instrument":"VIIRS","version":"2.0NRT","bright_ti4":307.25,"frp":2.52,"daynight":"N"},"geometry":{"type":"Point","coordinates":[-121.38891,35.92205]}},{"type":"Feature","properties":{"acq_date":"2026-08-29","acq_time":924,"confidence":"n","satellite":"N","instrument":"VIIRS","version":"2.0NRT","bright_ti4":317.53,"frp":2.54,"daynight":"N"},"geometry":{"type":"Point","coordinates":[-121.45615,35.9249]}},{"type":"Feature","properties":{"acq_date":"2026-08-29","acq_time":924,"confidence":"n","satellite":"N","instrument":"VIIRS","version":"2.0NRT","bright_ti4":306.77,"frp":1.03,"daynight":"N"},"geometry":{"type":"Point","coordinates":[-121.46275,35.9253]}},{"type":"Feature","properties":{"acq_date":"2026-08-29","acq_time":924,"confidence":"n","satellite":"N","instrument":"VIIRS","version":"2.0NRT","bright_ti4":354,"frp":5.65,"daynight":"N"},"geometry":{"type":"Point","coordinates":[-121.38471,35.92577]}},{"type":"Feature","properties":{"acq_date":"2026-08-29","acq_time":924,"confidence":"n","satellite":"N","instrument":"VIIRS","version":"2.0NRT","bright_ti4":301.91,"frp":4.98,"daynight":"N"},"geometry":{"type":"Point","coordinates":[-121.38947,35.92608]}},{"type":"Feature","properties":{"acq_date":"2026-08-29","acq_time":924,"confidence":"n","satellite":"N","instrument":"VIIRS","version":"2.0NRT","bright_ti4":308.04,"frp":1.38,"daynight":"N"},"geometry":{"type":"Point","coordinates":[-121.4595,35.92693]}},{"type":"Feature","properties":{"acq_date":"2026-08-29","acq_time":924,"confidence":"n","satellite":"N","instrument":"VIIRS","version":"2.0NRT","bright_ti4":329.85,"frp":3.1,"daynight":"N"},"geometry":{"type":"Point","coordinates":[-121.38261,35.92696]}},{"type":"Feature","properties":{"acq_date":"2026-08-29","acq_time":924,"confidence":"n","satellite":"N","instrument":"VIIRS","version":"2.0NRT","bright_ti4":304.98,"frp":1.8,"daynight":"N"},"geometry":{"type":"Point","coordinates":[-121.40627,35.92713]}},{"type":"Feature","properties":{"acq_date":"2026-08-29","acq_time":924,"confidence":"n","satellite":"N","instrument":"VIIRS","version":"2.0NRT","bright_ti4":321.92,"frp":3.73,"daynight":"N"},"geometry":{"type":"Point","coordinates":[-121.38701,35.92726]}},{"type":"Feature","properties":{"acq_date":"2026-08-29","acq_time":924,"confidence":"n","satellite":"N","instrument":"VIIRS","version":"2.0NRT","bright_ti4":303.57,"frp":1.8,"daynight":"N"},"geometry":{"type":"Point","coordinates":[-121.41676,35.9278]}},{"type":"Feature","properties":{"acq_date":"2026-08-29","acq_time":924,"confidence":"n","satellite":"N","instrument":"VIIRS","version":"2.0NRT","bright_ti4":305.14,"frp":4.86,"daynight":"N"},"geometry":{"type":"Point","coordinates":[-121.39687,35.92795]}},{"type":"Feature","properties":{"acq_date":"2026-08-29","acq_time":924,"confidence":"n","satellite":"N","instrument":"VIIRS","version":"2.0NRT","bright_ti4":305.14,"frp":2.74,"daynight":"N"},"geometry":{"type":"Point","coordinates":[-121.4146,35.92918]}},{"type":"Feature","properties":{"acq_date":"2026-08-29","acq_time":924,"confidence":"n","satellite":"N","instrument":"VIIRS","version":"2.0NRT","bright_ti4":302.47,"frp":0.97,"daynight":"N"},"geometry":{"type":"Point","coordinates":[-121.46165,35.93059]}},{"type":"Feature","properties":{"acq_date":"2026-08-29","acq_time":924,"confidence":"n","satellite":"N","instrument":"VIIRS","version":"2.0NRT","bright_ti4":337.06,"frp":4.98,"daynight":"N"},"geometry":{"type":"Point","coordinates":[-121.39265,35.93162]}},{"type":"Feature","properties":{"acq_date":"2026-08-29","acq_time":924,"confidence":"n","satellite":"N","instrument":"VIIRS","version":"2.0NRT","bright_ti4":354.8,"frp":6.59,"daynight":"N"},"geometry":{"type":"Point","coordinates":[-121.39729,35.93191]}},{"type":"Feature","properties":{"acq_date":"2026-08-29","acq_time":924,"confidence":"n","satellite":"N","instrument":"VIIRS","version":"2.0NRT","bright_ti4":308.08,"frp":6.59,"daynight":"N"},"geometry":{"type":"Point","coordinates":[-121.40144,35.93217]}},{"type":"Feature","properties":{"acq_date":"2026-08-29","acq_time":924,"confidence":"n","satellite":"N","instrument":"VIIRS","version":"2.0NRT","bright_ti4":322.57,"frp":3.22,"daynight":"N"},"geometry":{"type":"Point","coordinates":[-121.45847,35.93222]}},{"type":"Feature","properties":{"acq_date":"2026-08-29","acq_time":924,"confidence":"n","satellite":"N","instrument":"VIIRS","version":"2.0NRT","bright_ti4":312.68,"frp":1.8,"daynight":"N"},"geometry":{"type":"Point","coordinates":[-121.40518,35.93241]}},{"type":"Feature","properties":{"acq_date":"2026-08-29","acq_time":924,"confidence":"n","satellite":"N","instrument":"VIIRS","version":"2.0NRT","bright_ti4":324.22,"frp":1.8,"daynight":"N"},"geometry":{"type":"Point","coordinates":[-121.40852,35.93262]}},{"type":"Feature","properties":{"acq_date":"2026-08-29","acq_time":924,"confidence":"n","satellite":"N","instrument":"VIIRS","version":"2.0NRT","bright_ti4":305.79,"frp":3.73,"daynight":"N"},"geometry":{"type":"Point","coordinates":[-121.39018,35.93282]}},{"type":"Feature","properties":{"acq_date":"2026-08-29","acq_time":924,"confidence":"n","satellite":"N","instrument":"VIIRS","version":"2.0NRT","bright_ti4":303.46,"frp":1.8,"daynight":"N"},"geometry":{"type":"Point","coordinates":[-121.41177,35.93283]}},{"type":"Feature","properties":{"acq_date":"2026-08-29","acq_time":924,"confidence":"h","satellite":"N","instrument":"VIIRS","version":"2.0NRT","bright_ti4":367,"frp":4.86,"daynight":"N"},"geometry":{"type":"Point","coordinates":[-121.39494,35.93316]}},{"type":"Feature","properties":{"acq_date":"2026-08-29","acq_time":924,"confidence":"n","satellite":"N","instrument":"VIIRS","version":"2.0NRT","bright_ti4":332.96,"frp":4.86,"daynight":"N"},"geometry":{"type":"Point","coordinates":[-121.39931,35.93346]}},{"type":"Feature","properties":{"acq_date":"2026-08-29","acq_time":924,"confidence":"n","satellite":"N","instrument":"VIIRS","version":"2.0NRT","bright_ti4":310.51,"frp":3.37,"daynight":"N"},"geometry":{"type":"Point","coordinates":[-121.40335,35.93374]}},{"type":"Feature","properties":{"acq_date":"2026-08-29","acq_time":924,"confidence":"n","satellite":"N","instrument":"VIIRS","version":"2.0NRT","bright_ti4":319.21,"frp":1.27,"daynight":"N"},"geometry":{"type":"Point","coordinates":[-121.42649,35.93377]}},{"type":"Feature","properties":{"acq_date":"2026-08-29","acq_time":924,"confidence":"n","satellite":"N","instrument":"VIIRS","version":"2.0NRT","bright_ti4":324.25,"frp":3.37,"daynight":"N"},"geometry":{"type":"Point","coordinates":[-121.40688,35.93399]}},{"type":"Feature","properties":{"acq_date":"2026-08-29","acq_time":924,"confidence":"n","satellite":"N","instrument":"VIIRS","version":"2.0NRT","bright_ti4":304.56,"frp":1.27,"daynight":"N"},"geometry":{"type":"Point","coordinates":[-121.43076,35.93404]}},{"type":"Feature","properties":{"acq_date":"2026-08-29","acq_time":924,"confidence":"n","satellite":"N","instrument":"VIIRS","version":"2.0NRT","bright_ti4":323.7,"frp":2.74,"daynight":"N"},"geometry":{"type":"Point","coordinates":[-121.41022,35.93422]}},{"type":"Feature","properties":{"acq_date":"2026-08-29","acq_time":924,"confidence":"n","satellite":"N","instrument":"VIIRS","version":"2.0NRT","bright_ti4":317.28,"frp":3.29,"daynight":"N"},"geometry":{"type":"Point","coordinates":[-121.42458,35.93521]}},{"type":"Feature","properties":{"acq_date":"2026-08-29","acq_time":924,"confidence":"n","satellite":"N","instrument":"VIIRS","version":"2.0NRT","bright_ti4":340.7,"frp":3.29,"daynight":"N"},"geometry":{"type":"Point","coordinates":[-121.42846,35.93549]}},{"type":"Feature","properties":{"acq_date":"2026-08-29","acq_time":924,"confidence":"n","satellite":"N","instrument":"VIIRS","version":"2.0NRT","bright_ti4":312.19,"frp":0.97,"daynight":"N"},"geometry":{"type":"Point","coordinates":[-121.46101,35.93591]}},{"type":"Feature","properties":{"acq_date":"2026-08-29","acq_time":924,"confidence":"n","satellite":"N","instrument":"VIIRS","version":"2.0NRT","bright_ti4":310.02,"frp":1.39,"daynight":"N"},"geometry":{"type":"Point","coordinates":[-121.39515,35.93712]}},{"type":"Feature","properties":{"acq_date":"2026-08-29","acq_time":924,"confidence":"n","satellite":"N","instrument":"VIIRS","version":"2.0NRT","bright_ti4":302.02,"frp":1.17,"daynight":"N"},"geometry":{"type":"Point","coordinates":[-121.40369,35.93766]}},{"type":"Feature","properties":{"acq_date":"2026-08-29","acq_time":924,"confidence":"n","satellite":"N","instrument":"VIIRS","version":"2.0NRT","bright_ti4":322.15,"frp":1.17,"daynight":"N"},"geometry":{"type":"Point","coordinates":[-121.40733,35.93789]}},{"type":"Feature","properties":{"acq_date":"2026-08-29","acq_time":924,"confidence":"n","satellite":"N","instrument":"VIIRS","version":"2.0NRT","bright_ti4":308.44,"frp":2.23,"daynight":"N"},"geometry":{"type":"Point","coordinates":[-121.4108,35.93811]}},{"type":"Feature","properties":{"acq_date":"2026-08-29","acq_time":924,"confidence":"n","satellite":"N","instrument":"VIIRS","version":"2.0NRT","bright_ti4":336.02,"frp":1.87,"daynight":"N"},"geometry":{"type":"Point","coordinates":[-121.42556,35.93906]}},{"type":"Feature","properties":{"acq_date":"2026-08-29","acq_time":924,"confidence":"n","satellite":"N","instrument":"VIIRS","version":"2.0NRT","bright_ti4":323.32,"frp":1.87,"daynight":"N"},"geometry":{"type":"Point","coordinates":[-121.43033,35.93936]}},{"type":"Feature","properties":{"acq_date":"2026-08-29","acq_time":924,"confidence":"n","satellite":"N","instrument":"VIIRS","version":"2.0NRT","bright_ti4":304.61,"frp":1.06,"daynight":"N"},"geometry":{"type":"Point","coordinates":[-121.43667,35.93976]}},{"type":"Feature","properties":{"acq_date":"2026-08-29","acq_time":924,"confidence":"n","satellite":"N","instrument":"VIIRS","version":"2.0NRT","bright_ti4":306.07,"frp":1.06,"daynight":"N"},"geometry":{"type":"Point","coordinates":[-121.44286,35.94014]}},{"type":"Feature","properties":{"acq_date":"2026-08-29","acq_time":924,"confidence":"n","satellite":"N","instrument":"VIIRS","version":"2.0NRT","bright_ti4":304.5,"frp":1.87,"daynight":"N"},"geometry":{"type":"Point","coordinates":[-121.42534,35.94439]}},{"type":"Feature","properties":{"acq_date":"2026-08-29","acq_time":924,"confidence":"n","satellite":"N","instrument":"VIIRS","version":"2.0NRT","bright_ti4":306.59,"frp":1.87,"daynight":"N"},"geometry":{"type":"Point","coordinates":[-121.43182,35.9448]}},{"type":"Feature","properties":{"acq_date":"2026-08-29","acq_time":924,"confidence":"n","satellite":"N","instrument":"VIIRS","version":"2.0NRT","bright_ti4":307.8,"frp":1.06,"daynight":"N"},"geometry":{"type":"Point","coordinates":[-121.43928,35.94527]}},{"type":"Feature","properties":{"acq_date":"2026-08-29","acq_time":924,"confidence":"n","satellite":"N","instrument":"VIIRS","version":"2.0NRT","bright_ti4":302.96,"frp":1.06,"daynight":"N"},"geometry":{"type":"Point","coordinates":[-121.4444,35.94559]}},{"type":"Feature","properties":{"acq_date":"2026-08-29","acq_time":924,"confidence":"n","satellite":"N","instrument":"VIIRS","version":"2.0NRT","bright_ti4":304.68,"frp":0.61,"daynight":"N"},"geometry":{"type":"Point","coordinates":[-121.64033,36.20599]}},{"type":"Feature","properties":{"acq_date":"2026-08-29","acq_time":924,"confidence":"n","satellite":"N","instrument":"VIIRS","version":"2.0NRT","bright_ti4":303.98,"frp":0.61,"daynight":"N"},"geometry":{"type":"Point","coordinates":[-121.63675,36.21119]}},{"type":"Feature","properties":{"acq_date":"2026-08-29","acq_time":924,"confidence":"n","satellite":"N","instrument":"VIIRS","version":"2.0NRT","bright_ti4":304.44,"frp":1.44,"daynight":"N"},"geometry":{"type":"Point","coordinates":[-121.75694,36.2461]}},{"type":"Feature","properties":{"acq_date":"2026-08-29","acq_time":924,"confidence":"n","satellite":"N","instrument":"VIIRS","version":"2.0NRT","bright_ti4":309.04,"frp":1.93,"daynight":"N"},"geometry":{"type":"Point","coordinates":[-121.77285,36.24711]}},{"type":"Feature","properties":{"acq_date":"2026-08-29","acq_time":924,"confidence":"n","satellite":"N","instrument":"VIIRS","version":"2.0NRT","bright_ti4":321.77,"frp":1.61,"daynight":"N"},"geometry":{"type":"Point","coordinates":[-121.77764,36.24742]}},{"type":"Feature","properties":{"acq_date":"2026-08-29","acq_time":924,"confidence":"n","satellite":"N","instrument":"VIIRS","version":"2.0NRT","bright_ti4":301.81,"frp":1.61,"daynight":"N"},"geometry":{"type":"Point","coordinates":[-121.77484,36.25272]}},{"type":"Feature","properties":{"acq_date":"2026-08-29","acq_time":924,"confidence":"n","satellite":"N","instrument":"VIIRS","version":"2.0NRT","bright_ti4":316.5,"frp":1.61,"daynight":"N"},"geometry":{"type":"Point","coordinates":[-121.78056,36.25308]}},{"type":"Feature","properties":{"acq_date":"2026-08-29","acq_time":924,"confidence":"n","satellite":"N","instrument":"VIIRS","version":"2.0NRT","bright_ti4":299.82,"frp":1.33,"daynight":"N"},"geometry":{"type":"Point","coordinates":[-121.78571,36.25341]}},{"type":"Feature","properties":{"acq_date":"2026-08-29","acq_time":924,"confidence":"n","satellite":"N","instrument":"VIIRS","version":"2.0NRT","bright_ti4":308.1,"frp":1.17,"daynight":"N"},"geometry":{"type":"Point","coordinates":[-121.77883,36.25386]}},{"type":"Feature","properties":{"acq_date":"2026-08-29","acq_time":924,"confidence":"n","satellite":"N","instrument":"VIIRS","version":"2.0NRT","bright_ti4":307.34,"frp":1.17,"daynight":"N"},"geometry":{"type":"Point","coordinates":[-121.78413,36.25417]}},{"type":"Feature","properties":{"acq_date":"2026-08-29","acq_time":924,"confidence":"n","satellite":"N","instrument":"VIIRS","version":"2.0NRT","bright_ti4":306.48,"frp":1.25,"daynight":"N"},"geometry":{"type":"Point","coordinates":[-121.74323,36.25614]}},{"type":"Feature","properties":{"acq_date":"2026-08-29","acq_time":924,"confidence":"n","satellite":"N","instrument":"VIIRS","version":"2.0NRT","bright_ti4":303.35,"frp":1.37,"daynight":"N"},"geometry":{"type":"Point","coordinates":[-121.74189,36.25718]}},{"type":"Feature","properties":{"acq_date":"2026-08-29","acq_time":924,"confidence":"n","satellite":"N","instrument":"VIIRS","version":"2.0NRT","bright_ti4":319.53,"frp":1.37,"daynight":"N"},"geometry":{"type":"Point","coordinates":[-121.74614,36.25743]}},{"type":"Feature","properties":{"acq_date":"2026-08-29","acq_time":924,"confidence":"n","satellite":"N","instrument":"VIIRS","version":"2.0NRT","bright_ti4":317.39,"frp":2.57,"daynight":"N"},"geometry":{"type":"Point","coordinates":[-121.77615,36.25827]}},{"type":"Feature","properties":{"acq_date":"2026-08-29","acq_time":924,"confidence":"n","satellite":"N","instrument":"VIIRS","version":"2.0NRT","bright_ti4":306.33,"frp":1.38,"daynight":"N"},"geometry":{"type":"Point","coordinates":[-121.78257,36.25868]}},{"type":"Feature","properties":{"acq_date":"2026-08-29","acq_time":924,"confidence":"n","satellite":"N","instrument":"VIIRS","version":"2.0NRT","bright_ti4":314.45,"frp":1.17,"daynight":"N"},"geometry":{"type":"Point","coordinates":[-121.77351,36.25904]}},{"type":"Feature","properties":{"acq_date":"2026-08-29","acq_time":924,"confidence":"n","satellite":"N","instrument":"VIIRS","version":"2.0NRT","bright_ti4":304.38,"frp":1.38,"daynight":"N"},"geometry":{"type":"Point","coordinates":[-121.78839,36.25906]}},{"type":"Feature","properties":{"acq_date":"2026-08-29","acq_time":924,"confidence":"n","satellite":"N","instrument":"VIIRS","version":"2.0NRT","bright_ti4":314.4,"frp":1.17,"daynight":"N"},"geometry":{"type":"Point","coordinates":[-121.78008,36.25942]}},{"type":"Feature","properties":{"acq_date":"2026-08-29","acq_time":924,"confidence":"n","satellite":"N","instrument":"VIIRS","version":"2.0NRT","bright_ti4":308.89,"frp":1.76,"daynight":"N"},"geometry":{"type":"Point","coordinates":[-121.78648,36.25978]}},{"type":"Feature","properties":{"acq_date":"2026-08-29","acq_time":924,"confidence":"n","satellite":"N","instrument":"VIIRS","version":"2.0NRT","bright_ti4":317.09,"frp":1.25,"daynight":"N"},"geometry":{"type":"Point","coordinates":[-121.74247,36.26155]}},{"type":"Feature","properties":{"acq_date":"2026-08-29","acq_time":924,"confidence":"n","satellite":"N","instrument":"VIIRS","version":"2.0NRT","bright_ti4":318.96,"frp":4.24,"daynight":"N"},"geometry":{"type":"Point","coordinates":[-121.74669,36.26182]}},{"type":"Feature","properties":{"acq_date":"2026-08-29","acq_time":924,"confidence":"n","satellite":"N","instrument":"VIIRS","version":"2.0NRT","bright_ti4":309.64,"frp":2.3,"daynight":"N"},"geometry":{"type":"Point","coordinates":[-121.75562,36.2624]}},{"type":"Feature","properties":{"acq_date":"2026-08-29","acq_time":924,"confidence":"n","satellite":"N","instrument":"VIIRS","version":"2.0NRT","bright_ti4":332.64,"frp":2.77,"daynight":"N"},"geometry":{"type":"Point","coordinates":[-121.75864,36.2626]}},{"type":"Feature","properties":{"acq_date":"2026-08-29","acq_time":924,"confidence":"n","satellite":"N","instrument":"VIIRS","version":"2.0NRT","bright_ti4":315.71,"frp":2.77,"daynight":"N"},"geometry":{"type":"Point","coordinates":[-121.76203,36.26282]}},{"type":"Feature","properties":{"acq_date":"2026-08-29","acq_time":924,"confidence":"n","satellite":"N","instrument":"VIIRS","version":"2.0NRT","bright_ti4":320.1,"frp":2.03,"daynight":"N"},"geometry":{"type":"Point","coordinates":[-121.74541,36.26284]}},{"type":"Feature","properties":{"acq_date":"2026-08-29","acq_time":924,"confidence":"n","satellite":"N","instrument":"VIIRS","version":"2.0NRT","bright_ti4":302.12,"frp":1.78,"daynight":"N"},"geometry":{"type":"Point","coordinates":[-121.74892,36.26305]}},{"type":"Feature","properties":{"acq_date":"2026-08-29","acq_time":924,"confidence":"n","satellite":"N","instrument":"VIIRS","version":"2.0NRT","bright_ti4":329.8,"frp":2.57,"daynight":"N"},"geometry":{"type":"Point","coordinates":[-121.77084,36.26339]}},{"type":"Feature","properties":{"acq_date":"2026-08-29","acq_time":924,"confidence":"n","satellite":"N","instrument":"VIIRS","version":"2.0NRT","bright_ti4":304.78,"frp":2.22,"daynight":"N"},"geometry":{"type":"Point","coordinates":[-121.75459,36.2634]}},{"type":"Feature","properties":{"acq_date":"2026-08-29","acq_time":924,"confidence":"n","satellite":"N","instrument":"VIIRS","version":"2.0NRT","bright_ti4":323.37,"frp":2.22,"daynight":"N"},"geometry":{"type":"Point","coordinates":[-121.75768,36.26358]}},{"type":"Feature","properties":{"acq_date":"2026-08-29","acq_time":924,"confidence":"n","satellite":"N","instrument":"VIIRS","version":"2.0NRT","bright_ti4":341.61,"frp":2.91,"daynight":"N"},"geometry":{"type":"Point","coordinates":[-121.76086,36.26377]}},{"type":"Feature","properties":{"acq_date":"2026-08-29","acq_time":924,"confidence":"n","satellite":"N","instrument":"VIIRS","version":"2.0NRT","bright_ti4":313.88,"frp":1.38,"daynight":"N"},"geometry":{"type":"Point","coordinates":[-121.77745,36.26382]}},{"type":"Feature","properties":{"acq_date":"2026-08-29","acq_time":924,"confidence":"n","satellite":"N","instrument":"VIIRS","version":"2.0NRT","bright_ti4":312.02,"frp":2.91,"daynight":"N"},"geometry":{"type":"Point","coordinates":[-121.76451,36.26399]}},{"type":"Feature","properties":{"acq_date":"2026-08-29","acq_time":924,"confidence":"n","satellite":"N","instrument":"VIIRS","version":"2.0NRT","bright_ti4":305.51,"frp":2.43,"daynight":"N"},"geometry":{"type":"Point","coordinates":[-121.76888,36.26425]}},{"type":"Feature","properties":{"acq_date":"2026-08-29","acq_time":924,"confidence":"n","satellite":"N","instrument":"VIIRS","version":"2.0NRT","bright_ti4":302,"frp":1.38,"daynight":"N"},"geometry":{"type":"Point","coordinates":[-121.78491,36.26431]}},{"type":"Feature","properties":{"acq_date":"2026-08-29","acq_time":924,"confidence":"n","satellite":"N","instrument":"VIIRS","version":"2.0NRT","bright_ti4":325.13,"frp":2.43,"daynight":"N"},"geometry":{"type":"Point","coordinates":[-121.77467,36.26458]}},{"type":"Feature","properties":{"acq_date":"2026-08-29","acq_time":924,"confidence":"n","satellite":"N","instrument":"VIIRS","version":"2.0NRT","bright_ti4":303.62,"frp":1.67,"daynight":"N"},"geometry":{"type":"Point","coordinates":[-121.78215,36.26501]}},{"type":"Feature","properties":{"acq_date":"2026-08-29","acq_time":924,"confidence":"n","satellite":"N","instrument":"VIIRS","version":"2.0NRT","bright_ti4":309.59,"frp":2.76,"daynight":"N"},"geometry":{"type":"Point","coordinates":[-121.75839,36.26805]}},{"type":"Feature","properties":{"acq_date":"2026-08-29","acq_time":924,"confidence":"n","satellite":"N","instrument":"VIIRS","version":"2.0NRT","bright_ti4":341.5,"frp":2.76,"daynight":"N"},"geometry":{"type":"Point","coordinates":[-121.76138,36.26824]}},{"type":"Feature","properties":{"acq_date":"2026-08-29","acq_time":924,"confidence":"n","satellite":"N","instrument":"VIIRS","version":"2.0NRT","bright_ti4":315.01,"frp":3.66,"daynight":"N"},"geometry":{"type":"Point","coordinates":[-121.76457,36.26845]}},{"type":"Feature","properties":{"acq_date":"2026-08-29","acq_time":924,"confidence":"n","satellite":"N","instrument":"VIIRS","version":"2.0NRT","bright_ti4":314.09,"frp":2.91,"daynight":"N"},"geometry":{"type":"Point","coordinates":[-121.7605,36.26922]}},{"type":"Feature","properties":{"acq_date":"2026-08-29","acq_time":924,"confidence":"n","satellite":"N","instrument":"VIIRS","version":"2.0NRT","bright_ti4":330.98,"frp":2.91,"daynight":"N"},"geometry":{"type":"Point","coordinates":[-121.76353,36.2694]}},{"type":"Feature","properties":{"acq_date":"2026-08-29","acq_time":924,"confidence":"n","satellite":"N","instrument":"VIIRS","version":"2.0NRT","bright_ti4":302.89,"frp":0.7,"daynight":"N"},"geometry":{"type":"Point","coordinates":[-121.77006,36.28619]}},{"type":"Feature","properties":{"acq_date":"2026-08-29","acq_time":924,"confidence":"n","satellite":"N","instrument":"VIIRS","version":"2.0NRT","bright_ti4":311.63,"frp":3.28,"daynight":"N"},"geometry":{"type":"Point","coordinates":[-114.87456,36.38208]}},{"type":"Feature","properties":{"acq_date":"2026-08-29","acq_time":924,"confidence":"n","satellite":"N","instrument":"VIIRS","version":"2.0NRT","bright_ti4":303.33,"frp":1.03,"daynight":"N"},"geometry":{"type":"Point","coordinates":[-113.70118,36.48653]}},{"type":"Feature","properties":{"acq_date":"2026-08-29","acq_time":924,"confidence":"n","satellite":"N","instrument":"VIIRS","version":"2.0NRT","bright_ti4":302.52,"frp":1.33,"daynight":"N"},"geometry":{"type":"Point","coordinates":[-122.4003,37.9493]}},{"type":"Feature","properties":{"acq_date":"2026-08-29","acq_time":924,"confidence":"n","satellite":"N","instrument":"VIIRS","version":"2.0NRT","bright_ti4":300.8,"frp":1.07,"daynight":"N"},"geometry":{"type":"Point","coordinates":[-122.11308,38.01584]}},{"type":"Feature","properties":{"acq_date":"2026-08-29","acq_time":926,"confidence":"n","satellite":"N","instrument":"VIIRS","version":"2.0NRT","bright_ti4":329.3,"frp":5.49,"daynight":"N"},"geometry":{"type":"Point","coordinates":[-116.83682,32.49459]}},{"type":"Feature","properties":{"acq_date":"2026-08-29","acq_time":926,"confidence":"n","satellite":"N","instrument":"VIIRS","version":"2.0NRT","bright_ti4":308.06,"frp":0.88,"daynight":"N"},"geometry":{"type":"Point","coordinates":[-116.7745,32.51519]}},{"type":"Feature","properties":{"acq_date":"2026-08-29","acq_time":926,"confidence":"n","satellite":"N","instrument":"VIIRS","version":"2.0NRT","bright_ti4":310.76,"frp":0.81,"daynight":"N"},"geometry":{"type":"Point","coordinates":[-115.35097,32.54353]}},{"type":"Feature","properties":{"acq_date":"2026-08-29","acq_time":926,"confidence":"n","satellite":"N","instrument":"VIIRS","version":"2.0NRT","bright_ti4":322.13,"frp":2.54,"daynight":"N"},"geometry":{"type":"Point","coordinates":[-115.42284,32.58959]}},{"type":"Feature","properties":{"acq_date":"2026-08-29","acq_time":926,"confidence":"n","satellite":"N","instrument":"VIIRS","version":"2.0NRT","bright_ti4":303.47,"frp":0.7,"daynight":"N"},"geometry":{"type":"Point","coordinates":[-117.61541,33.49321]}},{"type":"Feature","properties":{"acq_date":"2026-08-29","acq_time":926,"confidence":"n","satellite":"N","instrument":"VIIRS","version":"2.0NRT","bright_ti4":311.67,"frp":0.67,"daynight":"N"},"geometry":{"type":"Point","coordinates":[-117.82194,33.6123]}},{"type":"Feature","properties":{"acq_date":"2026-08-29","acq_time":926,"confidence":"n","satellite":"N","instrument":"VIIRS","version":"2.0NRT","bright_ti4":308.36,"frp":0.95,"daynight":"N"},"geometry":{"type":"Point","coordinates":[-117.82501,33.6125]}},{"type":"Feature","properties":{"acq_date":"2026-08-29","acq_time":926,"confidence":"n","satellite":"N","instrument":"VIIRS","version":"2.0NRT","bright_ti4":305.83,"frp":0.71,"daynight":"N"},"geometry":{"type":"Point","coordinates":[-117.71289,33.71647]}},{"type":"Feature","properties":{"acq_date":"2026-08-29","acq_time":926,"confidence":"n","satellite":"N","instrument":"VIIRS","version":"2.0NRT","bright_ti4":312.98,"frp":1.27,"daynight":"N"},"geometry":{"type":"Point","coordinates":[-117.47453,33.79434]}},{"type":"Feature","properties":{"acq_date":"2026-08-29","acq_time":1104,"confidence":"n","satellite":"N","instrument":"VIIRS","version":"2.0NRT","bright_ti4":346.51,"frp":9.92,"daynight":"N"},"geometry":{"type":"Point","coordinates":[-121.45131,35.8959]}},{"type":"Feature","properties":{"acq_date":"2026-08-29","acq_time":1104,"confidence":"n","satellite":"N","instrument":"VIIRS","version":"2.0NRT","bright_ti4":312.38,"frp":3.04,"daynight":"N"},"geometry":{"type":"Point","coordinates":[-121.38718,35.89727]}},{"type":"Feature","properties":{"acq_date":"2026-08-29","acq_time":1104,"confidence":"n","satellite":"N","instrument":"VIIRS","version":"2.0NRT","bright_ti4":345.02,"frp":9.92,"daynight":"N"},"geometry":{"type":"Point","coordinates":[-121.4561,35.8973]}},{"type":"Feature","properties":{"acq_date":"2026-08-29","acq_time":1104,"confidence":"n","satellite":"N","instrument":"VIIRS","version":"2.0NRT","bright_ti4":334.65,"frp":3.04,"daynight":"N"},"geometry":{"type":"Point","coordinates":[-121.39169,35.89858]}},{"type":"Feature","properties":{"acq_date":"2026-08-29","acq_time":1104,"confidence":"n","satellite":"N","instrument":"VIIRS","version":"2.0NRT","bright_ti4":345.26,"frp":10.1,"daynight":"N"},"geometry":{"type":"Point","coordinates":[-121.46123,35.89878]}},{"type":"Feature","properties":{"acq_date":"2026-08-29","acq_time":1104,"confidence":"n","satellite":"N","instrument":"VIIRS","version":"2.0NRT","bright_ti4":319.3,"frp":3.73,"daynight":"N"},"geometry":{"type":"Point","coordinates":[-121.3963,35.89992]}},{"type":"Feature","properties":{"acq_date":"2026-08-29","acq_time":1104,"confidence":"n","satellite":"N","instrument":"VIIRS","version":"2.0NRT","bright_ti4":316.52,"frp":3.73,"daynight":"N"},"geometry":{"type":"Point","coordinates":[-121.40089,35.90125]}},{"type":"Feature","properties":{"acq_date":"2026-08-29","acq_time":1104,"confidence":"n","satellite":"N","instrument":"VIIRS","version":"2.0NRT","bright_ti4":300.98,"frp":3.04,"daynight":"N"},"geometry":{"type":"Point","coordinates":[-121.38271,35.90265]}},{"type":"Feature","properties":{"acq_date":"2026-08-29","acq_time":1104,"confidence":"n","satellite":"N","instrument":"VIIRS","version":"2.0NRT","bright_ti4":301.9,"frp":1.74,"daynight":"N"},"geometry":{"type":"Point","coordinates":[-121.45202,35.90276]}},{"type":"Feature","properties":{"acq_date":"2026-08-29","acq_time":1104,"confidence":"n","satellite":"N","instrument":"VIIRS","version":"2.0NRT","bright_ti4":299.76,"frp":1.74,"daynight":"N"},"geometry":{"type":"Point","coordinates":[-121.45631,35.90401]}},{"type":"Feature","properties":{"acq_date":"2026-08-29","acq_time":1104,"confidence":"n","satellite":"N","instrument":"VIIRS","version":"2.0NRT","bright_ti4":319.67,"frp":3.04,"daynight":"N"},"geometry":{"type":"Point","coordinates":[-121.38741,35.90401]}},{"type":"Feature","properties":{"acq_date":"2026-08-29","acq_time":1104,"confidence":"n","satellite":"N","instrument":"VIIRS","version":"2.0NRT","bright_ti4":322.44,"frp":3.16,"daynight":"N"},"geometry":{"type":"Point","coordinates":[-121.46009,35.90511]}},{"type":"Feature","properties":{"acq_date":"2026-08-29","acq_time":1104,"confidence":"n","satellite":"N","instrument":"VIIRS","version":"2.0NRT","bright_ti4":316.54,"frp":3.73,"daynight":"N"},"geometry":{"type":"Point","coordinates":[-121.39268,35.90554]}},{"type":"Feature","properties":{"acq_date":"2026-08-29","acq_time":1104,"confidence":"n","satellite":"N","instrument":"VIIRS","version":"2.0NRT","bright_ti4":308.84,"frp":3.9,"daynight":"N"},"geometry":{"type":"Point","coordinates":[-121.38556,35.91016]}},{"type":"Feature","properties":{"acq_date":"2026-08-29","acq_time":1104,"confidence":"n","satellite":"N","instrument":"VIIRS","version":"2.0NRT","bright_ti4":330.6,"frp":3.16,"daynight":"N"},"geometry":{"type":"Point","coordinates":[-121.45955,35.91159]}},{"type":"Feature","properties":{"acq_date":"2026-08-29","acq_time":1104,"confidence":"n","satellite":"N","instrument":"VIIRS","version":"2.0NRT","bright_ti4":301.17,"frp":3.16,"daynight":"N"},"geometry":{"type":"Point","coordinates":[-121.46323,35.91267]}},{"type":"Feature","properties":{"acq_date":"2026-08-29","acq_time":1104,"confidence":"n","satellite":"N","instrument":"VIIRS","version":"2.0NRT","bright_ti4":331.76,"frp":3.9,"daynight":"N"},"geometry":{"type":"Point","coordinates":[-121.37913,35.91496]}},{"type":"Feature","properties":{"acq_date":"2026-08-29","acq_time":1104,"confidence":"n","satellite":"N","instrument":"VIIRS","version":"2.0NRT","bright_ti4":328.17,"frp":3.9,"daynight":"N"},"geometry":{"type":"Point","coordinates":[-121.38391,35.91634]}},{"type":"Feature","properties":{"acq_date":"2026-08-29","acq_time":1104,"confidence":"n","satellite":"N","instrument":"VIIRS","version":"2.0NRT","bright_ti4":305.02,"frp":2.87,"daynight":"N"},"geometry":{"type":"Point","coordinates":[-121.45765,35.91769]}},{"type":"Feature","properties":{"acq_date":"2026-08-29","acq_time":1104,"confidence":"n","satellite":"N","instrument":"VIIRS","version":"2.0NRT","bright_ti4":303,"frp":4.78,"daynight":"N"},"geometry":{"type":"Point","coordinates":[-121.3887,35.91773]}},{"type":"Feature","properties":{"acq_date":"2026-08-29","acq_time":1104,"confidence":"n","satellite":"N","instrument":"VIIRS","version":"2.0NRT","bright_ti4":326.95,"frp":4.8,"daynight":"N"},"geometry":{"type":"Point","coordinates":[-121.38246,35.9226]}},{"type":"Feature","properties":{"acq_date":"2026-08-29","acq_time":1104,"confidence":"n","satellite":"N","instrument":"VIIRS","version":"2.0NRT","bright_ti4":324.2,"frp":2.87,"daynight":"N"},"geometry":{"type":"Point","coordinates":[-121.45579,35.9238]}},{"type":"Feature","properties":{"acq_date":"2026-08-29","acq_time":1104,"confidence":"n","satellite":"N","instrument":"VIIRS","version":"2.0NRT","bright_ti4":332.04,"frp":2.87,"daynight":"N"},"geometry":{"type":"Point","coordinates":[-121.4596,35.92491]}},{"type":"Feature","properties":{"acq_date":"2026-08-29","acq_time":1104,"confidence":"n","satellite":"N","instrument":"VIIRS","version":"2.0NRT","bright_ti4":299.33,"frp":2.25,"daynight":"N"},"geometry":{"type":"Point","coordinates":[-121.46356,35.92605]}},{"type":"Feature","properties":{"acq_date":"2026-08-29","acq_time":1104,"confidence":"n","satellite":"N","instrument":"VIIRS","version":"2.0NRT","bright_ti4":309.64,"frp":3.23,"daynight":"N"},"geometry":{"type":"Point","coordinates":[-121.38101,35.92804]}},{"type":"Feature","properties":{"acq_date":"2026-08-29","acq_time":1104,"confidence":"n","satellite":"N","instrument":"VIIRS","version":"2.0NRT","bright_ti4":313.87,"frp":8.52,"daynight":"N"},"geometry":{"type":"Point","coordinates":[-121.39133,35.93107]}},{"type":"Feature","properties":{"acq_date":"2026-08-29","acq_time":1104,"confidence":"n","satellite":"N","instrument":"VIIRS","version":"2.0NRT","bright_ti4":336.94,"frp":3.64,"daynight":"N"},"geometry":{"type":"Point","coordinates":[-121.45812,35.93112]}},{"type":"Feature","properties":{"acq_date":"2026-08-29","acq_time":1104,"confidence":"n","satellite":"N","instrument":"VIIRS","version":"2.0NRT","bright_ti4":320.47,"frp":13.06,"daynight":"N"},"geometry":{"type":"Point","coordinates":[-121.39115,35.93176]}},{"type":"Feature","properties":{"acq_date":"2026-08-29","acq_time":1104,"confidence":"h","satellite":"N","instrument":"VIIRS","version":"2.0NRT","bright_ti4":367,"frp":8.52,"daynight":"N"},"geometry":{"type":"Point","coordinates":[-121.39625,35.93252]}},{"type":"Feature","properties":{"acq_date":"2026-08-29","acq_time":1104,"confidence":"h","satellite":"N","instrument":"VIIRS","version":"2.0NRT","bright_ti4":367,"frp":16.32,"daynight":"N"},"geometry":{"type":"Point","coordinates":[-121.39616,35.9332]}},{"type":"Feature","properties":{"acq_date":"2026-08-29","acq_time":1104,"confidence":"n","satellite":"N","instrument":"VIIRS","version":"2.0NRT","bright_ti4":327.25,"frp":10.88,"daynight":"N"},"geometry":{"type":"Point","coordinates":[-121.40195,35.9342]}},{"type":"Feature","properties":{"acq_date":"2026-08-29","acq_time":1104,"confidence":"n","satellite":"N","instrument":"VIIRS","version":"2.0NRT","bright_ti4":309.49,"frp":7.1,"daynight":"N"},"geometry":{"type":"Point","coordinates":[-121.42485,35.9348]}},{"type":"Feature","properties":{"acq_date":"2026-08-29","acq_time":1104,"confidence":"n","satellite":"N","instrument":"VIIRS","version":"2.0NRT","bright_ti4":326.88,"frp":16.32,"daynight":"N"},"geometry":{"type":"Point","coordinates":[-121.40187,35.93485]}},{"type":"Feature","properties":{"acq_date":"2026-08-29","acq_time":1104,"confidence":"n","satellite":"N","instrument":"VIIRS","version":"2.0NRT","bright_ti4":315.94,"frp":10.88,"daynight":"N"},"geometry":{"type":"Point","coordinates":[-121.40909,35.9363]}},{"type":"Feature","properties":{"acq_date":"2026-08-29","acq_time":1104,"confidence":"n","satellite":"N","instrument":"VIIRS","version":"2.0NRT","bright_ti4":310.13,"frp":6.25,"daynight":"N"},"geometry":{"type":"Point","coordinates":[-121.40887,35.93686]}},{"type":"Feature","properties":{"acq_date":"2026-08-29","acq_time":1104,"confidence":"n","satellite":"N","instrument":"VIIRS","version":"2.0NRT","bright_ti4":306.47,"frp":3.64,"daynight":"N"},"geometry":{"type":"Point","coordinates":[-121.45602,35.93715]}},{"type":"Feature","properties":{"acq_date":"2026-08-29","acq_time":1104,"confidence":"n","satellite":"N","instrument":"VIIRS","version":"2.0NRT","bright_ti4":333.57,"frp":8.52,"daynight":"N"},"geometry":{"type":"Point","coordinates":[-121.39571,35.93904]}},{"type":"Feature","properties":{"acq_date":"2026-08-29","acq_time":1104,"confidence":"n","satellite":"N","instrument":"VIIRS","version":"2.0NRT","bright_ti4":310.2,"frp":1.88,"daynight":"N"},"geometry":{"type":"Point","coordinates":[-121.39555,35.93968]}},{"type":"Feature","properties":{"acq_date":"2026-08-29","acq_time":1104,"confidence":"n","satellite":"N","instrument":"VIIRS","version":"2.0NRT","bright_ti4":306.8,"frp":4.67,"daynight":"N"},"geometry":{"type":"Point","coordinates":[-121.44179,35.93969]}},{"type":"Feature","properties":{"acq_date":"2026-08-29","acq_time":1104,"confidence":"n","satellite":"N","instrument":"VIIRS","version":"2.0NRT","bright_ti4":313.85,"frp":5.83,"daynight":"N"},"geometry":{"type":"Point","coordinates":[-121.42292,35.94037]}},{"type":"Feature","properties":{"acq_date":"2026-08-29","acq_time":1104,"confidence":"n","satellite":"N","instrument":"VIIRS","version":"2.0NRT","bright_ti4":309.12,"frp":4.67,"daynight":"N"},"geometry":{"type":"Point","coordinates":[-121.44553,35.94077]}},{"type":"Feature","properties":{"acq_date":"2026-08-29","acq_time":1104,"confidence":"n","satellite":"N","instrument":"VIIRS","version":"2.0NRT","bright_ti4":320.12,"frp":7.1,"daynight":"N"},"geometry":{"type":"Point","coordinates":[-121.42272,35.94084]}},{"type":"Feature","properties":{"acq_date":"2026-08-29","acq_time":1104,"confidence":"n","satellite":"N","instrument":"VIIRS","version":"2.0NRT","bright_ti4":333.87,"frp":18.29,"daynight":"N"},"geometry":{"type":"Point","coordinates":[-121.42769,35.94177]}},{"type":"Feature","properties":{"acq_date":"2026-08-29","acq_time":1104,"confidence":"n","satellite":"N","instrument":"VIIRS","version":"2.0NRT","bright_ti4":319.62,"frp":3.61,"daynight":"N"},"geometry":{"type":"Point","coordinates":[-121.44929,35.94186]}},{"type":"Feature","properties":{"acq_date":"2026-08-29","acq_time":1104,"confidence":"n","satellite":"N","instrument":"VIIRS","version":"2.0NRT","bright_ti4":338.34,"frp":7.1,"daynight":"N"},"geometry":{"type":"Point","coordinates":[-121.42741,35.94219]}},{"type":"Feature","properties":{"acq_date":"2026-08-29","acq_time":1104,"confidence":"h","satellite":"N","instrument":"VIIRS","version":"2.0NRT","bright_ti4":367,"frp":18.29,"daynight":"N"},"geometry":{"type":"Point","coordinates":[-121.4314,35.94287]}},{"type":"Feature","properties":{"acq_date":"2026-08-29","acq_time":1104,"confidence":"n","satellite":"N","instrument":"VIIRS","version":"2.0NRT","bright_ti4":311.95,"frp":3.61,"daynight":"N"},"geometry":{"type":"Point","coordinates":[-121.45328,35.94301]}},{"type":"Feature","properties":{"acq_date":"2026-08-29","acq_time":1104,"confidence":"h","satellite":"N","instrument":"VIIRS","version":"2.0NRT","bright_ti4":367,"frp":22.05,"daynight":"N"},"geometry":{"type":"Point","coordinates":[-121.43114,35.94327]}},{"type":"Feature","properties":{"acq_date":"2026-08-29","acq_time":1104,"confidence":"n","satellite":"N","instrument":"VIIRS","version":"2.0NRT","bright_ti4":342.12,"frp":16.16,"daynight":"N"},"geometry":{"type":"Point","coordinates":[-121.43479,35.94386]}},{"type":"Feature","properties":{"acq_date":"2026-08-29","acq_time":1104,"confidence":"n","satellite":"N","instrument":"VIIRS","version":"2.0NRT","bright_ti4":339.19,"frp":22.05,"daynight":"N"},"geometry":{"type":"Point","coordinates":[-121.43456,35.94426]}},{"type":"Feature","properties":{"acq_date":"2026-08-29","acq_time":1104,"confidence":"n","satellite":"N","instrument":"VIIRS","version":"2.0NRT","bright_ti4":344.3,"frp":16.16,"daynight":"N"},"geometry":{"type":"Point","coordinates":[-121.43817,35.94485]}},{"type":"Feature","properties":{"acq_date":"2026-08-29","acq_time":1104,"confidence":"n","satellite":"N","instrument":"VIIRS","version":"2.0NRT","bright_ti4":343.25,"frp":4.67,"daynight":"N"},"geometry":{"type":"Point","coordinates":[-121.43802,35.94526]}},{"type":"Feature","properties":{"acq_date":"2026-08-29","acq_time":1104,"confidence":"n","satellite":"N","instrument":"VIIRS","version":"2.0NRT","bright_ti4":328.87,"frp":4.79,"daynight":"N"},"geometry":{"type":"Point","coordinates":[-121.44232,35.94608]}},{"type":"Feature","properties":{"acq_date":"2026-08-29","acq_time":1104,"confidence":"n","satellite":"N","instrument":"VIIRS","version":"2.0NRT","bright_ti4":319.94,"frp":4.67,"daynight":"N"},"geometry":{"type":"Point","coordinates":[-121.44218,35.94646]}},{"type":"Feature","properties":{"acq_date":"2026-08-29","acq_time":1104,"confidence":"n","satellite":"N","instrument":"VIIRS","version":"2.0NRT","bright_ti4":301.2,"frp":4.79,"daynight":"N"},"geometry":{"type":"Point","coordinates":[-121.44673,35.94737]}},{"type":"Feature","properties":{"acq_date":"2026-08-29","acq_time":1104,"confidence":"n","satellite":"N","instrument":"VIIRS","version":"2.0NRT","bright_ti4":312.7,"frp":4.78,"daynight":"N"},"geometry":{"type":"Point","coordinates":[-121.77384,36.24571]}},{"type":"Feature","properties":{"acq_date":"2026-08-29","acq_time":1104,"confidence":"n","satellite":"N","instrument":"VIIRS","version":"2.0NRT","bright_ti4":339.09,"frp":4.05,"daynight":"N"},"geometry":{"type":"Point","coordinates":[-121.77879,36.24712]}},{"type":"Feature","properties":{"acq_date":"2026-08-29","acq_time":1104,"confidence":"n","satellite":"N","instrument":"VIIRS","version":"2.0NRT","bright_ti4":301.19,"frp":4.05,"daynight":"N"},"geometry":{"type":"Point","coordinates":[-121.78436,36.2487]}},{"type":"Feature","properties":{"acq_date":"2026-08-29","acq_time":1104,"confidence":"n","satellite":"N","instrument":"VIIRS","version":"2.0NRT","bright_ti4":335.27,"frp":4.05,"daynight":"N"},"geometry":{"type":"Point","coordinates":[-121.77809,36.2534]}},{"type":"Feature","properties":{"acq_date":"2026-08-29","acq_time":1104,"confidence":"n","satellite":"N","instrument":"VIIRS","version":"2.0NRT","bright_ti4":322.77,"frp":4.05,"daynight":"N"},"geometry":{"type":"Point","coordinates":[-121.78268,36.25471]}},{"type":"Feature","properties":{"acq_date":"2026-08-29","acq_time":1104,"confidence":"n","satellite":"N","instrument":"VIIRS","version":"2.0NRT","bright_ti4":300.53,"frp":2.83,"daynight":"N"},"geometry":{"type":"Point","coordinates":[-121.7873,36.25602]}},{"type":"Feature","properties":{"acq_date":"2026-08-29","acq_time":1104,"confidence":"n","satellite":"N","instrument":"VIIRS","version":"2.0NRT","bright_ti4":317.3,"frp":7.9,"daynight":"N"},"geometry":{"type":"Point","coordinates":[-121.77055,36.25773]}},{"type":"Feature","properties":{"acq_date":"2026-08-29","acq_time":1104,"confidence":"n","satellite":"N","instrument":"VIIRS","version":"2.0NRT","bright_ti4":311.04,"frp":7.9,"daynight":"N"},"geometry":{"type":"Point","coordinates":[-121.77507,36.25901]}},{"type":"Feature","properties":{"acq_date":"2026-08-29","acq_time":1104,"confidence":"n","satellite":"N","instrument":"VIIRS","version":"2.0NRT","bright_ti4":304.38,"frp":5.6,"daynight":"N"},"geometry":{"type":"Point","coordinates":[-121.77925,36.2602]}},{"type":"Feature","properties":{"acq_date":"2026-08-29","acq_time":1104,"confidence":"h","satellite":"N","instrument":"VIIRS","version":"2.0NRT","bright_ti4":367,"frp":7.9,"daynight":"N"},"geometry":{"type":"Point","coordinates":[-121.772,36.26461]}},{"type":"Feature","properties":{"acq_date":"2026-08-29","acq_time":1104,"confidence":"n","satellite":"N","instrument":"VIIRS","version":"2.0NRT","bright_ti4":334.32,"frp":7.9,"daynight":"N"},"geometry":{"type":"Point","coordinates":[-121.77615,36.26579]}},{"type":"Feature","properties":{"acq_date":"2026-08-29","acq_time":1104,"confidence":"n","satellite":"N","instrument":"VIIRS","version":"2.0NRT","bright_ti4":321.88,"frp":2.53,"daynight":"N"},"geometry":{"type":"Point","coordinates":[-121.77368,36.26762]}},{"type":"Feature","properties":{"acq_date":"2026-08-29","acq_time":1104,"confidence":"n","satellite":"N","instrument":"VIIRS","version":"2.0NRT","bright_ti4":305.69,"frp":1.14,"daynight":"N"},"geometry":{"type":"Point","coordinates":[-121.77621,36.27228]}},{"type":"Feature","properties":{"acq_date":"2026-08-29","acq_time":1104,"confidence":"n","satellite":"N","instrument":"VIIRS","version":"2.0NRT","bright_ti4":320.87,"frp":2.53,"daynight":"N"},"geometry":{"type":"Point","coordinates":[-121.77692,36.27505]}},{"type":"Feature","properties":{"acq_date":"2026-08-29","acq_time":1104,"confidence":"n","satellite":"N","instrument":"VIIRS","version":"2.0NRT","bright_ti4":311.09,"frp":1.14,"daynight":"N"},"geometry":{"type":"Point","coordinates":[-121.77477,36.27834]}},{"type":"Feature","properties":{"acq_date":"2026-08-29","acq_time":1104,"confidence":"n","satellite":"N","instrument":"VIIRS","version":"2.0NRT","bright_ti4":296.88,"frp":0.55,"daynight":"N"},"geometry":{"type":"Point","coordinates":[-121.93292,37.45602]}},{"type":"Feature","properties":{"acq_date":"2026-08-29","acq_time":1104,"confidence":"n","satellite":"N","instrument":"VIIRS","version":"2.0NRT","bright_ti4":299.28,"frp":0.77,"daynight":"N"},"geometry":{"type":"Point","coordinates":[-121.93161,37.45602]}},{"type":"Feature","properties":{"acq_date":"2026-08-29","acq_time":1104,"confidence":"n","satellite":"N","instrument":"VIIRS","version":"2.0NRT","bright_ti4":297.28,"frp":1.24,"daynight":"N"},"geometry":{"type":"Point","coordinates":[-122.11339,38.01257]}}]}