{"type":"FeatureCollection","name":"FIRMS VIIRS CA (last 1 day)","crs":{"type":"name","properties":{"name":"EPSG:4326"}},"fetched_at_utc":"2026-09-04T17:28:49.519Z","source":{"url":"https://firms.modaps.eosdis.nasa.gov/api/area/csv/8c4af552cf654445dd280dfb3ad9337c/VIIRS_SNPP_NRT/-125,32,-113,43.5/1","dataset":"VIIRS_SNPP_NRT","bbox":"-125,32,-113,43.5","day_range":"1"},"features":[{"type":"Feature","properties":{"acq_date":"2026-09-04","acq_time":909,"confidence":"n","satellite":"N","instrument":"VIIRS","version":"2.0NRT","bright_ti4":300.28,"frp":0.88,"daynight":"N"},"geometry":{"type":"Point","coordinates":[-114.25651,40.8197]}},{"type":"Feature","properties":{"acq_date":"2026-09-04","acq_time":909,"confidence":"n","satellite":"N","instrument":"VIIRS","version":"2.0NRT","bright_ti4":296.96,"frp":0.88,"daynight":"N"},"geometry":{"type":"Point","coordinates":[-114.25629,40.82421]}},{"type":"Feature","properties":{"acq_date":"2026-09-04","acq_time":911,"confidence":"n","satellite":"N","instrument":"VIIRS","version":"2.0NRT","bright_ti4":300.36,"frp":0.83,"daynight":"N"},"geometry":{"type":"Point","coordinates":[-116.78082,32.52555]}},{"type":"Feature","properties":{"acq_date":"2026-09-04","acq_time":911,"confidence":"n","satellite":"N","instrument":"VIIRS","version":"2.0NRT","bright_ti4":304.05,"frp":0.65,"daynight":"N"},"geometry":{"type":"Point","coordinates":[-117.82582,33.61254]}},{"type":"Feature","properties":{"acq_date":"2026-09-04","acq_time":911,"confidence":"n","satellite":"N","instrument":"VIIRS","version":"2.0NRT","bright_ti4":318.24,"frp":2.57,"daynight":"N"},"geometry":{"type":"Point","coordinates":[-116.15454,33.63549]}},{"type":"Feature","properties":{"acq_date":"2026-09-04","acq_time":911,"confidence":"n","satellite":"N","instrument":"VIIRS","version":"2.0NRT","bright_ti4":327.76,"frp":3.59,"daynight":"N"},"geometry":{"type":"Point","coordinates":[-116.15951,33.64061]}},{"type":"Feature","properties":{"acq_date":"2026-09-04","acq_time":911,"confidence":"n","satellite":"N","instrument":"VIIRS","version":"2.0NRT","bright_ti4":326.98,"frp":3.25,"daynight":"N"},"geometry":{"type":"Point","coordinates":[-116.16273,33.64449]}},{"type":"Feature","properties":{"acq_date":"2026-09-04","acq_time":911,"confidence":"n","satellite":"N","instrument":"VIIRS","version":"2.0NRT","bright_ti4":325.34,"frp":3.59,"daynight":"N"},"geometry":{"type":"Point","coordinates":[-116.15888,33.6452]}},{"type":"Feature","properties":{"acq_date":"2026-09-04","acq_time":911,"confidence":"n","satellite":"N","instrument":"VIIRS","version":"2.0NRT","bright_ti4":300.32,"frp":0.99,"daynight":"N"},"geometry":{"type":"Point","coordinates":[-117.71352,33.71476]}},{"type":"Feature","properties":{"acq_date":"2026-09-04","acq_time":911,"confidence":"n","satellite":"N","instrument":"VIIRS","version":"2.0NRT","bright_ti4":296.44,"frp":0.73,"daynight":"N"},"geometry":{"type":"Point","coordinates":[-117.47401,33.79144]}},{"type":"Feature","properties":{"acq_date":"2026-09-04","acq_time":911,"confidence":"n","satellite":"N","instrument":"VIIRS","version":"2.0NRT","bright_ti4":301.33,"frp":1.03,"daynight":"N"},"geometry":{"type":"Point","coordinates":[-118.23583,33.79583]}},{"type":"Feature","properties":{"acq_date":"2026-09-04","acq_time":911,"confidence":"n","satellite":"N","instrument":"VIIRS","version":"2.0NRT","bright_ti4":298.71,"frp":1.61,"daynight":"N"},"geometry":{"type":"Point","coordinates":[-118.24475,33.8175]}},{"type":"Feature","properties":{"acq_date":"2026-09-04","acq_time":911,"confidence":"n","satellite":"N","instrument":"VIIRS","version":"2.0NRT","bright_ti4":298.86,"frp":1.34,"daynight":"N"},"geometry":{"type":"Point","coordinates":[-118.24456,33.8176]}},{"type":"Feature","properties":{"acq_date":"2026-09-04","acq_time":911,"confidence":"n","satellite":"N","instrument":"VIIRS","version":"2.0NRT","bright_ti4":298.24,"frp":0.1,"daynight":"N"},"geometry":{"type":"Point","coordinates":[-118.10696,34.03358]}},{"type":"Feature","properties":{"acq_date":"2026-09-04","acq_time":911,"confidence":"n","satellite":"N","instrument":"VIIRS","version":"2.0NRT","bright_ti4":306.04,"frp":0.58,"daynight":"N"},"geometry":{"type":"Point","coordinates":[-118.19491,34.15133]}},{"type":"Feature","properties":{"acq_date":"2026-09-04","acq_time":911,"confidence":"n","satellite":"N","instrument":"VIIRS","version":"2.0NRT","bright_ti4":298.31,"frp":0.3,"daynight":"N"},"geometry":{"type":"Point","coordinates":[-118.3822,34.24401]}},{"type":"Feature","properties":{"acq_date":"2026-09-04","acq_time":911,"confidence":"n","satellite":"N","instrument":"VIIRS","version":"2.0NRT","bright_ti4":302.28,"frp":0.37,"daynight":"N"},"geometry":{"type":"Point","coordinates":[-118.5202,34.33228]}},{"type":"Feature","properties":{"acq_date":"2026-09-04","acq_time":911,"confidence":"n","satellite":"N","instrument":"VIIRS","version":"2.0NRT","bright_ti4":297.63,"frp":0.37,"daynight":"N"},"geometry":{"type":"Point","coordinates":[-118.51944,34.33759]}},{"type":"Feature","properties":{"acq_date":"2026-09-04","acq_time":911,"confidence":"n","satellite":"N","instrument":"VIIRS","version":"2.0NRT","bright_ti4":299.25,"frp":0.63,"daynight":"N"},"geometry":{"type":"Point","coordinates":[-118.64597,34.43022]}},{"type":"Feature","properties":{"acq_date":"2026-09-04","acq_time":911,"confidence":"n","satellite":"N","instrument":"VIIRS","version":"2.0NRT","bright_ti4":306.13,"frp":1.75,"daynight":"N"},"geometry":{"type":"Point","coordinates":[-117.33966,34.60593]}},{"type":"Feature","properties":{"acq_date":"2026-09-04","acq_time":911,"confidence":"n","satellite":"N","instrument":"VIIRS","version":"2.0NRT","bright_ti4":306.04,"frp":2.01,"daynight":"N"},"geometry":{"type":"Point","coordinates":[-117.33856,34.606]}},{"type":"Feature","properties":{"acq_date":"2026-09-04","acq_time":911,"confidence":"n","satellite":"N","instrument":"VIIRS","version":"2.0NRT","bright_ti4":299.52,"frp":0.87,"daynight":"N"},"geometry":{"type":"Point","coordinates":[-117.10283,34.6226]}},{"type":"Feature","properties":{"acq_date":"2026-09-04","acq_time":911,"confidence":"h","satellite":"N","instrument":"VIIRS","version":"2.0NRT","bright_ti4":367,"frp":7.31,"daynight":"N"},"geometry":{"type":"Point","coordinates":[-117.95895,34.77211]}},{"type":"Feature","properties":{"acq_date":"2026-09-04","acq_time":911,"confidence":"n","satellite":"N","instrument":"VIIRS","version":"2.0NRT","bright_ti4":296.06,"frp":0.78,"daynight":"N"},"geometry":{"type":"Point","coordinates":[-118.74947,34.81772]}},{"type":"Feature","properties":{"acq_date":"2026-09-04","acq_time":911,"confidence":"n","satellite":"N","instrument":"VIIRS","version":"2.0NRT","bright_ti4":301.64,"frp":1.18,"daynight":"N"},"geometry":{"type":"Point","coordinates":[-113.31229,35.51609]}},{"type":"Feature","properties":{"acq_date":"2026-09-04","acq_time":911,"confidence":"n","satellite":"N","instrument":"VIIRS","version":"2.0NRT","bright_ti4":296.99,"frp":0.55,"daynight":"N"},"geometry":{"type":"Point","coordinates":[-119.19754,35.69664]}},{"type":"Feature","properties":{"acq_date":"2026-09-04","acq_time":911,"confidence":"n","satellite":"N","instrument":"VIIRS","version":"2.0NRT","bright_ti4":307.89,"frp":1.62,"daynight":"N"},"geometry":{"type":"Point","coordinates":[-121.31234,35.90817]}},{"type":"Feature","properties":{"acq_date":"2026-09-04","acq_time":911,"confidence":"n","satellite":"N","instrument":"VIIRS","version":"2.0NRT","bright_ti4":300.84,"frp":0.82,"daynight":"N"},"geometry":{"type":"Point","coordinates":[-121.31106,35.91442]}},{"type":"Feature","properties":{"acq_date":"2026-09-04","acq_time":911,"confidence":"n","satellite":"N","instrument":"VIIRS","version":"2.0NRT","bright_ti4":308.78,"frp":1.83,"daynight":"N"},"geometry":{"type":"Point","coordinates":[-114.91382,36.35705]}},{"type":"Feature","properties":{"acq_date":"2026-09-04","acq_time":1049,"confidence":"n","satellite":"N","instrument":"VIIRS","version":"2.0NRT","bright_ti4":307.77,"frp":1.68,"daynight":"N"},"geometry":{"type":"Point","coordinates":[-114.25311,40.82304]}},{"type":"Feature","properties":{"acq_date":"2026-09-04","acq_time":1051,"confidence":"n","satellite":"N","instrument":"VIIRS","version":"2.0NRT","bright_ti4":304.34,"frp":1.85,"daynight":"N"},"geometry":{"type":"Point","coordinates":[-116.1584,33.64292]}},{"type":"Feature","properties":{"acq_date":"2026-09-04","acq_time":1051,"confidence":"n","satellite":"N","instrument":"VIIRS","version":"2.0NRT","bright_ti4":300.71,"frp":0.81,"daynight":"N"},"geometry":{"type":"Point","coordinates":[-118.33101,33.85151]}},{"type":"Feature","properties":{"acq_date":"2026-09-04","acq_time":1051,"confidence":"n","satellite":"N","instrument":"VIIRS","version":"2.0NRT","bright_ti4":299.86,"frp":1.34,"daynight":"N"},"geometry":{"type":"Point","coordinates":[-118.33112,33.85228]}},{"type":"Feature","properties":{"acq_date":"2026-09-04","acq_time":1051,"confidence":"n","satellite":"N","instrument":"VIIRS","version":"2.0NRT","bright_ti4":303.48,"frp":1.78,"daynight":"N"},"geometry":{"type":"Point","coordinates":[-117.3383,34.60885]}},{"type":"Feature","properties":{"acq_date":"2026-09-04","acq_time":1051,"confidence":"n","satellite":"N","instrument":"VIIRS","version":"2.0NRT","bright_ti4":302.26,"frp":1.71,"daynight":"N"},"geometry":{"type":"Point","coordinates":[-117.1021,34.62093]}},{"type":"Feature","properties":{"acq_date":"2026-09-04","acq_time":1051,"confidence":"n","satellite":"N","instrument":"VIIRS","version":"2.0NRT","bright_ti4":297.73,"frp":1.16,"daynight":"N"},"geometry":{"type":"Point","coordinates":[-117.10259,34.62458]}},{"type":"Feature","properties":{"acq_date":"2026-09-04","acq_time":1051,"confidence":"n","satellite":"N","instrument":"VIIRS","version":"2.0NRT","bright_ti4":316.65,"frp":2.53,"daynight":"N"},"geometry":{"type":"Point","coordinates":[-117.95934,34.76965]}},{"type":"Feature","properties":{"acq_date":"2026-09-04","acq_time":1051,"confidence":"n","satellite":"N","instrument":"VIIRS","version":"2.0NRT","bright_ti4":321.04,"frp":2.91,"daynight":"N"},"geometry":{"type":"Point","coordinates":[-117.95979,34.77015]}},{"type":"Feature","properties":{"acq_date":"2026-09-04","acq_time":1051,"confidence":"n","satellite":"N","instrument":"VIIRS","version":"2.0NRT","bright_ti4":320.43,"frp":2.53,"daynight":"N"},"geometry":{"type":"Point","coordinates":[-117.95662,34.77579]}},{"type":"Feature","properties":{"acq_date":"2026-09-04","acq_time":1051,"confidence":"n","satellite":"N","instrument":"VIIRS","version":"2.0NRT","bright_ti4":316.89,"frp":2.91,"daynight":"N"},"geometry":{"type":"Point","coordinates":[-117.95709,34.77629]}},{"type":"Feature","properties":{"acq_date":"2026-09-04","acq_time":1051,"confidence":"n","satellite":"N","instrument":"VIIRS","version":"2.0NRT","bright_ti4":298.18,"frp":0.94,"daynight":"N"},"geometry":{"type":"Point","coordinates":[-121.41891,35.89778]}},{"type":"Feature","properties":{"acq_date":"2026-09-04","acq_time":1051,"confidence":"n","satellite":"N","instrument":"VIIRS","version":"2.0NRT","bright_ti4":306.7,"frp":1.05,"daynight":"N"},"geometry":{"type":"Point","coordinates":[-121.42219,35.89863]}},{"type":"Feature","properties":{"acq_date":"2026-09-04","acq_time":1051,"confidence":"n","satellite":"N","instrument":"VIIRS","version":"2.0NRT","bright_ti4":297.08,"frp":1.05,"daynight":"N"},"geometry":{"type":"Point","coordinates":[-121.42553,35.89949]}},{"type":"Feature","properties":{"acq_date":"2026-09-04","acq_time":1051,"confidence":"n","satellite":"N","instrument":"VIIRS","version":"2.0NRT","bright_ti4":304.93,"frp":0.35,"daynight":"N"},"geometry":{"type":"Point","coordinates":[-120.13252,37.02711]}},{"type":"Feature","properties":{"acq_date":"2026-09-04","acq_time":1051,"confidence":"n","satellite":"N","instrument":"VIIRS","version":"2.0NRT","bright_ti4":306.6,"frp":0.77,"daynight":"N"},"geometry":{"type":"Point","coordinates":[-120.13236,37.03879]}}]}