{"type":"FeatureCollection","name":"FIRMS VIIRS CA (last 1 day)","crs":{"type":"name","properties":{"name":"EPSG:4326"}},"fetched_at_utc":"2026-08-24T14:46:22.781Z","source":{"url":"https://firms.modaps.eosdis.nasa.gov/api/area/csv/8c4af552cf654445dd280dfb3ad9337c/VIIRS_SNPP_NRT/-125,32,-113,43.5/1","dataset":"VIIRS_SNPP_NRT","bbox":"-125,32,-113,43.5","day_range":"1"},"features":[{"type":"Feature","properties":{"acq_date":"2026-08-24","acq_time":915,"confidence":"n","satellite":"N","instrument":"VIIRS","version":"2.0NRT","bright_ti4":306.85,"frp":1.47,"daynight":"N"},"geometry":{"type":"Point","coordinates":[-119.26475,39.6172]}},{"type":"Feature","properties":{"acq_date":"2026-08-24","acq_time":915,"confidence":"n","satellite":"N","instrument":"VIIRS","version":"2.0NRT","bright_ti4":303.34,"frp":0.89,"daynight":"N"},"geometry":{"type":"Point","coordinates":[-114.25632,40.8222]}},{"type":"Feature","properties":{"acq_date":"2026-08-24","acq_time":915,"confidence":"n","satellite":"N","instrument":"VIIRS","version":"2.0NRT","bright_ti4":297.56,"frp":1.18,"daynight":"N"},"geometry":{"type":"Point","coordinates":[-115.67174,43.14608]}},{"type":"Feature","properties":{"acq_date":"2026-08-24","acq_time":917,"confidence":"n","satellite":"N","instrument":"VIIRS","version":"2.0NRT","bright_ti4":309.66,"frp":4.48,"daynight":"N"},"geometry":{"type":"Point","coordinates":[-114.75604,32.3983]}},{"type":"Feature","properties":{"acq_date":"2026-08-24","acq_time":917,"confidence":"n","satellite":"N","instrument":"VIIRS","version":"2.0NRT","bright_ti4":300.48,"frp":0.46,"daynight":"N"},"geometry":{"type":"Point","coordinates":[-117.14586,32.85802]}},{"type":"Feature","properties":{"acq_date":"2026-08-24","acq_time":917,"confidence":"n","satellite":"N","instrument":"VIIRS","version":"2.0NRT","bright_ti4":304.58,"frp":1.16,"daynight":"N"},"geometry":{"type":"Point","coordinates":[-118.23869,33.77753]}},{"type":"Feature","properties":{"acq_date":"2026-08-24","acq_time":917,"confidence":"n","satellite":"N","instrument":"VIIRS","version":"2.0NRT","bright_ti4":306.29,"frp":1.01,"daynight":"N"},"geometry":{"type":"Point","coordinates":[-117.4751,33.79477]}},{"type":"Feature","properties":{"acq_date":"2026-08-24","acq_time":917,"confidence":"n","satellite":"N","instrument":"VIIRS","version":"2.0NRT","bright_ti4":304.55,"frp":0.62,"daynight":"N"},"geometry":{"type":"Point","coordinates":[-117.42966,34.14108]}},{"type":"Feature","properties":{"acq_date":"2026-08-24","acq_time":917,"confidence":"n","satellite":"N","instrument":"VIIRS","version":"2.0NRT","bright_ti4":303.66,"frp":0.93,"daynight":"N"},"geometry":{"type":"Point","coordinates":[-118.19507,34.15469]}},{"type":"Feature","properties":{"acq_date":"2026-08-24","acq_time":917,"confidence":"n","satellite":"N","instrument":"VIIRS","version":"2.0NRT","bright_ti4":306.36,"frp":1.33,"daynight":"N"},"geometry":{"type":"Point","coordinates":[-118.52065,34.33239]}},{"type":"Feature","properties":{"acq_date":"2026-08-24","acq_time":917,"confidence":"n","satellite":"N","instrument":"VIIRS","version":"2.0NRT","bright_ti4":311.81,"frp":1.27,"daynight":"N"},"geometry":{"type":"Point","coordinates":[-118.51923,34.33523]}},{"type":"Feature","properties":{"acq_date":"2026-08-24","acq_time":917,"confidence":"n","satellite":"N","instrument":"VIIRS","version":"2.0NRT","bright_ti4":304.69,"frp":1.42,"daynight":"N"},"geometry":{"type":"Point","coordinates":[-118.64687,34.42898]}},{"type":"Feature","properties":{"acq_date":"2026-08-24","acq_time":917,"confidence":"n","satellite":"N","instrument":"VIIRS","version":"2.0NRT","bright_ti4":300.59,"frp":1.18,"daynight":"N"},"geometry":{"type":"Point","coordinates":[-113.31453,35.51521]}},{"type":"Feature","properties":{"acq_date":"2026-08-24","acq_time":917,"confidence":"n","satellite":"N","instrument":"VIIRS","version":"2.0NRT","bright_ti4":330.75,"frp":2.46,"daynight":"N"},"geometry":{"type":"Point","coordinates":[-119.30487,35.81197]}},{"type":"Feature","properties":{"acq_date":"2026-08-24","acq_time":917,"confidence":"n","satellite":"N","instrument":"VIIRS","version":"2.0NRT","bright_ti4":315.5,"frp":3.57,"daynight":"N"},"geometry":{"type":"Point","coordinates":[-114.91101,36.35606]}},{"type":"Feature","properties":{"acq_date":"2026-08-24","acq_time":917,"confidence":"n","satellite":"N","instrument":"VIIRS","version":"2.0NRT","bright_ti4":310.19,"frp":2.69,"daynight":"N"},"geometry":{"type":"Point","coordinates":[-114.87586,36.381]}},{"type":"Feature","properties":{"acq_date":"2026-08-24","acq_time":920,"confidence":"n","satellite":"N","instrument":"VIIRS","version":"2.0NRT","bright_ti4":305.77,"frp":1.64,"daynight":"N"},"geometry":{"type":"Point","coordinates":[-116.08884,32.12191]}},{"type":"Feature","properties":{"acq_date":"2026-08-24","acq_time":920,"confidence":"n","satellite":"N","instrument":"VIIRS","version":"2.0NRT","bright_ti4":303.7,"frp":0.83,"daynight":"N"},"geometry":{"type":"Point","coordinates":[-116.07822,32.13316]}},{"type":"Feature","properties":{"acq_date":"2026-08-24","acq_time":920,"confidence":"n","satellite":"N","instrument":"VIIRS","version":"2.0NRT","bright_ti4":306.64,"frp":1.79,"daynight":"N"},"geometry":{"type":"Point","coordinates":[-116.07312,32.13675]}},{"type":"Feature","properties":{"acq_date":"2026-08-24","acq_time":920,"confidence":"n","satellite":"N","instrument":"VIIRS","version":"2.0NRT","bright_ti4":302.31,"frp":0.83,"daynight":"N"},"geometry":{"type":"Point","coordinates":[-116.07737,32.13721]}},{"type":"Feature","properties":{"acq_date":"2026-08-24","acq_time":920,"confidence":"n","satellite":"N","instrument":"VIIRS","version":"2.0NRT","bright_ti4":309.82,"frp":1.49,"daynight":"N"},"geometry":{"type":"Point","coordinates":[-116.07243,32.1408]}},{"type":"Feature","properties":{"acq_date":"2026-08-24","acq_time":920,"confidence":"n","satellite":"N","instrument":"VIIRS","version":"2.0NRT","bright_ti4":307.58,"frp":1.49,"daynight":"N"},"geometry":{"type":"Point","coordinates":[-116.06748,32.1444]}},{"type":"Feature","properties":{"acq_date":"2026-08-24","acq_time":920,"confidence":"n","satellite":"N","instrument":"VIIRS","version":"2.0NRT","bright_ti4":316.25,"frp":1.49,"daynight":"N"},"geometry":{"type":"Point","coordinates":[-116.07173,32.14486]}},{"type":"Feature","properties":{"acq_date":"2026-08-24","acq_time":920,"confidence":"n","satellite":"N","instrument":"VIIRS","version":"2.0NRT","bright_ti4":307.55,"frp":0.79,"daynight":"N"},"geometry":{"type":"Point","coordinates":[-116.76736,32.51788]}},{"type":"Feature","properties":{"acq_date":"2026-08-24","acq_time":1056,"confidence":"n","satellite":"N","instrument":"VIIRS","version":"2.0NRT","bright_ti4":295.87,"frp":1.18,"daynight":"N"},"geometry":{"type":"Point","coordinates":[-114.25522,40.82475]}},{"type":"Feature","properties":{"acq_date":"2026-08-24","acq_time":1058,"confidence":"n","satellite":"N","instrument":"VIIRS","version":"2.0NRT","bright_ti4":298.97,"frp":0.45,"daynight":"N"},"geometry":{"type":"Point","coordinates":[-117.35696,34.14415]}},{"type":"Feature","properties":{"acq_date":"2026-08-24","acq_time":1058,"confidence":"n","satellite":"N","instrument":"VIIRS","version":"2.0NRT","bright_ti4":299.98,"frp":0.44,"daynight":"N"},"geometry":{"type":"Point","coordinates":[-117.35221,34.14785]}},{"type":"Feature","properties":{"acq_date":"2026-08-24","acq_time":1058,"confidence":"n","satellite":"N","instrument":"VIIRS","version":"2.0NRT","bright_ti4":302.43,"frp":0.95,"daynight":"N"},"geometry":{"type":"Point","coordinates":[-118.51915,34.33659]}},{"type":"Feature","properties":{"acq_date":"2026-08-24","acq_time":1058,"confidence":"n","satellite":"N","instrument":"VIIRS","version":"2.0NRT","bright_ti4":303.91,"frp":3.7,"daynight":"N"},"geometry":{"type":"Point","coordinates":[-117.33869,34.6076]}},{"type":"Feature","properties":{"acq_date":"2026-08-24","acq_time":1058,"confidence":"n","satellite":"N","instrument":"VIIRS","version":"2.0NRT","bright_ti4":301.06,"frp":5.78,"daynight":"N"},"geometry":{"type":"Point","coordinates":[-117.10027,34.62328]}},{"type":"Feature","properties":{"acq_date":"2026-08-24","acq_time":1058,"confidence":"n","satellite":"N","instrument":"VIIRS","version":"2.0NRT","bright_ti4":302.38,"frp":1.37,"daynight":"N"},"geometry":{"type":"Point","coordinates":[-121.66613,36.21847]}},{"type":"Feature","properties":{"acq_date":"2026-08-24","acq_time":1058,"confidence":"n","satellite":"N","instrument":"VIIRS","version":"2.0NRT","bright_ti4":301.58,"frp":1.74,"daynight":"N"},"geometry":{"type":"Point","coordinates":[-121.6598,36.22001]}},{"type":"Feature","properties":{"acq_date":"2026-08-24","acq_time":1058,"confidence":"n","satellite":"N","instrument":"VIIRS","version":"2.0NRT","bright_ti4":328.28,"frp":1.74,"daynight":"N"},"geometry":{"type":"Point","coordinates":[-121.66436,36.22127]}},{"type":"Feature","properties":{"acq_date":"2026-08-24","acq_time":1058,"confidence":"n","satellite":"N","instrument":"VIIRS","version":"2.0NRT","bright_ti4":295.72,"frp":1.22,"daynight":"N"},"geometry":{"type":"Point","coordinates":[-121.65669,36.22194]}},{"type":"Feature","properties":{"acq_date":"2026-08-24","acq_time":1058,"confidence":"n","satellite":"N","instrument":"VIIRS","version":"2.0NRT","bright_ti4":325.47,"frp":1.22,"daynight":"N"},"geometry":{"type":"Point","coordinates":[-121.66135,36.22319]}},{"type":"Feature","properties":{"acq_date":"2026-08-24","acq_time":1058,"confidence":"n","satellite":"N","instrument":"VIIRS","version":"2.0NRT","bright_ti4":302.08,"frp":1.42,"daynight":"N"},"geometry":{"type":"Point","coordinates":[-121.65662,36.22516]}},{"type":"Feature","properties":{"acq_date":"2026-08-24","acq_time":1058,"confidence":"n","satellite":"N","instrument":"VIIRS","version":"2.0NRT","bright_ti4":296.7,"frp":1.22,"daynight":"N"},"geometry":{"type":"Point","coordinates":[-121.65505,36.2275]}},{"type":"Feature","properties":{"acq_date":"2026-08-24","acq_time":1058,"confidence":"n","satellite":"N","instrument":"VIIRS","version":"2.0NRT","bright_ti4":301.54,"frp":1.4,"daynight":"N"},"geometry":{"type":"Point","coordinates":[-121.66669,36.24261]}},{"type":"Feature","properties":{"acq_date":"2026-08-24","acq_time":1058,"confidence":"n","satellite":"N","instrument":"VIIRS","version":"2.0NRT","bright_ti4":308.06,"frp":1.44,"daynight":"N"},"geometry":{"type":"Point","coordinates":[-121.66654,36.2459]}},{"type":"Feature","properties":{"acq_date":"2026-08-24","acq_time":1058,"confidence":"n","satellite":"N","instrument":"VIIRS","version":"2.0NRT","bright_ti4":297.85,"frp":1.67,"daynight":"N"},"geometry":{"type":"Point","coordinates":[-121.66153,36.25053]}},{"type":"Feature","properties":{"acq_date":"2026-08-24","acq_time":1058,"confidence":"n","satellite":"N","instrument":"VIIRS","version":"2.0NRT","bright_ti4":309.37,"frp":4.49,"daynight":"N"},"geometry":{"type":"Point","coordinates":[-121.66566,36.25166]}},{"type":"Feature","properties":{"acq_date":"2026-08-24","acq_time":1058,"confidence":"n","satellite":"N","instrument":"VIIRS","version":"2.0NRT","bright_ti4":326.33,"frp":4.49,"daynight":"N"},"geometry":{"type":"Point","coordinates":[-121.6696,36.25274]}},{"type":"Feature","properties":{"acq_date":"2026-08-24","acq_time":1058,"confidence":"n","satellite":"N","instrument":"VIIRS","version":"2.0URT","bright_ti4":311.8,"frp":3.18,"daynight":"N"},"geometry":{"type":"Point","coordinates":[-121.72957,36.25344]}},{"type":"Feature","properties":{"acq_date":"2026-08-24","acq_time":1058,"confidence":"n","satellite":"N","instrument":"VIIRS","version":"2.0NRT","bright_ti4":297.25,"frp":4.1,"daynight":"N"},"geometry":{"type":"Point","coordinates":[-121.67418,36.25399]}},{"type":"Feature","properties":{"acq_date":"2026-08-24","acq_time":1058,"confidence":"n","satellite":"N","instrument":"VIIRS","version":"2.0URT","bright_ti4":305.6,"frp":3.18,"daynight":"N"},"geometry":{"type":"Point","coordinates":[-121.7336,36.25451]}},{"type":"Feature","properties":{"acq_date":"2026-08-24","acq_time":1058,"confidence":"n","satellite":"N","instrument":"VIIRS","version":"2.0NRT","bright_ti4":311.84,"frp":3.2,"daynight":"N"},"geometry":{"type":"Point","coordinates":[-121.72637,36.25627]}},{"type":"Feature","properties":{"acq_date":"2026-08-24","acq_time":1058,"confidence":"n","satellite":"N","instrument":"VIIRS","version":"2.0NRT","bright_ti4":345.87,"frp":4.19,"daynight":"N"},"geometry":{"type":"Point","coordinates":[-121.73034,36.25735]}},{"type":"Feature","properties":{"acq_date":"2026-08-24","acq_time":1058,"confidence":"n","satellite":"N","instrument":"VIIRS","version":"2.0NRT","bright_ti4":311.95,"frp":4.49,"daynight":"N"},"geometry":{"type":"Point","coordinates":[-121.66512,36.25751]}},{"type":"Feature","properties":{"acq_date":"2026-08-24","acq_time":1058,"confidence":"n","satellite":"N","instrument":"VIIRS","version":"2.0NRT","bright_ti4":301.13,"frp":4.19,"daynight":"N"},"geometry":{"type":"Point","coordinates":[-121.73419,36.2584]}},{"type":"Feature","properties":{"acq_date":"2026-08-24","acq_time":1058,"confidence":"n","satellite":"N","instrument":"VIIRS","version":"2.0NRT","bright_ti4":334.41,"frp":6.8,"daynight":"N"},"geometry":{"type":"Point","coordinates":[-121.72592,36.25842]}},{"type":"Feature","properties":{"acq_date":"2026-08-24","acq_time":1058,"confidence":"h","satellite":"N","instrument":"VIIRS","version":"2.0NRT","bright_ti4":367,"frp":4.49,"daynight":"N"},"geometry":{"type":"Point","coordinates":[-121.66886,36.25854]}},{"type":"Feature","properties":{"acq_date":"2026-08-24","acq_time":1058,"confidence":"n","satellite":"N","instrument":"VIIRS","version":"2.0NRT","bright_ti4":347.25,"frp":6.37,"daynight":"N"},"geometry":{"type":"Point","coordinates":[-121.72977,36.25945]}},{"type":"Feature","properties":{"acq_date":"2026-08-24","acq_time":1058,"confidence":"n","satellite":"N","instrument":"VIIRS","version":"2.0NRT","bright_ti4":301.6,"frp":4.1,"daynight":"N"},"geometry":{"type":"Point","coordinates":[-121.67342,36.25978]}},{"type":"Feature","properties":{"acq_date":"2026-08-24","acq_time":1058,"confidence":"n","satellite":"N","instrument":"VIIRS","version":"2.0NRT","bright_ti4":300.76,"frp":6.37,"daynight":"N"},"geometry":{"type":"Point","coordinates":[-121.73333,36.2604]}},{"type":"Feature","properties":{"acq_date":"2026-08-24","acq_time":1058,"confidence":"n","satellite":"N","instrument":"VIIRS","version":"2.0NRT","bright_ti4":302.84,"frp":3.2,"daynight":"N"},"geometry":{"type":"Point","coordinates":[-121.7235,36.26147]}},{"type":"Feature","properties":{"acq_date":"2026-08-24","acq_time":1058,"confidence":"n","satellite":"N","instrument":"VIIRS","version":"2.0NRT","bright_ti4":343.29,"frp":3.2,"daynight":"N"},"geometry":{"type":"Point","coordinates":[-121.72718,36.26247]}},{"type":"Feature","properties":{"acq_date":"2026-08-24","acq_time":1058,"confidence":"n","satellite":"N","instrument":"VIIRS","version":"2.0NRT","bright_ti4":316.48,"frp":4.19,"daynight":"N"},"geometry":{"type":"Point","coordinates":[-121.73039,36.26335]}},{"type":"Feature","properties":{"acq_date":"2026-08-24","acq_time":1058,"confidence":"n","satellite":"N","instrument":"VIIRS","version":"2.0NRT","bright_ti4":327.89,"frp":2.53,"daynight":"N"},"geometry":{"type":"Point","coordinates":[-121.72471,36.26778]}},{"type":"Feature","properties":{"acq_date":"2026-08-24","acq_time":1058,"confidence":"n","satellite":"N","instrument":"VIIRS","version":"2.0NRT","bright_ti4":302.22,"frp":2.53,"daynight":"N"},"geometry":{"type":"Point","coordinates":[-121.71911,36.27223]}},{"type":"Feature","properties":{"acq_date":"2026-08-24","acq_time":1058,"confidence":"n","satellite":"N","instrument":"VIIRS","version":"2.0NRT","bright_ti4":329.41,"frp":2.53,"daynight":"N"},"geometry":{"type":"Point","coordinates":[-121.7226,36.27319]}},{"type":"Feature","properties":{"acq_date":"2026-08-24","acq_time":1058,"confidence":"n","satellite":"N","instrument":"VIIRS","version":"2.0NRT","bright_ti4":307.58,"frp":5.28,"daynight":"N"},"geometry":{"type":"Point","coordinates":[-121.72598,36.27411]}},{"type":"Feature","properties":{"acq_date":"2026-08-24","acq_time":1058,"confidence":"n","satellite":"N","instrument":"VIIRS","version":"2.0NRT","bright_ti4":305.56,"frp":1.82,"daynight":"N"},"geometry":{"type":"Point","coordinates":[-121.71828,36.27798]}},{"type":"Feature","properties":{"acq_date":"2026-08-24","acq_time":1058,"confidence":"n","satellite":"N","instrument":"VIIRS","version":"2.0NRT","bright_ti4":309.18,"frp":1.09,"daynight":"N"},"geometry":{"type":"Point","coordinates":[-121.69742,36.2783]}},{"type":"Feature","properties":{"acq_date":"2026-08-24","acq_time":1058,"confidence":"n","satellite":"N","instrument":"VIIRS","version":"2.0NRT","bright_ti4":301.3,"frp":1.09,"daynight":"N"},"geometry":{"type":"Point","coordinates":[-121.70335,36.27991]}},{"type":"Feature","properties":{"acq_date":"2026-08-24","acq_time":1058,"confidence":"n","satellite":"N","instrument":"VIIRS","version":"2.0NRT","bright_ti4":301.26,"frp":1.29,"daynight":"N"},"geometry":{"type":"Point","coordinates":[-121.67283,36.28359]}},{"type":"Feature","properties":{"acq_date":"2026-08-24","acq_time":1058,"confidence":"n","satellite":"N","instrument":"VIIRS","version":"2.0NRT","bright_ti4":299.12,"frp":0.73,"daynight":"N"},"geometry":{"type":"Point","coordinates":[-119.26494,39.6165]}},{"type":"Feature","properties":{"acq_date":"2026-08-24","acq_time":1058,"confidence":"n","satellite":"N","instrument":"VIIRS","version":"2.0NRT","bright_ti4":299.96,"frp":1.07,"daynight":"N"},"geometry":{"type":"Point","coordinates":[-119.26527,39.61691]}},{"type":"Feature","properties":{"acq_date":"2026-08-24","acq_time":1058,"confidence":"n","satellite":"N","instrument":"VIIRS","version":"2.0NRT","bright_ti4":302.18,"frp":0.67,"daynight":"N"},"geometry":{"type":"Point","coordinates":[-119.26226,39.622]}}]}