{"type":"FeatureCollection","name":"FIRMS VIIRS CA (last 1 day)","crs":{"type":"name","properties":{"name":"EPSG:4326"}},"fetched_at_utc":"2026-10-08T19:43:51.547Z","source":{"url":"https://firms.modaps.eosdis.nasa.gov/api/area/csv/8c4af552cf654445dd280dfb3ad9337c/VIIRS_SNPP_NRT/-125,32,-113,43.5/1","dataset":"VIIRS_SNPP_NRT","bbox":"-125,32,-113,43.5","day_range":"1"},"features":[{"type":"Feature","properties":{"acq_date":"2026-10-08","acq_time":1013,"confidence":"n","satellite":"N","instrument":"VIIRS","version":"2.0NRT","bright_ti4":300.32,"frp":1.29,"daynight":"N"},"geometry":{"type":"Point","coordinates":[-113.31388,35.51884]}},{"type":"Feature","properties":{"acq_date":"2026-10-08","acq_time":1013,"confidence":"n","satellite":"N","instrument":"VIIRS","version":"2.0NRT","bright_ti4":308.74,"frp":1.03,"daynight":"N"},"geometry":{"type":"Point","coordinates":[-114.91155,36.35571]}},{"type":"Feature","properties":{"acq_date":"2026-10-08","acq_time":1013,"confidence":"n","satellite":"N","instrument":"VIIRS","version":"2.0NRT","bright_ti4":310.32,"frp":0.28,"daynight":"N"},"geometry":{"type":"Point","coordinates":[-120.19454,37.02537]}},{"type":"Feature","properties":{"acq_date":"2026-10-08","acq_time":1013,"confidence":"n","satellite":"N","instrument":"VIIRS","version":"2.0NRT","bright_ti4":301.12,"frp":0.34,"daynight":"N"},"geometry":{"type":"Point","coordinates":[-121.68092,37.18329]}},{"type":"Feature","properties":{"acq_date":"2026-10-08","acq_time":1013,"confidence":"n","satellite":"N","instrument":"VIIRS","version":"2.0NRT","bright_ti4":307.39,"frp":0.96,"daynight":"N"},"geometry":{"type":"Point","coordinates":[-121.93054,37.45587]}},{"type":"Feature","properties":{"acq_date":"2026-10-08","acq_time":1013,"confidence":"n","satellite":"N","instrument":"VIIRS","version":"2.0NRT","bright_ti4":309.56,"frp":1.53,"daynight":"N"},"geometry":{"type":"Point","coordinates":[-119.58581,37.60579]}},{"type":"Feature","properties":{"acq_date":"2026-10-08","acq_time":1013,"confidence":"n","satellite":"N","instrument":"VIIRS","version":"2.0NRT","bright_ti4":310.44,"frp":1.27,"daynight":"N"},"geometry":{"type":"Point","coordinates":[-119.58868,37.62791]}},{"type":"Feature","properties":{"acq_date":"2026-10-08","acq_time":1013,"confidence":"n","satellite":"N","instrument":"VIIRS","version":"2.0NRT","bright_ti4":297.66,"frp":1.03,"daynight":"N"},"geometry":{"type":"Point","coordinates":[-119.62801,37.62796]}},{"type":"Feature","properties":{"acq_date":"2026-10-08","acq_time":1013,"confidence":"n","satellite":"N","instrument":"VIIRS","version":"2.0NRT","bright_ti4":313.52,"frp":1.3,"daynight":"N"},"geometry":{"type":"Point","coordinates":[-119.59329,37.62877]}},{"type":"Feature","properties":{"acq_date":"2026-10-08","acq_time":1013,"confidence":"n","satellite":"N","instrument":"VIIRS","version":"2.0NRT","bright_ti4":300.91,"frp":0.47,"daynight":"N"},"geometry":{"type":"Point","coordinates":[-119.58289,37.63045]}},{"type":"Feature","properties":{"acq_date":"2026-10-08","acq_time":1013,"confidence":"n","satellite":"N","instrument":"VIIRS","version":"2.0NRT","bright_ti4":297,"frp":0.47,"daynight":"N"},"geometry":{"type":"Point","coordinates":[-119.58754,37.63131]}},{"type":"Feature","properties":{"acq_date":"2026-10-08","acq_time":1013,"confidence":"n","satellite":"N","instrument":"VIIRS","version":"2.0NRT","bright_ti4":302.01,"frp":0.26,"daynight":"N"},"geometry":{"type":"Point","coordinates":[-121.66179,37.75457]}},{"type":"Feature","properties":{"acq_date":"2026-10-08","acq_time":1013,"confidence":"n","satellite":"N","instrument":"VIIRS","version":"2.0NRT","bright_ti4":314.19,"frp":1,"daynight":"N"},"geometry":{"type":"Point","coordinates":[-121.18404,37.88216]}},{"type":"Feature","properties":{"acq_date":"2026-10-08","acq_time":1013,"confidence":"n","satellite":"N","instrument":"VIIRS","version":"2.0NRT","bright_ti4":302.18,"frp":1.59,"daynight":"N"},"geometry":{"type":"Point","coordinates":[-122.39861,37.94914]}},{"type":"Feature","properties":{"acq_date":"2026-10-08","acq_time":1013,"confidence":"n","satellite":"N","instrument":"VIIRS","version":"2.0NRT","bright_ti4":302.58,"frp":0.94,"daynight":"N"},"geometry":{"type":"Point","coordinates":[-122.11284,38.01556]}},{"type":"Feature","properties":{"acq_date":"2026-10-08","acq_time":1013,"confidence":"n","satellite":"N","instrument":"VIIRS","version":"2.0NRT","bright_ti4":296.08,"frp":0.26,"daynight":"N"},"geometry":{"type":"Point","coordinates":[-122.74664,38.30179]}},{"type":"Feature","properties":{"acq_date":"2026-10-08","acq_time":1013,"confidence":"n","satellite":"N","instrument":"VIIRS","version":"2.0NRT","bright_ti4":301.01,"frp":0.56,"daynight":"N"},"geometry":{"type":"Point","coordinates":[-121.75982,38.41722]}},{"type":"Feature","properties":{"acq_date":"2026-10-08","acq_time":1013,"confidence":"n","satellite":"N","instrument":"VIIRS","version":"2.0NRT","bright_ti4":301.44,"frp":0.32,"daynight":"N"},"geometry":{"type":"Point","coordinates":[-119.619,39.4915]}},{"type":"Feature","properties":{"acq_date":"2026-10-08","acq_time":1013,"confidence":"n","satellite":"N","instrument":"VIIRS","version":"2.0NRT","bright_ti4":295.97,"frp":1.24,"daynight":"N"},"geometry":{"type":"Point","coordinates":[-119.26539,39.61946]}},{"type":"Feature","properties":{"acq_date":"2026-10-08","acq_time":1013,"confidence":"n","satellite":"N","instrument":"VIIRS","version":"2.0NRT","bright_ti4":295.74,"frp":1.19,"daynight":"N"},"geometry":{"type":"Point","coordinates":[-119.26215,39.62123]}},{"type":"Feature","properties":{"acq_date":"2026-10-08","acq_time":1013,"confidence":"n","satellite":"N","instrument":"VIIRS","version":"2.0NRT","bright_ti4":313.3,"frp":1.94,"daynight":"N"},"geometry":{"type":"Point","coordinates":[-114.25613,40.82173]}},{"type":"Feature","properties":{"acq_date":"2026-10-08","acq_time":1013,"confidence":"n","satellite":"N","instrument":"VIIRS","version":"2.0NRT","bright_ti4":302.71,"frp":0.56,"daynight":"N"},"geometry":{"type":"Point","coordinates":[-123.83254,41.28597]}},{"type":"Feature","properties":{"acq_date":"2026-10-08","acq_time":1013,"confidence":"n","satellite":"N","instrument":"VIIRS","version":"2.0NRT","bright_ti4":298.42,"frp":0.39,"daynight":"N"},"geometry":{"type":"Point","coordinates":[-122.77364,42.38502]}},{"type":"Feature","properties":{"acq_date":"2026-10-08","acq_time":1013,"confidence":"n","satellite":"N","instrument":"VIIRS","version":"2.0NRT","bright_ti4":303.8,"frp":0.89,"daynight":"N"},"geometry":{"type":"Point","coordinates":[-122.91852,42.79309]}},{"type":"Feature","properties":{"acq_date":"2026-10-08","acq_time":1013,"confidence":"n","satellite":"N","instrument":"VIIRS","version":"2.0NRT","bright_ti4":308.09,"frp":1.24,"daynight":"N"},"geometry":{"type":"Point","coordinates":[-122.91283,42.7958]}},{"type":"Feature","properties":{"acq_date":"2026-10-08","acq_time":1013,"confidence":"n","satellite":"N","instrument":"VIIRS","version":"2.0NRT","bright_ti4":307.1,"frp":0.89,"daynight":"N"},"geometry":{"type":"Point","coordinates":[-122.91768,42.79648]}},{"type":"Feature","properties":{"acq_date":"2026-10-08","acq_time":1013,"confidence":"n","satellite":"N","instrument":"VIIRS","version":"2.0NRT","bright_ti4":304.57,"frp":0.89,"daynight":"N"},"geometry":{"type":"Point","coordinates":[-122.92263,42.79717]}},{"type":"Feature","properties":{"acq_date":"2026-10-08","acq_time":1013,"confidence":"n","satellite":"N","instrument":"VIIRS","version":"2.0NRT","bright_ti4":300.75,"frp":0.82,"daynight":"N"},"geometry":{"type":"Point","coordinates":[-115.7317,43.18024]}},{"type":"Feature","properties":{"acq_date":"2026-10-08","acq_time":1015,"confidence":"n","satellite":"N","instrument":"VIIRS","version":"2.0NRT","bright_ti4":307.25,"frp":1.2,"daynight":"N"},"geometry":{"type":"Point","coordinates":[-115.09665,32.36998]}},{"type":"Feature","properties":{"acq_date":"2026-10-08","acq_time":1015,"confidence":"n","satellite":"N","instrument":"VIIRS","version":"2.0NRT","bright_ti4":327.66,"frp":1.3,"daynight":"N"},"geometry":{"type":"Point","coordinates":[-116.81277,32.45446]}},{"type":"Feature","properties":{"acq_date":"2026-10-08","acq_time":1015,"confidence":"n","satellite":"N","instrument":"VIIRS","version":"2.0NRT","bright_ti4":307.76,"frp":0.71,"daynight":"N"},"geometry":{"type":"Point","coordinates":[-117.01033,32.59856]}},{"type":"Feature","properties":{"acq_date":"2026-10-08","acq_time":1015,"confidence":"n","satellite":"N","instrument":"VIIRS","version":"2.0NRT","bright_ti4":308.04,"frp":0.63,"daynight":"N"},"geometry":{"type":"Point","coordinates":[-117.14655,32.8571]}},{"type":"Feature","properties":{"acq_date":"2026-10-08","acq_time":1015,"confidence":"n","satellite":"N","instrument":"VIIRS","version":"2.0NRT","bright_ti4":338.06,"frp":5.93,"daynight":"N"},"geometry":{"type":"Point","coordinates":[-117.45039,33.40937]}},{"type":"Feature","properties":{"acq_date":"2026-10-08","acq_time":1015,"confidence":"n","satellite":"N","instrument":"VIIRS","version":"2.0NRT","bright_ti4":307.93,"frp":1.22,"daynight":"N"},"geometry":{"type":"Point","coordinates":[-117.44528,33.41256]}},{"type":"Feature","properties":{"acq_date":"2026-10-08","acq_time":1015,"confidence":"n","satellite":"N","instrument":"VIIRS","version":"2.0NRT","bright_ti4":321.63,"frp":1.22,"daynight":"N"},"geometry":{"type":"Point","coordinates":[-117.4493,33.41341]}},{"type":"Feature","properties":{"acq_date":"2026-10-08","acq_time":1015,"confidence":"n","satellite":"N","instrument":"VIIRS","version":"2.0NRT","bright_ti4":312.43,"frp":1.22,"daynight":"N"},"geometry":{"type":"Point","coordinates":[-117.44416,33.4166]}},{"type":"Feature","properties":{"acq_date":"2026-10-08","acq_time":1015,"confidence":"n","satellite":"N","instrument":"VIIRS","version":"2.0NRT","bright_ti4":308.68,"frp":0.9,"daynight":"N"},"geometry":{"type":"Point","coordinates":[-117.61773,33.49119]}},{"type":"Feature","properties":{"acq_date":"2026-10-08","acq_time":1015,"confidence":"n","satellite":"N","instrument":"VIIRS","version":"2.0NRT","bright_ti4":306.76,"frp":0.56,"daynight":"N"},"geometry":{"type":"Point","coordinates":[-117.82072,33.61321]}},{"type":"Feature","properties":{"acq_date":"2026-10-08","acq_time":1015,"confidence":"n","satellite":"N","instrument":"VIIRS","version":"2.0NRT","bright_ti4":303.46,"frp":0.84,"daynight":"N"},"geometry":{"type":"Point","coordinates":[-117.71283,33.71463]}},{"type":"Feature","properties":{"acq_date":"2026-10-08","acq_time":1015,"confidence":"n","satellite":"N","instrument":"VIIRS","version":"2.0NRT","bright_ti4":314.12,"frp":1.2,"daynight":"N"},"geometry":{"type":"Point","coordinates":[-117.71066,33.71688]}},{"type":"Feature","properties":{"acq_date":"2026-10-08","acq_time":1015,"confidence":"n","satellite":"N","instrument":"VIIRS","version":"2.0NRT","bright_ti4":308.18,"frp":1.43,"daynight":"N"},"geometry":{"type":"Point","coordinates":[-117.47623,33.79527]}},{"type":"Feature","properties":{"acq_date":"2026-10-08","acq_time":1015,"confidence":"n","satellite":"N","instrument":"VIIRS","version":"2.0NRT","bright_ti4":302.69,"frp":0.32,"daynight":"N"},"geometry":{"type":"Point","coordinates":[-117.88957,34.03779]}},{"type":"Feature","properties":{"acq_date":"2026-10-08","acq_time":1015,"confidence":"n","satellite":"N","instrument":"VIIRS","version":"2.0NRT","bright_ti4":317.25,"frp":2.04,"daynight":"N"},"geometry":{"type":"Point","coordinates":[-118.19116,34.15196]}},{"type":"Feature","properties":{"acq_date":"2026-10-08","acq_time":1015,"confidence":"n","satellite":"N","instrument":"VIIRS","version":"2.0NRT","bright_ti4":310.38,"frp":0.89,"daynight":"N"},"geometry":{"type":"Point","coordinates":[-118.19033,34.1522]}},{"type":"Feature","properties":{"acq_date":"2026-10-08","acq_time":1015,"confidence":"n","satellite":"N","instrument":"VIIRS","version":"2.0NRT","bright_ti4":303.49,"frp":0.33,"daynight":"N"},"geometry":{"type":"Point","coordinates":[-118.79575,34.29086]}},{"type":"Feature","properties":{"acq_date":"2026-10-08","acq_time":1015,"confidence":"n","satellite":"N","instrument":"VIIRS","version":"2.0NRT","bright_ti4":304.56,"frp":0.72,"daynight":"N"},"geometry":{"type":"Point","coordinates":[-119.34534,34.32402]}},{"type":"Feature","properties":{"acq_date":"2026-10-08","acq_time":1015,"confidence":"n","satellite":"N","instrument":"VIIRS","version":"2.0NRT","bright_ti4":313.75,"frp":1.62,"daynight":"N"},"geometry":{"type":"Point","coordinates":[-118.51892,34.33355]}},{"type":"Feature","properties":{"acq_date":"2026-10-08","acq_time":1015,"confidence":"n","satellite":"N","instrument":"VIIRS","version":"2.0NRT","bright_ti4":305.4,"frp":1.59,"daynight":"N"},"geometry":{"type":"Point","coordinates":[-116.85245,34.35258]}},{"type":"Feature","properties":{"acq_date":"2026-10-08","acq_time":1015,"confidence":"n","satellite":"N","instrument":"VIIRS","version":"2.0NRT","bright_ti4":309.58,"frp":1.44,"daynight":"N"},"geometry":{"type":"Point","coordinates":[-118.64596,34.42998]}},{"type":"Feature","properties":{"acq_date":"2026-10-08","acq_time":1015,"confidence":"n","satellite":"N","instrument":"VIIRS","version":"2.0NRT","bright_ti4":320.19,"frp":2.48,"daynight":"N"},"geometry":{"type":"Point","coordinates":[-117.33619,34.60786]}},{"type":"Feature","properties":{"acq_date":"2026-10-08","acq_time":1015,"confidence":"n","satellite":"N","instrument":"VIIRS","version":"2.0NRT","bright_ti4":319.62,"frp":1.7,"daynight":"N"},"geometry":{"type":"Point","coordinates":[-117.09946,34.62145]}},{"type":"Feature","properties":{"acq_date":"2026-10-08","acq_time":1015,"confidence":"n","satellite":"N","instrument":"VIIRS","version":"2.0NRT","bright_ti4":297.96,"frp":1.03,"daynight":"N"},"geometry":{"type":"Point","coordinates":[-118.36867,35.12336]}},{"type":"Feature","properties":{"acq_date":"2026-10-08","acq_time":1015,"confidence":"n","satellite":"N","instrument":"VIIRS","version":"2.0NRT","bright_ti4":322.78,"frp":3.3,"daynight":"N"},"geometry":{"type":"Point","coordinates":[-117.75926,35.22004]}}]}