{"type":"FeatureCollection","name":"FIRMS VIIRS CA (last 1 day)","crs":{"type":"name","properties":{"name":"EPSG:4326"}},"fetched_at_utc":"2026-10-10T18:20:02.613Z","source":{"url":"https://firms.modaps.eosdis.nasa.gov/api/area/csv/8c4af552cf654445dd280dfb3ad9337c/VIIRS_SNPP_NRT/-125,32,-113,43.5/1","dataset":"VIIRS_SNPP_NRT","bbox":"-125,32,-113,43.5","day_range":"1"},"features":[{"type":"Feature","properties":{"acq_date":"2026-10-10","acq_time":934,"confidence":"n","satellite":"N","instrument":"VIIRS","version":"2.0NRT","bright_ti4":311.36,"frp":1.18,"daynight":"N"},"geometry":{"type":"Point","coordinates":[-120.01611,38.79822]}},{"type":"Feature","properties":{"acq_date":"2026-10-10","acq_time":934,"confidence":"n","satellite":"N","instrument":"VIIRS","version":"2.0NRT","bright_ti4":302.05,"frp":0.88,"daynight":"N"},"geometry":{"type":"Point","coordinates":[-119.26458,39.62014]}},{"type":"Feature","properties":{"acq_date":"2026-10-10","acq_time":934,"confidence":"n","satellite":"N","instrument":"VIIRS","version":"2.0NRT","bright_ti4":303.85,"frp":1.34,"daynight":"N"},"geometry":{"type":"Point","coordinates":[-114.2552,40.82005]}},{"type":"Feature","properties":{"acq_date":"2026-10-10","acq_time":934,"confidence":"n","satellite":"N","instrument":"VIIRS","version":"2.0NRT","bright_ti4":301.6,"frp":1.1,"daynight":"N"},"geometry":{"type":"Point","coordinates":[-114.25449,40.82346]}},{"type":"Feature","properties":{"acq_date":"2026-10-10","acq_time":937,"confidence":"n","satellite":"N","instrument":"VIIRS","version":"2.0NRT","bright_ti4":328.48,"frp":2.03,"daynight":"N"},"geometry":{"type":"Point","coordinates":[-114.93324,32.53738]}},{"type":"Feature","properties":{"acq_date":"2026-10-10","acq_time":937,"confidence":"n","satellite":"N","instrument":"VIIRS","version":"2.0NRT","bright_ti4":327.36,"frp":2.3,"daynight":"N"},"geometry":{"type":"Point","coordinates":[-114.93732,32.538]}},{"type":"Feature","properties":{"acq_date":"2026-10-10","acq_time":937,"confidence":"n","satellite":"N","instrument":"VIIRS","version":"2.0NRT","bright_ti4":296.35,"frp":2.03,"daynight":"N"},"geometry":{"type":"Point","coordinates":[-114.93253,32.54068]}},{"type":"Feature","properties":{"acq_date":"2026-10-10","acq_time":937,"confidence":"n","satellite":"N","instrument":"VIIRS","version":"2.0NRT","bright_ti4":295.25,"frp":2.3,"daynight":"N"},"geometry":{"type":"Point","coordinates":[-114.93661,32.54131]}},{"type":"Feature","properties":{"acq_date":"2026-10-10","acq_time":937,"confidence":"n","satellite":"N","instrument":"VIIRS","version":"2.0NRT","bright_ti4":308.15,"frp":0.78,"daynight":"N"},"geometry":{"type":"Point","coordinates":[-114.85155,32.62951]}},{"type":"Feature","properties":{"acq_date":"2026-10-10","acq_time":937,"confidence":"n","satellite":"N","instrument":"VIIRS","version":"2.0NRT","bright_ti4":304.45,"frp":1.06,"daynight":"N"},"geometry":{"type":"Point","coordinates":[-116.13669,33.10381]}},{"type":"Feature","properties":{"acq_date":"2026-10-10","acq_time":937,"confidence":"n","satellite":"N","instrument":"VIIRS","version":"2.0NRT","bright_ti4":310.02,"frp":0.74,"daynight":"N"},"geometry":{"type":"Point","coordinates":[-117.42757,34.14205]}},{"type":"Feature","properties":{"acq_date":"2026-10-10","acq_time":937,"confidence":"n","satellite":"N","instrument":"VIIRS","version":"2.0NRT","bright_ti4":300.27,"frp":0.68,"daynight":"N"},"geometry":{"type":"Point","coordinates":[-117.42932,34.14426]}},{"type":"Feature","properties":{"acq_date":"2026-10-10","acq_time":937,"confidence":"n","satellite":"N","instrument":"VIIRS","version":"2.0NRT","bright_ti4":297.38,"frp":1.1,"daynight":"N"},"geometry":{"type":"Point","coordinates":[-118.1933,34.15395]}},{"type":"Feature","properties":{"acq_date":"2026-10-10","acq_time":937,"confidence":"n","satellite":"N","instrument":"VIIRS","version":"2.0NRT","bright_ti4":298.49,"frp":1.13,"daynight":"N"},"geometry":{"type":"Point","coordinates":[-113.31375,35.51513]}},{"type":"Feature","properties":{"acq_date":"2026-10-10","acq_time":937,"confidence":"n","satellite":"N","instrument":"VIIRS","version":"2.0NRT","bright_ti4":317.83,"frp":2.05,"daynight":"N"},"geometry":{"type":"Point","coordinates":[-113.31296,35.51842]}},{"type":"Feature","properties":{"acq_date":"2026-10-10","acq_time":937,"confidence":"n","satellite":"N","instrument":"VIIRS","version":"2.0NRT","bright_ti4":323.14,"frp":2.25,"daynight":"N"},"geometry":{"type":"Point","coordinates":[-114.91127,36.35631]}},{"type":"Feature","properties":{"acq_date":"2026-10-10","acq_time":937,"confidence":"n","satellite":"N","instrument":"VIIRS","version":"2.0NRT","bright_ti4":315,"frp":0.9,"daynight":"N"},"geometry":{"type":"Point","coordinates":[-114.87815,36.38263]}},{"type":"Feature","properties":{"acq_date":"2026-10-10","acq_time":937,"confidence":"n","satellite":"N","instrument":"VIIRS","version":"2.0NRT","bright_ti4":302.79,"frp":0.87,"daynight":"N"},"geometry":{"type":"Point","coordinates":[-121.93142,37.45439]}},{"type":"Feature","properties":{"acq_date":"2026-10-10","acq_time":1117,"confidence":"n","satellite":"N","instrument":"VIIRS","version":"2.0NRT","bright_ti4":324.63,"frp":5.16,"daynight":"N"},"geometry":{"type":"Point","coordinates":[-120.01488,38.79859]}}]}