{"type":"FeatureCollection","name":"FIRMS VIIRS CA (last 1 day)","crs":{"type":"name","properties":{"name":"EPSG:4326"}},"fetched_at_utc":"2026-09-02T17:45:27.853Z","source":{"url":"https://firms.modaps.eosdis.nasa.gov/api/area/csv/8c4af552cf654445dd280dfb3ad9337c/VIIRS_SNPP_NRT/-125,32,-113,43.5/1","dataset":"VIIRS_SNPP_NRT","bbox":"-125,32,-113,43.5","day_range":"1"},"features":[{"type":"Feature","properties":{"acq_date":"2026-09-02","acq_time":947,"confidence":"n","satellite":"N","instrument":"VIIRS","version":"2.0NRT","bright_ti4":295.8,"frp":0.68,"daynight":"N"},"geometry":{"type":"Point","coordinates":[-119.62071,39.49075]}},{"type":"Feature","properties":{"acq_date":"2026-09-02","acq_time":947,"confidence":"n","satellite":"N","instrument":"VIIRS","version":"2.0NRT","bright_ti4":304.93,"frp":0.76,"daynight":"N"},"geometry":{"type":"Point","coordinates":[-119.26245,39.62101]}},{"type":"Feature","properties":{"acq_date":"2026-09-02","acq_time":947,"confidence":"n","satellite":"N","instrument":"VIIRS","version":"2.0NRT","bright_ti4":322.72,"frp":2.29,"daynight":"N"},"geometry":{"type":"Point","coordinates":[-114.25565,40.82262]}},{"type":"Feature","properties":{"acq_date":"2026-09-02","acq_time":947,"confidence":"n","satellite":"N","instrument":"VIIRS","version":"2.0NRT","bright_ti4":318.66,"frp":2.45,"daynight":"N"},"geometry":{"type":"Point","coordinates":[-117.66622,41.54628]}},{"type":"Feature","properties":{"acq_date":"2026-09-02","acq_time":947,"confidence":"n","satellite":"N","instrument":"VIIRS","version":"2.0NRT","bright_ti4":303.99,"frp":0.96,"daynight":"N"},"geometry":{"type":"Point","coordinates":[-115.66753,43.14545]}},{"type":"Feature","properties":{"acq_date":"2026-09-02","acq_time":947,"confidence":"n","satellite":"N","instrument":"VIIRS","version":"2.0NRT","bright_ti4":299.69,"frp":0.72,"daynight":"N"},"geometry":{"type":"Point","coordinates":[-115.73268,43.17912]}},{"type":"Feature","properties":{"acq_date":"2026-09-02","acq_time":949,"confidence":"n","satellite":"N","instrument":"VIIRS","version":"2.0NRT","bright_ti4":301.83,"frp":0.4,"daynight":"N"},"geometry":{"type":"Point","coordinates":[-116.81255,32.45381]}},{"type":"Feature","properties":{"acq_date":"2026-09-02","acq_time":949,"confidence":"n","satellite":"N","instrument":"VIIRS","version":"2.0NRT","bright_ti4":312.47,"frp":1.14,"daynight":"N"},"geometry":{"type":"Point","coordinates":[-116.83295,32.49501]}},{"type":"Feature","properties":{"acq_date":"2026-09-02","acq_time":949,"confidence":"n","satellite":"N","instrument":"VIIRS","version":"2.0NRT","bright_ti4":300.59,"frp":0.76,"daynight":"N"},"geometry":{"type":"Point","coordinates":[-116.78047,32.52617]}},{"type":"Feature","properties":{"acq_date":"2026-09-02","acq_time":949,"confidence":"n","satellite":"N","instrument":"VIIRS","version":"2.0NRT","bright_ti4":329.4,"frp":3.14,"daynight":"N"},"geometry":{"type":"Point","coordinates":[-114.93655,32.538]}},{"type":"Feature","properties":{"acq_date":"2026-09-02","acq_time":949,"confidence":"n","satellite":"N","instrument":"VIIRS","version":"2.0NRT","bright_ti4":306.39,"frp":0.56,"daynight":"N"},"geometry":{"type":"Point","coordinates":[-117.01062,32.59871]}},{"type":"Feature","properties":{"acq_date":"2026-09-02","acq_time":949,"confidence":"n","satellite":"N","instrument":"VIIRS","version":"2.0NRT","bright_ti4":310.8,"frp":1.29,"daynight":"N"},"geometry":{"type":"Point","coordinates":[-115.52556,32.61221]}},{"type":"Feature","properties":{"acq_date":"2026-09-02","acq_time":949,"confidence":"n","satellite":"N","instrument":"VIIRS","version":"2.0NRT","bright_ti4":303.22,"frp":0.56,"daynight":"N"},"geometry":{"type":"Point","coordinates":[-117.61877,33.49208]}},{"type":"Feature","properties":{"acq_date":"2026-09-02","acq_time":949,"confidence":"n","satellite":"N","instrument":"VIIRS","version":"2.0NRT","bright_ti4":310.49,"frp":1.08,"daynight":"N"},"geometry":{"type":"Point","coordinates":[-117.82249,33.61197]}},{"type":"Feature","properties":{"acq_date":"2026-09-02","acq_time":949,"confidence":"n","satellite":"N","instrument":"VIIRS","version":"2.0NRT","bright_ti4":304.18,"frp":0.69,"daynight":"N"},"geometry":{"type":"Point","coordinates":[-117.7111,33.71696]}},{"type":"Feature","properties":{"acq_date":"2026-09-02","acq_time":949,"confidence":"n","satellite":"N","instrument":"VIIRS","version":"2.0NRT","bright_ti4":308.12,"frp":0.4,"daynight":"N"},"geometry":{"type":"Point","coordinates":[-118.21551,33.77443]}},{"type":"Feature","properties":{"acq_date":"2026-09-02","acq_time":949,"confidence":"n","satellite":"N","instrument":"VIIRS","version":"2.0NRT","bright_ti4":309.53,"frp":0.87,"daynight":"N"},"geometry":{"type":"Point","coordinates":[-118.23627,33.77759]}},{"type":"Feature","properties":{"acq_date":"2026-09-02","acq_time":949,"confidence":"n","satellite":"N","instrument":"VIIRS","version":"2.0NRT","bright_ti4":311.13,"frp":0.74,"daynight":"N"},"geometry":{"type":"Point","coordinates":[-117.47356,33.7948]}},{"type":"Feature","properties":{"acq_date":"2026-09-02","acq_time":949,"confidence":"n","satellite":"N","instrument":"VIIRS","version":"2.0NRT","bright_ti4":309.99,"frp":1.75,"daynight":"N"},"geometry":{"type":"Point","coordinates":[-118.33342,33.85265]}},{"type":"Feature","properties":{"acq_date":"2026-09-02","acq_time":949,"confidence":"n","satellite":"N","instrument":"VIIRS","version":"2.0NRT","bright_ti4":301.01,"frp":0.71,"daynight":"N"},"geometry":{"type":"Point","coordinates":[-118.10747,34.03531]}},{"type":"Feature","properties":{"acq_date":"2026-09-02","acq_time":949,"confidence":"n","satellite":"N","instrument":"VIIRS","version":"2.0NRT","bright_ti4":304.51,"frp":0.59,"daynight":"N"},"geometry":{"type":"Point","coordinates":[-117.82323,34.03947]}},{"type":"Feature","properties":{"acq_date":"2026-09-02","acq_time":949,"confidence":"n","satellite":"N","instrument":"VIIRS","version":"2.0NRT","bright_ti4":309.63,"frp":0.69,"daynight":"N"},"geometry":{"type":"Point","coordinates":[-117.5023,34.08113]}},{"type":"Feature","properties":{"acq_date":"2026-09-02","acq_time":949,"confidence":"n","satellite":"N","instrument":"VIIRS","version":"2.0NRT","bright_ti4":297.97,"frp":0.13,"daynight":"N"},"geometry":{"type":"Point","coordinates":[-117.42564,34.14342]}},{"type":"Feature","properties":{"acq_date":"2026-09-02","acq_time":949,"confidence":"n","satellite":"N","instrument":"VIIRS","version":"2.0NRT","bright_ti4":309.26,"frp":0.93,"daynight":"N"},"geometry":{"type":"Point","coordinates":[-118.19418,34.15369]}},{"type":"Feature","properties":{"acq_date":"2026-09-02","acq_time":949,"confidence":"n","satellite":"N","instrument":"VIIRS","version":"2.0NRT","bright_ti4":307.12,"frp":0.61,"daynight":"N"},"geometry":{"type":"Point","coordinates":[-118.38258,34.24362]}},{"type":"Feature","properties":{"acq_date":"2026-09-02","acq_time":949,"confidence":"n","satellite":"N","instrument":"VIIRS","version":"2.0NRT","bright_ti4":305.62,"frp":0.82,"daynight":"N"},"geometry":{"type":"Point","coordinates":[-118.801,34.29182]}},{"type":"Feature","properties":{"acq_date":"2026-09-02","acq_time":949,"confidence":"n","satellite":"N","instrument":"VIIRS","version":"2.0NRT","bright_ti4":327.16,"frp":1.99,"daynight":"N"},"geometry":{"type":"Point","coordinates":[-118.52114,34.33472]}},{"type":"Feature","properties":{"acq_date":"2026-09-02","acq_time":949,"confidence":"n","satellite":"N","instrument":"VIIRS","version":"2.0NRT","bright_ti4":311.72,"frp":1.15,"daynight":"N"},"geometry":{"type":"Point","coordinates":[-116.85268,34.35442]}},{"type":"Feature","properties":{"acq_date":"2026-09-02","acq_time":949,"confidence":"n","satellite":"N","instrument":"VIIRS","version":"2.0NRT","bright_ti4":296.46,"frp":1.07,"daynight":"N"},"geometry":{"type":"Point","coordinates":[-118.6481,34.42748]}},{"type":"Feature","properties":{"acq_date":"2026-09-02","acq_time":949,"confidence":"n","satellite":"N","instrument":"VIIRS","version":"2.0NRT","bright_ti4":316.15,"frp":0.88,"daynight":"N"},"geometry":{"type":"Point","coordinates":[-118.6431,34.43019]}},{"type":"Feature","properties":{"acq_date":"2026-09-02","acq_time":949,"confidence":"n","satellite":"N","instrument":"VIIRS","version":"2.0NRT","bright_ti4":299.4,"frp":0.71,"daynight":"N"},"geometry":{"type":"Point","coordinates":[-118.6466,34.43415]}},{"type":"Feature","properties":{"acq_date":"2026-09-02","acq_time":949,"confidence":"n","satellite":"N","instrument":"VIIRS","version":"2.0NRT","bright_ti4":311.3,"frp":1.21,"daynight":"N"},"geometry":{"type":"Point","coordinates":[-117.33768,34.60835]}},{"type":"Feature","properties":{"acq_date":"2026-09-02","acq_time":949,"confidence":"n","satellite":"N","instrument":"VIIRS","version":"2.0NRT","bright_ti4":320.57,"frp":1.62,"daynight":"N"},"geometry":{"type":"Point","coordinates":[-117.09946,34.62163]}},{"type":"Feature","properties":{"acq_date":"2026-09-02","acq_time":949,"confidence":"n","satellite":"N","instrument":"VIIRS","version":"2.0NRT","bright_ti4":301.27,"frp":0.57,"daynight":"N"},"geometry":{"type":"Point","coordinates":[-118.74964,34.81847]}},{"type":"Feature","properties":{"acq_date":"2026-09-02","acq_time":949,"confidence":"n","satellite":"N","instrument":"VIIRS","version":"2.0NRT","bright_ti4":314.13,"frp":1.58,"daynight":"N"},"geometry":{"type":"Point","coordinates":[-113.31609,35.51613]}},{"type":"Feature","properties":{"acq_date":"2026-09-02","acq_time":949,"confidence":"n","satellite":"N","instrument":"VIIRS","version":"2.0NRT","bright_ti4":330.21,"frp":4.73,"daynight":"N"},"geometry":{"type":"Point","coordinates":[-121.32288,35.86561]}},{"type":"Feature","properties":{"acq_date":"2026-09-02","acq_time":949,"confidence":"n","satellite":"N","instrument":"VIIRS","version":"2.0NRT","bright_ti4":298.95,"frp":1.14,"daynight":"N"},"geometry":{"type":"Point","coordinates":[-121.38255,35.87264]}},{"type":"Feature","properties":{"acq_date":"2026-09-02","acq_time":949,"confidence":"n","satellite":"N","instrument":"VIIRS","version":"2.0NRT","bright_ti4":312.11,"frp":3.88,"daynight":"N"},"geometry":{"type":"Point","coordinates":[-121.41376,35.88771]}},{"type":"Feature","properties":{"acq_date":"2026-09-02","acq_time":949,"confidence":"n","satellite":"N","instrument":"VIIRS","version":"2.0NRT","bright_ti4":332.55,"frp":3.88,"daynight":"N"},"geometry":{"type":"Point","coordinates":[-121.41978,35.88842]}},{"type":"Feature","properties":{"acq_date":"2026-09-02","acq_time":949,"confidence":"n","satellite":"N","instrument":"VIIRS","version":"2.0NRT","bright_ti4":340.97,"frp":5.35,"daynight":"N"},"geometry":{"type":"Point","coordinates":[-121.4257,35.88911]}},{"type":"Feature","properties":{"acq_date":"2026-09-02","acq_time":949,"confidence":"n","satellite":"N","instrument":"VIIRS","version":"2.0NRT","bright_ti4":306.11,"frp":5.35,"daynight":"N"},"geometry":{"type":"Point","coordinates":[-121.43192,35.88984]}},{"type":"Feature","properties":{"acq_date":"2026-09-02","acq_time":949,"confidence":"n","satellite":"N","instrument":"VIIRS","version":"2.0NRT","bright_ti4":301.85,"frp":1.61,"daynight":"N"},"geometry":{"type":"Point","coordinates":[-121.40765,35.8908]}},{"type":"Feature","properties":{"acq_date":"2026-09-02","acq_time":949,"confidence":"n","satellite":"N","instrument":"VIIRS","version":"2.0NRT","bright_ti4":328.05,"frp":8.1,"daynight":"N"},"geometry":{"type":"Point","coordinates":[-121.41358,35.89149]}},{"type":"Feature","properties":{"acq_date":"2026-09-02","acq_time":949,"confidence":"n","satellite":"N","instrument":"VIIRS","version":"2.0NRT","bright_ti4":350.69,"frp":8.1,"daynight":"N"},"geometry":{"type":"Point","coordinates":[-121.41956,35.8922]}},{"type":"Feature","properties":{"acq_date":"2026-09-02","acq_time":949,"confidence":"n","satellite":"N","instrument":"VIIRS","version":"2.0NRT","bright_ti4":323.76,"frp":3.81,"daynight":"N"},"geometry":{"type":"Point","coordinates":[-121.42561,35.89291]}},{"type":"Feature","properties":{"acq_date":"2026-09-02","acq_time":949,"confidence":"n","satellite":"N","instrument":"VIIRS","version":"2.0NRT","bright_ti4":332.86,"frp":8.1,"daynight":"N"},"geometry":{"type":"Point","coordinates":[-121.41348,35.89529]}},{"type":"Feature","properties":{"acq_date":"2026-09-02","acq_time":949,"confidence":"n","satellite":"N","instrument":"VIIRS","version":"2.0NRT","bright_ti4":319.31,"frp":8.1,"daynight":"N"},"geometry":{"type":"Point","coordinates":[-121.41937,35.89598]}},{"type":"Feature","properties":{"acq_date":"2026-09-02","acq_time":949,"confidence":"n","satellite":"N","instrument":"VIIRS","version":"2.0NRT","bright_ti4":319.42,"frp":3.41,"daynight":"N"},"geometry":{"type":"Point","coordinates":[-121.41328,35.89907]}},{"type":"Feature","properties":{"acq_date":"2026-09-02","acq_time":949,"confidence":"n","satellite":"N","instrument":"VIIRS","version":"2.0NRT","bright_ti4":300.33,"frp":1.19,"daynight":"N"},"geometry":{"type":"Point","coordinates":[-121.407,35.90213]}},{"type":"Feature","properties":{"acq_date":"2026-09-02","acq_time":949,"confidence":"n","satellite":"N","instrument":"VIIRS","version":"2.0NRT","bright_ti4":338.75,"frp":6.37,"daynight":"N"},"geometry":{"type":"Point","coordinates":[-121.46557,35.93196]}},{"type":"Feature","properties":{"acq_date":"2026-09-02","acq_time":949,"confidence":"n","satellite":"N","instrument":"VIIRS","version":"2.0NRT","bright_ti4":316.21,"frp":1.76,"daynight":"N"},"geometry":{"type":"Point","coordinates":[-121.46195,35.94681]}},{"type":"Feature","properties":{"acq_date":"2026-09-02","acq_time":949,"confidence":"n","satellite":"N","instrument":"VIIRS","version":"2.0NRT","bright_ti4":308.61,"frp":1.76,"daynight":"N"},"geometry":{"type":"Point","coordinates":[-121.46766,35.94749]}},{"type":"Feature","properties":{"acq_date":"2026-09-02","acq_time":949,"confidence":"n","satellite":"N","instrument":"VIIRS","version":"2.0NRT","bright_ti4":305.32,"frp":1.3,"daynight":"N"},"geometry":{"type":"Point","coordinates":[-121.46072,35.95049]}},{"type":"Feature","properties":{"acq_date":"2026-09-02","acq_time":949,"confidence":"n","satellite":"N","instrument":"VIIRS","version":"2.0NRT","bright_ti4":313.99,"frp":1.3,"daynight":"N"},"geometry":{"type":"Point","coordinates":[-121.46631,35.95115]}},{"type":"Feature","properties":{"acq_date":"2026-09-02","acq_time":949,"confidence":"n","satellite":"N","instrument":"VIIRS","version":"2.0NRT","bright_ti4":299.86,"frp":1.3,"daynight":"N"},"geometry":{"type":"Point","coordinates":[-121.45956,35.95416]}},{"type":"Feature","properties":{"acq_date":"2026-09-02","acq_time":949,"confidence":"n","satellite":"N","instrument":"VIIRS","version":"2.0NRT","bright_ti4":302.93,"frp":1.59,"daynight":"N"},"geometry":{"type":"Point","coordinates":[-121.4584,35.95784]}},{"type":"Feature","properties":{"acq_date":"2026-09-02","acq_time":949,"confidence":"n","satellite":"N","instrument":"VIIRS","version":"2.0NRT","bright_ti4":296.46,"frp":1.25,"daynight":"N"},"geometry":{"type":"Point","coordinates":[-121.45162,35.96084]}},{"type":"Feature","properties":{"acq_date":"2026-09-02","acq_time":949,"confidence":"n","satellite":"N","instrument":"VIIRS","version":"2.0NRT","bright_ti4":314.33,"frp":1.59,"daynight":"N"},"geometry":{"type":"Point","coordinates":[-121.45715,35.96151]}},{"type":"Feature","properties":{"acq_date":"2026-09-02","acq_time":949,"confidence":"n","satellite":"N","instrument":"VIIRS","version":"2.0NRT","bright_ti4":304.79,"frp":1.12,"daynight":"N"},"geometry":{"type":"Point","coordinates":[-121.45592,35.96518]}},{"type":"Feature","properties":{"acq_date":"2026-09-02","acq_time":949,"confidence":"n","satellite":"N","instrument":"VIIRS","version":"2.0NRT","bright_ti4":320.02,"frp":1.75,"daynight":"N"},"geometry":{"type":"Point","coordinates":[-114.91251,36.35774]}},{"type":"Feature","properties":{"acq_date":"2026-09-02","acq_time":949,"confidence":"n","satellite":"N","instrument":"VIIRS","version":"2.0NRT","bright_ti4":315.22,"frp":0.85,"daynight":"N"},"geometry":{"type":"Point","coordinates":[-114.87808,36.38317]}},{"type":"Feature","properties":{"acq_date":"2026-09-02","acq_time":949,"confidence":"n","satellite":"N","instrument":"VIIRS","version":"2.0NRT","bright_ti4":296.82,"frp":0.68,"daynight":"N"},"geometry":{"type":"Point","coordinates":[-120.13382,36.66385]}},{"type":"Feature","properties":{"acq_date":"2026-09-02","acq_time":949,"confidence":"n","satellite":"N","instrument":"VIIRS","version":"2.0NRT","bright_ti4":296.86,"frp":0.57,"daynight":"N"},"geometry":{"type":"Point","coordinates":[-121.76617,36.71355]}},{"type":"Feature","properties":{"acq_date":"2026-09-02","acq_time":949,"confidence":"n","satellite":"N","instrument":"VIIRS","version":"2.0NRT","bright_ti4":306.45,"frp":0.38,"daynight":"N"},"geometry":{"type":"Point","coordinates":[-120.19489,37.0255]}},{"type":"Feature","properties":{"acq_date":"2026-09-02","acq_time":949,"confidence":"n","satellite":"N","instrument":"VIIRS","version":"2.0NRT","bright_ti4":298.77,"frp":0.19,"daynight":"N"},"geometry":{"type":"Point","coordinates":[-120.13027,37.03571]}},{"type":"Feature","properties":{"acq_date":"2026-09-02","acq_time":949,"confidence":"n","satellite":"N","instrument":"VIIRS","version":"2.0NRT","bright_ti4":302.93,"frp":0.92,"daynight":"N"},"geometry":{"type":"Point","coordinates":[-121.93063,37.45392]}},{"type":"Feature","properties":{"acq_date":"2026-09-02","acq_time":949,"confidence":"n","satellite":"N","instrument":"VIIRS","version":"2.0NRT","bright_ti4":303.38,"frp":1.05,"daynight":"N"},"geometry":{"type":"Point","coordinates":[-121.186,37.88335]}},{"type":"Feature","properties":{"acq_date":"2026-09-02","acq_time":949,"confidence":"n","satellite":"N","instrument":"VIIRS","version":"2.0NRT","bright_ti4":299.05,"frp":1,"daynight":"N"},"geometry":{"type":"Point","coordinates":[-121.18629,37.88442]}},{"type":"Feature","properties":{"acq_date":"2026-09-02","acq_time":949,"confidence":"n","satellite":"N","instrument":"VIIRS","version":"2.0NRT","bright_ti4":295.92,"frp":0.74,"daynight":"N"},"geometry":{"type":"Point","coordinates":[-122.39726,37.95144]}}]}