{"type":"FeatureCollection","name":"FIRMS VIIRS CA (last 1 day)","crs":{"type":"name","properties":{"name":"EPSG:4326"}},"fetched_at_utc":"2026-09-11T17:38:30.168Z","source":{"url":"https://firms.modaps.eosdis.nasa.gov/api/area/csv/8c4af552cf654445dd280dfb3ad9337c/VIIRS_SNPP_NRT/-125,32,-113,43.5/1","dataset":"VIIRS_SNPP_NRT","bbox":"-125,32,-113,43.5","day_range":"1"},"features":[{"type":"Feature","properties":{"acq_date":"2026-09-11","acq_time":841,"confidence":"n","satellite":"N","instrument":"VIIRS","version":"2.0NRT","bright_ti4":303.06,"frp":0.64,"daynight":"N"},"geometry":{"type":"Point","coordinates":[-116.83881,32.49581]}},{"type":"Feature","properties":{"acq_date":"2026-09-11","acq_time":1019,"confidence":"n","satellite":"N","instrument":"VIIRS","version":"2.0NRT","bright_ti4":313.5,"frp":0.75,"daynight":"N"},"geometry":{"type":"Point","coordinates":[-120.13412,37.03823]}},{"type":"Feature","properties":{"acq_date":"2026-09-11","acq_time":1019,"confidence":"n","satellite":"N","instrument":"VIIRS","version":"2.0NRT","bright_ti4":300.86,"frp":0.39,"daynight":"N"},"geometry":{"type":"Point","coordinates":[-121.68009,37.18449]}},{"type":"Feature","properties":{"acq_date":"2026-09-11","acq_time":1019,"confidence":"n","satellite":"N","instrument":"VIIRS","version":"2.0NRT","bright_ti4":300.01,"frp":0.42,"daynight":"N"},"geometry":{"type":"Point","coordinates":[-121.90274,37.21173]}},{"type":"Feature","properties":{"acq_date":"2026-09-11","acq_time":1019,"confidence":"n","satellite":"N","instrument":"VIIRS","version":"2.0NRT","bright_ti4":306.63,"frp":0.8,"daynight":"N"},"geometry":{"type":"Point","coordinates":[-121.93315,37.4529]}},{"type":"Feature","properties":{"acq_date":"2026-09-11","acq_time":1019,"confidence":"n","satellite":"N","instrument":"VIIRS","version":"2.0NRT","bright_ti4":310.76,"frp":1.02,"daynight":"N"},"geometry":{"type":"Point","coordinates":[-121.18493,37.88223]}},{"type":"Feature","properties":{"acq_date":"2026-09-11","acq_time":1019,"confidence":"n","satellite":"N","instrument":"VIIRS","version":"2.0NRT","bright_ti4":306.64,"frp":0.55,"daynight":"N"},"geometry":{"type":"Point","coordinates":[-121.93443,38.00405]}},{"type":"Feature","properties":{"acq_date":"2026-09-11","acq_time":1019,"confidence":"n","satellite":"N","instrument":"VIIRS","version":"2.0NRT","bright_ti4":301.28,"frp":0.57,"daynight":"N"},"geometry":{"type":"Point","coordinates":[-122.09865,38.02965]}},{"type":"Feature","properties":{"acq_date":"2026-09-11","acq_time":1019,"confidence":"n","satellite":"N","instrument":"VIIRS","version":"2.0NRT","bright_ti4":315.37,"frp":0.71,"daynight":"N"},"geometry":{"type":"Point","coordinates":[-121.18761,38.18474]}},{"type":"Feature","properties":{"acq_date":"2026-09-11","acq_time":1019,"confidence":"n","satellite":"N","instrument":"VIIRS","version":"2.0NRT","bright_ti4":310.95,"frp":1.13,"daynight":"N"},"geometry":{"type":"Point","coordinates":[-121.19015,38.18664]}},{"type":"Feature","properties":{"acq_date":"2026-09-11","acq_time":1019,"confidence":"n","satellite":"N","instrument":"VIIRS","version":"2.0NRT","bright_ti4":313.36,"frp":1.46,"daynight":"N"},"geometry":{"type":"Point","coordinates":[-122.97565,39.21023]}},{"type":"Feature","properties":{"acq_date":"2026-09-11","acq_time":1019,"confidence":"h","satellite":"N","instrument":"VIIRS","version":"2.0NRT","bright_ti4":367,"frp":12.78,"daynight":"N"},"geometry":{"type":"Point","coordinates":[-122.966,39.21207]}},{"type":"Feature","properties":{"acq_date":"2026-09-11","acq_time":1019,"confidence":"n","satellite":"N","instrument":"VIIRS","version":"2.0NRT","bright_ti4":345.97,"frp":4.7,"daynight":"N"},"geometry":{"type":"Point","coordinates":[-122.9704,39.2128]}},{"type":"Feature","properties":{"acq_date":"2026-09-11","acq_time":1019,"confidence":"n","satellite":"N","instrument":"VIIRS","version":"2.0NRT","bright_ti4":335.16,"frp":4.7,"daynight":"N"},"geometry":{"type":"Point","coordinates":[-122.97481,39.21352]}},{"type":"Feature","properties":{"acq_date":"2026-09-11","acq_time":1019,"confidence":"n","satellite":"N","instrument":"VIIRS","version":"2.0NRT","bright_ti4":324.22,"frp":2.66,"daynight":"N"},"geometry":{"type":"Point","coordinates":[-122.97923,39.21425]}},{"type":"Feature","properties":{"acq_date":"2026-09-11","acq_time":1019,"confidence":"n","satellite":"N","instrument":"VIIRS","version":"2.0NRT","bright_ti4":336.3,"frp":2.66,"daynight":"N"},"geometry":{"type":"Point","coordinates":[-122.98363,39.21498]}},{"type":"Feature","properties":{"acq_date":"2026-09-11","acq_time":1019,"confidence":"n","satellite":"N","instrument":"VIIRS","version":"2.0NRT","bright_ti4":338.23,"frp":12.78,"daynight":"N"},"geometry":{"type":"Point","coordinates":[-122.96516,39.21537]}},{"type":"Feature","properties":{"acq_date":"2026-09-11","acq_time":1019,"confidence":"n","satellite":"N","instrument":"VIIRS","version":"2.0NRT","bright_ti4":347.46,"frp":4.95,"daynight":"N"},"geometry":{"type":"Point","coordinates":[-122.98804,39.2157]}},{"type":"Feature","properties":{"acq_date":"2026-09-11","acq_time":1019,"confidence":"n","satellite":"N","instrument":"VIIRS","version":"2.0NRT","bright_ti4":336.39,"frp":4.7,"daynight":"N"},"geometry":{"type":"Point","coordinates":[-122.96959,39.2161]}},{"type":"Feature","properties":{"acq_date":"2026-09-11","acq_time":1019,"confidence":"n","satellite":"N","instrument":"VIIRS","version":"2.0NRT","bright_ti4":316.64,"frp":4.95,"daynight":"N"},"geometry":{"type":"Point","coordinates":[-122.99249,39.21643]}},{"type":"Feature","properties":{"acq_date":"2026-09-11","acq_time":1019,"confidence":"n","satellite":"N","instrument":"VIIRS","version":"2.0NRT","bright_ti4":344.88,"frp":4.7,"daynight":"N"},"geometry":{"type":"Point","coordinates":[-122.97399,39.21682]}},{"type":"Feature","properties":{"acq_date":"2026-09-11","acq_time":1019,"confidence":"n","satellite":"N","instrument":"VIIRS","version":"2.0NRT","bright_ti4":325.91,"frp":2.66,"daynight":"N"},"geometry":{"type":"Point","coordinates":[-122.97839,39.21755]}},{"type":"Feature","properties":{"acq_date":"2026-09-11","acq_time":1019,"confidence":"n","satellite":"N","instrument":"VIIRS","version":"2.0NRT","bright_ti4":355.3,"frp":18.16,"daynight":"N"},"geometry":{"type":"Point","coordinates":[-122.95992,39.21794]}},{"type":"Feature","properties":{"acq_date":"2026-09-11","acq_time":1019,"confidence":"n","satellite":"N","instrument":"VIIRS","version":"2.0NRT","bright_ti4":325.6,"frp":2.66,"daynight":"N"},"geometry":{"type":"Point","coordinates":[-122.9828,39.21827]}},{"type":"Feature","properties":{"acq_date":"2026-09-11","acq_time":1019,"confidence":"n","satellite":"N","instrument":"VIIRS","version":"2.0NRT","bright_ti4":352.53,"frp":18.16,"daynight":"N"},"geometry":{"type":"Point","coordinates":[-122.96435,39.21867]}},{"type":"Feature","properties":{"acq_date":"2026-09-11","acq_time":1019,"confidence":"n","satellite":"N","instrument":"VIIRS","version":"2.0NRT","bright_ti4":342.23,"frp":4.95,"daynight":"N"},"geometry":{"type":"Point","coordinates":[-122.98721,39.219]}},{"type":"Feature","properties":{"acq_date":"2026-09-11","acq_time":1019,"confidence":"n","satellite":"N","instrument":"VIIRS","version":"2.0NRT","bright_ti4":329.28,"frp":5.02,"daynight":"N"},"geometry":{"type":"Point","coordinates":[-122.96876,39.21939]}},{"type":"Feature","properties":{"acq_date":"2026-09-11","acq_time":1019,"confidence":"n","satellite":"N","instrument":"VIIRS","version":"2.0NRT","bright_ti4":349.01,"frp":4.95,"daynight":"N"},"geometry":{"type":"Point","coordinates":[-122.99164,39.21973]}},{"type":"Feature","properties":{"acq_date":"2026-09-11","acq_time":1019,"confidence":"n","satellite":"N","instrument":"VIIRS","version":"2.0NRT","bright_ti4":334.7,"frp":5.02,"daynight":"N"},"geometry":{"type":"Point","coordinates":[-122.97318,39.22012]}},{"type":"Feature","properties":{"acq_date":"2026-09-11","acq_time":1019,"confidence":"n","satellite":"N","instrument":"VIIRS","version":"2.0NRT","bright_ti4":327.62,"frp":3.19,"daynight":"N"},"geometry":{"type":"Point","coordinates":[-122.99608,39.22045]}},{"type":"Feature","properties":{"acq_date":"2026-09-11","acq_time":1019,"confidence":"n","satellite":"N","instrument":"VIIRS","version":"2.0NRT","bright_ti4":332.08,"frp":2.35,"daynight":"N"},"geometry":{"type":"Point","coordinates":[-122.97758,39.22084]}},{"type":"Feature","properties":{"acq_date":"2026-09-11","acq_time":1019,"confidence":"n","satellite":"N","instrument":"VIIRS","version":"2.0NRT","bright_ti4":324.08,"frp":18.16,"daynight":"N"},"geometry":{"type":"Point","coordinates":[-122.95902,39.22123]}},{"type":"Feature","properties":{"acq_date":"2026-09-11","acq_time":1019,"confidence":"n","satellite":"N","instrument":"VIIRS","version":"2.0NRT","bright_ti4":305.49,"frp":2.35,"daynight":"N"},"geometry":{"type":"Point","coordinates":[-122.98198,39.22157]}},{"type":"Feature","properties":{"acq_date":"2026-09-11","acq_time":1019,"confidence":"n","satellite":"N","instrument":"VIIRS","version":"2.0NRT","bright_ti4":346.85,"frp":18.16,"daynight":"N"},"geometry":{"type":"Point","coordinates":[-122.9635,39.22196]}},{"type":"Feature","properties":{"acq_date":"2026-09-11","acq_time":1019,"confidence":"n","satellite":"N","instrument":"VIIRS","version":"2.0NRT","bright_ti4":334.8,"frp":5.24,"daynight":"N"},"geometry":{"type":"Point","coordinates":[-122.98638,39.22229]}},{"type":"Feature","properties":{"acq_date":"2026-09-11","acq_time":1019,"confidence":"n","satellite":"N","instrument":"VIIRS","version":"2.0NRT","bright_ti4":351.86,"frp":5.02,"daynight":"N"},"geometry":{"type":"Point","coordinates":[-122.96791,39.22268]}},{"type":"Feature","properties":{"acq_date":"2026-09-11","acq_time":1019,"confidence":"n","satellite":"N","instrument":"VIIRS","version":"2.0NRT","bright_ti4":349.9,"frp":5.24,"daynight":"N"},"geometry":{"type":"Point","coordinates":[-122.99079,39.22302]}},{"type":"Feature","properties":{"acq_date":"2026-09-11","acq_time":1019,"confidence":"n","satellite":"N","instrument":"VIIRS","version":"2.0NRT","bright_ti4":323.38,"frp":3.57,"daynight":"N"},"geometry":{"type":"Point","coordinates":[-122.9491,39.22302]}},{"type":"Feature","properties":{"acq_date":"2026-09-11","acq_time":1019,"confidence":"n","satellite":"N","instrument":"VIIRS","version":"2.0NRT","bright_ti4":329.97,"frp":5.02,"daynight":"N"},"geometry":{"type":"Point","coordinates":[-122.97234,39.22341]}},{"type":"Feature","properties":{"acq_date":"2026-09-11","acq_time":1019,"confidence":"n","satellite":"N","instrument":"VIIRS","version":"2.0NRT","bright_ti4":341.75,"frp":25.84,"daynight":"N"},"geometry":{"type":"Point","coordinates":[-122.99525,39.22375]}},{"type":"Feature","properties":{"acq_date":"2026-09-11","acq_time":1019,"confidence":"n","satellite":"N","instrument":"VIIRS","version":"2.0NRT","bright_ti4":325.47,"frp":3.57,"daynight":"N"},"geometry":{"type":"Point","coordinates":[-122.95364,39.22377]}},{"type":"Feature","properties":{"acq_date":"2026-09-11","acq_time":1019,"confidence":"n","satellite":"N","instrument":"VIIRS","version":"2.0NRT","bright_ti4":334.77,"frp":2.35,"daynight":"N"},"geometry":{"type":"Point","coordinates":[-122.97675,39.22414]}},{"type":"Feature","properties":{"acq_date":"2026-09-11","acq_time":1019,"confidence":"n","satellite":"N","instrument":"VIIRS","version":"2.0NRT","bright_ti4":351.22,"frp":9.29,"daynight":"N"},"geometry":{"type":"Point","coordinates":[-122.95813,39.22451]}},{"type":"Feature","properties":{"acq_date":"2026-09-11","acq_time":1019,"confidence":"n","satellite":"N","instrument":"VIIRS","version":"2.0NRT","bright_ti4":322.94,"frp":2.35,"daynight":"N"},"geometry":{"type":"Point","coordinates":[-122.98118,39.22486]}},{"type":"Feature","properties":{"acq_date":"2026-09-11","acq_time":1019,"confidence":"n","satellite":"N","instrument":"VIIRS","version":"2.0NRT","bright_ti4":355.34,"frp":9.29,"daynight":"N"},"geometry":{"type":"Point","coordinates":[-122.9626,39.22524]}},{"type":"Feature","properties":{"acq_date":"2026-09-11","acq_time":1019,"confidence":"n","satellite":"N","instrument":"VIIRS","version":"2.0NRT","bright_ti4":320.92,"frp":5.24,"daynight":"N"},"geometry":{"type":"Point","coordinates":[-122.98556,39.22559]}},{"type":"Feature","properties":{"acq_date":"2026-09-11","acq_time":1019,"confidence":"n","satellite":"N","instrument":"VIIRS","version":"2.0NRT","bright_ti4":354,"frp":28.09,"daynight":"N"},"geometry":{"type":"Point","coordinates":[-122.96704,39.22597]}},{"type":"Feature","properties":{"acq_date":"2026-09-11","acq_time":1019,"confidence":"n","satellite":"N","instrument":"VIIRS","version":"2.0NRT","bright_ti4":353.32,"frp":5.24,"daynight":"N"},"geometry":{"type":"Point","coordinates":[-122.98997,39.22631]}},{"type":"Feature","properties":{"acq_date":"2026-09-11","acq_time":1019,"confidence":"n","satellite":"N","instrument":"VIIRS","version":"2.0NRT","bright_ti4":347.93,"frp":3.57,"daynight":"N"},"geometry":{"type":"Point","coordinates":[-122.94819,39.22631]}},{"type":"Feature","properties":{"acq_date":"2026-09-11","acq_time":1019,"confidence":"n","satellite":"N","instrument":"VIIRS","version":"2.0NRT","bright_ti4":350.32,"frp":28.09,"daynight":"N"},"geometry":{"type":"Point","coordinates":[-122.97147,39.2267]}},{"type":"Feature","properties":{"acq_date":"2026-09-11","acq_time":1019,"confidence":"n","satellite":"N","instrument":"VIIRS","version":"2.0NRT","bright_ti4":338.16,"frp":25.84,"daynight":"N"},"geometry":{"type":"Point","coordinates":[-122.99442,39.22704]}},{"type":"Feature","properties":{"acq_date":"2026-09-11","acq_time":1019,"confidence":"n","satellite":"N","instrument":"VIIRS","version":"2.0NRT","bright_ti4":337.48,"frp":3.57,"daynight":"N"},"geometry":{"type":"Point","coordinates":[-122.95272,39.22705]}},{"type":"Feature","properties":{"acq_date":"2026-09-11","acq_time":1019,"confidence":"n","satellite":"N","instrument":"VIIRS","version":"2.0NRT","bright_ti4":344.93,"frp":10.85,"daynight":"N"},"geometry":{"type":"Point","coordinates":[-122.97593,39.22743]}},{"type":"Feature","properties":{"acq_date":"2026-09-11","acq_time":1019,"confidence":"n","satellite":"N","instrument":"VIIRS","version":"2.0NRT","bright_ti4":325.38,"frp":9.29,"daynight":"N"},"geometry":{"type":"Point","coordinates":[-122.95721,39.22779]}},{"type":"Feature","properties":{"acq_date":"2026-09-11","acq_time":1019,"confidence":"n","satellite":"N","instrument":"VIIRS","version":"2.0NRT","bright_ti4":328.56,"frp":10.85,"daynight":"N"},"geometry":{"type":"Point","coordinates":[-122.98035,39.22816]}},{"type":"Feature","properties":{"acq_date":"2026-09-11","acq_time":1019,"confidence":"n","satellite":"N","instrument":"VIIRS","version":"2.0NRT","bright_ti4":337.02,"frp":9.29,"daynight":"N"},"geometry":{"type":"Point","coordinates":[-122.96169,39.22853]}},{"type":"Feature","properties":{"acq_date":"2026-09-11","acq_time":1019,"confidence":"n","satellite":"N","instrument":"VIIRS","version":"2.0NRT","bright_ti4":353.31,"frp":6.17,"daynight":"N"},"geometry":{"type":"Point","coordinates":[-122.98474,39.22888]}},{"type":"Feature","properties":{"acq_date":"2026-09-11","acq_time":1019,"confidence":"n","satellite":"N","instrument":"VIIRS","version":"2.0NRT","bright_ti4":355.82,"frp":28.09,"daynight":"N"},"geometry":{"type":"Point","coordinates":[-122.96615,39.22926]}},{"type":"Feature","properties":{"acq_date":"2026-09-11","acq_time":1019,"confidence":"n","satellite":"N","instrument":"VIIRS","version":"2.0NRT","bright_ti4":330.74,"frp":10.93,"daynight":"N"},"geometry":{"type":"Point","coordinates":[-122.94724,39.22959]}},{"type":"Feature","properties":{"acq_date":"2026-09-11","acq_time":1019,"confidence":"n","satellite":"N","instrument":"VIIRS","version":"2.0NRT","bright_ti4":355.63,"frp":6.17,"daynight":"N"},"geometry":{"type":"Point","coordinates":[-122.98915,39.22961]}},{"type":"Feature","properties":{"acq_date":"2026-09-11","acq_time":1019,"confidence":"n","satellite":"N","instrument":"VIIRS","version":"2.0NRT","bright_ti4":338.26,"frp":28.09,"daynight":"N"},"geometry":{"type":"Point","coordinates":[-122.9706,39.22999]}},{"type":"Feature","properties":{"acq_date":"2026-09-11","acq_time":1019,"confidence":"n","satellite":"N","instrument":"VIIRS","version":"2.0NRT","bright_ti4":348.66,"frp":2.55,"daynight":"N"},"geometry":{"type":"Point","coordinates":[-122.99359,39.23033]}},{"type":"Feature","properties":{"acq_date":"2026-09-11","acq_time":1019,"confidence":"n","satellite":"N","instrument":"VIIRS","version":"2.0NRT","bright_ti4":356.99,"frp":10.93,"daynight":"N"},"geometry":{"type":"Point","coordinates":[-122.95178,39.23033]}},{"type":"Feature","properties":{"acq_date":"2026-09-11","acq_time":1019,"confidence":"h","satellite":"N","instrument":"VIIRS","version":"2.0NRT","bright_ti4":367,"frp":10.85,"daynight":"N"},"geometry":{"type":"Point","coordinates":[-122.97507,39.23072]}},{"type":"Feature","properties":{"acq_date":"2026-09-11","acq_time":1019,"confidence":"n","satellite":"N","instrument":"VIIRS","version":"2.0NRT","bright_ti4":312.7,"frp":2.55,"daynight":"N"},"geometry":{"type":"Point","coordinates":[-122.99801,39.23106]}},{"type":"Feature","properties":{"acq_date":"2026-09-11","acq_time":1019,"confidence":"n","satellite":"N","instrument":"VIIRS","version":"2.0NRT","bright_ti4":338.41,"frp":6.6,"daynight":"N"},"geometry":{"type":"Point","coordinates":[-122.95628,39.23107]}},{"type":"Feature","properties":{"acq_date":"2026-09-11","acq_time":1019,"confidence":"n","satellite":"N","instrument":"VIIRS","version":"2.0NRT","bright_ti4":337.76,"frp":10.85,"daynight":"N"},"geometry":{"type":"Point","coordinates":[-122.97952,39.23145]}},{"type":"Feature","properties":{"acq_date":"2026-09-11","acq_time":1019,"confidence":"n","satellite":"N","instrument":"VIIRS","version":"2.0NRT","bright_ti4":303.37,"frp":0.87,"daynight":"N"},"geometry":{"type":"Point","coordinates":[-123.00239,39.23178]}},{"type":"Feature","properties":{"acq_date":"2026-09-11","acq_time":1019,"confidence":"n","satellite":"N","instrument":"VIIRS","version":"2.0NRT","bright_ti4":334.29,"frp":6.6,"daynight":"N"},"geometry":{"type":"Point","coordinates":[-122.96078,39.23181]}},{"type":"Feature","properties":{"acq_date":"2026-09-11","acq_time":1019,"confidence":"n","satellite":"N","instrument":"VIIRS","version":"2.0NRT","bright_ti4":351.25,"frp":6.17,"daynight":"N"},"geometry":{"type":"Point","coordinates":[-122.98392,39.23217]}},{"type":"Feature","properties":{"acq_date":"2026-09-11","acq_time":1019,"confidence":"n","satellite":"N","instrument":"VIIRS","version":"2.0NRT","bright_ti4":328.11,"frp":1.89,"daynight":"N"},"geometry":{"type":"Point","coordinates":[-122.96526,39.23254]}},{"type":"Feature","properties":{"acq_date":"2026-09-11","acq_time":1019,"confidence":"n","satellite":"N","instrument":"VIIRS","version":"2.0NRT","bright_ti4":322.43,"frp":6.17,"daynight":"N"},"geometry":{"type":"Point","coordinates":[-122.98832,39.2329]}},{"type":"Feature","properties":{"acq_date":"2026-09-11","acq_time":1019,"confidence":"n","satellite":"N","instrument":"VIIRS","version":"2.0NRT","bright_ti4":327.59,"frp":1.89,"daynight":"N"},"geometry":{"type":"Point","coordinates":[-122.96973,39.23327]}},{"type":"Feature","properties":{"acq_date":"2026-09-11","acq_time":1019,"confidence":"n","satellite":"N","instrument":"VIIRS","version":"2.0NRT","bright_ti4":339.62,"frp":10.93,"daynight":"N"},"geometry":{"type":"Point","coordinates":[-122.95082,39.23361]}},{"type":"Feature","properties":{"acq_date":"2026-09-11","acq_time":1019,"confidence":"n","satellite":"N","instrument":"VIIRS","version":"2.0NRT","bright_ti4":315.51,"frp":2.55,"daynight":"N"},"geometry":{"type":"Point","coordinates":[-122.99274,39.23363]}},{"type":"Feature","properties":{"acq_date":"2026-09-11","acq_time":1019,"confidence":"n","satellite":"N","instrument":"VIIRS","version":"2.0NRT","bright_ti4":311.3,"frp":1.92,"daynight":"N"},"geometry":{"type":"Point","coordinates":[-122.9742,39.234]}},{"type":"Feature","properties":{"acq_date":"2026-09-11","acq_time":1019,"confidence":"n","satellite":"N","instrument":"VIIRS","version":"2.0NRT","bright_ti4":307.05,"frp":2.55,"daynight":"N"},"geometry":{"type":"Point","coordinates":[-122.99718,39.23435]}},{"type":"Feature","properties":{"acq_date":"2026-09-11","acq_time":1019,"confidence":"n","satellite":"N","instrument":"VIIRS","version":"2.0NRT","bright_ti4":343.34,"frp":6.6,"daynight":"N"},"geometry":{"type":"Point","coordinates":[-122.95535,39.23435]}},{"type":"Feature","properties":{"acq_date":"2026-09-11","acq_time":1019,"confidence":"n","satellite":"N","instrument":"VIIRS","version":"2.0NRT","bright_ti4":309.78,"frp":1.92,"daynight":"N"},"geometry":{"type":"Point","coordinates":[-122.97866,39.23474]}},{"type":"Feature","properties":{"acq_date":"2026-09-11","acq_time":1019,"confidence":"n","satellite":"N","instrument":"VIIRS","version":"2.0NRT","bright_ti4":309.11,"frp":0.87,"daynight":"N"},"geometry":{"type":"Point","coordinates":[-123.00156,39.23507]}},{"type":"Feature","properties":{"acq_date":"2026-09-11","acq_time":1019,"confidence":"n","satellite":"N","instrument":"VIIRS","version":"2.0NRT","bright_ti4":316.64,"frp":6.6,"daynight":"N"},"geometry":{"type":"Point","coordinates":[-122.95985,39.23508]}},{"type":"Feature","properties":{"acq_date":"2026-09-11","acq_time":1019,"confidence":"n","satellite":"N","instrument":"VIIRS","version":"2.0NRT","bright_ti4":304.3,"frp":3.48,"daynight":"N"},"geometry":{"type":"Point","coordinates":[-122.98308,39.23547]}},{"type":"Feature","properties":{"acq_date":"2026-09-11","acq_time":1019,"confidence":"n","satellite":"N","instrument":"VIIRS","version":"2.0NRT","bright_ti4":308.81,"frp":1.89,"daynight":"N"},"geometry":{"type":"Point","coordinates":[-122.96437,39.23583]}},{"type":"Feature","properties":{"acq_date":"2026-09-11","acq_time":1019,"confidence":"n","satellite":"N","instrument":"VIIRS","version":"2.0NRT","bright_ti4":309.48,"frp":3.48,"daynight":"N"},"geometry":{"type":"Point","coordinates":[-122.9875,39.23619]}},{"type":"Feature","properties":{"acq_date":"2026-09-11","acq_time":1019,"confidence":"n","satellite":"N","instrument":"VIIRS","version":"2.0NRT","bright_ti4":310.6,"frp":1.89,"daynight":"N"},"geometry":{"type":"Point","coordinates":[-122.96884,39.23656]}},{"type":"Feature","properties":{"acq_date":"2026-09-11","acq_time":1019,"confidence":"n","satellite":"N","instrument":"VIIRS","version":"2.0NRT","bright_ti4":326.69,"frp":1.12,"daynight":"N"},"geometry":{"type":"Point","coordinates":[-122.99193,39.23692]}},{"type":"Feature","properties":{"acq_date":"2026-09-11","acq_time":1019,"confidence":"n","satellite":"N","instrument":"VIIRS","version":"2.0NRT","bright_ti4":309.53,"frp":1.92,"daynight":"N"},"geometry":{"type":"Point","coordinates":[-122.9733,39.23729]}},{"type":"Feature","properties":{"acq_date":"2026-09-11","acq_time":1019,"confidence":"n","satellite":"N","instrument":"VIIRS","version":"2.0NRT","bright_ti4":355.09,"frp":6.03,"daynight":"N"},"geometry":{"type":"Point","coordinates":[-122.95439,39.23763]}},{"type":"Feature","properties":{"acq_date":"2026-09-11","acq_time":1019,"confidence":"n","satellite":"N","instrument":"VIIRS","version":"2.0NRT","bright_ti4":303.77,"frp":1.12,"daynight":"N"},"geometry":{"type":"Point","coordinates":[-122.99635,39.23764]}},{"type":"Feature","properties":{"acq_date":"2026-09-11","acq_time":1019,"confidence":"n","satellite":"N","instrument":"VIIRS","version":"2.0NRT","bright_ti4":338.04,"frp":1.92,"daynight":"N"},"geometry":{"type":"Point","coordinates":[-122.97779,39.23802]}},{"type":"Feature","properties":{"acq_date":"2026-09-11","acq_time":1019,"confidence":"n","satellite":"N","instrument":"VIIRS","version":"2.0NRT","bright_ti4":344.46,"frp":6.03,"daynight":"N"},"geometry":{"type":"Point","coordinates":[-122.95894,39.23837]}},{"type":"Feature","properties":{"acq_date":"2026-09-11","acq_time":1019,"confidence":"n","satellite":"N","instrument":"VIIRS","version":"2.0NRT","bright_ti4":349.39,"frp":3.48,"daynight":"N"},"geometry":{"type":"Point","coordinates":[-122.98222,39.23875]}},{"type":"Feature","properties":{"acq_date":"2026-09-11","acq_time":1019,"confidence":"n","satellite":"N","instrument":"VIIRS","version":"2.0NRT","bright_ti4":337.48,"frp":2.54,"daynight":"N"},"geometry":{"type":"Point","coordinates":[-122.96343,39.2391]}},{"type":"Feature","properties":{"acq_date":"2026-09-11","acq_time":1019,"confidence":"n","satellite":"N","instrument":"VIIRS","version":"2.0NRT","bright_ti4":321.28,"frp":3.48,"daynight":"N"},"geometry":{"type":"Point","coordinates":[-122.98661,39.23948]}},{"type":"Feature","properties":{"acq_date":"2026-09-11","acq_time":1019,"confidence":"n","satellite":"N","instrument":"VIIRS","version":"2.0NRT","bright_ti4":336.46,"frp":2.54,"daynight":"N"},"geometry":{"type":"Point","coordinates":[-122.96791,39.23984]}},{"type":"Feature","properties":{"acq_date":"2026-09-11","acq_time":1019,"confidence":"n","satellite":"N","instrument":"VIIRS","version":"2.0NRT","bright_ti4":308.71,"frp":1.12,"daynight":"N"},"geometry":{"type":"Point","coordinates":[-122.99104,39.2402]}},{"type":"Feature","properties":{"acq_date":"2026-09-11","acq_time":1019,"confidence":"n","satellite":"N","instrument":"VIIRS","version":"2.0NRT","bright_ti4":330.04,"frp":12.01,"daynight":"N"},"geometry":{"type":"Point","coordinates":[-122.97238,39.24057]}},{"type":"Feature","properties":{"acq_date":"2026-09-11","acq_time":1019,"confidence":"n","satellite":"N","instrument":"VIIRS","version":"2.0NRT","bright_ti4":340.25,"frp":12.01,"daynight":"N"},"geometry":{"type":"Point","coordinates":[-122.97684,39.2413]}},{"type":"Feature","properties":{"acq_date":"2026-09-11","acq_time":1019,"confidence":"n","satellite":"N","instrument":"VIIRS","version":"2.0NRT","bright_ti4":306.82,"frp":6.03,"daynight":"N"},"geometry":{"type":"Point","coordinates":[-122.95797,39.24165]}},{"type":"Feature","properties":{"acq_date":"2026-09-11","acq_time":1019,"confidence":"n","satellite":"N","instrument":"VIIRS","version":"2.0NRT","bright_ti4":326.77,"frp":49.41,"daynight":"N"},"geometry":{"type":"Point","coordinates":[-122.9813,39.24203]}},{"type":"Feature","properties":{"acq_date":"2026-09-11","acq_time":1019,"confidence":"n","satellite":"N","instrument":"VIIRS","version":"2.0NRT","bright_ti4":326.63,"frp":2.54,"daynight":"N"},"geometry":{"type":"Point","coordinates":[-122.9625,39.24239]}},{"type":"Feature","properties":{"acq_date":"2026-09-11","acq_time":1019,"confidence":"n","satellite":"N","instrument":"VIIRS","version":"2.0NRT","bright_ti4":302.85,"frp":2.54,"daynight":"N"},"geometry":{"type":"Point","coordinates":[-122.96697,39.24311]}},{"type":"Feature","properties":{"acq_date":"2026-09-11","acq_time":1019,"confidence":"n","satellite":"N","instrument":"VIIRS","version":"2.0NRT","bright_ti4":299.19,"frp":0.73,"daynight":"N"},"geometry":{"type":"Point","coordinates":[-122.25451,39.6079]}},{"type":"Feature","properties":{"acq_date":"2026-09-11","acq_time":1019,"confidence":"n","satellite":"N","instrument":"VIIRS","version":"2.0NRT","bright_ti4":306.29,"frp":1.3,"daynight":"N"},"geometry":{"type":"Point","coordinates":[-119.26295,39.61719]}},{"type":"Feature","properties":{"acq_date":"2026-09-11","acq_time":1019,"confidence":"n","satellite":"N","instrument":"VIIRS","version":"2.0NRT","bright_ti4":303.67,"frp":0.35,"daynight":"N"},"geometry":{"type":"Point","coordinates":[-122.32623,40.73606]}},{"type":"Feature","properties":{"acq_date":"2026-09-11","acq_time":1019,"confidence":"n","satellite":"N","instrument":"VIIRS","version":"2.0NRT","bright_ti4":299.04,"frp":0.26,"daynight":"N"},"geometry":{"type":"Point","coordinates":[-122.77336,42.38274]}},{"type":"Feature","properties":{"acq_date":"2026-09-11","acq_time":1019,"confidence":"n","satellite":"N","instrument":"VIIRS","version":"2.0NRT","bright_ti4":298.73,"frp":0.56,"daynight":"N"},"geometry":{"type":"Point","coordinates":[-115.67189,43.14537]}},{"type":"Feature","properties":{"acq_date":"2026-09-11","acq_time":1019,"confidence":"n","satellite":"N","instrument":"VIIRS","version":"2.0NRT","bright_ti4":295.56,"frp":1.18,"daynight":"N"},"geometry":{"type":"Point","coordinates":[-115.67115,43.14788]}},{"type":"Feature","properties":{"acq_date":"2026-09-11","acq_time":1019,"confidence":"n","satellite":"N","instrument":"VIIRS","version":"2.0NRT","bright_ti4":304.22,"frp":0.89,"daynight":"N"},"geometry":{"type":"Point","coordinates":[-115.73216,43.17815]}},{"type":"Feature","properties":{"acq_date":"2026-09-11","acq_time":1021,"confidence":"n","satellite":"N","instrument":"VIIRS","version":"2.0NRT","bright_ti4":304.08,"frp":1.03,"daynight":"N"},"geometry":{"type":"Point","coordinates":[-116.83201,32.49405]}},{"type":"Feature","properties":{"acq_date":"2026-09-11","acq_time":1021,"confidence":"n","satellite":"N","instrument":"VIIRS","version":"2.0NRT","bright_ti4":303.44,"frp":1.03,"daynight":"N"},"geometry":{"type":"Point","coordinates":[-116.83809,32.49546]}},{"type":"Feature","properties":{"acq_date":"2026-09-11","acq_time":1021,"confidence":"n","satellite":"N","instrument":"VIIRS","version":"2.0NRT","bright_ti4":306.59,"frp":0.8,"daynight":"N"},"geometry":{"type":"Point","coordinates":[-116.89259,32.53294]}},{"type":"Feature","properties":{"acq_date":"2026-09-11","acq_time":1021,"confidence":"n","satellite":"N","instrument":"VIIRS","version":"2.0NRT","bright_ti4":304.68,"frp":0.58,"daynight":"N"},"geometry":{"type":"Point","coordinates":[-117.616,33.49203]}},{"type":"Feature","properties":{"acq_date":"2026-09-11","acq_time":1021,"confidence":"n","satellite":"N","instrument":"VIIRS","version":"2.0NRT","bright_ti4":302.68,"frp":0.63,"daynight":"N"},"geometry":{"type":"Point","coordinates":[-117.82536,33.61129]}},{"type":"Feature","properties":{"acq_date":"2026-09-11","acq_time":1021,"confidence":"n","satellite":"N","instrument":"VIIRS","version":"2.0NRT","bright_ti4":306.1,"frp":0.91,"daynight":"N"},"geometry":{"type":"Point","coordinates":[-117.71066,33.71482]}},{"type":"Feature","properties":{"acq_date":"2026-09-11","acq_time":1021,"confidence":"n","satellite":"N","instrument":"VIIRS","version":"2.0NRT","bright_ti4":305.11,"frp":1.02,"daynight":"N"},"geometry":{"type":"Point","coordinates":[-117.47731,33.7916]}},{"type":"Feature","properties":{"acq_date":"2026-09-11","acq_time":1021,"confidence":"n","satellite":"N","instrument":"VIIRS","version":"2.0NRT","bright_ti4":305.57,"frp":0.78,"daynight":"N"},"geometry":{"type":"Point","coordinates":[-117.47521,33.79452]}},{"type":"Feature","properties":{"acq_date":"2026-09-11","acq_time":1021,"confidence":"n","satellite":"N","instrument":"VIIRS","version":"2.0NRT","bright_ti4":302.8,"frp":0.18,"daynight":"N"},"geometry":{"type":"Point","coordinates":[-117.42887,34.14308]}},{"type":"Feature","properties":{"acq_date":"2026-09-11","acq_time":1021,"confidence":"n","satellite":"N","instrument":"VIIRS","version":"2.0NRT","bright_ti4":316.27,"frp":1.55,"daynight":"N"},"geometry":{"type":"Point","coordinates":[-118.19256,34.15059]}},{"type":"Feature","properties":{"acq_date":"2026-09-11","acq_time":1021,"confidence":"n","satellite":"N","instrument":"VIIRS","version":"2.0NRT","bright_ti4":305.87,"frp":0.86,"daynight":"N"},"geometry":{"type":"Point","coordinates":[-119.27009,34.31192]}},{"type":"Feature","properties":{"acq_date":"2026-09-11","acq_time":1021,"confidence":"n","satellite":"N","instrument":"VIIRS","version":"2.0NRT","bright_ti4":316.59,"frp":1.46,"daynight":"N"},"geometry":{"type":"Point","coordinates":[-118.51867,34.33545]}},{"type":"Feature","properties":{"acq_date":"2026-09-11","acq_time":1021,"confidence":"n","satellite":"N","instrument":"VIIRS","version":"2.0NRT","bright_ti4":304.94,"frp":1.29,"daynight":"N"},"geometry":{"type":"Point","coordinates":[-116.85558,34.35324]}},{"type":"Feature","properties":{"acq_date":"2026-09-11","acq_time":1021,"confidence":"n","satellite":"N","instrument":"VIIRS","version":"2.0NRT","bright_ti4":312.8,"frp":0.92,"daynight":"N"},"geometry":{"type":"Point","coordinates":[-118.64423,34.42889]}},{"type":"Feature","properties":{"acq_date":"2026-09-11","acq_time":1021,"confidence":"n","satellite":"N","instrument":"VIIRS","version":"2.0NRT","bright_ti4":319.79,"frp":1.91,"daynight":"N"},"geometry":{"type":"Point","coordinates":[-117.33871,34.60617]}}]}