{"type":"FeatureCollection","name":"FIRMS VIIRS CA (last 1 day)","crs":{"type":"name","properties":{"name":"EPSG:4326"}},"fetched_at_utc":"2026-09-27T18:09:23.342Z","source":{"url":"https://firms.modaps.eosdis.nasa.gov/api/area/csv/8c4af552cf654445dd280dfb3ad9337c/VIIRS_SNPP_NRT/-125,32,-113,43.5/1","dataset":"VIIRS_SNPP_NRT","bbox":"-125,32,-113,43.5","day_range":"1"},"features":[{"type":"Feature","properties":{"acq_date":"2026-09-27","acq_time":839,"confidence":"n","satellite":"N","instrument":"VIIRS","version":"2.0NRT","bright_ti4":305.54,"frp":2.49,"daynight":"N"},"geometry":{"type":"Point","coordinates":[-114.91363,36.36014]}},{"type":"Feature","properties":{"acq_date":"2026-09-27","acq_time":1019,"confidence":"n","satellite":"N","instrument":"VIIRS","version":"2.0NRT","bright_ti4":306.59,"frp":0.62,"daynight":"N"},"geometry":{"type":"Point","coordinates":[-114.90913,36.35654]}},{"type":"Feature","properties":{"acq_date":"2026-09-27","acq_time":1019,"confidence":"n","satellite":"N","instrument":"VIIRS","version":"2.0NRT","bright_ti4":307.08,"frp":1.7,"daynight":"N"},"geometry":{"type":"Point","coordinates":[-114.90866,36.35771]}},{"type":"Feature","properties":{"acq_date":"2026-09-27","acq_time":1019,"confidence":"n","satellite":"N","instrument":"VIIRS","version":"2.0NRT","bright_ti4":296.82,"frp":1.4,"daynight":"N"},"geometry":{"type":"Point","coordinates":[-119.59019,37.58693]}},{"type":"Feature","properties":{"acq_date":"2026-09-27","acq_time":1019,"confidence":"n","satellite":"N","instrument":"VIIRS","version":"2.0NRT","bright_ti4":295.12,"frp":1.44,"daynight":"N"},"geometry":{"type":"Point","coordinates":[-119.58306,37.59321]}},{"type":"Feature","properties":{"acq_date":"2026-09-27","acq_time":1019,"confidence":"n","satellite":"N","instrument":"VIIRS","version":"2.0NRT","bright_ti4":314.94,"frp":1.44,"daynight":"N"},"geometry":{"type":"Point","coordinates":[-119.58843,37.59426]}},{"type":"Feature","properties":{"acq_date":"2026-09-27","acq_time":1019,"confidence":"n","satellite":"N","instrument":"VIIRS","version":"2.0NRT","bright_ti4":316.44,"frp":2.61,"daynight":"N"},"geometry":{"type":"Point","coordinates":[-119.5991,37.59636]}},{"type":"Feature","properties":{"acq_date":"2026-09-27","acq_time":1019,"confidence":"n","satellite":"N","instrument":"VIIRS","version":"2.0NRT","bright_ti4":306.16,"frp":1.44,"daynight":"N"},"geometry":{"type":"Point","coordinates":[-119.58757,37.59794]}},{"type":"Feature","properties":{"acq_date":"2026-09-27","acq_time":1019,"confidence":"n","satellite":"N","instrument":"VIIRS","version":"2.0NRT","bright_ti4":303.79,"frp":1.38,"daynight":"N"},"geometry":{"type":"Point","coordinates":[-119.60342,37.60105]}},{"type":"Feature","properties":{"acq_date":"2026-09-27","acq_time":1019,"confidence":"n","satellite":"N","instrument":"VIIRS","version":"2.0NRT","bright_ti4":338.51,"frp":7.01,"daynight":"N"},"geometry":{"type":"Point","coordinates":[-119.58665,37.6016]}},{"type":"Feature","properties":{"acq_date":"2026-09-27","acq_time":1019,"confidence":"n","satellite":"N","instrument":"VIIRS","version":"2.0NRT","bright_ti4":327.57,"frp":5.76,"daynight":"N"},"geometry":{"type":"Point","coordinates":[-119.59196,37.60264]}},{"type":"Feature","properties":{"acq_date":"2026-09-27","acq_time":1019,"confidence":"n","satellite":"N","instrument":"VIIRS","version":"2.0NRT","bright_ti4":326.99,"frp":4.25,"daynight":"N"},"geometry":{"type":"Point","coordinates":[-119.58503,37.60338]}},{"type":"Feature","properties":{"acq_date":"2026-09-27","acq_time":1019,"confidence":"n","satellite":"N","instrument":"VIIRS","version":"2.0NRT","bright_ti4":338.26,"frp":4.25,"daynight":"N"},"geometry":{"type":"Point","coordinates":[-119.5903,37.60444]}},{"type":"Feature","properties":{"acq_date":"2026-09-27","acq_time":1019,"confidence":"n","satellite":"N","instrument":"VIIRS","version":"2.0NRT","bright_ti4":328.44,"frp":7.01,"daynight":"N"},"geometry":{"type":"Point","coordinates":[-119.58564,37.60524]}},{"type":"Feature","properties":{"acq_date":"2026-09-27","acq_time":1019,"confidence":"n","satellite":"N","instrument":"VIIRS","version":"2.0NRT","bright_ti4":295.77,"frp":5.76,"daynight":"N"},"geometry":{"type":"Point","coordinates":[-119.59092,37.60627]}},{"type":"Feature","properties":{"acq_date":"2026-09-27","acq_time":1019,"confidence":"n","satellite":"N","instrument":"VIIRS","version":"2.0NRT","bright_ti4":301.55,"frp":4.25,"daynight":"N"},"geometry":{"type":"Point","coordinates":[-119.58916,37.60806]}},{"type":"Feature","properties":{"acq_date":"2026-09-27","acq_time":1019,"confidence":"n","satellite":"N","instrument":"VIIRS","version":"2.0NRT","bright_ti4":308.58,"frp":3.06,"daynight":"N"},"geometry":{"type":"Point","coordinates":[-119.59441,37.60911]}},{"type":"Feature","properties":{"acq_date":"2026-09-27","acq_time":1019,"confidence":"n","satellite":"N","instrument":"VIIRS","version":"2.0NRT","bright_ti4":333,"frp":3.59,"daynight":"N"},"geometry":{"type":"Point","coordinates":[-119.5897,37.60987]}},{"type":"Feature","properties":{"acq_date":"2026-09-27","acq_time":1019,"confidence":"n","satellite":"N","instrument":"VIIRS","version":"2.0NRT","bright_ti4":327.01,"frp":3.59,"daynight":"N"},"geometry":{"type":"Point","coordinates":[-119.595,37.61092]}},{"type":"Feature","properties":{"acq_date":"2026-09-27","acq_time":1019,"confidence":"n","satellite":"N","instrument":"VIIRS","version":"2.0NRT","bright_ti4":317.36,"frp":2.28,"daynight":"N"},"geometry":{"type":"Point","coordinates":[-119.58794,37.61166]}},{"type":"Feature","properties":{"acq_date":"2026-09-27","acq_time":1019,"confidence":"n","satellite":"N","instrument":"VIIRS","version":"2.0NRT","bright_ti4":338.98,"frp":3.71,"daynight":"N"},"geometry":{"type":"Point","coordinates":[-119.60022,37.61193]}},{"type":"Feature","properties":{"acq_date":"2026-09-27","acq_time":1019,"confidence":"n","satellite":"N","instrument":"VIIRS","version":"2.0NRT","bright_ti4":340.35,"frp":6.64,"daynight":"N"},"geometry":{"type":"Point","coordinates":[-119.59322,37.61272]}},{"type":"Feature","properties":{"acq_date":"2026-09-27","acq_time":1019,"confidence":"n","satellite":"N","instrument":"VIIRS","version":"2.0NRT","bright_ti4":344.59,"frp":6.64,"daynight":"N"},"geometry":{"type":"Point","coordinates":[-119.59846,37.61376]}},{"type":"Feature","properties":{"acq_date":"2026-09-27","acq_time":1019,"confidence":"n","satellite":"N","instrument":"VIIRS","version":"2.0NRT","bright_ti4":295.85,"frp":0.5,"daynight":"N"},"geometry":{"type":"Point","coordinates":[-119.61959,37.61415]}},{"type":"Feature","properties":{"acq_date":"2026-09-27","acq_time":1019,"confidence":"n","satellite":"N","instrument":"VIIRS","version":"2.0NRT","bright_ti4":315.94,"frp":3.59,"daynight":"N"},"geometry":{"type":"Point","coordinates":[-119.59374,37.61451]}},{"type":"Feature","properties":{"acq_date":"2026-09-27","acq_time":1019,"confidence":"n","satellite":"N","instrument":"VIIRS","version":"2.0NRT","bright_ti4":320.97,"frp":3.71,"daynight":"N"},"geometry":{"type":"Point","coordinates":[-119.59892,37.61552]}},{"type":"Feature","properties":{"acq_date":"2026-09-27","acq_time":1019,"confidence":"n","satellite":"N","instrument":"VIIRS","version":"2.0NRT","bright_ti4":298.31,"frp":0.9,"daynight":"N"},"geometry":{"type":"Point","coordinates":[-119.62023,37.61587]}},{"type":"Feature","properties":{"acq_date":"2026-09-27","acq_time":1019,"confidence":"n","satellite":"N","instrument":"VIIRS","version":"2.0NRT","bright_ti4":298.24,"frp":3.48,"daynight":"N"},"geometry":{"type":"Point","coordinates":[-119.6236,37.6188]}},{"type":"Feature","properties":{"acq_date":"2026-09-27","acq_time":1019,"confidence":"n","satellite":"N","instrument":"VIIRS","version":"2.0NRT","bright_ti4":296.31,"frp":0.9,"daynight":"N"},"geometry":{"type":"Point","coordinates":[-119.62434,37.62051]}},{"type":"Feature","properties":{"acq_date":"2026-09-27","acq_time":1019,"confidence":"n","satellite":"N","instrument":"VIIRS","version":"2.0NRT","bright_ti4":329.79,"frp":3.48,"daynight":"N"},"geometry":{"type":"Point","coordinates":[-119.62788,37.62349]}},{"type":"Feature","properties":{"acq_date":"2026-09-27","acq_time":1019,"confidence":"n","satellite":"N","instrument":"VIIRS","version":"2.0NRT","bright_ti4":309.94,"frp":3.15,"daynight":"N"},"geometry":{"type":"Point","coordinates":[-119.5945,37.6245]}},{"type":"Feature","properties":{"acq_date":"2026-09-27","acq_time":1019,"confidence":"n","satellite":"N","instrument":"VIIRS","version":"2.0NRT","bright_ti4":298.78,"frp":0.74,"daynight":"N"},"geometry":{"type":"Point","coordinates":[-119.61668,37.6251]}},{"type":"Feature","properties":{"acq_date":"2026-09-27","acq_time":1019,"confidence":"n","satellite":"N","instrument":"VIIRS","version":"2.0NRT","bright_ti4":339.82,"frp":9.5,"daynight":"N"},"geometry":{"type":"Point","coordinates":[-119.59962,37.62553]}},{"type":"Feature","properties":{"acq_date":"2026-09-27","acq_time":1019,"confidence":"n","satellite":"N","instrument":"VIIRS","version":"2.0NRT","bright_ti4":304.62,"frp":20.76,"daynight":"N"},"geometry":{"type":"Point","coordinates":[-119.62198,37.62615]}},{"type":"Feature","properties":{"acq_date":"2026-09-27","acq_time":1019,"confidence":"n","satellite":"N","instrument":"VIIRS","version":"2.0NRT","bright_ti4":331.47,"frp":20.76,"daynight":"N"},"geometry":{"type":"Point","coordinates":[-119.62708,37.62717]}},{"type":"Feature","properties":{"acq_date":"2026-09-27","acq_time":1019,"confidence":"n","satellite":"N","instrument":"VIIRS","version":"2.0NRT","bright_ti4":298.36,"frp":1.07,"daynight":"N"},"geometry":{"type":"Point","coordinates":[-119.59837,37.62912]}},{"type":"Feature","properties":{"acq_date":"2026-09-27","acq_time":1019,"confidence":"n","satellite":"N","instrument":"VIIRS","version":"2.0NRT","bright_ti4":336.64,"frp":20.76,"daynight":"N"},"geometry":{"type":"Point","coordinates":[-119.62112,37.62983]}},{"type":"Feature","properties":{"acq_date":"2026-09-27","acq_time":1019,"confidence":"n","satellite":"N","instrument":"VIIRS","version":"2.0NRT","bright_ti4":337.97,"frp":20.76,"daynight":"N"},"geometry":{"type":"Point","coordinates":[-119.6262,37.63084]}},{"type":"Feature","properties":{"acq_date":"2026-09-27","acq_time":1019,"confidence":"n","satellite":"N","instrument":"VIIRS","version":"2.0NRT","bright_ti4":307.42,"frp":2.76,"daynight":"N"},"geometry":{"type":"Point","coordinates":[-119.61459,37.63236]}},{"type":"Feature","properties":{"acq_date":"2026-09-27","acq_time":1019,"confidence":"n","satellite":"N","instrument":"VIIRS","version":"2.0NRT","bright_ti4":308.64,"frp":1.07,"daynight":"N"},"geometry":{"type":"Point","coordinates":[-119.59713,37.63271]}},{"type":"Feature","properties":{"acq_date":"2026-09-27","acq_time":1019,"confidence":"n","satellite":"N","instrument":"VIIRS","version":"2.0NRT","bright_ti4":320.41,"frp":7.23,"daynight":"N"},"geometry":{"type":"Point","coordinates":[-119.62003,37.63345]}},{"type":"Feature","properties":{"acq_date":"2026-09-27","acq_time":1019,"confidence":"n","satellite":"N","instrument":"VIIRS","version":"2.0NRT","bright_ti4":296.67,"frp":2.76,"daynight":"N"},"geometry":{"type":"Point","coordinates":[-119.60793,37.63487]}},{"type":"Feature","properties":{"acq_date":"2026-09-27","acq_time":1019,"confidence":"n","satellite":"N","instrument":"VIIRS","version":"2.0NRT","bright_ti4":340.84,"frp":2.76,"daynight":"N"},"geometry":{"type":"Point","coordinates":[-119.61349,37.63598]}},{"type":"Feature","properties":{"acq_date":"2026-09-27","acq_time":1019,"confidence":"n","satellite":"N","instrument":"VIIRS","version":"2.0NRT","bright_ti4":340.01,"frp":7.23,"daynight":"N"},"geometry":{"type":"Point","coordinates":[-119.61893,37.63707]}},{"type":"Feature","properties":{"acq_date":"2026-09-27","acq_time":1019,"confidence":"n","satellite":"N","instrument":"VIIRS","version":"2.0NRT","bright_ti4":322.97,"frp":7.23,"daynight":"N"},"geometry":{"type":"Point","coordinates":[-119.62419,37.63811]}},{"type":"Feature","properties":{"acq_date":"2026-09-27","acq_time":1019,"confidence":"n","satellite":"N","instrument":"VIIRS","version":"2.0NRT","bright_ti4":315.66,"frp":6.69,"daynight":"N"},"geometry":{"type":"Point","coordinates":[-119.60674,37.63847]}},{"type":"Feature","properties":{"acq_date":"2026-09-27","acq_time":1019,"confidence":"n","satellite":"N","instrument":"VIIRS","version":"2.0NRT","bright_ti4":338.93,"frp":6.69,"daynight":"N"},"geometry":{"type":"Point","coordinates":[-119.6123,37.63958]}},{"type":"Feature","properties":{"acq_date":"2026-09-27","acq_time":1019,"confidence":"n","satellite":"N","instrument":"VIIRS","version":"2.0NRT","bright_ti4":343.01,"frp":58.87,"daynight":"N"},"geometry":{"type":"Point","coordinates":[-119.61773,37.64067]}},{"type":"Feature","properties":{"acq_date":"2026-09-27","acq_time":1019,"confidence":"n","satellite":"N","instrument":"VIIRS","version":"2.0NRT","bright_ti4":330.22,"frp":58.87,"daynight":"N"},"geometry":{"type":"Point","coordinates":[-119.62307,37.64173]}},{"type":"Feature","properties":{"acq_date":"2026-09-27","acq_time":1019,"confidence":"n","satellite":"N","instrument":"VIIRS","version":"2.0NRT","bright_ti4":351.75,"frp":6.69,"daynight":"N"},"geometry":{"type":"Point","coordinates":[-119.60546,37.64206]}},{"type":"Feature","properties":{"acq_date":"2026-09-27","acq_time":1019,"confidence":"n","satellite":"N","instrument":"VIIRS","version":"2.0NRT","bright_ti4":337.01,"frp":6.69,"daynight":"N"},"geometry":{"type":"Point","coordinates":[-119.61098,37.64316]}},{"type":"Feature","properties":{"acq_date":"2026-09-27","acq_time":1019,"confidence":"n","satellite":"N","instrument":"VIIRS","version":"2.0NRT","bright_ti4":341.29,"frp":58.87,"daynight":"N"},"geometry":{"type":"Point","coordinates":[-119.61649,37.64426]}},{"type":"Feature","properties":{"acq_date":"2026-09-27","acq_time":1019,"confidence":"n","satellite":"N","instrument":"VIIRS","version":"2.0NRT","bright_ti4":335.6,"frp":58.87,"daynight":"N"},"geometry":{"type":"Point","coordinates":[-119.62189,37.64534]}},{"type":"Feature","properties":{"acq_date":"2026-09-27","acq_time":1019,"confidence":"n","satellite":"N","instrument":"VIIRS","version":"2.0NRT","bright_ti4":324.36,"frp":14.54,"daynight":"N"},"geometry":{"type":"Point","coordinates":[-119.60425,37.64566]}},{"type":"Feature","properties":{"acq_date":"2026-09-27","acq_time":1019,"confidence":"n","satellite":"N","instrument":"VIIRS","version":"2.0NRT","bright_ti4":343.81,"frp":14.54,"daynight":"N"},"geometry":{"type":"Point","coordinates":[-119.60969,37.64674]}},{"type":"Feature","properties":{"acq_date":"2026-09-27","acq_time":1019,"confidence":"n","satellite":"N","instrument":"VIIRS","version":"2.0NRT","bright_ti4":337.51,"frp":92.53,"daynight":"N"},"geometry":{"type":"Point","coordinates":[-119.61517,37.64783]}},{"type":"Feature","properties":{"acq_date":"2026-09-27","acq_time":1019,"confidence":"h","satellite":"N","instrument":"VIIRS","version":"2.0NRT","bright_ti4":367,"frp":92.53,"daynight":"N"},"geometry":{"type":"Point","coordinates":[-119.62067,37.64893]}},{"type":"Feature","properties":{"acq_date":"2026-09-27","acq_time":1019,"confidence":"n","satellite":"N","instrument":"VIIRS","version":"2.0NRT","bright_ti4":311.12,"frp":22.98,"daynight":"N"},"geometry":{"type":"Point","coordinates":[-119.62594,37.64997]}},{"type":"Feature","properties":{"acq_date":"2026-09-27","acq_time":1019,"confidence":"n","satellite":"N","instrument":"VIIRS","version":"2.0NRT","bright_ti4":341.94,"frp":92.53,"daynight":"N"},"geometry":{"type":"Point","coordinates":[-119.61384,37.65141]}},{"type":"Feature","properties":{"acq_date":"2026-09-27","acq_time":1019,"confidence":"n","satellite":"N","instrument":"VIIRS","version":"2.0NRT","bright_ti4":356.15,"frp":92.53,"daynight":"N"},"geometry":{"type":"Point","coordinates":[-119.61937,37.65251]}},{"type":"Feature","properties":{"acq_date":"2026-09-27","acq_time":1019,"confidence":"n","satellite":"N","instrument":"VIIRS","version":"2.0NRT","bright_ti4":330.8,"frp":22.98,"daynight":"N"},"geometry":{"type":"Point","coordinates":[-119.62471,37.65356]}},{"type":"Feature","properties":{"acq_date":"2026-09-27","acq_time":1019,"confidence":"n","satellite":"N","instrument":"VIIRS","version":"2.0NRT","bright_ti4":300.05,"frp":1.51,"daynight":"N"},"geometry":{"type":"Point","coordinates":[-119.61807,37.65608]}},{"type":"Feature","properties":{"acq_date":"2026-09-27","acq_time":1019,"confidence":"n","satellite":"N","instrument":"VIIRS","version":"2.0NRT","bright_ti4":311.57,"frp":1.5,"daynight":"N"},"geometry":{"type":"Point","coordinates":[-119.62344,37.65715]}},{"type":"Feature","properties":{"acq_date":"2026-09-27","acq_time":1019,"confidence":"n","satellite":"N","instrument":"VIIRS","version":"2.0NRT","bright_ti4":295.48,"frp":0.39,"daynight":"N"},"geometry":{"type":"Point","coordinates":[-121.83356,38.31592]}},{"type":"Feature","properties":{"acq_date":"2026-09-27","acq_time":1019,"confidence":"n","satellite":"N","instrument":"VIIRS","version":"2.0NRT","bright_ti4":307.52,"frp":0.57,"daynight":"N"},"geometry":{"type":"Point","coordinates":[-122.32346,40.73719]}},{"type":"Feature","properties":{"acq_date":"2026-09-27","acq_time":1019,"confidence":"n","satellite":"N","instrument":"VIIRS","version":"2.0NRT","bright_ti4":305.22,"frp":0.91,"daynight":"N"},"geometry":{"type":"Point","coordinates":[-114.25436,40.82044]}},{"type":"Feature","properties":{"acq_date":"2026-09-27","acq_time":1021,"confidence":"n","satellite":"N","instrument":"VIIRS","version":"2.0NRT","bright_ti4":296.41,"frp":0.65,"daynight":"N"},"geometry":{"type":"Point","coordinates":[-118.37939,34.24454]}},{"type":"Feature","properties":{"acq_date":"2026-09-27","acq_time":1021,"confidence":"n","satellite":"N","instrument":"VIIRS","version":"2.0NRT","bright_ti4":301.8,"frp":0.48,"daynight":"N"},"geometry":{"type":"Point","coordinates":[-118.64461,34.43235]}},{"type":"Feature","properties":{"acq_date":"2026-09-27","acq_time":1021,"confidence":"n","satellite":"N","instrument":"VIIRS","version":"2.0NRT","bright_ti4":323.85,"frp":2.36,"daynight":"N"},"geometry":{"type":"Point","coordinates":[-121.45031,35.95269]}},{"type":"Feature","properties":{"acq_date":"2026-09-27","acq_time":1021,"confidence":"n","satellite":"N","instrument":"VIIRS","version":"2.0NRT","bright_ti4":296.19,"frp":0.44,"daynight":"N"},"geometry":{"type":"Point","coordinates":[-120.87036,36.9732]}},{"type":"Feature","properties":{"acq_date":"2026-09-27","acq_time":1021,"confidence":"n","satellite":"N","instrument":"VIIRS","version":"2.0NRT","bright_ti4":307.85,"frp":0.78,"daynight":"N"},"geometry":{"type":"Point","coordinates":[-121.93243,37.45509]}}]}