{"type":"FeatureCollection","name":"FIRMS VIIRS CA (last 1 day)","crs":{"type":"name","properties":{"name":"EPSG:4326"}},"fetched_at_utc":"2026-09-08T17:49:57.946Z","source":{"url":"https://firms.modaps.eosdis.nasa.gov/api/area/csv/8c4af552cf654445dd280dfb3ad9337c/VIIRS_SNPP_NRT/-125,32,-113,43.5/1","dataset":"VIIRS_SNPP_NRT","bbox":"-125,32,-113,43.5","day_range":"1"},"features":[{"type":"Feature","properties":{"acq_date":"2026-09-08","acq_time":934,"confidence":"n","satellite":"N","instrument":"VIIRS","version":"2.0NRT","bright_ti4":302.21,"frp":0.7,"daynight":"N"},"geometry":{"type":"Point","coordinates":[-121.1846,37.8843]}},{"type":"Feature","properties":{"acq_date":"2026-09-08","acq_time":934,"confidence":"n","satellite":"N","instrument":"VIIRS","version":"2.0NRT","bright_ti4":303.01,"frp":1,"daynight":"N"},"geometry":{"type":"Point","coordinates":[-121.93369,38.00244]}},{"type":"Feature","properties":{"acq_date":"2026-09-08","acq_time":934,"confidence":"n","satellite":"N","instrument":"VIIRS","version":"2.0NRT","bright_ti4":308.41,"frp":1.92,"daynight":"N"},"geometry":{"type":"Point","coordinates":[-119.26141,39.61948]}},{"type":"Feature","properties":{"acq_date":"2026-09-08","acq_time":934,"confidence":"n","satellite":"N","instrument":"VIIRS","version":"2.0NRT","bright_ti4":303.63,"frp":1.07,"daynight":"N"},"geometry":{"type":"Point","coordinates":[-115.66838,43.14801]}},{"type":"Feature","properties":{"acq_date":"2026-09-08","acq_time":934,"confidence":"n","satellite":"N","instrument":"VIIRS","version":"2.0NRT","bright_ti4":299.33,"frp":0.81,"daynight":"N"},"geometry":{"type":"Point","coordinates":[-115.73275,43.17806]}},{"type":"Feature","properties":{"acq_date":"2026-09-08","acq_time":937,"confidence":"n","satellite":"N","instrument":"VIIRS","version":"2.0NRT","bright_ti4":298.26,"frp":0.24,"daynight":"N"},"geometry":{"type":"Point","coordinates":[-116.31945,32.4963]}},{"type":"Feature","properties":{"acq_date":"2026-09-08","acq_time":937,"confidence":"n","satellite":"N","instrument":"VIIRS","version":"2.0NRT","bright_ti4":320.55,"frp":1.85,"daynight":"N"},"geometry":{"type":"Point","coordinates":[-116.31876,32.49966]}},{"type":"Feature","properties":{"acq_date":"2026-09-08","acq_time":937,"confidence":"n","satellite":"N","instrument":"VIIRS","version":"2.0NRT","bright_ti4":305.75,"frp":0.87,"daynight":"N"},"geometry":{"type":"Point","coordinates":[-116.77119,32.50808]}},{"type":"Feature","properties":{"acq_date":"2026-09-08","acq_time":937,"confidence":"n","satellite":"N","instrument":"VIIRS","version":"2.0NRT","bright_ti4":312.42,"frp":0.81,"daynight":"N"},"geometry":{"type":"Point","coordinates":[-117.82138,33.61444]}},{"type":"Feature","properties":{"acq_date":"2026-09-08","acq_time":937,"confidence":"n","satellite":"N","instrument":"VIIRS","version":"2.0NRT","bright_ti4":315.58,"frp":1.21,"daynight":"N"},"geometry":{"type":"Point","coordinates":[-117.71144,33.71489]}},{"type":"Feature","properties":{"acq_date":"2026-09-08","acq_time":937,"confidence":"n","satellite":"N","instrument":"VIIRS","version":"2.0NRT","bright_ti4":305.39,"frp":1.07,"daynight":"N"},"geometry":{"type":"Point","coordinates":[-118.23839,33.77892]}},{"type":"Feature","properties":{"acq_date":"2026-09-08","acq_time":937,"confidence":"n","satellite":"N","instrument":"VIIRS","version":"2.0NRT","bright_ti4":303.73,"frp":1.19,"daynight":"N"},"geometry":{"type":"Point","coordinates":[-117.47288,33.79502]}},{"type":"Feature","properties":{"acq_date":"2026-09-08","acq_time":937,"confidence":"n","satellite":"N","instrument":"VIIRS","version":"2.0NRT","bright_ti4":308.03,"frp":1.33,"daynight":"N"},"geometry":{"type":"Point","coordinates":[-118.2449,33.82029]}},{"type":"Feature","properties":{"acq_date":"2026-09-08","acq_time":937,"confidence":"n","satellite":"N","instrument":"VIIRS","version":"2.0NRT","bright_ti4":309.64,"frp":1.66,"daynight":"N"},"geometry":{"type":"Point","coordinates":[-118.33308,33.85356]}},{"type":"Feature","properties":{"acq_date":"2026-09-08","acq_time":937,"confidence":"n","satellite":"N","instrument":"VIIRS","version":"2.0NRT","bright_ti4":305.33,"frp":0.46,"daynight":"N"},"geometry":{"type":"Point","coordinates":[-118.10724,34.03681]}},{"type":"Feature","properties":{"acq_date":"2026-09-08","acq_time":937,"confidence":"n","satellite":"N","instrument":"VIIRS","version":"2.0NRT","bright_ti4":308.67,"frp":0.74,"daynight":"N"},"geometry":{"type":"Point","coordinates":[-117.42942,34.14125]}},{"type":"Feature","properties":{"acq_date":"2026-09-08","acq_time":937,"confidence":"n","satellite":"N","instrument":"VIIRS","version":"2.0NRT","bright_ti4":302.73,"frp":0.69,"daynight":"N"},"geometry":{"type":"Point","coordinates":[-117.42684,34.14384]}},{"type":"Feature","properties":{"acq_date":"2026-09-08","acq_time":937,"confidence":"n","satellite":"N","instrument":"VIIRS","version":"2.0NRT","bright_ti4":308.94,"frp":1.61,"daynight":"N"},"geometry":{"type":"Point","coordinates":[-118.19242,34.15459]}},{"type":"Feature","properties":{"acq_date":"2026-09-08","acq_time":937,"confidence":"n","satellite":"N","instrument":"VIIRS","version":"2.0NRT","bright_ti4":301.27,"frp":0.46,"daynight":"N"},"geometry":{"type":"Point","coordinates":[-118.38412,34.24208]}},{"type":"Feature","properties":{"acq_date":"2026-09-08","acq_time":937,"confidence":"n","satellite":"N","instrument":"VIIRS","version":"2.0NRT","bright_ti4":302,"frp":0.96,"daynight":"N"},"geometry":{"type":"Point","coordinates":[-118.79744,34.28892]}},{"type":"Feature","properties":{"acq_date":"2026-09-08","acq_time":937,"confidence":"n","satellite":"N","instrument":"VIIRS","version":"2.0NRT","bright_ti4":313.11,"frp":1.69,"daynight":"N"},"geometry":{"type":"Point","coordinates":[-118.52074,34.33626]}},{"type":"Feature","properties":{"acq_date":"2026-09-08","acq_time":937,"confidence":"n","satellite":"N","instrument":"VIIRS","version":"2.0NRT","bright_ti4":300.59,"frp":0.77,"daynight":"N"},"geometry":{"type":"Point","coordinates":[-116.85281,34.35519]}},{"type":"Feature","properties":{"acq_date":"2026-09-08","acq_time":937,"confidence":"n","satellite":"N","instrument":"VIIRS","version":"2.0NRT","bright_ti4":301.71,"frp":1.26,"daynight":"N"},"geometry":{"type":"Point","coordinates":[-118.64597,34.43181]}},{"type":"Feature","properties":{"acq_date":"2026-09-08","acq_time":937,"confidence":"n","satellite":"N","instrument":"VIIRS","version":"2.0NRT","bright_ti4":307.8,"frp":1.05,"daynight":"N"},"geometry":{"type":"Point","coordinates":[-117.33806,34.60681]}},{"type":"Feature","properties":{"acq_date":"2026-09-08","acq_time":937,"confidence":"n","satellite":"N","instrument":"VIIRS","version":"2.0NRT","bright_ti4":304.1,"frp":0.94,"daynight":"N"},"geometry":{"type":"Point","coordinates":[-113.31541,35.51808]}},{"type":"Feature","properties":{"acq_date":"2026-09-08","acq_time":937,"confidence":"n","satellite":"N","instrument":"VIIRS","version":"2.0NRT","bright_ti4":326.75,"frp":2.87,"daynight":"N"},"geometry":{"type":"Point","coordinates":[-119.2851,35.52538]}},{"type":"Feature","properties":{"acq_date":"2026-09-08","acq_time":937,"confidence":"n","satellite":"N","instrument":"VIIRS","version":"2.0NRT","bright_ti4":316.97,"frp":2.01,"daynight":"N"},"geometry":{"type":"Point","coordinates":[-114.91146,36.35818]}},{"type":"Feature","properties":{"acq_date":"2026-09-08","acq_time":937,"confidence":"n","satellite":"N","instrument":"VIIRS","version":"2.0NRT","bright_ti4":311.36,"frp":0.65,"daynight":"N"},"geometry":{"type":"Point","coordinates":[-114.8765,36.38237]}},{"type":"Feature","properties":{"acq_date":"2026-09-08","acq_time":937,"confidence":"n","satellite":"N","instrument":"VIIRS","version":"2.0NRT","bright_ti4":338.17,"frp":6.06,"daynight":"N"},"geometry":{"type":"Point","coordinates":[-119.98816,36.44051]}},{"type":"Feature","properties":{"acq_date":"2026-09-08","acq_time":937,"confidence":"n","satellite":"N","instrument":"VIIRS","version":"2.0NRT","bright_ti4":296.34,"frp":0.62,"daynight":"N"},"geometry":{"type":"Point","coordinates":[-114.25826,40.82212]}},{"type":"Feature","properties":{"acq_date":"2026-09-08","acq_time":937,"confidence":"n","satellite":"N","instrument":"VIIRS","version":"2.0NRT","bright_ti4":297.32,"frp":0.47,"daynight":"N"},"geometry":{"type":"Point","coordinates":[-122.77528,42.38243]}},{"type":"Feature","properties":{"acq_date":"2026-09-08","acq_time":1117,"confidence":"n","satellite":"N","instrument":"VIIRS","version":"2.0NRT","bright_ti4":295.35,"frp":0.97,"daynight":"N"},"geometry":{"type":"Point","coordinates":[-119.26159,39.6181]}},{"type":"Feature","properties":{"acq_date":"2026-09-08","acq_time":1117,"confidence":"n","satellite":"N","instrument":"VIIRS","version":"2.0NRT","bright_ti4":298.99,"frp":0.4,"daynight":"N"},"geometry":{"type":"Point","coordinates":[-122.66312,42.18092]}}]}