{"type":"FeatureCollection","name":"FIRMS VIIRS CA (last 1 day)","crs":{"type":"name","properties":{"name":"EPSG:4326"}},"fetched_at_utc":"2026-08-20T14:39:13.795Z","source":{"url":"https://firms.modaps.eosdis.nasa.gov/api/area/csv/8c4af552cf654445dd280dfb3ad9337c/VIIRS_SNPP_NRT/-125,32,-113,43.5/1","dataset":"VIIRS_SNPP_NRT","bbox":"-125,32,-113,43.5","day_range":"1"},"features":[{"type":"Feature","properties":{"acq_date":"2026-08-20","acq_time":850,"confidence":"n","satellite":"N","instrument":"VIIRS","version":"2.0URT","bright_ti4":297.95,"frp":0.33,"daynight":"N"},"geometry":{"type":"Point","coordinates":[-113.04862,42.47485]}},{"type":"Feature","properties":{"acq_date":"2026-08-20","acq_time":850,"confidence":"n","satellite":"N","instrument":"VIIRS","version":"2.0URT","bright_ti4":299.62,"frp":0.37,"daynight":"N"},"geometry":{"type":"Point","coordinates":[-113.04884,42.47506]}},{"type":"Feature","properties":{"acq_date":"2026-08-20","acq_time":850,"confidence":"n","satellite":"N","instrument":"VIIRS","version":"2.0URT","bright_ti4":299.99,"frp":0.45,"daynight":"N"},"geometry":{"type":"Point","coordinates":[-113.06344,42.4755]}},{"type":"Feature","properties":{"acq_date":"2026-08-20","acq_time":850,"confidence":"n","satellite":"N","instrument":"VIIRS","version":"2.0URT","bright_ti4":301.88,"frp":0.74,"daynight":"N"},"geometry":{"type":"Point","coordinates":[-113.06866,42.47573]}},{"type":"Feature","properties":{"acq_date":"2026-08-20","acq_time":850,"confidence":"n","satellite":"N","instrument":"VIIRS","version":"2.0URT","bright_ti4":300.25,"frp":0.57,"daynight":"N"},"geometry":{"type":"Point","coordinates":[-113.06369,42.47579]}},{"type":"Feature","properties":{"acq_date":"2026-08-20","acq_time":850,"confidence":"n","satellite":"N","instrument":"VIIRS","version":"2.0URT","bright_ti4":302.68,"frp":0.57,"daynight":"N"},"geometry":{"type":"Point","coordinates":[-113.06893,42.47605]}},{"type":"Feature","properties":{"acq_date":"2026-08-20","acq_time":850,"confidence":"n","satellite":"N","instrument":"VIIRS","version":"2.0URT","bright_ti4":300.2,"frp":0.45,"daynight":"N"},"geometry":{"type":"Point","coordinates":[-113.06245,42.48097]}},{"type":"Feature","properties":{"acq_date":"2026-08-20","acq_time":850,"confidence":"n","satellite":"N","instrument":"VIIRS","version":"2.0URT","bright_ti4":305.2,"frp":0.74,"daynight":"N"},"geometry":{"type":"Point","coordinates":[-113.06796,42.48121]}},{"type":"Feature","properties":{"acq_date":"2026-08-20","acq_time":850,"confidence":"n","satellite":"N","instrument":"VIIRS","version":"2.0URT","bright_ti4":301.05,"frp":0.39,"daynight":"N"},"geometry":{"type":"Point","coordinates":[-113.06266,42.48125]}},{"type":"Feature","properties":{"acq_date":"2026-08-20","acq_time":850,"confidence":"n","satellite":"N","instrument":"VIIRS","version":"2.0URT","bright_ti4":303.22,"frp":0.74,"daynight":"N"},"geometry":{"type":"Point","coordinates":[-113.07344,42.48145]}},{"type":"Feature","properties":{"acq_date":"2026-08-20","acq_time":850,"confidence":"n","satellite":"N","instrument":"VIIRS","version":"2.0URT","bright_ti4":303.84,"frp":0.39,"daynight":"N"},"geometry":{"type":"Point","coordinates":[-113.06819,42.48152]}},{"type":"Feature","properties":{"acq_date":"2026-08-20","acq_time":850,"confidence":"n","satellite":"N","instrument":"VIIRS","version":"2.0URT","bright_ti4":302.3,"frp":1.16,"daynight":"N"},"geometry":{"type":"Point","coordinates":[-113.0737,42.4818]}},{"type":"Feature","properties":{"acq_date":"2026-08-20","acq_time":850,"confidence":"n","satellite":"N","instrument":"VIIRS","version":"2.0URT","bright_ti4":314.65,"frp":1.8,"daynight":"N"},"geometry":{"type":"Point","coordinates":[-113.09423,42.48236]}},{"type":"Feature","properties":{"acq_date":"2026-08-20","acq_time":850,"confidence":"n","satellite":"N","instrument":"VIIRS","version":"2.0URT","bright_ti4":310.06,"frp":2.89,"daynight":"N"},"geometry":{"type":"Point","coordinates":[-113.09927,42.48258]}},{"type":"Feature","properties":{"acq_date":"2026-08-20","acq_time":850,"confidence":"n","satellite":"N","instrument":"VIIRS","version":"2.0URT","bright_ti4":324.29,"frp":1.67,"daynight":"N"},"geometry":{"type":"Point","coordinates":[-113.09451,42.48283]}},{"type":"Feature","properties":{"acq_date":"2026-08-20","acq_time":850,"confidence":"n","satellite":"N","instrument":"VIIRS","version":"2.0URT","bright_ti4":298.37,"frp":0.93,"daynight":"N"},"geometry":{"type":"Point","coordinates":[-113.1094,42.48302]}},{"type":"Feature","properties":{"acq_date":"2026-08-20","acq_time":850,"confidence":"n","satellite":"N","instrument":"VIIRS","version":"2.0URT","bright_ti4":308.81,"frp":1.67,"daynight":"N"},"geometry":{"type":"Point","coordinates":[-113.09953,42.48307]}},{"type":"Feature","properties":{"acq_date":"2026-08-20","acq_time":850,"confidence":"n","satellite":"N","instrument":"VIIRS","version":"2.0URT","bright_ti4":302.41,"frp":1.24,"daynight":"N"},"geometry":{"type":"Point","coordinates":[-113.10961,42.48357]}},{"type":"Feature","properties":{"acq_date":"2026-08-20","acq_time":850,"confidence":"n","satellite":"N","instrument":"VIIRS","version":"2.0URT","bright_ti4":298.52,"frp":0.46,"daynight":"N"},"geometry":{"type":"Point","coordinates":[-113.08909,42.48765]}},{"type":"Feature","properties":{"acq_date":"2026-08-20","acq_time":850,"confidence":"n","satellite":"N","instrument":"VIIRS","version":"2.0URT","bright_ti4":298.71,"frp":0.46,"daynight":"N"},"geometry":{"type":"Point","coordinates":[-113.09416,42.48787]}},{"type":"Feature","properties":{"acq_date":"2026-08-20","acq_time":850,"confidence":"n","satellite":"N","instrument":"VIIRS","version":"2.0URT","bright_ti4":311.64,"frp":1.05,"daynight":"N"},"geometry":{"type":"Point","coordinates":[-113.09913,42.48809]}},{"type":"Feature","properties":{"acq_date":"2026-08-20","acq_time":850,"confidence":"n","satellite":"N","instrument":"VIIRS","version":"2.0URT","bright_ti4":302.44,"frp":1.05,"daynight":"N"},"geometry":{"type":"Point","coordinates":[-113.10406,42.48831]}},{"type":"Feature","properties":{"acq_date":"2026-08-20","acq_time":850,"confidence":"n","satellite":"N","instrument":"VIIRS","version":"2.0URT","bright_ti4":317.16,"frp":2.25,"daynight":"N"},"geometry":{"type":"Point","coordinates":[-113.10907,42.48853]}},{"type":"Feature","properties":{"acq_date":"2026-08-20","acq_time":850,"confidence":"n","satellite":"N","instrument":"VIIRS","version":"2.0URT","bright_ti4":305.21,"frp":1.67,"daynight":"N"},"geometry":{"type":"Point","coordinates":[-113.09934,42.48859]}},{"type":"Feature","properties":{"acq_date":"2026-08-20","acq_time":850,"confidence":"n","satellite":"N","instrument":"VIIRS","version":"2.0URT","bright_ti4":302.09,"frp":1.24,"daynight":"N"},"geometry":{"type":"Point","coordinates":[-113.10426,42.48883]}},{"type":"Feature","properties":{"acq_date":"2026-08-20","acq_time":850,"confidence":"n","satellite":"N","instrument":"VIIRS","version":"2.0URT","bright_ti4":310.62,"frp":1.24,"daynight":"N"},"geometry":{"type":"Point","coordinates":[-113.10926,42.48908]}},{"type":"Feature","properties":{"acq_date":"2026-08-20","acq_time":851,"confidence":"n","satellite":"N","instrument":"VIIRS","version":"2.0URT","bright_ti4":304.24,"frp":1.13,"daynight":"N"},"geometry":{"type":"Point","coordinates":[-119.26666,39.62015]}},{"type":"Feature","properties":{"acq_date":"2026-08-20","acq_time":851,"confidence":"n","satellite":"N","instrument":"VIIRS","version":"2.0URT","bright_ti4":300.46,"frp":2.5,"daynight":"N"},"geometry":{"type":"Point","coordinates":[-117.62901,39.8078]}},{"type":"Feature","properties":{"acq_date":"2026-08-20","acq_time":851,"confidence":"n","satellite":"N","instrument":"VIIRS","version":"2.0URT","bright_ti4":312.58,"frp":3.41,"daynight":"N"},"geometry":{"type":"Point","coordinates":[-117.63762,39.80792]}},{"type":"Feature","properties":{"acq_date":"2026-08-20","acq_time":851,"confidence":"n","satellite":"N","instrument":"VIIRS","version":"2.0URT","bright_ti4":300.51,"frp":7.61,"daynight":"N"},"geometry":{"type":"Point","coordinates":[-117.62627,39.81251]}},{"type":"Feature","properties":{"acq_date":"2026-08-20","acq_time":851,"confidence":"h","satellite":"N","instrument":"VIIRS","version":"2.0URT","bright_ti4":367,"frp":7.61,"daynight":"N"},"geometry":{"type":"Point","coordinates":[-117.63449,39.81267]}},{"type":"Feature","properties":{"acq_date":"2026-08-20","acq_time":851,"confidence":"n","satellite":"N","instrument":"VIIRS","version":"2.0URT","bright_ti4":310.02,"frp":9.34,"daynight":"N"},"geometry":{"type":"Point","coordinates":[-117.64415,39.81285]}},{"type":"Feature","properties":{"acq_date":"2026-08-20","acq_time":851,"confidence":"n","satellite":"N","instrument":"VIIRS","version":"2.0URT","bright_ti4":305.46,"frp":4.7,"daynight":"N"},"geometry":{"type":"Point","coordinates":[-117.62782,39.81455]}},{"type":"Feature","properties":{"acq_date":"2026-08-20","acq_time":851,"confidence":"n","satellite":"N","instrument":"VIIRS","version":"2.0URT","bright_ti4":349.49,"frp":7,"daynight":"N"},"geometry":{"type":"Point","coordinates":[-117.63603,39.81467]}},{"type":"Feature","properties":{"acq_date":"2026-08-20","acq_time":851,"confidence":"n","satellite":"N","instrument":"VIIRS","version":"2.0URT","bright_ti4":302.81,"frp":7,"daynight":"N"},"geometry":{"type":"Point","coordinates":[-117.64624,39.8148]}},{"type":"Feature","properties":{"acq_date":"2026-08-20","acq_time":851,"confidence":"n","satellite":"N","instrument":"VIIRS","version":"2.0URT","bright_ti4":332.42,"frp":8.75,"daynight":"N"},"geometry":{"type":"Point","coordinates":[-117.63589,39.82623]}},{"type":"Feature","properties":{"acq_date":"2026-08-20","acq_time":851,"confidence":"n","satellite":"N","instrument":"VIIRS","version":"2.0URT","bright_ti4":329.3,"frp":10.88,"daynight":"N"},"geometry":{"type":"Point","coordinates":[-117.6441,39.82639]}},{"type":"Feature","properties":{"acq_date":"2026-08-20","acq_time":851,"confidence":"h","satellite":"N","instrument":"VIIRS","version":"2.0URT","bright_ti4":367,"frp":12.41,"daynight":"N"},"geometry":{"type":"Point","coordinates":[-117.63778,39.82822]}},{"type":"Feature","properties":{"acq_date":"2026-08-20","acq_time":851,"confidence":"n","satellite":"N","instrument":"VIIRS","version":"2.0URT","bright_ti4":318.6,"frp":12.41,"daynight":"N"},"geometry":{"type":"Point","coordinates":[-117.64554,39.82833]}},{"type":"Feature","properties":{"acq_date":"2026-08-20","acq_time":851,"confidence":"n","satellite":"N","instrument":"VIIRS","version":"2.0URT","bright_ti4":356.41,"frp":24.6,"daynight":"N"},"geometry":{"type":"Point","coordinates":[-117.63715,39.83302]}},{"type":"Feature","properties":{"acq_date":"2026-08-20","acq_time":851,"confidence":"n","satellite":"N","instrument":"VIIRS","version":"2.0URT","bright_ti4":335.14,"frp":22.98,"daynight":"N"},"geometry":{"type":"Point","coordinates":[-117.64445,39.83316]}},{"type":"Feature","properties":{"acq_date":"2026-08-20","acq_time":851,"confidence":"h","satellite":"N","instrument":"VIIRS","version":"2.0URT","bright_ti4":367,"frp":12.41,"daynight":"N"},"geometry":{"type":"Point","coordinates":[-117.63876,39.835]}},{"type":"Feature","properties":{"acq_date":"2026-08-20","acq_time":851,"confidence":"n","satellite":"N","instrument":"VIIRS","version":"2.0URT","bright_ti4":301.77,"frp":12.41,"daynight":"N"},"geometry":{"type":"Point","coordinates":[-117.646,39.83511]}},{"type":"Feature","properties":{"acq_date":"2026-08-20","acq_time":851,"confidence":"n","satellite":"N","instrument":"VIIRS","version":"2.0URT","bright_ti4":308.36,"frp":1.78,"daynight":"N"},"geometry":{"type":"Point","coordinates":[-114.25652,40.81903]}},{"type":"Feature","properties":{"acq_date":"2026-08-20","acq_time":852,"confidence":"n","satellite":"N","instrument":"VIIRS","version":"2.0URT","bright_ti4":307.19,"frp":0.87,"daynight":"N"},"geometry":{"type":"Point","coordinates":[-113.31452,35.51903]}},{"type":"Feature","properties":{"acq_date":"2026-08-20","acq_time":852,"confidence":"n","satellite":"N","instrument":"VIIRS","version":"2.0URT","bright_ti4":316.57,"frp":3.79,"daynight":"N"},"geometry":{"type":"Point","coordinates":[-114.9109,36.35725]}},{"type":"Feature","properties":{"acq_date":"2026-08-20","acq_time":853,"confidence":"n","satellite":"N","instrument":"VIIRS","version":"2.0URT","bright_ti4":302.77,"frp":0.62,"daynight":"N"},"geometry":{"type":"Point","coordinates":[-116.93594,32.47157]}},{"type":"Feature","properties":{"acq_date":"2026-08-20","acq_time":853,"confidence":"n","satellite":"N","instrument":"VIIRS","version":"2.0URT","bright_ti4":302.38,"frp":1.37,"daynight":"N"},"geometry":{"type":"Point","coordinates":[-116.85658,32.49868]}},{"type":"Feature","properties":{"acq_date":"2026-08-20","acq_time":853,"confidence":"n","satellite":"N","instrument":"VIIRS","version":"2.0URT","bright_ti4":306.53,"frp":1.04,"daynight":"N"},"geometry":{"type":"Point","coordinates":[-116.77708,32.52447]}},{"type":"Feature","properties":{"acq_date":"2026-08-20","acq_time":853,"confidence":"n","satellite":"N","instrument":"VIIRS","version":"2.0URT","bright_ti4":301.21,"frp":1.11,"daynight":"N"},"geometry":{"type":"Point","coordinates":[-116.77499,32.52534]}},{"type":"Feature","properties":{"acq_date":"2026-08-20","acq_time":853,"confidence":"n","satellite":"N","instrument":"VIIRS","version":"2.0URT","bright_ti4":304.4,"frp":0.7,"daynight":"N"},"geometry":{"type":"Point","coordinates":[-118.52087,34.33495]}},{"type":"Feature","properties":{"acq_date":"2026-08-20","acq_time":853,"confidence":"n","satellite":"N","instrument":"VIIRS","version":"2.0URT","bright_ti4":304.2,"frp":1.91,"daynight":"N"},"geometry":{"type":"Point","coordinates":[-117.33498,34.60852]}},{"type":"Feature","properties":{"acq_date":"2026-08-20","acq_time":853,"confidence":"n","satellite":"N","instrument":"VIIRS","version":"2.0URT","bright_ti4":303.22,"frp":1.4,"daynight":"N"},"geometry":{"type":"Point","coordinates":[-117.33524,34.60891]}},{"type":"Feature","properties":{"acq_date":"2026-08-20","acq_time":1031,"confidence":"n","satellite":"N","instrument":"VIIRS","version":"2.0URT","bright_ti4":314.34,"frp":2.13,"daynight":"N"},"geometry":{"type":"Point","coordinates":[-114.25441,40.82193]}},{"type":"Feature","properties":{"acq_date":"2026-08-20","acq_time":1031,"confidence":"n","satellite":"N","instrument":"VIIRS","version":"2.0URT","bright_ti4":298.58,"frp":0.5,"daynight":"N"},"geometry":{"type":"Point","coordinates":[-121.57465,42.34585]}},{"type":"Feature","properties":{"acq_date":"2026-08-20","acq_time":1031,"confidence":"n","satellite":"N","instrument":"VIIRS","version":"2.0URT","bright_ti4":299.77,"frp":1.02,"daynight":"N"},"geometry":{"type":"Point","coordinates":[-121.57223,42.34671]}},{"type":"Feature","properties":{"acq_date":"2026-08-20","acq_time":1031,"confidence":"n","satellite":"N","instrument":"VIIRS","version":"2.0URT","bright_ti4":302.29,"frp":0.5,"daynight":"N"},"geometry":{"type":"Point","coordinates":[-122.77698,42.38491]}},{"type":"Feature","properties":{"acq_date":"2026-08-20","acq_time":1031,"confidence":"n","satellite":"N","instrument":"VIIRS","version":"2.0URT","bright_ti4":299.78,"frp":1.06,"daynight":"N"},"geometry":{"type":"Point","coordinates":[-121.65168,42.40767]}},{"type":"Feature","properties":{"acq_date":"2026-08-20","acq_time":1031,"confidence":"n","satellite":"N","instrument":"VIIRS","version":"2.0URT","bright_ti4":316.94,"frp":11.05,"daynight":"N"},"geometry":{"type":"Point","coordinates":[-121.66333,42.40997]}},{"type":"Feature","properties":{"acq_date":"2026-08-20","acq_time":1031,"confidence":"n","satellite":"N","instrument":"VIIRS","version":"2.0URT","bright_ti4":334.04,"frp":4.69,"daynight":"N"},"geometry":{"type":"Point","coordinates":[-121.66882,42.41105]}},{"type":"Feature","properties":{"acq_date":"2026-08-20","acq_time":1031,"confidence":"n","satellite":"N","instrument":"VIIRS","version":"2.0URT","bright_ti4":299.4,"frp":4.69,"daynight":"N"},"geometry":{"type":"Point","coordinates":[-121.67423,42.41211]}},{"type":"Feature","properties":{"acq_date":"2026-08-20","acq_time":1031,"confidence":"n","satellite":"N","instrument":"VIIRS","version":"2.0URT","bright_ti4":319.42,"frp":4.69,"daynight":"N"},"geometry":{"type":"Point","coordinates":[-121.66736,42.41452]}},{"type":"Feature","properties":{"acq_date":"2026-08-20","acq_time":1031,"confidence":"n","satellite":"N","instrument":"VIIRS","version":"2.0URT","bright_ti4":315.73,"frp":4.69,"daynight":"N"},"geometry":{"type":"Point","coordinates":[-121.67273,42.41557]}},{"type":"Feature","properties":{"acq_date":"2026-08-20","acq_time":1031,"confidence":"n","satellite":"N","instrument":"VIIRS","version":"2.0URT","bright_ti4":302.64,"frp":1.46,"daynight":"N"},"geometry":{"type":"Point","coordinates":[-121.67657,42.42007]}},{"type":"Feature","properties":{"acq_date":"2026-08-20","acq_time":1031,"confidence":"n","satellite":"N","instrument":"VIIRS","version":"2.0URT","bright_ti4":301.74,"frp":1.26,"daynight":"N"},"geometry":{"type":"Point","coordinates":[-121.67896,42.42805]}},{"type":"Feature","properties":{"acq_date":"2026-08-20","acq_time":1031,"confidence":"n","satellite":"N","instrument":"VIIRS","version":"2.0URT","bright_ti4":301.07,"frp":0.95,"daynight":"N"},"geometry":{"type":"Point","coordinates":[-116.86473,42.4544]}},{"type":"Feature","properties":{"acq_date":"2026-08-20","acq_time":1031,"confidence":"n","satellite":"N","instrument":"VIIRS","version":"2.0URT","bright_ti4":297.17,"frp":0.56,"daynight":"N"},"geometry":{"type":"Point","coordinates":[-113.06365,42.4774]}},{"type":"Feature","properties":{"acq_date":"2026-08-20","acq_time":1031,"confidence":"n","satellite":"N","instrument":"VIIRS","version":"2.0URT","bright_ti4":300.15,"frp":1.32,"daynight":"N"},"geometry":{"type":"Point","coordinates":[-113.0676,42.47851]}},{"type":"Feature","properties":{"acq_date":"2026-08-20","acq_time":1031,"confidence":"n","satellite":"N","instrument":"VIIRS","version":"2.0URT","bright_ti4":299.18,"frp":0.85,"daynight":"N"},"geometry":{"type":"Point","coordinates":[-115.66449,43.1476]}},{"type":"Feature","properties":{"acq_date":"2026-08-20","acq_time":1031,"confidence":"n","satellite":"N","instrument":"VIIRS","version":"2.0URT","bright_ti4":300.46,"frp":0.84,"daynight":"N"},"geometry":{"type":"Point","coordinates":[-115.73305,43.17982]}},{"type":"Feature","properties":{"acq_date":"2026-08-20","acq_time":1032,"confidence":"n","satellite":"N","instrument":"VIIRS","version":"2.0URT","bright_ti4":300.16,"frp":0.99,"daynight":"N"},"geometry":{"type":"Point","coordinates":[-119.26475,39.61806]}},{"type":"Feature","properties":{"acq_date":"2026-08-20","acq_time":1032,"confidence":"n","satellite":"N","instrument":"VIIRS","version":"2.0URT","bright_ti4":307.66,"frp":0.99,"daynight":"N"},"geometry":{"type":"Point","coordinates":[-119.26319,39.62215]}},{"type":"Feature","properties":{"acq_date":"2026-08-20","acq_time":1032,"confidence":"n","satellite":"N","instrument":"VIIRS","version":"2.0URT","bright_ti4":299.99,"frp":0.93,"daynight":"N"},"geometry":{"type":"Point","coordinates":[-117.5731,39.79487]}},{"type":"Feature","properties":{"acq_date":"2026-08-20","acq_time":1032,"confidence":"n","satellite":"N","instrument":"VIIRS","version":"2.0URT","bright_ti4":299.81,"frp":0.37,"daynight":"N"},"geometry":{"type":"Point","coordinates":[-117.57337,39.79538]}},{"type":"Feature","properties":{"acq_date":"2026-08-20","acq_time":1032,"confidence":"n","satellite":"N","instrument":"VIIRS","version":"2.0URT","bright_ti4":314.84,"frp":2.85,"daynight":"N"},"geometry":{"type":"Point","coordinates":[-117.62589,39.81268]}},{"type":"Feature","properties":{"acq_date":"2026-08-20","acq_time":1032,"confidence":"n","satellite":"N","instrument":"VIIRS","version":"2.0URT","bright_ti4":324.04,"frp":1.98,"daynight":"N"},"geometry":{"type":"Point","coordinates":[-117.62634,39.81291]}},{"type":"Feature","properties":{"acq_date":"2026-08-20","acq_time":1032,"confidence":"n","satellite":"N","instrument":"VIIRS","version":"2.0URT","bright_ti4":314.44,"frp":2.85,"daynight":"N"},"geometry":{"type":"Point","coordinates":[-117.63158,39.81408]}},{"type":"Feature","properties":{"acq_date":"2026-08-20","acq_time":1032,"confidence":"n","satellite":"N","instrument":"VIIRS","version":"2.0URT","bright_ti4":310.62,"frp":3.42,"daynight":"N"},"geometry":{"type":"Point","coordinates":[-117.63206,39.81428]}},{"type":"Feature","properties":{"acq_date":"2026-08-20","acq_time":1032,"confidence":"n","satellite":"N","instrument":"VIIRS","version":"2.0URT","bright_ti4":351.12,"frp":10,"daynight":"N"},"geometry":{"type":"Point","coordinates":[-117.63876,39.82552]}},{"type":"Feature","properties":{"acq_date":"2026-08-20","acq_time":1032,"confidence":"n","satellite":"N","instrument":"VIIRS","version":"2.0URT","bright_ti4":350.32,"frp":6.25,"daynight":"N"},"geometry":{"type":"Point","coordinates":[-117.63923,39.82566]}},{"type":"Feature","properties":{"acq_date":"2026-08-20","acq_time":1032,"confidence":"n","satellite":"N","instrument":"VIIRS","version":"2.0URT","bright_ti4":308.66,"frp":5.32,"daynight":"N"},"geometry":{"type":"Point","coordinates":[-117.63654,39.82982]}},{"type":"Feature","properties":{"acq_date":"2026-08-20","acq_time":1032,"confidence":"n","satellite":"N","instrument":"VIIRS","version":"2.0URT","bright_ti4":315.6,"frp":6.25,"daynight":"N"},"geometry":{"type":"Point","coordinates":[-117.63703,39.82996]}},{"type":"Feature","properties":{"acq_date":"2026-08-20","acq_time":1032,"confidence":"n","satellite":"N","instrument":"VIIRS","version":"2.0URT","bright_ti4":338.69,"frp":14,"daynight":"N"},"geometry":{"type":"Point","coordinates":[-117.64236,39.83124]}},{"type":"Feature","properties":{"acq_date":"2026-08-20","acq_time":1032,"confidence":"n","satellite":"N","instrument":"VIIRS","version":"2.0URT","bright_ti4":337.88,"frp":6.25,"daynight":"N"},"geometry":{"type":"Point","coordinates":[-117.64286,39.83136]}},{"type":"Feature","properties":{"acq_date":"2026-08-20","acq_time":1032,"confidence":"n","satellite":"N","instrument":"VIIRS","version":"2.0URT","bright_ti4":349.17,"frp":14,"daynight":"N"},"geometry":{"type":"Point","coordinates":[-117.64021,39.83556]}},{"type":"Feature","properties":{"acq_date":"2026-08-20","acq_time":1032,"confidence":"n","satellite":"N","instrument":"VIIRS","version":"2.0URT","bright_ti4":346.72,"frp":8.79,"daynight":"N"},"geometry":{"type":"Point","coordinates":[-123.62726,41.10583]}},{"type":"Feature","properties":{"acq_date":"2026-08-20","acq_time":1032,"confidence":"n","satellite":"N","instrument":"VIIRS","version":"2.0URT","bright_ti4":316.4,"frp":8.79,"daynight":"N"},"geometry":{"type":"Point","coordinates":[-123.632,41.1067]}},{"type":"Feature","properties":{"acq_date":"2026-08-20","acq_time":1032,"confidence":"n","satellite":"N","instrument":"VIIRS","version":"2.0URT","bright_ti4":349.5,"frp":4.99,"daynight":"N"},"geometry":{"type":"Point","coordinates":[-123.62576,41.10912]}},{"type":"Feature","properties":{"acq_date":"2026-08-20","acq_time":1032,"confidence":"n","satellite":"N","instrument":"VIIRS","version":"2.0URT","bright_ti4":338.43,"frp":4.99,"daynight":"N"},"geometry":{"type":"Point","coordinates":[-123.63047,41.10999]}},{"type":"Feature","properties":{"acq_date":"2026-08-20","acq_time":1032,"confidence":"n","satellite":"N","instrument":"VIIRS","version":"2.0URT","bright_ti4":302.47,"frp":1.2,"daynight":"N"},"geometry":{"type":"Point","coordinates":[-123.61961,41.11156]}},{"type":"Feature","properties":{"acq_date":"2026-08-20","acq_time":1032,"confidence":"n","satellite":"N","instrument":"VIIRS","version":"2.0URT","bright_ti4":340.75,"frp":4.99,"daynight":"N"},"geometry":{"type":"Point","coordinates":[-123.62437,41.11244]}},{"type":"Feature","properties":{"acq_date":"2026-08-20","acq_time":1032,"confidence":"n","satellite":"N","instrument":"VIIRS","version":"2.0URT","bright_ti4":312.1,"frp":4.99,"daynight":"N"},"geometry":{"type":"Point","coordinates":[-123.62914,41.11331]}},{"type":"Feature","properties":{"acq_date":"2026-08-20","acq_time":1032,"confidence":"n","satellite":"N","instrument":"VIIRS","version":"2.0URT","bright_ti4":302.15,"frp":0.47,"daynight":"N"},"geometry":{"type":"Point","coordinates":[-123.64658,41.12365]}},{"type":"Feature","properties":{"acq_date":"2026-08-20","acq_time":1032,"confidence":"n","satellite":"N","instrument":"VIIRS","version":"2.0URT","bright_ti4":304.59,"frp":0.8,"daynight":"N"},"geometry":{"type":"Point","coordinates":[-123.64533,41.14841]}},{"type":"Feature","properties":{"acq_date":"2026-08-20","acq_time":1033,"confidence":"n","satellite":"N","instrument":"VIIRS","version":"2.0URT","bright_ti4":302.93,"frp":0.35,"daynight":"N"},"geometry":{"type":"Point","coordinates":[-117.82272,33.61123]}},{"type":"Feature","properties":{"acq_date":"2026-08-20","acq_time":1033,"confidence":"n","satellite":"N","instrument":"VIIRS","version":"2.0URT","bright_ti4":307.07,"frp":0.34,"daynight":"N"},"geometry":{"type":"Point","coordinates":[-117.71088,33.71598]}},{"type":"Feature","properties":{"acq_date":"2026-08-20","acq_time":1033,"confidence":"n","satellite":"N","instrument":"VIIRS","version":"2.0URT","bright_ti4":302.08,"frp":0.57,"daynight":"N"},"geometry":{"type":"Point","coordinates":[-117.71223,33.71621]}},{"type":"Feature","properties":{"acq_date":"2026-08-20","acq_time":1033,"confidence":"n","satellite":"N","instrument":"VIIRS","version":"2.0URT","bright_ti4":302.99,"frp":0.64,"daynight":"N"},"geometry":{"type":"Point","coordinates":[-117.47473,33.79406]}},{"type":"Feature","properties":{"acq_date":"2026-08-20","acq_time":1033,"confidence":"n","satellite":"N","instrument":"VIIRS","version":"2.0URT","bright_ti4":304.71,"frp":0.84,"daynight":"N"},"geometry":{"type":"Point","coordinates":[-118.24487,33.82076]}},{"type":"Feature","properties":{"acq_date":"2026-08-20","acq_time":1033,"confidence":"n","satellite":"N","instrument":"VIIRS","version":"2.0URT","bright_ti4":311.61,"frp":1.51,"daynight":"N"},"geometry":{"type":"Point","coordinates":[-118.33229,33.85294]}},{"type":"Feature","properties":{"acq_date":"2026-08-20","acq_time":1033,"confidence":"n","satellite":"N","instrument":"VIIRS","version":"2.0URT","bright_ti4":302.27,"frp":0.09,"daynight":"N"},"geometry":{"type":"Point","coordinates":[-118.10609,34.03527]}},{"type":"Feature","properties":{"acq_date":"2026-08-20","acq_time":1033,"confidence":"n","satellite":"N","instrument":"VIIRS","version":"2.0URT","bright_ti4":304.58,"frp":0.71,"daynight":"N"},"geometry":{"type":"Point","coordinates":[-118.19434,34.15172]}},{"type":"Feature","properties":{"acq_date":"2026-08-20","acq_time":1033,"confidence":"n","satellite":"N","instrument":"VIIRS","version":"2.0URT","bright_ti4":308.41,"frp":1.14,"daynight":"N"},"geometry":{"type":"Point","coordinates":[-118.51694,34.33548]}},{"type":"Feature","properties":{"acq_date":"2026-08-20","acq_time":1033,"confidence":"n","satellite":"N","instrument":"VIIRS","version":"2.0URT","bright_ti4":301.42,"frp":1.35,"daynight":"N"},"geometry":{"type":"Point","coordinates":[-118.64461,34.43071]}},{"type":"Feature","properties":{"acq_date":"2026-08-20","acq_time":1033,"confidence":"n","satellite":"N","instrument":"VIIRS","version":"2.0URT","bright_ti4":319.54,"frp":2.22,"daynight":"N"},"geometry":{"type":"Point","coordinates":[-117.33728,34.60932]}},{"type":"Feature","properties":{"acq_date":"2026-08-20","acq_time":1033,"confidence":"n","satellite":"N","instrument":"VIIRS","version":"2.0URT","bright_ti4":304.77,"frp":1.29,"daynight":"N"},"geometry":{"type":"Point","coordinates":[-117.09899,34.62014]}},{"type":"Feature","properties":{"acq_date":"2026-08-20","acq_time":1033,"confidence":"n","satellite":"N","instrument":"VIIRS","version":"2.0URT","bright_ti4":310.95,"frp":1.72,"daynight":"N"},"geometry":{"type":"Point","coordinates":[-117.10271,34.62109]}},{"type":"Feature","properties":{"acq_date":"2026-08-20","acq_time":1033,"confidence":"n","satellite":"N","instrument":"VIIRS","version":"2.0URT","bright_ti4":311.93,"frp":1.77,"daynight":"N"},"geometry":{"type":"Point","coordinates":[-121.68639,36.2238]}},{"type":"Feature","properties":{"acq_date":"2026-08-20","acq_time":1033,"confidence":"n","satellite":"N","instrument":"VIIRS","version":"2.0URT","bright_ti4":300.86,"frp":6.37,"daynight":"N"},"geometry":{"type":"Point","coordinates":[-121.71441,36.23815]}},{"type":"Feature","properties":{"acq_date":"2026-08-20","acq_time":1033,"confidence":"n","satellite":"N","instrument":"VIIRS","version":"2.0URT","bright_ti4":349.25,"frp":7.97,"daynight":"N"},"geometry":{"type":"Point","coordinates":[-121.70547,36.24044]}},{"type":"Feature","properties":{"acq_date":"2026-08-20","acq_time":1033,"confidence":"n","satellite":"N","instrument":"VIIRS","version":"2.0URT","bright_ti4":348.11,"frp":6.37,"daynight":"N"},"geometry":{"type":"Point","coordinates":[-121.709,36.24119]}},{"type":"Feature","properties":{"acq_date":"2026-08-20","acq_time":1033,"confidence":"n","satellite":"N","instrument":"VIIRS","version":"2.0URT","bright_ti4":354.9,"frp":6.37,"daynight":"N"},"geometry":{"type":"Point","coordinates":[-121.7127,36.24198]}},{"type":"Feature","properties":{"acq_date":"2026-08-20","acq_time":1033,"confidence":"n","satellite":"N","instrument":"VIIRS","version":"2.0URT","bright_ti4":308.87,"frp":2.67,"daynight":"N"},"geometry":{"type":"Point","coordinates":[-121.7169,36.24287]}},{"type":"Feature","properties":{"acq_date":"2026-08-20","acq_time":1033,"confidence":"n","satellite":"N","instrument":"VIIRS","version":"2.0URT","bright_ti4":327.55,"frp":1.86,"daynight":"N"},"geometry":{"type":"Point","coordinates":[-121.7037,36.24426]}},{"type":"Feature","properties":{"acq_date":"2026-08-20","acq_time":1033,"confidence":"n","satellite":"N","instrument":"VIIRS","version":"2.0URT","bright_ti4":321.41,"frp":2.11,"daynight":"N"},"geometry":{"type":"Point","coordinates":[-121.70737,36.24504]}},{"type":"Feature","properties":{"acq_date":"2026-08-20","acq_time":1033,"confidence":"n","satellite":"N","instrument":"VIIRS","version":"2.0URT","bright_ti4":303.75,"frp":0.57,"daynight":"N"},"geometry":{"type":"Point","coordinates":[-121.7323,36.25033]}},{"type":"Feature","properties":{"acq_date":"2026-08-20","acq_time":1033,"confidence":"n","satellite":"N","instrument":"VIIRS","version":"2.0URT","bright_ti4":301.09,"frp":0.53,"daynight":"N"},"geometry":{"type":"Point","coordinates":[-121.74045,36.25206]}},{"type":"Feature","properties":{"acq_date":"2026-08-20","acq_time":1033,"confidence":"n","satellite":"N","instrument":"VIIRS","version":"2.0URT","bright_ti4":305.23,"frp":0.57,"daynight":"N"},"geometry":{"type":"Point","coordinates":[-121.73483,36.25505]}},{"type":"Feature","properties":{"acq_date":"2026-08-20","acq_time":1033,"confidence":"n","satellite":"N","instrument":"VIIRS","version":"2.0URT","bright_ti4":318.85,"frp":1.53,"daynight":"N"},"geometry":{"type":"Point","coordinates":[-120.13359,37.03323]}},{"type":"Feature","properties":{"acq_date":"2026-08-20","acq_time":1034,"confidence":"n","satellite":"N","instrument":"VIIRS","version":"2.0URT","bright_ti4":300.8,"frp":0.25,"daynight":"N"},"geometry":{"type":"Point","coordinates":[-117.14819,32.85676]}}]}