{"type":"FeatureCollection","name":"FIRMS VIIRS CA (last 1 day)","crs":{"type":"name","properties":{"name":"EPSG:4326"}},"fetched_at_utc":"2026-10-09T19:20:56.774Z","source":{"url":"https://firms.modaps.eosdis.nasa.gov/api/area/csv/8c4af552cf654445dd280dfb3ad9337c/VIIRS_SNPP_NRT/-125,32,-113,43.5/1","dataset":"VIIRS_SNPP_NRT","bbox":"-125,32,-113,43.5","day_range":"1"},"features":[{"type":"Feature","properties":{"acq_date":"2026-10-09","acq_time":954,"confidence":"n","satellite":"N","instrument":"VIIRS","version":"2.0NRT","bright_ti4":312.74,"frp":1.82,"daynight":"N"},"geometry":{"type":"Point","coordinates":[-114.25475,40.82242]}},{"type":"Feature","properties":{"acq_date":"2026-10-09","acq_time":954,"confidence":"n","satellite":"N","instrument":"VIIRS","version":"2.0NRT","bright_ti4":314.52,"frp":1.39,"daynight":"N"},"geometry":{"type":"Point","coordinates":[-115.66892,43.14651]}},{"type":"Feature","properties":{"acq_date":"2026-10-09","acq_time":954,"confidence":"n","satellite":"N","instrument":"VIIRS","version":"2.0NRT","bright_ti4":304.16,"frp":1.24,"daynight":"N"},"geometry":{"type":"Point","coordinates":[-115.73222,43.18065]}},{"type":"Feature","properties":{"acq_date":"2026-10-09","acq_time":956,"confidence":"n","satellite":"N","instrument":"VIIRS","version":"2.0NRT","bright_ti4":299.9,"frp":0.4,"daynight":"N"},"geometry":{"type":"Point","coordinates":[-117.8203,33.61407]}},{"type":"Feature","properties":{"acq_date":"2026-10-09","acq_time":956,"confidence":"n","satellite":"N","instrument":"VIIRS","version":"2.0NRT","bright_ti4":301.94,"frp":0.4,"daynight":"N"},"geometry":{"type":"Point","coordinates":[-117.82446,33.61477]}},{"type":"Feature","properties":{"acq_date":"2026-10-09","acq_time":956,"confidence":"n","satellite":"N","instrument":"VIIRS","version":"2.0NRT","bright_ti4":318.56,"frp":1.2,"daynight":"N"},"geometry":{"type":"Point","coordinates":[-117.71088,33.71474]}},{"type":"Feature","properties":{"acq_date":"2026-10-09","acq_time":956,"confidence":"n","satellite":"N","instrument":"VIIRS","version":"2.0NRT","bright_ti4":312.23,"frp":0.94,"daynight":"N"},"geometry":{"type":"Point","coordinates":[-117.71127,33.7168]}},{"type":"Feature","properties":{"acq_date":"2026-10-09","acq_time":956,"confidence":"n","satellite":"N","instrument":"VIIRS","version":"2.0NRT","bright_ti4":309.9,"frp":0.86,"daynight":"N"},"geometry":{"type":"Point","coordinates":[-118.23697,33.77772]}},{"type":"Feature","properties":{"acq_date":"2026-10-09","acq_time":956,"confidence":"n","satellite":"N","instrument":"VIIRS","version":"2.0NRT","bright_ti4":310,"frp":0.8,"daynight":"N"},"geometry":{"type":"Point","coordinates":[-117.47589,33.7924]}},{"type":"Feature","properties":{"acq_date":"2026-10-09","acq_time":956,"confidence":"n","satellite":"N","instrument":"VIIRS","version":"2.0NRT","bright_ti4":301.6,"frp":0.23,"daynight":"N"},"geometry":{"type":"Point","coordinates":[-118.34961,33.79266]}},{"type":"Feature","properties":{"acq_date":"2026-10-09","acq_time":956,"confidence":"n","satellite":"N","instrument":"VIIRS","version":"2.0NRT","bright_ti4":305.48,"frp":0.8,"daynight":"N"},"geometry":{"type":"Point","coordinates":[-117.47511,33.79573]}},{"type":"Feature","properties":{"acq_date":"2026-10-09","acq_time":956,"confidence":"n","satellite":"N","instrument":"VIIRS","version":"2.0NRT","bright_ti4":308.18,"frp":1.01,"daynight":"N"},"geometry":{"type":"Point","coordinates":[-118.33172,33.85413]}},{"type":"Feature","properties":{"acq_date":"2026-10-09","acq_time":956,"confidence":"n","satellite":"N","instrument":"VIIRS","version":"2.0NRT","bright_ti4":304.06,"frp":0.52,"daynight":"N"},"geometry":{"type":"Point","coordinates":[-118.10726,34.03489]}},{"type":"Feature","properties":{"acq_date":"2026-10-09","acq_time":956,"confidence":"n","satellite":"N","instrument":"VIIRS","version":"2.0NRT","bright_ti4":305.71,"frp":0.61,"daynight":"N"},"geometry":{"type":"Point","coordinates":[-117.89039,34.03688]}},{"type":"Feature","properties":{"acq_date":"2026-10-09","acq_time":956,"confidence":"n","satellite":"N","instrument":"VIIRS","version":"2.0NRT","bright_ti4":301.52,"frp":0.32,"daynight":"N"},"geometry":{"type":"Point","coordinates":[-117.82021,34.039]}},{"type":"Feature","properties":{"acq_date":"2026-10-09","acq_time":956,"confidence":"n","satellite":"N","instrument":"VIIRS","version":"2.0NRT","bright_ti4":310.44,"frp":1.02,"daynight":"N"},"geometry":{"type":"Point","coordinates":[-118.19346,34.15412]}},{"type":"Feature","properties":{"acq_date":"2026-10-09","acq_time":956,"confidence":"n","satellite":"N","instrument":"VIIRS","version":"2.0NRT","bright_ti4":303.38,"frp":0.36,"daynight":"N"},"geometry":{"type":"Point","coordinates":[-118.37952,34.24253]}},{"type":"Feature","properties":{"acq_date":"2026-10-09","acq_time":956,"confidence":"n","satellite":"N","instrument":"VIIRS","version":"2.0NRT","bright_ti4":298.38,"frp":0.93,"daynight":"N"},"geometry":{"type":"Point","coordinates":[-118.7989,34.28894]}},{"type":"Feature","properties":{"acq_date":"2026-10-09","acq_time":956,"confidence":"n","satellite":"N","instrument":"VIIRS","version":"2.0NRT","bright_ti4":302.43,"frp":0.47,"daynight":"N"},"geometry":{"type":"Point","coordinates":[-118.51868,34.33273]}},{"type":"Feature","properties":{"acq_date":"2026-10-09","acq_time":956,"confidence":"n","satellite":"N","instrument":"VIIRS","version":"2.0NRT","bright_ti4":314.18,"frp":0.47,"daynight":"N"},"geometry":{"type":"Point","coordinates":[-118.51792,34.33603]}},{"type":"Feature","properties":{"acq_date":"2026-10-09","acq_time":956,"confidence":"n","satellite":"N","instrument":"VIIRS","version":"2.0NRT","bright_ti4":300.75,"frp":1.35,"daynight":"N"},"geometry":{"type":"Point","coordinates":[-116.85089,34.35252]}},{"type":"Feature","properties":{"acq_date":"2026-10-09","acq_time":956,"confidence":"n","satellite":"N","instrument":"VIIRS","version":"2.0NRT","bright_ti4":309.21,"frp":0.76,"daynight":"N"},"geometry":{"type":"Point","coordinates":[-118.64417,34.43039]}},{"type":"Feature","properties":{"acq_date":"2026-10-09","acq_time":956,"confidence":"n","satellite":"N","instrument":"VIIRS","version":"2.0NRT","bright_ti4":316.72,"frp":1.82,"daynight":"N"},"geometry":{"type":"Point","coordinates":[-117.10034,34.62082]}},{"type":"Feature","properties":{"acq_date":"2026-10-09","acq_time":956,"confidence":"n","satellite":"N","instrument":"VIIRS","version":"2.0NRT","bright_ti4":300.24,"frp":0.52,"daynight":"N"},"geometry":{"type":"Point","coordinates":[-118.79272,34.7359]}},{"type":"Feature","properties":{"acq_date":"2026-10-09","acq_time":956,"confidence":"n","satellite":"N","instrument":"VIIRS","version":"2.0NRT","bright_ti4":297.8,"frp":0.44,"daynight":"N"},"geometry":{"type":"Point","coordinates":[-118.84212,36.33036]}},{"type":"Feature","properties":{"acq_date":"2026-10-09","acq_time":956,"confidence":"n","satellite":"N","instrument":"VIIRS","version":"2.0NRT","bright_ti4":301.83,"frp":0.44,"daynight":"N"},"geometry":{"type":"Point","coordinates":[-118.84137,36.33367]}},{"type":"Feature","properties":{"acq_date":"2026-10-09","acq_time":956,"confidence":"n","satellite":"N","instrument":"VIIRS","version":"2.0NRT","bright_ti4":305.17,"frp":1.05,"daynight":"N"},"geometry":{"type":"Point","coordinates":[-118.83983,36.34028]}},{"type":"Feature","properties":{"acq_date":"2026-10-09","acq_time":956,"confidence":"n","satellite":"N","instrument":"VIIRS","version":"2.0NRT","bright_ti4":310.66,"frp":1.09,"daynight":"N"},"geometry":{"type":"Point","coordinates":[-118.84422,36.34094]}},{"type":"Feature","properties":{"acq_date":"2026-10-09","acq_time":956,"confidence":"n","satellite":"N","instrument":"VIIRS","version":"2.0NRT","bright_ti4":302.2,"frp":1.09,"daynight":"N"},"geometry":{"type":"Point","coordinates":[-118.84854,36.3416]}},{"type":"Feature","properties":{"acq_date":"2026-10-09","acq_time":956,"confidence":"n","satellite":"N","instrument":"VIIRS","version":"2.0NRT","bright_ti4":306.11,"frp":1.01,"daynight":"N"},"geometry":{"type":"Point","coordinates":[-118.84344,36.34425]}},{"type":"Feature","properties":{"acq_date":"2026-10-09","acq_time":956,"confidence":"n","satellite":"N","instrument":"VIIRS","version":"2.0NRT","bright_ti4":303.93,"frp":1.01,"daynight":"N"},"geometry":{"type":"Point","coordinates":[-118.84782,36.34491]}},{"type":"Feature","properties":{"acq_date":"2026-10-09","acq_time":956,"confidence":"n","satellite":"N","instrument":"VIIRS","version":"2.0NRT","bright_ti4":314.57,"frp":1.01,"daynight":"N"},"geometry":{"type":"Point","coordinates":[-118.8427,36.34756]}},{"type":"Feature","properties":{"acq_date":"2026-10-09","acq_time":956,"confidence":"n","satellite":"N","instrument":"VIIRS","version":"2.0NRT","bright_ti4":310.32,"frp":0.95,"daynight":"N"},"geometry":{"type":"Point","coordinates":[-118.84199,36.35087]}},{"type":"Feature","properties":{"acq_date":"2026-10-09","acq_time":956,"confidence":"n","satellite":"N","instrument":"VIIRS","version":"2.0NRT","bright_ti4":303.26,"frp":0.95,"daynight":"N"},"geometry":{"type":"Point","coordinates":[-118.84636,36.35154]}},{"type":"Feature","properties":{"acq_date":"2026-10-09","acq_time":956,"confidence":"n","satellite":"N","instrument":"VIIRS","version":"2.0NRT","bright_ti4":310.2,"frp":0.95,"daynight":"N"},"geometry":{"type":"Point","coordinates":[-118.84125,36.35419]}},{"type":"Feature","properties":{"acq_date":"2026-10-09","acq_time":956,"confidence":"n","satellite":"N","instrument":"VIIRS","version":"2.0NRT","bright_ti4":314.68,"frp":0.66,"daynight":"N"},"geometry":{"type":"Point","coordinates":[-114.90971,36.35548]}},{"type":"Feature","properties":{"acq_date":"2026-10-09","acq_time":956,"confidence":"n","satellite":"N","instrument":"VIIRS","version":"2.0NRT","bright_ti4":311.67,"frp":0.74,"daynight":"N"},"geometry":{"type":"Point","coordinates":[-118.84057,36.35751]}},{"type":"Feature","properties":{"acq_date":"2026-10-09","acq_time":956,"confidence":"n","satellite":"N","instrument":"VIIRS","version":"2.0NRT","bright_ti4":302.58,"frp":0.74,"daynight":"N"},"geometry":{"type":"Point","coordinates":[-118.84495,36.35818]}},{"type":"Feature","properties":{"acq_date":"2026-10-09","acq_time":956,"confidence":"n","satellite":"N","instrument":"VIIRS","version":"2.0NRT","bright_ti4":306.75,"frp":0.66,"daynight":"N"},"geometry":{"type":"Point","coordinates":[-114.90871,36.35894]}},{"type":"Feature","properties":{"acq_date":"2026-10-09","acq_time":956,"confidence":"n","satellite":"N","instrument":"VIIRS","version":"2.0NRT","bright_ti4":310.51,"frp":0.78,"daynight":"N"},"geometry":{"type":"Point","coordinates":[-114.87537,36.38168]}},{"type":"Feature","properties":{"acq_date":"2026-10-09","acq_time":956,"confidence":"n","satellite":"N","instrument":"VIIRS","version":"2.0NRT","bright_ti4":311.17,"frp":0.82,"daynight":"N"},"geometry":{"type":"Point","coordinates":[-114.87687,36.38227]}},{"type":"Feature","properties":{"acq_date":"2026-10-09","acq_time":956,"confidence":"n","satellite":"N","instrument":"VIIRS","version":"2.0NRT","bright_ti4":305.28,"frp":0.65,"daynight":"N"},"geometry":{"type":"Point","coordinates":[-120.58243,36.69569]}},{"type":"Feature","properties":{"acq_date":"2026-10-09","acq_time":956,"confidence":"n","satellite":"N","instrument":"VIIRS","version":"2.0NRT","bright_ti4":301.6,"frp":0.56,"daynight":"N"},"geometry":{"type":"Point","coordinates":[-120.87233,36.97184]}},{"type":"Feature","properties":{"acq_date":"2026-10-09","acq_time":956,"confidence":"n","satellite":"N","instrument":"VIIRS","version":"2.0NRT","bright_ti4":303.64,"frp":0.33,"daynight":"N"},"geometry":{"type":"Point","coordinates":[-120.19515,37.02296]}},{"type":"Feature","properties":{"acq_date":"2026-10-09","acq_time":956,"confidence":"n","satellite":"N","instrument":"VIIRS","version":"2.0NRT","bright_ti4":312.4,"frp":0.96,"daynight":"N"},"geometry":{"type":"Point","coordinates":[-120.19741,37.02552]}},{"type":"Feature","properties":{"acq_date":"2026-10-09","acq_time":956,"confidence":"n","satellite":"N","instrument":"VIIRS","version":"2.0NRT","bright_ti4":305.42,"frp":0.33,"daynight":"N"},"geometry":{"type":"Point","coordinates":[-120.1944,37.02637]}},{"type":"Feature","properties":{"acq_date":"2026-10-09","acq_time":956,"confidence":"n","satellite":"N","instrument":"VIIRS","version":"2.0NRT","bright_ti4":306.54,"frp":1.1,"daynight":"N"},"geometry":{"type":"Point","coordinates":[-121.93292,37.45325]}},{"type":"Feature","properties":{"acq_date":"2026-10-09","acq_time":956,"confidence":"n","satellite":"N","instrument":"VIIRS","version":"2.0NRT","bright_ti4":302.89,"frp":1.24,"daynight":"N"},"geometry":{"type":"Point","coordinates":[-119.5875,37.60646]}},{"type":"Feature","properties":{"acq_date":"2026-10-09","acq_time":956,"confidence":"n","satellite":"N","instrument":"VIIRS","version":"2.0NRT","bright_ti4":300.55,"frp":0.87,"daynight":"N"},"geometry":{"type":"Point","coordinates":[-121.18835,37.88216]}},{"type":"Feature","properties":{"acq_date":"2026-10-09","acq_time":956,"confidence":"n","satellite":"N","instrument":"VIIRS","version":"2.0NRT","bright_ti4":301.27,"frp":1.37,"daynight":"N"},"geometry":{"type":"Point","coordinates":[-122.39294,37.94234]}},{"type":"Feature","properties":{"acq_date":"2026-10-09","acq_time":956,"confidence":"n","satellite":"N","instrument":"VIIRS","version":"2.0NRT","bright_ti4":302.52,"frp":1.04,"daynight":"N"},"geometry":{"type":"Point","coordinates":[-119.26514,39.6189]}},{"type":"Feature","properties":{"acq_date":"2026-10-09","acq_time":956,"confidence":"n","satellite":"N","instrument":"VIIRS","version":"2.0NRT","bright_ti4":295.38,"frp":0.29,"daynight":"N"},"geometry":{"type":"Point","coordinates":[-117.85897,40.94107]}},{"type":"Feature","properties":{"acq_date":"2026-10-09","acq_time":958,"confidence":"n","satellite":"N","instrument":"VIIRS","version":"2.0NRT","bright_ti4":331.89,"frp":9.94,"daynight":"N"},"geometry":{"type":"Point","coordinates":[-116.83435,32.49463]}},{"type":"Feature","properties":{"acq_date":"2026-10-09","acq_time":958,"confidence":"n","satellite":"N","instrument":"VIIRS","version":"2.0NRT","bright_ti4":331.85,"frp":9.94,"daynight":"N"},"geometry":{"type":"Point","coordinates":[-116.83366,32.49807]}},{"type":"Feature","properties":{"acq_date":"2026-10-09","acq_time":958,"confidence":"n","satellite":"N","instrument":"VIIRS","version":"2.0NRT","bright_ti4":303.5,"frp":0.84,"daynight":"N"},"geometry":{"type":"Point","coordinates":[-116.78028,32.52775]}},{"type":"Feature","properties":{"acq_date":"2026-10-09","acq_time":958,"confidence":"n","satellite":"N","instrument":"VIIRS","version":"2.0NRT","bright_ti4":309.38,"frp":0.63,"daynight":"N"},"geometry":{"type":"Point","coordinates":[-115.32933,32.57694]}},{"type":"Feature","properties":{"acq_date":"2026-10-09","acq_time":958,"confidence":"n","satellite":"N","instrument":"VIIRS","version":"2.0NRT","bright_ti4":311.37,"frp":1.18,"daynight":"N"},"geometry":{"type":"Point","coordinates":[-117.0134,32.59739]}},{"type":"Feature","properties":{"acq_date":"2026-10-09","acq_time":958,"confidence":"n","satellite":"N","instrument":"VIIRS","version":"2.0NRT","bright_ti4":303.31,"frp":0.53,"daynight":"N"},"geometry":{"type":"Point","coordinates":[-117.02782,32.85618]}},{"type":"Feature","properties":{"acq_date":"2026-10-09","acq_time":958,"confidence":"n","satellite":"N","instrument":"VIIRS","version":"2.0NRT","bright_ti4":311.55,"frp":1.08,"daynight":"N"},"geometry":{"type":"Point","coordinates":[-117.14703,32.85637]}},{"type":"Feature","properties":{"acq_date":"2026-10-09","acq_time":958,"confidence":"n","satellite":"N","instrument":"VIIRS","version":"2.0NRT","bright_ti4":309.53,"frp":0.42,"daynight":"N"},"geometry":{"type":"Point","coordinates":[-117.14916,32.85645]}},{"type":"Feature","properties":{"acq_date":"2026-10-09","acq_time":958,"confidence":"n","satellite":"N","instrument":"VIIRS","version":"2.0NRT","bright_ti4":302.9,"frp":0.42,"daynight":"N"},"geometry":{"type":"Point","coordinates":[-117.14836,32.85982]}},{"type":"Feature","properties":{"acq_date":"2026-10-09","acq_time":958,"confidence":"n","satellite":"N","instrument":"VIIRS","version":"2.0NRT","bright_ti4":311.46,"frp":1.24,"daynight":"N"},"geometry":{"type":"Point","coordinates":[-117.61799,33.49352]}}]}