{"type":"FeatureCollection","name":"FIRMS VIIRS CA (last 1 day)","crs":{"type":"name","properties":{"name":"EPSG:4326"}},"fetched_at_utc":"2026-08-21T14:38:44.002Z","source":{"url":"https://firms.modaps.eosdis.nasa.gov/api/area/csv/8c4af552cf654445dd280dfb3ad9337c/VIIRS_SNPP_NRT/-125,32,-113,43.5/1","dataset":"VIIRS_SNPP_NRT","bbox":"-125,32,-113,43.5","day_range":"1"},"features":[{"type":"Feature","properties":{"acq_date":"2026-08-21","acq_time":1011,"confidence":"n","satellite":"N","instrument":"VIIRS","version":"2.0NRT","bright_ti4":302.62,"frp":1.43,"daynight":"N"},"geometry":{"type":"Point","coordinates":[-115.66936,43.14912]}},{"type":"Feature","properties":{"acq_date":"2026-08-21","acq_time":1011,"confidence":"n","satellite":"N","instrument":"VIIRS","version":"2.0NRT","bright_ti4":303.42,"frp":0.88,"daynight":"N"},"geometry":{"type":"Point","coordinates":[-115.73434,43.17813]}},{"type":"Feature","properties":{"acq_date":"2026-08-21","acq_time":1011,"confidence":"n","satellite":"N","instrument":"VIIRS","version":"2.0NRT","bright_ti4":296.42,"frp":0.35,"daynight":"N"},"geometry":{"type":"Point","coordinates":[-115.73296,43.18174]}},{"type":"Feature","properties":{"acq_date":"2026-08-21","acq_time":1013,"confidence":"n","satellite":"N","instrument":"VIIRS","version":"2.0NRT","bright_ti4":303.41,"frp":1.02,"daynight":"N"},"geometry":{"type":"Point","coordinates":[-117.47343,33.79521]}},{"type":"Feature","properties":{"acq_date":"2026-08-21","acq_time":1013,"confidence":"n","satellite":"N","instrument":"VIIRS","version":"2.0NRT","bright_ti4":304.97,"frp":0.92,"daynight":"N"},"geometry":{"type":"Point","coordinates":[-118.19209,34.15133]}},{"type":"Feature","properties":{"acq_date":"2026-08-21","acq_time":1013,"confidence":"n","satellite":"N","instrument":"VIIRS","version":"2.0NRT","bright_ti4":313.35,"frp":2.07,"daynight":"N"},"geometry":{"type":"Point","coordinates":[-118.52173,34.33341]}},{"type":"Feature","properties":{"acq_date":"2026-08-21","acq_time":1013,"confidence":"n","satellite":"N","instrument":"VIIRS","version":"2.0NRT","bright_ti4":303.73,"frp":0.99,"daynight":"N"},"geometry":{"type":"Point","coordinates":[-118.52233,34.33526]}},{"type":"Feature","properties":{"acq_date":"2026-08-21","acq_time":1013,"confidence":"n","satellite":"N","instrument":"VIIRS","version":"2.0NRT","bright_ti4":308.58,"frp":1.74,"daynight":"N"},"geometry":{"type":"Point","coordinates":[-118.64584,34.4302]}},{"type":"Feature","properties":{"acq_date":"2026-08-21","acq_time":1013,"confidence":"n","satellite":"N","instrument":"VIIRS","version":"2.0NRT","bright_ti4":321.15,"frp":1.94,"daynight":"N"},"geometry":{"type":"Point","coordinates":[-121.68203,36.22086]}},{"type":"Feature","properties":{"acq_date":"2026-08-21","acq_time":1013,"confidence":"n","satellite":"N","instrument":"VIIRS","version":"2.0NRT","bright_ti4":325.36,"frp":2.34,"daynight":"N"},"geometry":{"type":"Point","coordinates":[-121.67662,36.22341]}},{"type":"Feature","properties":{"acq_date":"2026-08-21","acq_time":1013,"confidence":"n","satellite":"N","instrument":"VIIRS","version":"2.0NRT","bright_ti4":313.57,"frp":2.34,"daynight":"N"},"geometry":{"type":"Point","coordinates":[-121.68108,36.22416]}},{"type":"Feature","properties":{"acq_date":"2026-08-21","acq_time":1013,"confidence":"n","satellite":"N","instrument":"VIIRS","version":"2.0NRT","bright_ti4":303.91,"frp":1.54,"daynight":"N"},"geometry":{"type":"Point","coordinates":[-121.68552,36.22491]}},{"type":"Feature","properties":{"acq_date":"2026-08-21","acq_time":1013,"confidence":"n","satellite":"N","instrument":"VIIRS","version":"2.0NRT","bright_ti4":330.02,"frp":2.34,"daynight":"N"},"geometry":{"type":"Point","coordinates":[-121.6756,36.2267]}},{"type":"Feature","properties":{"acq_date":"2026-08-21","acq_time":1013,"confidence":"n","satellite":"N","instrument":"VIIRS","version":"2.0NRT","bright_ti4":318.01,"frp":2.34,"daynight":"N"},"geometry":{"type":"Point","coordinates":[-121.68008,36.22746]}},{"type":"Feature","properties":{"acq_date":"2026-08-21","acq_time":1013,"confidence":"n","satellite":"N","instrument":"VIIRS","version":"2.0NRT","bright_ti4":327.87,"frp":1.54,"daynight":"N"},"geometry":{"type":"Point","coordinates":[-121.68459,36.22822]}},{"type":"Feature","properties":{"acq_date":"2026-08-21","acq_time":1013,"confidence":"n","satellite":"N","instrument":"VIIRS","version":"2.0NRT","bright_ti4":309.13,"frp":1.54,"daynight":"N"},"geometry":{"type":"Point","coordinates":[-121.68903,36.22897]}},{"type":"Feature","properties":{"acq_date":"2026-08-21","acq_time":1013,"confidence":"n","satellite":"N","instrument":"VIIRS","version":"2.0NRT","bright_ti4":317.22,"frp":1.55,"daynight":"N"},"geometry":{"type":"Point","coordinates":[-121.67907,36.23075]}},{"type":"Feature","properties":{"acq_date":"2026-08-21","acq_time":1013,"confidence":"n","satellite":"N","instrument":"VIIRS","version":"2.0NRT","bright_ti4":301.87,"frp":0.53,"daynight":"N"},"geometry":{"type":"Point","coordinates":[-121.73103,36.23956]}},{"type":"Feature","properties":{"acq_date":"2026-08-21","acq_time":1013,"confidence":"n","satellite":"N","instrument":"VIIRS","version":"2.0NRT","bright_ti4":310.89,"frp":3.29,"daynight":"N"},"geometry":{"type":"Point","coordinates":[-121.70478,36.24063]}},{"type":"Feature","properties":{"acq_date":"2026-08-21","acq_time":1013,"confidence":"n","satellite":"N","instrument":"VIIRS","version":"2.0NRT","bright_ti4":299.14,"frp":2.05,"daynight":"N"},"geometry":{"type":"Point","coordinates":[-121.70895,36.24134]}},{"type":"Feature","properties":{"acq_date":"2026-08-21","acq_time":1013,"confidence":"n","satellite":"N","instrument":"VIIRS","version":"2.0NRT","bright_ti4":346.24,"frp":3.29,"daynight":"N"},"geometry":{"type":"Point","coordinates":[-121.7038,36.24392]}},{"type":"Feature","properties":{"acq_date":"2026-08-21","acq_time":1013,"confidence":"n","satellite":"N","instrument":"VIIRS","version":"2.0NRT","bright_ti4":328.45,"frp":2.05,"daynight":"N"},"geometry":{"type":"Point","coordinates":[-121.70802,36.24464]}},{"type":"Feature","properties":{"acq_date":"2026-08-21","acq_time":1013,"confidence":"n","satellite":"N","instrument":"VIIRS","version":"2.0NRT","bright_ti4":312.98,"frp":2.05,"daynight":"N"},"geometry":{"type":"Point","coordinates":[-121.71222,36.24536]}},{"type":"Feature","properties":{"acq_date":"2026-08-21","acq_time":1013,"confidence":"n","satellite":"N","instrument":"VIIRS","version":"2.0NRT","bright_ti4":321.87,"frp":1.52,"daynight":"N"},"geometry":{"type":"Point","coordinates":[-121.71658,36.2461]}},{"type":"Feature","properties":{"acq_date":"2026-08-21","acq_time":1013,"confidence":"n","satellite":"N","instrument":"VIIRS","version":"2.0NRT","bright_ti4":314.84,"frp":1.52,"daynight":"N"},"geometry":{"type":"Point","coordinates":[-121.72095,36.24685]}},{"type":"Feature","properties":{"acq_date":"2026-08-21","acq_time":1013,"confidence":"n","satellite":"N","instrument":"VIIRS","version":"2.0NRT","bright_ti4":325.27,"frp":1.69,"daynight":"N"},"geometry":{"type":"Point","coordinates":[-121.70283,36.24722]}},{"type":"Feature","properties":{"acq_date":"2026-08-21","acq_time":1013,"confidence":"n","satellite":"N","instrument":"VIIRS","version":"2.0NRT","bright_ti4":299.16,"frp":0.95,"daynight":"N"},"geometry":{"type":"Point","coordinates":[-121.72528,36.2476]}},{"type":"Feature","properties":{"acq_date":"2026-08-21","acq_time":1013,"confidence":"n","satellite":"N","instrument":"VIIRS","version":"2.0NRT","bright_ti4":347.57,"frp":4.47,"daynight":"N"},"geometry":{"type":"Point","coordinates":[-121.7071,36.24794]}},{"type":"Feature","properties":{"acq_date":"2026-08-21","acq_time":1013,"confidence":"n","satellite":"N","instrument":"VIIRS","version":"2.0NRT","bright_ti4":312.57,"frp":1.16,"daynight":"N"},"geometry":{"type":"Point","coordinates":[-121.74783,36.24799]}},{"type":"Feature","properties":{"acq_date":"2026-08-21","acq_time":1013,"confidence":"n","satellite":"N","instrument":"VIIRS","version":"2.0NRT","bright_ti4":334.74,"frp":4.47,"daynight":"N"},"geometry":{"type":"Point","coordinates":[-121.7114,36.24868]}},{"type":"Feature","properties":{"acq_date":"2026-08-21","acq_time":1013,"confidence":"n","satellite":"N","instrument":"VIIRS","version":"2.0NRT","bright_ti4":308.82,"frp":0.65,"daynight":"N"},"geometry":{"type":"Point","coordinates":[-121.72015,36.25018]}},{"type":"Feature","properties":{"acq_date":"2026-08-21","acq_time":1013,"confidence":"n","satellite":"N","instrument":"VIIRS","version":"2.0NRT","bright_ti4":298.96,"frp":1.16,"daynight":"N"},"geometry":{"type":"Point","coordinates":[-121.74258,36.25056]}},{"type":"Feature","properties":{"acq_date":"2026-08-21","acq_time":1013,"confidence":"n","satellite":"N","instrument":"VIIRS","version":"2.0NRT","bright_ti4":300.92,"frp":0.56,"daynight":"N"},"geometry":{"type":"Point","coordinates":[-121.72446,36.25092]}},{"type":"Feature","properties":{"acq_date":"2026-08-21","acq_time":1013,"confidence":"n","satellite":"N","instrument":"VIIRS","version":"2.0NRT","bright_ti4":315.84,"frp":1.16,"daynight":"N"},"geometry":{"type":"Point","coordinates":[-121.74688,36.25129]}},{"type":"Feature","properties":{"acq_date":"2026-08-21","acq_time":1013,"confidence":"n","satellite":"N","instrument":"VIIRS","version":"2.0NRT","bright_ti4":299.34,"frp":0.32,"daynight":"N"},"geometry":{"type":"Point","coordinates":[-121.7373,36.25311]}},{"type":"Feature","properties":{"acq_date":"2026-08-21","acq_time":1013,"confidence":"n","satellite":"N","instrument":"VIIRS","version":"2.0NRT","bright_ti4":310.38,"frp":0.68,"daynight":"N"},"geometry":{"type":"Point","coordinates":[-121.74161,36.25384]}},{"type":"Feature","properties":{"acq_date":"2026-08-21","acq_time":1013,"confidence":"n","satellite":"N","instrument":"VIIRS","version":"2.0NRT","bright_ti4":296.83,"frp":0.4,"daynight":"N"},"geometry":{"type":"Point","coordinates":[-121.6601,37.75443]}},{"type":"Feature","properties":{"acq_date":"2026-08-21","acq_time":1013,"confidence":"n","satellite":"N","instrument":"VIIRS","version":"2.0NRT","bright_ti4":297.48,"frp":0.28,"daynight":"N"},"geometry":{"type":"Point","coordinates":[-121.14957,37.77782]}},{"type":"Feature","properties":{"acq_date":"2026-08-21","acq_time":1013,"confidence":"n","satellite":"N","instrument":"VIIRS","version":"2.0NRT","bright_ti4":307.62,"frp":0.94,"daynight":"N"},"geometry":{"type":"Point","coordinates":[-121.18382,37.88221]}},{"type":"Feature","properties":{"acq_date":"2026-08-21","acq_time":1013,"confidence":"n","satellite":"N","instrument":"VIIRS","version":"2.0NRT","bright_ti4":307.27,"frp":1.29,"daynight":"N"},"geometry":{"type":"Point","coordinates":[-122.11218,38.01578]}},{"type":"Feature","properties":{"acq_date":"2026-08-21","acq_time":1013,"confidence":"n","satellite":"N","instrument":"VIIRS","version":"2.0NRT","bright_ti4":311.69,"frp":1,"daynight":"N"},"geometry":{"type":"Point","coordinates":[-121.15388,38.55522]}},{"type":"Feature","properties":{"acq_date":"2026-08-21","acq_time":1013,"confidence":"n","satellite":"N","instrument":"VIIRS","version":"2.0NRT","bright_ti4":304.24,"frp":1,"daynight":"N"},"geometry":{"type":"Point","coordinates":[-121.15299,38.55852]}},{"type":"Feature","properties":{"acq_date":"2026-08-21","acq_time":1013,"confidence":"n","satellite":"N","instrument":"VIIRS","version":"2.0NRT","bright_ti4":306.48,"frp":1,"daynight":"N"},"geometry":{"type":"Point","coordinates":[-121.15742,38.55928]}},{"type":"Feature","properties":{"acq_date":"2026-08-21","acq_time":1013,"confidence":"n","satellite":"N","instrument":"VIIRS","version":"2.0NRT","bright_ti4":310.96,"frp":0.88,"daynight":"N"},"geometry":{"type":"Point","coordinates":[-122.02512,39.27774]}},{"type":"Feature","properties":{"acq_date":"2026-08-21","acq_time":1013,"confidence":"n","satellite":"N","instrument":"VIIRS","version":"2.0NRT","bright_ti4":304.11,"frp":0.88,"daynight":"N"},"geometry":{"type":"Point","coordinates":[-122.02425,39.28102]}},{"type":"Feature","properties":{"acq_date":"2026-08-21","acq_time":1013,"confidence":"n","satellite":"N","instrument":"VIIRS","version":"2.0NRT","bright_ti4":311.17,"frp":8.98,"daynight":"N"},"geometry":{"type":"Point","coordinates":[-117.58232,39.76774]}},{"type":"Feature","properties":{"acq_date":"2026-08-21","acq_time":1013,"confidence":"n","satellite":"N","instrument":"VIIRS","version":"2.0NRT","bright_ti4":338.49,"frp":8.98,"daynight":"N"},"geometry":{"type":"Point","coordinates":[-117.58758,39.7688]}},{"type":"Feature","properties":{"acq_date":"2026-08-21","acq_time":1013,"confidence":"n","satellite":"N","instrument":"VIIRS","version":"2.0NRT","bright_ti4":318.85,"frp":2.21,"daynight":"N"},"geometry":{"type":"Point","coordinates":[-117.5928,39.76984]}},{"type":"Feature","properties":{"acq_date":"2026-08-21","acq_time":1013,"confidence":"n","satellite":"N","instrument":"VIIRS","version":"2.0NRT","bright_ti4":301.14,"frp":2.21,"daynight":"N"},"geometry":{"type":"Point","coordinates":[-117.59807,39.77088]}},{"type":"Feature","properties":{"acq_date":"2026-08-21","acq_time":1013,"confidence":"n","satellite":"N","instrument":"VIIRS","version":"2.0NRT","bright_ti4":316.18,"frp":8.98,"daynight":"N"},"geometry":{"type":"Point","coordinates":[-117.58128,39.77134]}},{"type":"Feature","properties":{"acq_date":"2026-08-21","acq_time":1013,"confidence":"h","satellite":"N","instrument":"VIIRS","version":"2.0NRT","bright_ti4":367,"frp":8.98,"daynight":"N"},"geometry":{"type":"Point","coordinates":[-117.58646,39.77238]}},{"type":"Feature","properties":{"acq_date":"2026-08-21","acq_time":1013,"confidence":"n","satellite":"N","instrument":"VIIRS","version":"2.0NRT","bright_ti4":308.95,"frp":2.21,"daynight":"N"},"geometry":{"type":"Point","coordinates":[-117.59162,39.7734]}},{"type":"Feature","properties":{"acq_date":"2026-08-21","acq_time":1013,"confidence":"n","satellite":"N","instrument":"VIIRS","version":"2.0NRT","bright_ti4":311.63,"frp":2.21,"daynight":"N"},"geometry":{"type":"Point","coordinates":[-117.59683,39.77444]}},{"type":"Feature","properties":{"acq_date":"2026-08-21","acq_time":1013,"confidence":"n","satellite":"N","instrument":"VIIRS","version":"2.0NRT","bright_ti4":298.72,"frp":0.65,"daynight":"N"},"geometry":{"type":"Point","coordinates":[-117.5853,39.77595]}},{"type":"Feature","properties":{"acq_date":"2026-08-21","acq_time":1013,"confidence":"n","satellite":"N","instrument":"VIIRS","version":"2.0NRT","bright_ti4":297.28,"frp":1.45,"daynight":"N"},"geometry":{"type":"Point","coordinates":[-117.62969,39.77719]}},{"type":"Feature","properties":{"acq_date":"2026-08-21","acq_time":1013,"confidence":"n","satellite":"N","instrument":"VIIRS","version":"2.0NRT","bright_ti4":300.22,"frp":1.19,"daynight":"N"},"geometry":{"type":"Point","coordinates":[-117.59564,39.77801]}},{"type":"Feature","properties":{"acq_date":"2026-08-21","acq_time":1013,"confidence":"n","satellite":"N","instrument":"VIIRS","version":"2.0NRT","bright_ti4":311.85,"frp":1.36,"daynight":"N"},"geometry":{"type":"Point","coordinates":[-117.61783,39.77862]}},{"type":"Feature","properties":{"acq_date":"2026-08-21","acq_time":1013,"confidence":"n","satellite":"N","instrument":"VIIRS","version":"2.0NRT","bright_ti4":305.92,"frp":1.26,"daynight":"N"},"geometry":{"type":"Point","coordinates":[-117.60088,39.77905]}},{"type":"Feature","properties":{"acq_date":"2026-08-21","acq_time":1013,"confidence":"n","satellite":"N","instrument":"VIIRS","version":"2.0NRT","bright_ti4":306.88,"frp":1.45,"daynight":"N"},"geometry":{"type":"Point","coordinates":[-117.62855,39.78076]}},{"type":"Feature","properties":{"acq_date":"2026-08-21","acq_time":1013,"confidence":"n","satellite":"N","instrument":"VIIRS","version":"2.0NRT","bright_ti4":330.89,"frp":3.58,"daynight":"N"},"geometry":{"type":"Point","coordinates":[-117.63389,39.78182]}},{"type":"Feature","properties":{"acq_date":"2026-08-21","acq_time":1013,"confidence":"n","satellite":"N","instrument":"VIIRS","version":"2.0NRT","bright_ti4":303.94,"frp":0.53,"daynight":"N"},"geometry":{"type":"Point","coordinates":[-117.62744,39.78434]}},{"type":"Feature","properties":{"acq_date":"2026-08-21","acq_time":1013,"confidence":"n","satellite":"N","instrument":"VIIRS","version":"2.0NRT","bright_ti4":299.17,"frp":2.24,"daynight":"N"},"geometry":{"type":"Point","coordinates":[-117.63288,39.78542]}},{"type":"Feature","properties":{"acq_date":"2026-08-21","acq_time":1013,"confidence":"n","satellite":"N","instrument":"VIIRS","version":"2.0NRT","bright_ti4":299.15,"frp":0.53,"daynight":"N"},"geometry":{"type":"Point","coordinates":[-117.62094,39.78684]}},{"type":"Feature","properties":{"acq_date":"2026-08-21","acq_time":1013,"confidence":"n","satellite":"N","instrument":"VIIRS","version":"2.0NRT","bright_ti4":297.55,"frp":0.53,"daynight":"N"},"geometry":{"type":"Point","coordinates":[-117.6263,39.78791]}},{"type":"Feature","properties":{"acq_date":"2026-08-21","acq_time":1013,"confidence":"n","satellite":"N","instrument":"VIIRS","version":"2.0NRT","bright_ti4":320.59,"frp":5.32,"daynight":"N"},"geometry":{"type":"Point","coordinates":[-117.64203,39.79103]}},{"type":"Feature","properties":{"acq_date":"2026-08-21","acq_time":1013,"confidence":"n","satellite":"N","instrument":"VIIRS","version":"2.0NRT","bright_ti4":298.6,"frp":0.69,"daynight":"N"},"geometry":{"type":"Point","coordinates":[-117.62514,39.79148]}},{"type":"Feature","properties":{"acq_date":"2026-08-21","acq_time":1013,"confidence":"n","satellite":"N","instrument":"VIIRS","version":"2.0NRT","bright_ti4":343.25,"frp":5.32,"daynight":"N"},"geometry":{"type":"Point","coordinates":[-117.64693,39.792]}},{"type":"Feature","properties":{"acq_date":"2026-08-21","acq_time":1013,"confidence":"n","satellite":"N","instrument":"VIIRS","version":"2.0NRT","bright_ti4":336.38,"frp":4.42,"daynight":"N"},"geometry":{"type":"Point","coordinates":[-117.63587,39.79361]}},{"type":"Feature","properties":{"acq_date":"2026-08-21","acq_time":1013,"confidence":"n","satellite":"N","instrument":"VIIRS","version":"2.0NRT","bright_ti4":296.05,"frp":1.35,"daynight":"N"},"geometry":{"type":"Point","coordinates":[-114.25876,40.82025]}},{"type":"Feature","properties":{"acq_date":"2026-08-21","acq_time":1013,"confidence":"n","satellite":"N","instrument":"VIIRS","version":"2.0NRT","bright_ti4":299.71,"frp":0.74,"daynight":"N"},"geometry":{"type":"Point","coordinates":[-114.25364,40.8222]}},{"type":"Feature","properties":{"acq_date":"2026-08-21","acq_time":1013,"confidence":"n","satellite":"N","instrument":"VIIRS","version":"2.0NRT","bright_ti4":309.18,"frp":1.13,"daynight":"N"},"geometry":{"type":"Point","coordinates":[-121.65282,42.40692]}},{"type":"Feature","properties":{"acq_date":"2026-08-21","acq_time":1013,"confidence":"n","satellite":"N","instrument":"VIIRS","version":"2.0NRT","bright_ti4":322.26,"frp":1.25,"daynight":"N"},"geometry":{"type":"Point","coordinates":[-121.6657,42.4123]}},{"type":"Feature","properties":{"acq_date":"2026-08-21","acq_time":1013,"confidence":"n","satellite":"N","instrument":"VIIRS","version":"2.0NRT","bright_ti4":298.67,"frp":0.89,"daynight":"N"},"geometry":{"type":"Point","coordinates":[-121.67031,42.41301]}},{"type":"Feature","properties":{"acq_date":"2026-08-21","acq_time":1013,"confidence":"n","satellite":"N","instrument":"VIIRS","version":"2.0NRT","bright_ti4":295.2,"frp":0.89,"daynight":"N"},"geometry":{"type":"Point","coordinates":[-121.67496,42.41372]}},{"type":"Feature","properties":{"acq_date":"2026-08-21","acq_time":1013,"confidence":"n","satellite":"N","instrument":"VIIRS","version":"2.0NRT","bright_ti4":299.49,"frp":1.11,"daynight":"N"},"geometry":{"type":"Point","coordinates":[-121.65564,42.41418]}},{"type":"Feature","properties":{"acq_date":"2026-08-21","acq_time":1013,"confidence":"n","satellite":"N","instrument":"VIIRS","version":"2.0NRT","bright_ti4":311.66,"frp":1.25,"daynight":"N"},"geometry":{"type":"Point","coordinates":[-121.66023,42.41489]}},{"type":"Feature","properties":{"acq_date":"2026-08-21","acq_time":1013,"confidence":"n","satellite":"N","instrument":"VIIRS","version":"2.0NRT","bright_ti4":303.7,"frp":1.25,"daynight":"N"},"geometry":{"type":"Point","coordinates":[-121.66483,42.41559]}},{"type":"Feature","properties":{"acq_date":"2026-08-21","acq_time":1013,"confidence":"n","satellite":"N","instrument":"VIIRS","version":"2.0NRT","bright_ti4":309.48,"frp":0.89,"daynight":"N"},"geometry":{"type":"Point","coordinates":[-121.67408,42.41701]}},{"type":"Feature","properties":{"acq_date":"2026-08-21","acq_time":1013,"confidence":"n","satellite":"N","instrument":"VIIRS","version":"2.0NRT","bright_ti4":308.69,"frp":0.95,"daynight":"N"},"geometry":{"type":"Point","coordinates":[-121.67871,42.41772]}},{"type":"Feature","properties":{"acq_date":"2026-08-21","acq_time":1013,"confidence":"n","satellite":"N","instrument":"VIIRS","version":"2.0NRT","bright_ti4":302.33,"frp":1.34,"daynight":"N"},"geometry":{"type":"Point","coordinates":[-121.65939,42.41817]}},{"type":"Feature","properties":{"acq_date":"2026-08-21","acq_time":1013,"confidence":"n","satellite":"N","instrument":"VIIRS","version":"2.0NRT","bright_ti4":299.34,"frp":1.28,"daynight":"N"},"geometry":{"type":"Point","coordinates":[-121.67696,42.42429]}},{"type":"Feature","properties":{"acq_date":"2026-08-21","acq_time":1013,"confidence":"n","satellite":"N","instrument":"VIIRS","version":"2.0NRT","bright_ti4":306.84,"frp":1.55,"daynight":"N"},"geometry":{"type":"Point","coordinates":[-121.6761,42.42757]}},{"type":"Feature","properties":{"acq_date":"2026-08-21","acq_time":1015,"confidence":"n","satellite":"N","instrument":"VIIRS","version":"2.0NRT","bright_ti4":306.11,"frp":0.68,"daynight":"N"},"geometry":{"type":"Point","coordinates":[-116.88953,32.53297]}},{"type":"Feature","properties":{"acq_date":"2026-08-21","acq_time":1015,"confidence":"n","satellite":"N","instrument":"VIIRS","version":"2.0NRT","bright_ti4":302.19,"frp":0.54,"daynight":"N"},"geometry":{"type":"Point","coordinates":[-117.01064,32.59696]}},{"type":"Feature","properties":{"acq_date":"2026-08-21","acq_time":1015,"confidence":"n","satellite":"N","instrument":"VIIRS","version":"2.0NRT","bright_ti4":303.46,"frp":0.22,"daynight":"N"},"geometry":{"type":"Point","coordinates":[-117.14719,32.85636]}},{"type":"Feature","properties":{"acq_date":"2026-08-21","acq_time":1015,"confidence":"n","satellite":"N","instrument":"VIIRS","version":"2.0NRT","bright_ti4":300.52,"frp":0.33,"daynight":"N"},"geometry":{"type":"Point","coordinates":[-117.02843,32.85722]}},{"type":"Feature","properties":{"acq_date":"2026-08-21","acq_time":1015,"confidence":"n","satellite":"N","instrument":"VIIRS","version":"2.0NRT","bright_ti4":304.68,"frp":0.82,"daynight":"N"},"geometry":{"type":"Point","coordinates":[-117.61747,33.49163]}},{"type":"Feature","properties":{"acq_date":"2026-08-21","acq_time":1015,"confidence":"n","satellite":"N","instrument":"VIIRS","version":"2.0NRT","bright_ti4":306.8,"frp":0.84,"daynight":"N"},"geometry":{"type":"Point","coordinates":[-117.8236,33.61141]}},{"type":"Feature","properties":{"acq_date":"2026-08-21","acq_time":1015,"confidence":"n","satellite":"N","instrument":"VIIRS","version":"2.0NRT","bright_ti4":307.41,"frp":1.07,"daynight":"N"},"geometry":{"type":"Point","coordinates":[-117.70951,33.71422]}}]}