{"type":"FeatureCollection","name":"FIRMS VIIRS CA (last 1 day)","crs":{"type":"name","properties":{"name":"EPSG:4326"}},"fetched_at_utc":"2026-09-06T16:46:53.433Z","source":{"url":"https://firms.modaps.eosdis.nasa.gov/api/area/csv/8c4af552cf654445dd280dfb3ad9337c/VIIRS_SNPP_NRT/-125,32,-113,43.5/1","dataset":"VIIRS_SNPP_NRT","bbox":"-125,32,-113,43.5","day_range":"1"},"features":[{"type":"Feature","properties":{"acq_date":"2026-09-06","acq_time":833,"confidence":"n","satellite":"N","instrument":"VIIRS","version":"2.0NRT","bright_ti4":298.86,"frp":2.36,"daynight":"N"},"geometry":{"type":"Point","coordinates":[-114.25735,40.82463]}},{"type":"Feature","properties":{"acq_date":"2026-09-06","acq_time":835,"confidence":"n","satellite":"N","instrument":"VIIRS","version":"2.0NRT","bright_ti4":306.59,"frp":2.32,"daynight":"N"},"geometry":{"type":"Point","coordinates":[-114.91329,36.35423]}},{"type":"Feature","properties":{"acq_date":"2026-09-06","acq_time":1011,"confidence":"n","satellite":"N","instrument":"VIIRS","version":"2.0NRT","bright_ti4":303.82,"frp":0.52,"daynight":"N"},"geometry":{"type":"Point","coordinates":[-115.6651,43.14637]}},{"type":"Feature","properties":{"acq_date":"2026-09-06","acq_time":1011,"confidence":"n","satellite":"N","instrument":"VIIRS","version":"2.0NRT","bright_ti4":295.88,"frp":0.71,"daynight":"N"},"geometry":{"type":"Point","coordinates":[-115.73421,43.17824]}},{"type":"Feature","properties":{"acq_date":"2026-09-06","acq_time":1013,"confidence":"n","satellite":"N","instrument":"VIIRS","version":"2.0NRT","bright_ti4":312.49,"frp":2.84,"daynight":"N"},"geometry":{"type":"Point","coordinates":[-114.91309,36.35742]}},{"type":"Feature","properties":{"acq_date":"2026-09-06","acq_time":1013,"confidence":"n","satellite":"N","instrument":"VIIRS","version":"2.0NRT","bright_ti4":311.86,"frp":3.8,"daynight":"N"},"geometry":{"type":"Point","coordinates":[-114.90994,36.35765]}},{"type":"Feature","properties":{"acq_date":"2026-09-06","acq_time":1013,"confidence":"n","satellite":"N","instrument":"VIIRS","version":"2.0NRT","bright_ti4":296.08,"frp":0.43,"daynight":"N"},"geometry":{"type":"Point","coordinates":[-121.40607,36.53174]}},{"type":"Feature","properties":{"acq_date":"2026-09-06","acq_time":1013,"confidence":"n","satellite":"N","instrument":"VIIRS","version":"2.0NRT","bright_ti4":315.56,"frp":1.22,"daynight":"N"},"geometry":{"type":"Point","coordinates":[-120.5799,36.69428]}},{"type":"Feature","properties":{"acq_date":"2026-09-06","acq_time":1013,"confidence":"n","satellite":"N","instrument":"VIIRS","version":"2.0NRT","bright_ti4":298.53,"frp":0.39,"daynight":"N"},"geometry":{"type":"Point","coordinates":[-120.87276,36.97173]}},{"type":"Feature","properties":{"acq_date":"2026-09-06","acq_time":1013,"confidence":"n","satellite":"N","instrument":"VIIRS","version":"2.0NRT","bright_ti4":299.26,"frp":0.4,"daynight":"N"},"geometry":{"type":"Point","coordinates":[-120.19898,37.02422]}},{"type":"Feature","properties":{"acq_date":"2026-09-06","acq_time":1013,"confidence":"n","satellite":"N","instrument":"VIIRS","version":"2.0NRT","bright_ti4":298.82,"frp":0.53,"daynight":"N"},"geometry":{"type":"Point","coordinates":[-121.67874,37.18416]}},{"type":"Feature","properties":{"acq_date":"2026-09-06","acq_time":1013,"confidence":"n","satellite":"N","instrument":"VIIRS","version":"2.0NRT","bright_ti4":310.9,"frp":1.01,"daynight":"N"},"geometry":{"type":"Point","coordinates":[-121.93336,37.45488]}},{"type":"Feature","properties":{"acq_date":"2026-09-06","acq_time":1013,"confidence":"n","satellite":"N","instrument":"VIIRS","version":"2.0NRT","bright_ti4":300.7,"frp":0.56,"daynight":"N"},"geometry":{"type":"Point","coordinates":[-121.14832,37.77668]}},{"type":"Feature","properties":{"acq_date":"2026-09-06","acq_time":1013,"confidence":"n","satellite":"N","instrument":"VIIRS","version":"2.0NRT","bright_ti4":308.6,"frp":0.93,"daynight":"N"},"geometry":{"type":"Point","coordinates":[-121.18665,37.88222]}},{"type":"Feature","properties":{"acq_date":"2026-09-06","acq_time":1013,"confidence":"n","satellite":"N","instrument":"VIIRS","version":"2.0NRT","bright_ti4":301.55,"frp":1.5,"daynight":"N"},"geometry":{"type":"Point","coordinates":[-122.4001,37.94904]}},{"type":"Feature","properties":{"acq_date":"2026-09-06","acq_time":1013,"confidence":"n","satellite":"N","instrument":"VIIRS","version":"2.0NRT","bright_ti4":321.46,"frp":0.98,"daynight":"N"},"geometry":{"type":"Point","coordinates":[-121.135,37.9962]}},{"type":"Feature","properties":{"acq_date":"2026-09-06","acq_time":1013,"confidence":"n","satellite":"N","instrument":"VIIRS","version":"2.0NRT","bright_ti4":304.64,"frp":1.45,"daynight":"N"},"geometry":{"type":"Point","coordinates":[-122.11414,38.0156]}},{"type":"Feature","properties":{"acq_date":"2026-09-06","acq_time":1013,"confidence":"n","satellite":"N","instrument":"VIIRS","version":"2.0NRT","bright_ti4":298.62,"frp":0.74,"daynight":"N"},"geometry":{"type":"Point","coordinates":[-122.74948,38.30013]}},{"type":"Feature","properties":{"acq_date":"2026-09-06","acq_time":1013,"confidence":"n","satellite":"N","instrument":"VIIRS","version":"2.0NRT","bright_ti4":301.41,"frp":0.69,"daynight":"N"},"geometry":{"type":"Point","coordinates":[-121.64561,39.04252]}},{"type":"Feature","properties":{"acq_date":"2026-09-06","acq_time":1013,"confidence":"n","satellite":"N","instrument":"VIIRS","version":"2.0NRT","bright_ti4":295.39,"frp":0.34,"daynight":"N"},"geometry":{"type":"Point","coordinates":[-121.60594,39.19621]}},{"type":"Feature","properties":{"acq_date":"2026-09-06","acq_time":1013,"confidence":"n","satellite":"N","instrument":"VIIRS","version":"2.0NRT","bright_ti4":301.07,"frp":0.34,"daynight":"N"},"geometry":{"type":"Point","coordinates":[-121.60507,39.19949]}},{"type":"Feature","properties":{"acq_date":"2026-09-06","acq_time":1013,"confidence":"n","satellite":"N","instrument":"VIIRS","version":"2.0NRT","bright_ti4":301.38,"frp":0.72,"daynight":"N"},"geometry":{"type":"Point","coordinates":[-119.26473,39.61814]}},{"type":"Feature","properties":{"acq_date":"2026-09-06","acq_time":1013,"confidence":"n","satellite":"N","instrument":"VIIRS","version":"2.0NRT","bright_ti4":300.63,"frp":0.72,"daynight":"N"},"geometry":{"type":"Point","coordinates":[-119.26369,39.62153]}},{"type":"Feature","properties":{"acq_date":"2026-09-06","acq_time":1013,"confidence":"n","satellite":"N","instrument":"VIIRS","version":"2.0NRT","bright_ti4":303.61,"frp":0.73,"daynight":"N"},"geometry":{"type":"Point","coordinates":[-122.32474,40.73694]}},{"type":"Feature","properties":{"acq_date":"2026-09-06","acq_time":1013,"confidence":"n","satellite":"N","instrument":"VIIRS","version":"2.0NRT","bright_ti4":318.3,"frp":1.24,"daynight":"N"},"geometry":{"type":"Point","coordinates":[-119.20957,40.78283]}},{"type":"Feature","properties":{"acq_date":"2026-09-06","acq_time":1013,"confidence":"n","satellite":"N","instrument":"VIIRS","version":"2.0NRT","bright_ti4":321.68,"frp":2.5,"daynight":"N"},"geometry":{"type":"Point","coordinates":[-114.2574,40.82274]}},{"type":"Feature","properties":{"acq_date":"2026-09-06","acq_time":1015,"confidence":"n","satellite":"N","instrument":"VIIRS","version":"2.0NRT","bright_ti4":303,"frp":1.05,"daynight":"N"},"geometry":{"type":"Point","coordinates":[-118.51844,34.33385]}},{"type":"Feature","properties":{"acq_date":"2026-09-06","acq_time":1015,"confidence":"n","satellite":"N","instrument":"VIIRS","version":"2.0NRT","bright_ti4":310.22,"frp":2.09,"daynight":"N"},"geometry":{"type":"Point","coordinates":[-118.64709,34.42963]}},{"type":"Feature","properties":{"acq_date":"2026-09-06","acq_time":1015,"confidence":"n","satellite":"N","instrument":"VIIRS","version":"2.0NRT","bright_ti4":312.91,"frp":2.39,"daynight":"N"},"geometry":{"type":"Point","coordinates":[-117.10044,34.62029]}},{"type":"Feature","properties":{"acq_date":"2026-09-06","acq_time":1015,"confidence":"n","satellite":"N","instrument":"VIIRS","version":"2.0NRT","bright_ti4":307.27,"frp":1.39,"daynight":"N"},"geometry":{"type":"Point","coordinates":[-117.95688,34.77314]}}]}