{"type":"FeatureCollection","name":"FIRMS VIIRS CA (last 1 day)","crs":{"type":"name","properties":{"name":"EPSG:4326"}},"fetched_at_utc":"2026-08-19T14:37:06.971Z","source":{"url":"https://firms.modaps.eosdis.nasa.gov/api/area/csv/8c4af552cf654445dd280dfb3ad9337c/VIIRS_SNPP_NRT/-125,32,-113,43.5/1","dataset":"VIIRS_SNPP_NRT","bbox":"-125,32,-113,43.5","day_range":"1"},"features":[{"type":"Feature","properties":{"acq_date":"2026-08-19","acq_time":909,"confidence":"n","satellite":"N","instrument":"VIIRS","version":"2.0NRT","bright_ti4":298.94,"frp":0.69,"daynight":"N"},"geometry":{"type":"Point","coordinates":[-117.58714,39.81045]}},{"type":"Feature","properties":{"acq_date":"2026-08-19","acq_time":909,"confidence":"n","satellite":"N","instrument":"VIIRS","version":"2.0NRT","bright_ti4":312.23,"frp":1.07,"daynight":"N"},"geometry":{"type":"Point","coordinates":[-117.59254,39.81077]}},{"type":"Feature","properties":{"acq_date":"2026-08-19","acq_time":909,"confidence":"n","satellite":"N","instrument":"VIIRS","version":"2.0NRT","bright_ti4":299.09,"frp":1.07,"daynight":"N"},"geometry":{"type":"Point","coordinates":[-117.59744,39.81106]}},{"type":"Feature","properties":{"acq_date":"2026-08-19","acq_time":909,"confidence":"n","satellite":"N","instrument":"VIIRS","version":"2.0NRT","bright_ti4":304.13,"frp":1.35,"daynight":"N"},"geometry":{"type":"Point","coordinates":[-117.59957,39.82586]}},{"type":"Feature","properties":{"acq_date":"2026-08-19","acq_time":909,"confidence":"n","satellite":"N","instrument":"VIIRS","version":"2.0NRT","bright_ti4":308.57,"frp":1.8,"daynight":"N"},"geometry":{"type":"Point","coordinates":[-117.60416,39.82611]}},{"type":"Feature","properties":{"acq_date":"2026-08-19","acq_time":909,"confidence":"n","satellite":"N","instrument":"VIIRS","version":"2.0NRT","bright_ti4":348.13,"frp":2.88,"daynight":"N"},"geometry":{"type":"Point","coordinates":[-117.60225,39.82735]}},{"type":"Feature","properties":{"acq_date":"2026-08-19","acq_time":909,"confidence":"n","satellite":"N","instrument":"VIIRS","version":"2.0NRT","bright_ti4":296.74,"frp":2.88,"daynight":"N"},"geometry":{"type":"Point","coordinates":[-117.60669,39.82762]}},{"type":"Feature","properties":{"acq_date":"2026-08-19","acq_time":909,"confidence":"n","satellite":"N","instrument":"VIIRS","version":"2.0NRT","bright_ti4":300.31,"frp":2.22,"daynight":"N"},"geometry":{"type":"Point","coordinates":[-117.59966,39.8312]}},{"type":"Feature","properties":{"acq_date":"2026-08-19","acq_time":909,"confidence":"n","satellite":"N","instrument":"VIIRS","version":"2.0NRT","bright_ti4":353.02,"frp":6.09,"daynight":"N"},"geometry":{"type":"Point","coordinates":[-117.6043,39.83145]}},{"type":"Feature","properties":{"acq_date":"2026-08-19","acq_time":909,"confidence":"n","satellite":"N","instrument":"VIIRS","version":"2.0NRT","bright_ti4":330.71,"frp":1.46,"daynight":"N"},"geometry":{"type":"Point","coordinates":[-117.60235,39.8327]}},{"type":"Feature","properties":{"acq_date":"2026-08-19","acq_time":909,"confidence":"n","satellite":"N","instrument":"VIIRS","version":"2.0NRT","bright_ti4":295.16,"frp":1.46,"daynight":"N"},"geometry":{"type":"Point","coordinates":[-117.60684,39.83297]}},{"type":"Feature","properties":{"acq_date":"2026-08-19","acq_time":909,"confidence":"n","satellite":"N","instrument":"VIIRS","version":"2.0NRT","bright_ti4":306.81,"frp":1.45,"daynight":"N"},"geometry":{"type":"Point","coordinates":[-114.25437,40.82315]}},{"type":"Feature","properties":{"acq_date":"2026-08-19","acq_time":909,"confidence":"n","satellite":"N","instrument":"VIIRS","version":"2.0NRT","bright_ti4":301.07,"frp":1.89,"daynight":"N"},"geometry":{"type":"Point","coordinates":[-121.57191,42.34325]}},{"type":"Feature","properties":{"acq_date":"2026-08-19","acq_time":909,"confidence":"n","satellite":"N","instrument":"VIIRS","version":"2.0NRT","bright_ti4":307.75,"frp":2.1,"daynight":"N"},"geometry":{"type":"Point","coordinates":[-121.5723,42.34562]}},{"type":"Feature","properties":{"acq_date":"2026-08-19","acq_time":909,"confidence":"n","satellite":"N","instrument":"VIIRS","version":"2.0NRT","bright_ti4":296.98,"frp":1.49,"daynight":"N"},"geometry":{"type":"Point","coordinates":[-121.66895,42.41043]}},{"type":"Feature","properties":{"acq_date":"2026-08-19","acq_time":909,"confidence":"n","satellite":"N","instrument":"VIIRS","version":"2.0NRT","bright_ti4":304.69,"frp":1.49,"daynight":"N"},"geometry":{"type":"Point","coordinates":[-121.67681,42.41053]}},{"type":"Feature","properties":{"acq_date":"2026-08-19","acq_time":909,"confidence":"n","satellite":"N","instrument":"VIIRS","version":"2.0NRT","bright_ti4":301.39,"frp":0.96,"daynight":"N"},"geometry":{"type":"Point","coordinates":[-115.66994,43.14822]}},{"type":"Feature","properties":{"acq_date":"2026-08-19","acq_time":909,"confidence":"n","satellite":"N","instrument":"VIIRS","version":"2.0NRT","bright_ti4":297.64,"frp":0.66,"daynight":"N"},"geometry":{"type":"Point","coordinates":[-115.73534,43.17736]}},{"type":"Feature","properties":{"acq_date":"2026-08-19","acq_time":909,"confidence":"n","satellite":"N","instrument":"VIIRS","version":"2.0NRT","bright_ti4":298.54,"frp":0.66,"daynight":"N"},"geometry":{"type":"Point","coordinates":[-115.73738,43.17775]}},{"type":"Feature","properties":{"acq_date":"2026-08-19","acq_time":911,"confidence":"n","satellite":"N","instrument":"VIIRS","version":"2.0NRT","bright_ti4":301.3,"frp":0.85,"daynight":"N"},"geometry":{"type":"Point","coordinates":[-117.47527,33.79132]}},{"type":"Feature","properties":{"acq_date":"2026-08-19","acq_time":911,"confidence":"n","satellite":"N","instrument":"VIIRS","version":"2.0NRT","bright_ti4":305,"frp":1.59,"daynight":"N"},"geometry":{"type":"Point","coordinates":[-118.24273,33.82036]}},{"type":"Feature","properties":{"acq_date":"2026-08-19","acq_time":911,"confidence":"n","satellite":"N","instrument":"VIIRS","version":"2.0NRT","bright_ti4":310.93,"frp":1.31,"daynight":"N"},"geometry":{"type":"Point","coordinates":[-118.33314,33.8533]}},{"type":"Feature","properties":{"acq_date":"2026-08-19","acq_time":911,"confidence":"n","satellite":"N","instrument":"VIIRS","version":"2.0NRT","bright_ti4":314.14,"frp":0.53,"daynight":"N"},"geometry":{"type":"Point","coordinates":[-117.89194,34.03589]}},{"type":"Feature","properties":{"acq_date":"2026-08-19","acq_time":911,"confidence":"n","satellite":"N","instrument":"VIIRS","version":"2.0NRT","bright_ti4":302.51,"frp":0.4,"daynight":"N"},"geometry":{"type":"Point","coordinates":[-117.82078,34.04058]}},{"type":"Feature","properties":{"acq_date":"2026-08-19","acq_time":911,"confidence":"n","satellite":"N","instrument":"VIIRS","version":"2.0NRT","bright_ti4":304.66,"frp":1.26,"daynight":"N"},"geometry":{"type":"Point","coordinates":[-117.50304,34.08045]}},{"type":"Feature","properties":{"acq_date":"2026-08-19","acq_time":911,"confidence":"n","satellite":"N","instrument":"VIIRS","version":"2.0NRT","bright_ti4":305.82,"frp":0.7,"daynight":"N"},"geometry":{"type":"Point","coordinates":[-118.1955,34.15397]}},{"type":"Feature","properties":{"acq_date":"2026-08-19","acq_time":911,"confidence":"n","satellite":"N","instrument":"VIIRS","version":"2.0NRT","bright_ti4":317.09,"frp":0.58,"daynight":"N"},"geometry":{"type":"Point","coordinates":[-118.51968,34.33463]}},{"type":"Feature","properties":{"acq_date":"2026-08-19","acq_time":911,"confidence":"n","satellite":"N","instrument":"VIIRS","version":"2.0NRT","bright_ti4":308.77,"frp":0.8,"daynight":"N"},"geometry":{"type":"Point","coordinates":[-118.64522,34.42914]}},{"type":"Feature","properties":{"acq_date":"2026-08-19","acq_time":911,"confidence":"n","satellite":"N","instrument":"VIIRS","version":"2.0NRT","bright_ti4":314.43,"frp":1.24,"daynight":"N"},"geometry":{"type":"Point","coordinates":[-117.33836,34.60574]}},{"type":"Feature","properties":{"acq_date":"2026-08-19","acq_time":911,"confidence":"n","satellite":"N","instrument":"VIIRS","version":"2.0NRT","bright_ti4":305.72,"frp":0.57,"daynight":"N"},"geometry":{"type":"Point","coordinates":[-118.75007,34.8192]}},{"type":"Feature","properties":{"acq_date":"2026-08-19","acq_time":911,"confidence":"n","satellite":"N","instrument":"VIIRS","version":"2.0NRT","bright_ti4":305.65,"frp":1.54,"daynight":"N"},"geometry":{"type":"Point","coordinates":[-113.31127,35.51552]}},{"type":"Feature","properties":{"acq_date":"2026-08-19","acq_time":911,"confidence":"n","satellite":"N","instrument":"VIIRS","version":"2.0NRT","bright_ti4":311.18,"frp":2.14,"daynight":"N"},"geometry":{"type":"Point","coordinates":[-121.69318,36.22015]}},{"type":"Feature","properties":{"acq_date":"2026-08-19","acq_time":911,"confidence":"n","satellite":"N","instrument":"VIIRS","version":"2.0NRT","bright_ti4":303.96,"frp":1.62,"daynight":"N"},"geometry":{"type":"Point","coordinates":[-121.69199,36.22652]}},{"type":"Feature","properties":{"acq_date":"2026-08-19","acq_time":911,"confidence":"n","satellite":"N","instrument":"VIIRS","version":"2.0NRT","bright_ti4":304.27,"frp":2.47,"daynight":"N"},"geometry":{"type":"Point","coordinates":[-121.73774,36.24752]}},{"type":"Feature","properties":{"acq_date":"2026-08-19","acq_time":911,"confidence":"n","satellite":"N","instrument":"VIIRS","version":"2.0NRT","bright_ti4":311.98,"frp":2.69,"daynight":"N"},"geometry":{"type":"Point","coordinates":[-121.74442,36.24778]}},{"type":"Feature","properties":{"acq_date":"2026-08-19","acq_time":911,"confidence":"n","satellite":"N","instrument":"VIIRS","version":"2.0NRT","bright_ti4":304.17,"frp":1.54,"daynight":"N"},"geometry":{"type":"Point","coordinates":[-121.73289,36.24854]}},{"type":"Feature","properties":{"acq_date":"2026-08-19","acq_time":911,"confidence":"n","satellite":"N","instrument":"VIIRS","version":"2.0NRT","bright_ti4":308.81,"frp":1.85,"daynight":"N"},"geometry":{"type":"Point","coordinates":[-121.73867,36.24872]}},{"type":"Feature","properties":{"acq_date":"2026-08-19","acq_time":911,"confidence":"n","satellite":"N","instrument":"VIIRS","version":"2.0NRT","bright_ti4":315.03,"frp":1.85,"daynight":"N"},"geometry":{"type":"Point","coordinates":[-121.74555,36.24894]}},{"type":"Feature","properties":{"acq_date":"2026-08-19","acq_time":911,"confidence":"n","satellite":"N","instrument":"VIIRS","version":"2.0NRT","bright_ti4":314.41,"frp":2.59,"daynight":"N"},"geometry":{"type":"Point","coordinates":[-114.90956,36.35787]}},{"type":"Feature","properties":{"acq_date":"2026-08-19","acq_time":911,"confidence":"n","satellite":"N","instrument":"VIIRS","version":"2.0NRT","bright_ti4":313.16,"frp":3.62,"daynight":"N"},"geometry":{"type":"Point","coordinates":[-114.91031,36.3587]}},{"type":"Feature","properties":{"acq_date":"2026-08-19","acq_time":1049,"confidence":"n","satellite":"N","instrument":"VIIRS","version":"2.0NRT","bright_ti4":301.91,"frp":1.65,"daynight":"N"},"geometry":{"type":"Point","coordinates":[-117.59286,39.81255]}},{"type":"Feature","properties":{"acq_date":"2026-08-19","acq_time":1049,"confidence":"h","satellite":"N","instrument":"VIIRS","version":"2.0NRT","bright_ti4":367,"frp":24.84,"daynight":"N"},"geometry":{"type":"Point","coordinates":[-117.60422,39.82837]}},{"type":"Feature","properties":{"acq_date":"2026-08-19","acq_time":1049,"confidence":"h","satellite":"N","instrument":"VIIRS","version":"2.0NRT","bright_ti4":367,"frp":24.84,"daynight":"N"},"geometry":{"type":"Point","coordinates":[-117.60896,39.82974]}},{"type":"Feature","properties":{"acq_date":"2026-08-19","acq_time":1049,"confidence":"n","satellite":"N","instrument":"VIIRS","version":"2.0NRT","bright_ti4":306.67,"frp":20.34,"daynight":"N"},"geometry":{"type":"Point","coordinates":[-117.61374,39.83112]}},{"type":"Feature","properties":{"acq_date":"2026-08-19","acq_time":1049,"confidence":"n","satellite":"N","instrument":"VIIRS","version":"2.0NRT","bright_ti4":309.97,"frp":2.03,"daynight":"N"},"geometry":{"type":"Point","coordinates":[-114.2552,40.8242]}},{"type":"Feature","properties":{"acq_date":"2026-08-19","acq_time":1049,"confidence":"n","satellite":"N","instrument":"VIIRS","version":"2.0NRT","bright_ti4":299.11,"frp":0.64,"daynight":"N"},"geometry":{"type":"Point","coordinates":[-123.61617,41.11112]}},{"type":"Feature","properties":{"acq_date":"2026-08-19","acq_time":1049,"confidence":"n","satellite":"N","instrument":"VIIRS","version":"2.0NRT","bright_ti4":311.77,"frp":2.42,"daynight":"N"},"geometry":{"type":"Point","coordinates":[-123.63678,41.11143]}},{"type":"Feature","properties":{"acq_date":"2026-08-19","acq_time":1049,"confidence":"n","satellite":"N","instrument":"VIIRS","version":"2.0NRT","bright_ti4":301.42,"frp":2.46,"daynight":"N"},"geometry":{"type":"Point","coordinates":[-123.6209,41.1122]}},{"type":"Feature","properties":{"acq_date":"2026-08-19","acq_time":1049,"confidence":"n","satellite":"N","instrument":"VIIRS","version":"2.0NRT","bright_ti4":301.42,"frp":1.26,"daynight":"N"},"geometry":{"type":"Point","coordinates":[-123.61948,41.11627]}},{"type":"Feature","properties":{"acq_date":"2026-08-19","acq_time":1049,"confidence":"n","satellite":"N","instrument":"VIIRS","version":"2.0NRT","bright_ti4":311,"frp":1.47,"daynight":"N"},"geometry":{"type":"Point","coordinates":[-121.56999,42.34573]}},{"type":"Feature","properties":{"acq_date":"2026-08-19","acq_time":1049,"confidence":"n","satellite":"N","instrument":"VIIRS","version":"2.0NRT","bright_ti4":295.82,"frp":1.47,"daynight":"N"},"geometry":{"type":"Point","coordinates":[-121.57603,42.34719]}},{"type":"Feature","properties":{"acq_date":"2026-08-19","acq_time":1049,"confidence":"n","satellite":"N","instrument":"VIIRS","version":"2.0NRT","bright_ti4":308.81,"frp":1.11,"daynight":"N"},"geometry":{"type":"Point","coordinates":[-121.6678,42.41187]}},{"type":"Feature","properties":{"acq_date":"2026-08-19","acq_time":1049,"confidence":"n","satellite":"N","instrument":"VIIRS","version":"2.0NRT","bright_ti4":314.47,"frp":2.02,"daynight":"N"},"geometry":{"type":"Point","coordinates":[-121.67347,42.41322]}},{"type":"Feature","properties":{"acq_date":"2026-08-19","acq_time":1049,"confidence":"n","satellite":"N","instrument":"VIIRS","version":"2.0NRT","bright_ti4":307.12,"frp":1.78,"daynight":"N"},"geometry":{"type":"Point","coordinates":[-121.66931,42.41597]}},{"type":"Feature","properties":{"acq_date":"2026-08-19","acq_time":1049,"confidence":"n","satellite":"N","instrument":"VIIRS","version":"2.0NRT","bright_ti4":295.98,"frp":0.46,"daynight":"N"},"geometry":{"type":"Point","coordinates":[-115.6652,43.14859]}},{"type":"Feature","properties":{"acq_date":"2026-08-19","acq_time":1049,"confidence":"n","satellite":"N","instrument":"VIIRS","version":"2.0NRT","bright_ti4":297.58,"frp":0.36,"daynight":"N"},"geometry":{"type":"Point","coordinates":[-115.73118,43.18087]}},{"type":"Feature","properties":{"acq_date":"2026-08-19","acq_time":1051,"confidence":"n","satellite":"N","instrument":"VIIRS","version":"2.0NRT","bright_ti4":306.68,"frp":0.91,"daynight":"N"},"geometry":{"type":"Point","coordinates":[-118.52,34.33463]}},{"type":"Feature","properties":{"acq_date":"2026-08-19","acq_time":1051,"confidence":"n","satellite":"N","instrument":"VIIRS","version":"2.0NRT","bright_ti4":303.99,"frp":1.4,"daynight":"N"},"geometry":{"type":"Point","coordinates":[-117.34064,34.60609]}},{"type":"Feature","properties":{"acq_date":"2026-08-19","acq_time":1051,"confidence":"n","satellite":"N","instrument":"VIIRS","version":"2.0NRT","bright_ti4":315.08,"frp":2.14,"daynight":"N"},"geometry":{"type":"Point","coordinates":[-117.33792,34.60908]}},{"type":"Feature","properties":{"acq_date":"2026-08-19","acq_time":1051,"confidence":"n","satellite":"N","instrument":"VIIRS","version":"2.0NRT","bright_ti4":304.17,"frp":1.82,"daynight":"N"},"geometry":{"type":"Point","coordinates":[-117.10082,34.62025]}},{"type":"Feature","properties":{"acq_date":"2026-08-19","acq_time":1051,"confidence":"n","satellite":"N","instrument":"VIIRS","version":"2.0NRT","bright_ti4":309.13,"frp":1.27,"daynight":"N"},"geometry":{"type":"Point","coordinates":[-121.68929,36.21891]}},{"type":"Feature","properties":{"acq_date":"2026-08-19","acq_time":1051,"confidence":"n","satellite":"N","instrument":"VIIRS","version":"2.0NRT","bright_ti4":319.39,"frp":1.27,"daynight":"N"},"geometry":{"type":"Point","coordinates":[-121.69234,36.2197]}},{"type":"Feature","properties":{"acq_date":"2026-08-19","acq_time":1051,"confidence":"n","satellite":"N","instrument":"VIIRS","version":"2.0NRT","bright_ti4":322.93,"frp":2.24,"daynight":"N"},"geometry":{"type":"Point","coordinates":[-121.69547,36.2205]}},{"type":"Feature","properties":{"acq_date":"2026-08-19","acq_time":1051,"confidence":"n","satellite":"N","instrument":"VIIRS","version":"2.0NRT","bright_ti4":329.5,"frp":2.24,"daynight":"N"},"geometry":{"type":"Point","coordinates":[-121.69881,36.22136]}},{"type":"Feature","properties":{"acq_date":"2026-08-19","acq_time":1051,"confidence":"n","satellite":"N","instrument":"VIIRS","version":"2.0NRT","bright_ti4":312.33,"frp":1.27,"daynight":"N"},"geometry":{"type":"Point","coordinates":[-121.68728,36.2239]}},{"type":"Feature","properties":{"acq_date":"2026-08-19","acq_time":1051,"confidence":"n","satellite":"N","instrument":"VIIRS","version":"2.0NRT","bright_ti4":324.18,"frp":1.27,"daynight":"N"},"geometry":{"type":"Point","coordinates":[-121.6908,36.22479]}},{"type":"Feature","properties":{"acq_date":"2026-08-19","acq_time":1051,"confidence":"n","satellite":"N","instrument":"VIIRS","version":"2.0NRT","bright_ti4":302.22,"frp":2.24,"daynight":"N"},"geometry":{"type":"Point","coordinates":[-121.69411,36.22564]}},{"type":"Feature","properties":{"acq_date":"2026-08-19","acq_time":1051,"confidence":"n","satellite":"N","instrument":"VIIRS","version":"2.0NRT","bright_ti4":301.29,"frp":0.93,"daynight":"N"},"geometry":{"type":"Point","coordinates":[-121.72012,36.2323]}},{"type":"Feature","properties":{"acq_date":"2026-08-19","acq_time":1051,"confidence":"n","satellite":"N","instrument":"VIIRS","version":"2.0NRT","bright_ti4":302.98,"frp":1.17,"daynight":"N"},"geometry":{"type":"Point","coordinates":[-121.70147,36.23302]}},{"type":"Feature","properties":{"acq_date":"2026-08-19","acq_time":1051,"confidence":"n","satellite":"N","instrument":"VIIRS","version":"2.0NRT","bright_ti4":305.86,"frp":1.62,"daynight":"N"},"geometry":{"type":"Point","coordinates":[-121.70724,36.23449]}},{"type":"Feature","properties":{"acq_date":"2026-08-19","acq_time":1051,"confidence":"n","satellite":"N","instrument":"VIIRS","version":"2.0NRT","bright_ti4":331.69,"frp":1.92,"daynight":"N"},"geometry":{"type":"Point","coordinates":[-121.71313,36.23601]}},{"type":"Feature","properties":{"acq_date":"2026-08-19","acq_time":1051,"confidence":"n","satellite":"N","instrument":"VIIRS","version":"2.0NRT","bright_ti4":318.83,"frp":3.23,"daynight":"N"},"geometry":{"type":"Point","coordinates":[-121.7169,36.23697]}},{"type":"Feature","properties":{"acq_date":"2026-08-19","acq_time":1051,"confidence":"n","satellite":"N","instrument":"VIIRS","version":"2.0NRT","bright_ti4":308.63,"frp":1.92,"daynight":"N"},"geometry":{"type":"Point","coordinates":[-121.71061,36.24085]}},{"type":"Feature","properties":{"acq_date":"2026-08-19","acq_time":1051,"confidence":"n","satellite":"N","instrument":"VIIRS","version":"2.0NRT","bright_ti4":318.78,"frp":3.17,"daynight":"N"},"geometry":{"type":"Point","coordinates":[-121.7403,36.24842]}},{"type":"Feature","properties":{"acq_date":"2026-08-19","acq_time":1051,"confidence":"n","satellite":"N","instrument":"VIIRS","version":"2.0NRT","bright_ti4":344.9,"frp":5.54,"daynight":"N"},"geometry":{"type":"Point","coordinates":[-121.74358,36.24926]}},{"type":"Feature","properties":{"acq_date":"2026-08-19","acq_time":1051,"confidence":"n","satellite":"N","instrument":"VIIRS","version":"2.0NRT","bright_ti4":300.51,"frp":0.65,"daynight":"N"},"geometry":{"type":"Point","coordinates":[-121.74002,36.25383]}},{"type":"Feature","properties":{"acq_date":"2026-08-19","acq_time":1051,"confidence":"n","satellite":"N","instrument":"VIIRS","version":"2.0NRT","bright_ti4":309.72,"frp":0.86,"daynight":"N"},"geometry":{"type":"Point","coordinates":[-120.13207,37.03069]}}]}