{"type":"FeatureCollection","name":"FIRMS VIIRS CA (last 1 day)","crs":{"type":"name","properties":{"name":"EPSG:4326"}},"fetched_at_utc":"2026-08-26T14:48:02.312Z","source":{"url":"https://firms.modaps.eosdis.nasa.gov/api/area/csv/8c4af552cf654445dd280dfb3ad9337c/VIIRS_SNPP_NRT/-125,32,-113,43.5/1","dataset":"VIIRS_SNPP_NRT","bbox":"-125,32,-113,43.5","day_range":"1"},"features":[{"type":"Feature","properties":{"acq_date":"2026-08-26","acq_time":837,"confidence":"n","satellite":"N","instrument":"VIIRS","version":"2.0NRT","bright_ti4":300.47,"frp":2,"daynight":"N"},"geometry":{"type":"Point","coordinates":[-114.25369,40.82261]}},{"type":"Feature","properties":{"acq_date":"2026-08-26","acq_time":837,"confidence":"n","satellite":"N","instrument":"VIIRS","version":"2.0NRT","bright_ti4":297.39,"frp":3.13,"daynight":"N"},"geometry":{"type":"Point","coordinates":[-114.94934,41.24435]}},{"type":"Feature","properties":{"acq_date":"2026-08-26","acq_time":837,"confidence":"n","satellite":"N","instrument":"VIIRS","version":"2.0NRT","bright_ti4":297.13,"frp":2.63,"daynight":"N"},"geometry":{"type":"Point","coordinates":[-113.90018,43.07055]}},{"type":"Feature","properties":{"acq_date":"2026-08-26","acq_time":837,"confidence":"n","satellite":"N","instrument":"VIIRS","version":"2.0NRT","bright_ti4":302.43,"frp":2.07,"daynight":"N"},"geometry":{"type":"Point","coordinates":[-113.90762,43.084]}},{"type":"Feature","properties":{"acq_date":"2026-08-26","acq_time":837,"confidence":"n","satellite":"N","instrument":"VIIRS","version":"2.0NRT","bright_ti4":296.52,"frp":2.07,"daynight":"N"},"geometry":{"type":"Point","coordinates":[-113.90732,43.09069]}},{"type":"Feature","properties":{"acq_date":"2026-08-26","acq_time":837,"confidence":"n","satellite":"N","instrument":"VIIRS","version":"2.0NRT","bright_ti4":297.15,"frp":2.19,"daynight":"N"},"geometry":{"type":"Point","coordinates":[-113.86712,43.097]}},{"type":"Feature","properties":{"acq_date":"2026-08-26","acq_time":839,"confidence":"n","satellite":"N","instrument":"VIIRS","version":"2.0NRT","bright_ti4":311.64,"frp":3.49,"daynight":"N"},"geometry":{"type":"Point","coordinates":[-114.90889,36.36074]}},{"type":"Feature","properties":{"acq_date":"2026-08-26","acq_time":839,"confidence":"n","satellite":"N","instrument":"VIIRS","version":"2.0NRT","bright_ti4":305.37,"frp":2.85,"daynight":"N"},"geometry":{"type":"Point","coordinates":[-114.9026,36.36114]}},{"type":"Feature","properties":{"acq_date":"2026-08-26","acq_time":1017,"confidence":"n","satellite":"N","instrument":"VIIRS","version":"2.0NRT","bright_ti4":295.26,"frp":2.17,"daynight":"N"},"geometry":{"type":"Point","coordinates":[-116.73708,42.84557]}},{"type":"Feature","properties":{"acq_date":"2026-08-26","acq_time":1017,"confidence":"n","satellite":"N","instrument":"VIIRS","version":"2.0NRT","bright_ti4":320.38,"frp":2.17,"daynight":"N"},"geometry":{"type":"Point","coordinates":[-116.74352,42.84694]}},{"type":"Feature","properties":{"acq_date":"2026-08-26","acq_time":1017,"confidence":"n","satellite":"N","instrument":"VIIRS","version":"2.0NRT","bright_ti4":304.39,"frp":1.97,"daynight":"N"},"geometry":{"type":"Point","coordinates":[-113.91756,43.0746]}},{"type":"Feature","properties":{"acq_date":"2026-08-26","acq_time":1017,"confidence":"n","satellite":"N","instrument":"VIIRS","version":"2.0NRT","bright_ti4":321.34,"frp":1.97,"daynight":"N"},"geometry":{"type":"Point","coordinates":[-113.923,43.07588]}},{"type":"Feature","properties":{"acq_date":"2026-08-26","acq_time":1017,"confidence":"n","satellite":"N","instrument":"VIIRS","version":"2.0NRT","bright_ti4":301.05,"frp":1.25,"daynight":"N"},"geometry":{"type":"Point","coordinates":[-113.92843,43.07716]}},{"type":"Feature","properties":{"acq_date":"2026-08-26","acq_time":1017,"confidence":"n","satellite":"N","instrument":"VIIRS","version":"2.0NRT","bright_ti4":302.06,"frp":0.93,"daynight":"N"},"geometry":{"type":"Point","coordinates":[-113.86702,43.07824]}},{"type":"Feature","properties":{"acq_date":"2026-08-26","acq_time":1017,"confidence":"n","satellite":"N","instrument":"VIIRS","version":"2.0NRT","bright_ti4":305.12,"frp":1.03,"daynight":"N"},"geometry":{"type":"Point","coordinates":[-113.91572,43.07877]}},{"type":"Feature","properties":{"acq_date":"2026-08-26","acq_time":1017,"confidence":"n","satellite":"N","instrument":"VIIRS","version":"2.0NRT","bright_ti4":302.32,"frp":1.03,"daynight":"N"},"geometry":{"type":"Point","coordinates":[-113.92115,43.08004]}},{"type":"Feature","properties":{"acq_date":"2026-08-26","acq_time":1017,"confidence":"n","satellite":"N","instrument":"VIIRS","version":"2.0NRT","bright_ti4":301.11,"frp":1.06,"daynight":"N"},"geometry":{"type":"Point","coordinates":[-113.86881,43.08789]}},{"type":"Feature","properties":{"acq_date":"2026-08-26","acq_time":1017,"confidence":"n","satellite":"N","instrument":"VIIRS","version":"2.0NRT","bright_ti4":296.6,"frp":1.06,"daynight":"N"},"geometry":{"type":"Point","coordinates":[-113.87423,43.0892]}},{"type":"Feature","properties":{"acq_date":"2026-08-26","acq_time":1017,"confidence":"n","satellite":"N","instrument":"VIIRS","version":"2.0NRT","bright_ti4":315.48,"frp":1.06,"daynight":"N"},"geometry":{"type":"Point","coordinates":[-113.87243,43.09338]}},{"type":"Feature","properties":{"acq_date":"2026-08-26","acq_time":1017,"confidence":"n","satellite":"N","instrument":"VIIRS","version":"2.0NRT","bright_ti4":298.32,"frp":0.62,"daynight":"N"},"geometry":{"type":"Point","coordinates":[-113.90133,43.09571]}},{"type":"Feature","properties":{"acq_date":"2026-08-26","acq_time":1017,"confidence":"n","satellite":"N","instrument":"VIIRS","version":"2.0NRT","bright_ti4":300.01,"frp":0.77,"daynight":"N"},"geometry":{"type":"Point","coordinates":[-113.87063,43.09755]}},{"type":"Feature","properties":{"acq_date":"2026-08-26","acq_time":1017,"confidence":"n","satellite":"N","instrument":"VIIRS","version":"2.0NRT","bright_ti4":304.01,"frp":1.27,"daynight":"N"},"geometry":{"type":"Point","coordinates":[-115.66624,43.14531]}},{"type":"Feature","properties":{"acq_date":"2026-08-26","acq_time":1017,"confidence":"n","satellite":"N","instrument":"VIIRS","version":"2.0NRT","bright_ti4":299.15,"frp":3.11,"daynight":"N"},"geometry":{"type":"Point","coordinates":[-115.66529,43.14681]}},{"type":"Feature","properties":{"acq_date":"2026-08-26","acq_time":1019,"confidence":"n","satellite":"N","instrument":"VIIRS","version":"2.0NRT","bright_ti4":306.68,"frp":1.68,"daynight":"N"},"geometry":{"type":"Point","coordinates":[-113.08735,34.62179]}},{"type":"Feature","properties":{"acq_date":"2026-08-26","acq_time":1019,"confidence":"n","satellite":"N","instrument":"VIIRS","version":"2.0NRT","bright_ti4":305.96,"frp":2.08,"daynight":"N"},"geometry":{"type":"Point","coordinates":[-113.08797,34.62712]}},{"type":"Feature","properties":{"acq_date":"2026-08-26","acq_time":1019,"confidence":"n","satellite":"N","instrument":"VIIRS","version":"2.0NRT","bright_ti4":308.55,"frp":1.04,"daynight":"N"},"geometry":{"type":"Point","coordinates":[-113.31525,35.51865]}},{"type":"Feature","properties":{"acq_date":"2026-08-26","acq_time":1019,"confidence":"n","satellite":"N","instrument":"VIIRS","version":"2.0NRT","bright_ti4":338.49,"frp":4.15,"daynight":"N"},"geometry":{"type":"Point","coordinates":[-121.64729,36.2131]}},{"type":"Feature","properties":{"acq_date":"2026-08-26","acq_time":1019,"confidence":"n","satellite":"N","instrument":"VIIRS","version":"2.0NRT","bright_ti4":310.11,"frp":4.15,"daynight":"N"},"geometry":{"type":"Point","coordinates":[-121.65218,36.21402]}},{"type":"Feature","properties":{"acq_date":"2026-08-26","acq_time":1019,"confidence":"n","satellite":"N","instrument":"VIIRS","version":"2.0NRT","bright_ti4":332.92,"frp":2.28,"daynight":"N"},"geometry":{"type":"Point","coordinates":[-121.64601,36.21649]}},{"type":"Feature","properties":{"acq_date":"2026-08-26","acq_time":1019,"confidence":"n","satellite":"N","instrument":"VIIRS","version":"2.0NRT","bright_ti4":325.51,"frp":2.28,"daynight":"N"},"geometry":{"type":"Point","coordinates":[-121.65073,36.21737]}},{"type":"Feature","properties":{"acq_date":"2026-08-26","acq_time":1019,"confidence":"n","satellite":"N","instrument":"VIIRS","version":"2.0NRT","bright_ti4":304.85,"frp":1.22,"daynight":"N"},"geometry":{"type":"Point","coordinates":[-121.65545,36.21824]}},{"type":"Feature","properties":{"acq_date":"2026-08-26","acq_time":1019,"confidence":"n","satellite":"N","instrument":"VIIRS","version":"2.0NRT","bright_ti4":313.3,"frp":1.75,"daynight":"N"},"geometry":{"type":"Point","coordinates":[-121.64036,36.21906]}},{"type":"Feature","properties":{"acq_date":"2026-08-26","acq_time":1019,"confidence":"n","satellite":"N","instrument":"VIIRS","version":"2.0NRT","bright_ti4":311.54,"frp":2.28,"daynight":"N"},"geometry":{"type":"Point","coordinates":[-121.64489,36.21991]}},{"type":"Feature","properties":{"acq_date":"2026-08-26","acq_time":1019,"confidence":"n","satellite":"N","instrument":"VIIRS","version":"2.0NRT","bright_ti4":305.24,"frp":2.28,"daynight":"N"},"geometry":{"type":"Point","coordinates":[-121.64943,36.22074]}},{"type":"Feature","properties":{"acq_date":"2026-08-26","acq_time":1019,"confidence":"n","satellite":"N","instrument":"VIIRS","version":"2.0NRT","bright_ti4":311.01,"frp":1.22,"daynight":"N"},"geometry":{"type":"Point","coordinates":[-121.65411,36.22161]}},{"type":"Feature","properties":{"acq_date":"2026-08-26","acq_time":1019,"confidence":"n","satellite":"N","instrument":"VIIRS","version":"2.0NRT","bright_ti4":312.2,"frp":1.21,"daynight":"N"},"geometry":{"type":"Point","coordinates":[-121.64137,36.23375]}},{"type":"Feature","properties":{"acq_date":"2026-08-26","acq_time":1019,"confidence":"n","satellite":"N","instrument":"VIIRS","version":"2.0NRT","bright_ti4":320.77,"frp":2.08,"daynight":"N"},"geometry":{"type":"Point","coordinates":[-121.64489,36.23802]}},{"type":"Feature","properties":{"acq_date":"2026-08-26","acq_time":1019,"confidence":"n","satellite":"N","instrument":"VIIRS","version":"2.0NRT","bright_ti4":309.74,"frp":0.93,"daynight":"N"},"geometry":{"type":"Point","coordinates":[-121.6496,36.2389]}},{"type":"Feature","properties":{"acq_date":"2026-08-26","acq_time":1019,"confidence":"n","satellite":"N","instrument":"VIIRS","version":"2.0NRT","bright_ti4":304.52,"frp":0.93,"daynight":"N"},"geometry":{"type":"Point","coordinates":[-121.65422,36.23975]}},{"type":"Feature","properties":{"acq_date":"2026-08-26","acq_time":1019,"confidence":"n","satellite":"N","instrument":"VIIRS","version":"2.0NRT","bright_ti4":324.57,"frp":1.69,"daynight":"N"},"geometry":{"type":"Point","coordinates":[-121.74935,36.25008]}},{"type":"Feature","properties":{"acq_date":"2026-08-26","acq_time":1019,"confidence":"n","satellite":"N","instrument":"VIIRS","version":"2.0NRT","bright_ti4":311.65,"frp":1.52,"daynight":"N"},"geometry":{"type":"Point","coordinates":[-121.65607,36.25096]}},{"type":"Feature","properties":{"acq_date":"2026-08-26","acq_time":1019,"confidence":"n","satellite":"N","instrument":"VIIRS","version":"2.0NRT","bright_ti4":310.53,"frp":1.69,"daynight":"N"},"geometry":{"type":"Point","coordinates":[-121.74821,36.25348]}},{"type":"Feature","properties":{"acq_date":"2026-08-26","acq_time":1019,"confidence":"n","satellite":"N","instrument":"VIIRS","version":"2.0NRT","bright_ti4":311.84,"frp":0.73,"daynight":"N"},"geometry":{"type":"Point","coordinates":[-121.65536,36.25445]}},{"type":"Feature","properties":{"acq_date":"2026-08-26","acq_time":1019,"confidence":"n","satellite":"N","instrument":"VIIRS","version":"2.0NRT","bright_ti4":311.79,"frp":2.46,"daynight":"N"},"geometry":{"type":"Point","coordinates":[-121.74717,36.2569]}},{"type":"Feature","properties":{"acq_date":"2026-08-26","acq_time":1019,"confidence":"n","satellite":"N","instrument":"VIIRS","version":"2.0NRT","bright_ti4":305.05,"frp":0.73,"daynight":"N"},"geometry":{"type":"Point","coordinates":[-121.65475,36.25796]}},{"type":"Feature","properties":{"acq_date":"2026-08-26","acq_time":1019,"confidence":"n","satellite":"N","instrument":"VIIRS","version":"2.0NRT","bright_ti4":325.13,"frp":2.46,"daynight":"N"},"geometry":{"type":"Point","coordinates":[-121.74619,36.26033]}},{"type":"Feature","properties":{"acq_date":"2026-08-26","acq_time":1019,"confidence":"n","satellite":"N","instrument":"VIIRS","version":"2.0NRT","bright_ti4":319.12,"frp":3.37,"daynight":"N"},"geometry":{"type":"Point","coordinates":[-121.73979,36.26638]}},{"type":"Feature","properties":{"acq_date":"2026-08-26","acq_time":1019,"confidence":"n","satellite":"N","instrument":"VIIRS","version":"2.0NRT","bright_ti4":308.55,"frp":2.09,"daynight":"N"},"geometry":{"type":"Point","coordinates":[-121.73441,36.269]}},{"type":"Feature","properties":{"acq_date":"2026-08-26","acq_time":1019,"confidence":"n","satellite":"N","instrument":"VIIRS","version":"2.0NRT","bright_ti4":313.89,"frp":5.83,"daynight":"N"},"geometry":{"type":"Point","coordinates":[-121.73888,36.26982]}},{"type":"Feature","properties":{"acq_date":"2026-08-26","acq_time":1019,"confidence":"n","satellite":"N","instrument":"VIIRS","version":"2.0NRT","bright_ti4":319.9,"frp":2.09,"daynight":"N"},"geometry":{"type":"Point","coordinates":[-121.73351,36.27244]}},{"type":"Feature","properties":{"acq_date":"2026-08-26","acq_time":1019,"confidence":"n","satellite":"N","instrument":"VIIRS","version":"2.0NRT","bright_ti4":341.98,"frp":5.83,"daynight":"N"},"geometry":{"type":"Point","coordinates":[-121.73815,36.2733]}},{"type":"Feature","properties":{"acq_date":"2026-08-26","acq_time":1019,"confidence":"n","satellite":"N","instrument":"VIIRS","version":"2.0NRT","bright_ti4":334.65,"frp":5.58,"daynight":"N"},"geometry":{"type":"Point","coordinates":[-121.73277,36.27591]}},{"type":"Feature","properties":{"acq_date":"2026-08-26","acq_time":1019,"confidence":"n","satellite":"N","instrument":"VIIRS","version":"2.0NRT","bright_ti4":339.01,"frp":6.15,"daynight":"N"},"geometry":{"type":"Point","coordinates":[-121.73752,36.27679]}},{"type":"Feature","properties":{"acq_date":"2026-08-26","acq_time":1019,"confidence":"n","satellite":"N","instrument":"VIIRS","version":"2.0NRT","bright_ti4":317.52,"frp":6.15,"daynight":"N"},"geometry":{"type":"Point","coordinates":[-121.74242,36.27769]}},{"type":"Feature","properties":{"acq_date":"2026-08-26","acq_time":1019,"confidence":"n","satellite":"N","instrument":"VIIRS","version":"2.0NRT","bright_ti4":332.83,"frp":6.15,"daynight":"N"},"geometry":{"type":"Point","coordinates":[-121.73691,36.28028]}},{"type":"Feature","properties":{"acq_date":"2026-08-26","acq_time":1019,"confidence":"n","satellite":"N","instrument":"VIIRS","version":"2.0NRT","bright_ti4":350.67,"frp":6.15,"daynight":"N"},"geometry":{"type":"Point","coordinates":[-121.74188,36.28119]}},{"type":"Feature","properties":{"acq_date":"2026-08-26","acq_time":1019,"confidence":"n","satellite":"N","instrument":"VIIRS","version":"2.0NRT","bright_ti4":307.82,"frp":0.98,"daynight":"N"},"geometry":{"type":"Point","coordinates":[-121.669,36.28228]}},{"type":"Feature","properties":{"acq_date":"2026-08-26","acq_time":1019,"confidence":"n","satellite":"N","instrument":"VIIRS","version":"2.0NRT","bright_ti4":313.2,"frp":2.49,"daynight":"N"},"geometry":{"type":"Point","coordinates":[-121.73132,36.28287]}},{"type":"Feature","properties":{"acq_date":"2026-08-26","acq_time":1019,"confidence":"n","satellite":"N","instrument":"VIIRS","version":"2.0NRT","bright_ti4":340.29,"frp":8.59,"daynight":"N"},"geometry":{"type":"Point","coordinates":[-121.73643,36.2838]}},{"type":"Feature","properties":{"acq_date":"2026-08-26","acq_time":1019,"confidence":"n","satellite":"N","instrument":"VIIRS","version":"2.0NRT","bright_ti4":319.1,"frp":1.72,"daynight":"N"},"geometry":{"type":"Point","coordinates":[-121.71692,36.28384]}},{"type":"Feature","properties":{"acq_date":"2026-08-26","acq_time":1019,"confidence":"n","satellite":"N","instrument":"VIIRS","version":"2.0NRT","bright_ti4":310.89,"frp":1.72,"daynight":"N"},"geometry":{"type":"Point","coordinates":[-121.72128,36.28464]}},{"type":"Feature","properties":{"acq_date":"2026-08-26","acq_time":1019,"confidence":"n","satellite":"N","instrument":"VIIRS","version":"2.0NRT","bright_ti4":350.41,"frp":8.59,"daynight":"N"},"geometry":{"type":"Point","coordinates":[-121.74136,36.2847]}},{"type":"Feature","properties":{"acq_date":"2026-08-26","acq_time":1019,"confidence":"n","satellite":"N","instrument":"VIIRS","version":"2.0NRT","bright_ti4":320.12,"frp":2.49,"daynight":"N"},"geometry":{"type":"Point","coordinates":[-121.72587,36.28548]}},{"type":"Feature","properties":{"acq_date":"2026-08-26","acq_time":1019,"confidence":"n","satellite":"N","instrument":"VIIRS","version":"2.0NRT","bright_ti4":329.97,"frp":2.49,"daynight":"N"},"geometry":{"type":"Point","coordinates":[-121.73072,36.28637]}},{"type":"Feature","properties":{"acq_date":"2026-08-26","acq_time":1019,"confidence":"n","satellite":"N","instrument":"VIIRS","version":"2.0NRT","bright_ti4":314.11,"frp":3.31,"daynight":"N"},"geometry":{"type":"Point","coordinates":[-121.71606,36.28729]}},{"type":"Feature","properties":{"acq_date":"2026-08-26","acq_time":1019,"confidence":"n","satellite":"N","instrument":"VIIRS","version":"2.0NRT","bright_ti4":335.59,"frp":8.59,"daynight":"N"},"geometry":{"type":"Point","coordinates":[-121.73589,36.28731]}},{"type":"Feature","properties":{"acq_date":"2026-08-26","acq_time":1019,"confidence":"n","satellite":"N","instrument":"VIIRS","version":"2.0NRT","bright_ti4":305.83,"frp":0.84,"daynight":"N"},"geometry":{"type":"Point","coordinates":[-121.67764,36.28747]}},{"type":"Feature","properties":{"acq_date":"2026-08-26","acq_time":1019,"confidence":"n","satellite":"N","instrument":"VIIRS","version":"2.0NRT","bright_ti4":335.64,"frp":3.31,"daynight":"N"},"geometry":{"type":"Point","coordinates":[-121.72051,36.28811]}},{"type":"Feature","properties":{"acq_date":"2026-08-26","acq_time":1019,"confidence":"n","satellite":"N","instrument":"VIIRS","version":"2.0NRT","bright_ti4":349.13,"frp":8.59,"daynight":"N"},"geometry":{"type":"Point","coordinates":[-121.7408,36.28821]}},{"type":"Feature","properties":{"acq_date":"2026-08-26","acq_time":1019,"confidence":"n","satellite":"N","instrument":"VIIRS","version":"2.0NRT","bright_ti4":303.28,"frp":0.84,"daynight":"N"},"geometry":{"type":"Point","coordinates":[-121.68218,36.2883]}},{"type":"Feature","properties":{"acq_date":"2026-08-26","acq_time":1019,"confidence":"n","satellite":"N","instrument":"VIIRS","version":"2.0NRT","bright_ti4":320.43,"frp":1.51,"daynight":"N"},"geometry":{"type":"Point","coordinates":[-121.72519,36.28897]}},{"type":"Feature","properties":{"acq_date":"2026-08-26","acq_time":1019,"confidence":"n","satellite":"N","instrument":"VIIRS","version":"2.0NRT","bright_ti4":305.27,"frp":1.51,"daynight":"N"},"geometry":{"type":"Point","coordinates":[-121.7301,36.28986]}},{"type":"Feature","properties":{"acq_date":"2026-08-26","acq_time":1019,"confidence":"n","satellite":"N","instrument":"VIIRS","version":"2.0NRT","bright_ti4":317.69,"frp":26.7,"daynight":"N"},"geometry":{"type":"Point","coordinates":[-121.73531,36.29081]}},{"type":"Feature","properties":{"acq_date":"2026-08-26","acq_time":1019,"confidence":"n","satellite":"N","instrument":"VIIRS","version":"2.0NRT","bright_ti4":301.92,"frp":0.86,"daynight":"N"},"geometry":{"type":"Point","coordinates":[-121.69587,36.29081]}},{"type":"Feature","properties":{"acq_date":"2026-08-26","acq_time":1019,"confidence":"n","satellite":"N","instrument":"VIIRS","version":"2.0NRT","bright_ti4":311.3,"frp":0.84,"daynight":"N"},"geometry":{"type":"Point","coordinates":[-121.67638,36.29086]}},{"type":"Feature","properties":{"acq_date":"2026-08-26","acq_time":1019,"confidence":"n","satellite":"N","instrument":"VIIRS","version":"2.0NRT","bright_ti4":343.14,"frp":26.7,"daynight":"N"},"geometry":{"type":"Point","coordinates":[-121.74017,36.2917]}},{"type":"Feature","properties":{"acq_date":"2026-08-26","acq_time":1019,"confidence":"n","satellite":"N","instrument":"VIIRS","version":"2.0NRT","bright_ti4":306.39,"frp":0.86,"daynight":"N"},"geometry":{"type":"Point","coordinates":[-121.69473,36.29422]}},{"type":"Feature","properties":{"acq_date":"2026-08-26","acq_time":1019,"confidence":"n","satellite":"N","instrument":"VIIRS","version":"2.0NRT","bright_ti4":308.39,"frp":2.08,"daynight":"N"},"geometry":{"type":"Point","coordinates":[-114.90761,36.35532]}},{"type":"Feature","properties":{"acq_date":"2026-08-26","acq_time":1019,"confidence":"n","satellite":"N","instrument":"VIIRS","version":"2.0NRT","bright_ti4":300.86,"frp":0.41,"daynight":"N"},"geometry":{"type":"Point","coordinates":[-121.76684,36.71236]}},{"type":"Feature","properties":{"acq_date":"2026-08-26","acq_time":1019,"confidence":"n","satellite":"N","instrument":"VIIRS","version":"2.0NRT","bright_ti4":317.09,"frp":1.75,"daynight":"N"},"geometry":{"type":"Point","coordinates":[-120.13255,37.02693]}},{"type":"Feature","properties":{"acq_date":"2026-08-26","acq_time":1019,"confidence":"n","satellite":"N","instrument":"VIIRS","version":"2.0NRT","bright_ti4":302.05,"frp":0.63,"daynight":"N"},"geometry":{"type":"Point","coordinates":[-120.13145,37.03053]}},{"type":"Feature","properties":{"acq_date":"2026-08-26","acq_time":1019,"confidence":"n","satellite":"N","instrument":"VIIRS","version":"2.0NRT","bright_ti4":313.93,"frp":0.63,"daynight":"N"},"geometry":{"type":"Point","coordinates":[-120.13036,37.03413]}},{"type":"Feature","properties":{"acq_date":"2026-08-26","acq_time":1019,"confidence":"n","satellite":"N","instrument":"VIIRS","version":"2.0NRT","bright_ti4":300.29,"frp":0.55,"daynight":"N"},"geometry":{"type":"Point","coordinates":[-121.67904,37.18436]}},{"type":"Feature","properties":{"acq_date":"2026-08-26","acq_time":1019,"confidence":"n","satellite":"N","instrument":"VIIRS","version":"2.0NRT","bright_ti4":298.66,"frp":0.42,"daynight":"N"},"geometry":{"type":"Point","coordinates":[-121.89997,37.21331]}},{"type":"Feature","properties":{"acq_date":"2026-08-26","acq_time":1019,"confidence":"n","satellite":"N","instrument":"VIIRS","version":"2.0NRT","bright_ti4":311.12,"frp":0.93,"daynight":"N"},"geometry":{"type":"Point","coordinates":[-121.93142,37.45488]}},{"type":"Feature","properties":{"acq_date":"2026-08-26","acq_time":1019,"confidence":"n","satellite":"N","instrument":"VIIRS","version":"2.0NRT","bright_ti4":349.19,"frp":16.31,"daynight":"N"},"geometry":{"type":"Point","coordinates":[-120.7041,37.47615]}},{"type":"Feature","properties":{"acq_date":"2026-08-26","acq_time":1019,"confidence":"n","satellite":"N","instrument":"VIIRS","version":"2.0NRT","bright_ti4":296.46,"frp":0.24,"daynight":"N"},"geometry":{"type":"Point","coordinates":[-121.99256,37.49421]}},{"type":"Feature","properties":{"acq_date":"2026-08-26","acq_time":1019,"confidence":"n","satellite":"N","instrument":"VIIRS","version":"2.0NRT","bright_ti4":302.09,"frp":0.47,"daynight":"N"},"geometry":{"type":"Point","coordinates":[-121.65877,37.75639]}},{"type":"Feature","properties":{"acq_date":"2026-08-26","acq_time":1019,"confidence":"n","satellite":"N","instrument":"VIIRS","version":"2.0NRT","bright_ti4":305.42,"frp":0.54,"daynight":"N"},"geometry":{"type":"Point","coordinates":[-121.18336,37.88475]}},{"type":"Feature","properties":{"acq_date":"2026-08-26","acq_time":1019,"confidence":"n","satellite":"N","instrument":"VIIRS","version":"2.0NRT","bright_ti4":300.17,"frp":1,"daynight":"N"},"geometry":{"type":"Point","coordinates":[-122.39531,37.94339]}},{"type":"Feature","properties":{"acq_date":"2026-08-26","acq_time":1019,"confidence":"n","satellite":"N","instrument":"VIIRS","version":"2.0NRT","bright_ti4":300.52,"frp":1.68,"daynight":"N"},"geometry":{"type":"Point","coordinates":[-122.11237,38.01463]}},{"type":"Feature","properties":{"acq_date":"2026-08-26","acq_time":1019,"confidence":"n","satellite":"N","instrument":"VIIRS","version":"2.0NRT","bright_ti4":297.91,"frp":0.28,"daynight":"N"},"geometry":{"type":"Point","coordinates":[-122.63567,38.95982]}},{"type":"Feature","properties":{"acq_date":"2026-08-26","acq_time":1019,"confidence":"n","satellite":"N","instrument":"VIIRS","version":"2.0NRT","bright_ti4":323.58,"frp":2.21,"daynight":"N"},"geometry":{"type":"Point","coordinates":[-122.02626,39.27882]}},{"type":"Feature","properties":{"acq_date":"2026-08-26","acq_time":1019,"confidence":"n","satellite":"N","instrument":"VIIRS","version":"2.0NRT","bright_ti4":299.64,"frp":0.59,"daynight":"N"},"geometry":{"type":"Point","coordinates":[-122.02531,39.28214]}},{"type":"Feature","properties":{"acq_date":"2026-08-26","acq_time":1019,"confidence":"n","satellite":"N","instrument":"VIIRS","version":"2.0NRT","bright_ti4":303.52,"frp":0.66,"daynight":"N"},"geometry":{"type":"Point","coordinates":[-119.62042,39.49279]}},{"type":"Feature","properties":{"acq_date":"2026-08-26","acq_time":1019,"confidence":"n","satellite":"N","instrument":"VIIRS","version":"2.0NRT","bright_ti4":328.39,"frp":5.7,"daynight":"N"},"geometry":{"type":"Point","coordinates":[-117.66778,39.71331]}},{"type":"Feature","properties":{"acq_date":"2026-08-26","acq_time":1019,"confidence":"n","satellite":"N","instrument":"VIIRS","version":"2.0NRT","bright_ti4":339.42,"frp":6.92,"daynight":"N"},"geometry":{"type":"Point","coordinates":[-117.66636,39.7171]}},{"type":"Feature","properties":{"acq_date":"2026-08-26","acq_time":1019,"confidence":"n","satellite":"N","instrument":"VIIRS","version":"2.0NRT","bright_ti4":323.13,"frp":3.48,"daynight":"N"},"geometry":{"type":"Point","coordinates":[-117.68794,39.71763]}},{"type":"Feature","properties":{"acq_date":"2026-08-26","acq_time":1019,"confidence":"n","satellite":"N","instrument":"VIIRS","version":"2.0NRT","bright_ti4":330.82,"frp":6.92,"daynight":"N"},"geometry":{"type":"Point","coordinates":[-117.67323,39.71857]}},{"type":"Feature","properties":{"acq_date":"2026-08-26","acq_time":1019,"confidence":"n","satellite":"N","instrument":"VIIRS","version":"2.0NRT","bright_ti4":312.89,"frp":2.98,"daynight":"N"},"geometry":{"type":"Point","coordinates":[-117.6945,39.71904]}},{"type":"Feature","properties":{"acq_date":"2026-08-26","acq_time":1019,"confidence":"n","satellite":"N","instrument":"VIIRS","version":"2.0NRT","bright_ti4":313.24,"frp":2.41,"daynight":"N"},"geometry":{"type":"Point","coordinates":[-117.65832,39.71946]}},{"type":"Feature","properties":{"acq_date":"2026-08-26","acq_time":1019,"confidence":"n","satellite":"N","instrument":"VIIRS","version":"2.0NRT","bright_ti4":344.59,"frp":3.74,"daynight":"N"},"geometry":{"type":"Point","coordinates":[-117.68005,39.72002]}},{"type":"Feature","properties":{"acq_date":"2026-08-26","acq_time":1019,"confidence":"n","satellite":"N","instrument":"VIIRS","version":"2.0NRT","bright_ti4":341.6,"frp":6.92,"daynight":"N"},"geometry":{"type":"Point","coordinates":[-117.66496,39.72088]}},{"type":"Feature","properties":{"acq_date":"2026-08-26","acq_time":1019,"confidence":"n","satellite":"N","instrument":"VIIRS","version":"2.0NRT","bright_ti4":308.48,"frp":3.74,"daynight":"N"},"geometry":{"type":"Point","coordinates":[-117.68673,39.72145]}},{"type":"Feature","properties":{"acq_date":"2026-08-26","acq_time":1019,"confidence":"n","satellite":"N","instrument":"VIIRS","version":"2.0NRT","bright_ti4":336.08,"frp":6.92,"daynight":"N"},"geometry":{"type":"Point","coordinates":[-117.6718,39.72234]}},{"type":"Feature","properties":{"acq_date":"2026-08-26","acq_time":1019,"confidence":"n","satellite":"N","instrument":"VIIRS","version":"2.0NRT","bright_ti4":318.47,"frp":1.65,"daynight":"N"},"geometry":{"type":"Point","coordinates":[-117.69313,39.72282]}},{"type":"Feature","properties":{"acq_date":"2026-08-26","acq_time":1019,"confidence":"n","satellite":"N","instrument":"VIIRS","version":"2.0NRT","bright_ti4":318.27,"frp":2.73,"daynight":"N"},"geometry":{"type":"Point","coordinates":[-117.65703,39.72327]}},{"type":"Feature","properties":{"acq_date":"2026-08-26","acq_time":1019,"confidence":"n","satellite":"N","instrument":"VIIRS","version":"2.0NRT","bright_ti4":318.45,"frp":3.74,"daynight":"N"},"geometry":{"type":"Point","coordinates":[-117.67854,39.72379]}},{"type":"Feature","properties":{"acq_date":"2026-08-26","acq_time":1019,"confidence":"n","satellite":"N","instrument":"VIIRS","version":"2.0NRT","bright_ti4":328.76,"frp":3.17,"daynight":"N"},"geometry":{"type":"Point","coordinates":[-117.66364,39.72469]}},{"type":"Feature","properties":{"acq_date":"2026-08-26","acq_time":1019,"confidence":"n","satellite":"N","instrument":"VIIRS","version":"2.0NRT","bright_ti4":315.38,"frp":3.74,"daynight":"N"},"geometry":{"type":"Point","coordinates":[-117.68517,39.7252]}},{"type":"Feature","properties":{"acq_date":"2026-08-26","acq_time":1019,"confidence":"n","satellite":"N","instrument":"VIIRS","version":"2.0NRT","bright_ti4":303.98,"frp":3.17,"daynight":"N"},"geometry":{"type":"Point","coordinates":[-117.67038,39.72612]}},{"type":"Feature","properties":{"acq_date":"2026-08-26","acq_time":1019,"confidence":"n","satellite":"N","instrument":"VIIRS","version":"2.0NRT","bright_ti4":295.35,"frp":1.65,"daynight":"N"},"geometry":{"type":"Point","coordinates":[-117.69164,39.72658]}},{"type":"Feature","properties":{"acq_date":"2026-08-26","acq_time":1019,"confidence":"n","satellite":"N","instrument":"VIIRS","version":"2.0NRT","bright_ti4":298.84,"frp":3.17,"daynight":"N"},"geometry":{"type":"Point","coordinates":[-117.66233,39.72849]}},{"type":"Feature","properties":{"acq_date":"2026-08-26","acq_time":1019,"confidence":"n","satellite":"N","instrument":"VIIRS","version":"2.0NRT","bright_ti4":301.9,"frp":3.73,"daynight":"N"},"geometry":{"type":"Point","coordinates":[-117.68356,39.72894]}},{"type":"Feature","properties":{"acq_date":"2026-08-26","acq_time":1019,"confidence":"n","satellite":"N","instrument":"VIIRS","version":"2.0NRT","bright_ti4":335.51,"frp":3.17,"daynight":"N"},"geometry":{"type":"Point","coordinates":[-117.66901,39.72991]}},{"type":"Feature","properties":{"acq_date":"2026-08-26","acq_time":1019,"confidence":"n","satellite":"N","instrument":"VIIRS","version":"2.0NRT","bright_ti4":300.68,"frp":1.02,"daynight":"N"},"geometry":{"type":"Point","coordinates":[-117.68996,39.7303]}},{"type":"Feature","properties":{"acq_date":"2026-08-26","acq_time":1019,"confidence":"n","satellite":"N","instrument":"VIIRS","version":"2.0NRT","bright_ti4":314.14,"frp":2.59,"daynight":"N"},"geometry":{"type":"Point","coordinates":[-117.71029,39.73056]}},{"type":"Feature","properties":{"acq_date":"2026-08-26","acq_time":1019,"confidence":"n","satellite":"N","instrument":"VIIRS","version":"2.0NRT","bright_ti4":332.42,"frp":3.73,"daynight":"N"},"geometry":{"type":"Point","coordinates":[-117.6756,39.73132]}},{"type":"Feature","properties":{"acq_date":"2026-08-26","acq_time":1019,"confidence":"n","satellite":"N","instrument":"VIIRS","version":"2.0NRT","bright_ti4":301.39,"frp":1.49,"daynight":"N"},"geometry":{"type":"Point","coordinates":[-117.70241,39.73295]}},{"type":"Feature","properties":{"acq_date":"2026-08-26","acq_time":1019,"confidence":"n","satellite":"N","instrument":"VIIRS","version":"2.0NRT","bright_ti4":332.94,"frp":5.72,"daynight":"N"},"geometry":{"type":"Point","coordinates":[-117.66764,39.73371]}},{"type":"Feature","properties":{"acq_date":"2026-08-26","acq_time":1019,"confidence":"n","satellite":"N","instrument":"VIIRS","version":"2.0NRT","bright_ti4":320.51,"frp":1.49,"daynight":"N"},"geometry":{"type":"Point","coordinates":[-117.70889,39.73433]}},{"type":"Feature","properties":{"acq_date":"2026-08-26","acq_time":1019,"confidence":"n","satellite":"N","instrument":"VIIRS","version":"2.0NRT","bright_ti4":319.25,"frp":2.57,"daynight":"N"},"geometry":{"type":"Point","coordinates":[-117.67424,39.73511]}},{"type":"Feature","properties":{"acq_date":"2026-08-26","acq_time":1019,"confidence":"n","satellite":"N","instrument":"VIIRS","version":"2.0NRT","bright_ti4":295.89,"frp":1.02,"daynight":"N"},"geometry":{"type":"Point","coordinates":[-117.69437,39.73532]}},{"type":"Feature","properties":{"acq_date":"2026-08-26","acq_time":1019,"confidence":"n","satellite":"N","instrument":"VIIRS","version":"2.0NRT","bright_ti4":302.33,"frp":2.57,"daynight":"N"},"geometry":{"type":"Point","coordinates":[-117.68055,39.73646]}},{"type":"Feature","properties":{"acq_date":"2026-08-26","acq_time":1019,"confidence":"n","satellite":"N","instrument":"VIIRS","version":"2.0NRT","bright_ti4":298.1,"frp":1.49,"daynight":"N"},"geometry":{"type":"Point","coordinates":[-117.70077,39.73668]}},{"type":"Feature","properties":{"acq_date":"2026-08-26","acq_time":1019,"confidence":"n","satellite":"N","instrument":"VIIRS","version":"2.0NRT","bright_ti4":313.17,"frp":1.49,"daynight":"N"},"geometry":{"type":"Point","coordinates":[-117.7074,39.73808]}},{"type":"Feature","properties":{"acq_date":"2026-08-26","acq_time":1019,"confidence":"n","satellite":"N","instrument":"VIIRS","version":"2.0NRT","bright_ti4":317.39,"frp":2.57,"daynight":"N"},"geometry":{"type":"Point","coordinates":[-117.67278,39.73888]}},{"type":"Feature","properties":{"acq_date":"2026-08-26","acq_time":1019,"confidence":"n","satellite":"N","instrument":"VIIRS","version":"2.0NRT","bright_ti4":296.56,"frp":1.83,"daynight":"N"},"geometry":{"type":"Point","coordinates":[-117.6927,39.73903]}},{"type":"Feature","properties":{"acq_date":"2026-08-26","acq_time":1019,"confidence":"n","satellite":"N","instrument":"VIIRS","version":"2.0NRT","bright_ti4":324.85,"frp":2.57,"daynight":"N"},"geometry":{"type":"Point","coordinates":[-117.67894,39.74019]}},{"type":"Feature","properties":{"acq_date":"2026-08-26","acq_time":1019,"confidence":"n","satellite":"N","instrument":"VIIRS","version":"2.0NRT","bright_ti4":323.14,"frp":1.83,"daynight":"N"},"geometry":{"type":"Point","coordinates":[-117.68495,39.74147]}},{"type":"Feature","properties":{"acq_date":"2026-08-26","acq_time":1019,"confidence":"n","satellite":"N","instrument":"VIIRS","version":"2.0NRT","bright_ti4":323.93,"frp":2.78,"daynight":"N"},"geometry":{"type":"Point","coordinates":[-117.70577,39.74181]}},{"type":"Feature","properties":{"acq_date":"2026-08-26","acq_time":1019,"confidence":"n","satellite":"N","instrument":"VIIRS","version":"2.0NRT","bright_ti4":296.38,"frp":1.83,"daynight":"N"},"geometry":{"type":"Point","coordinates":[-117.69112,39.74278]}},{"type":"Feature","properties":{"acq_date":"2026-08-26","acq_time":1019,"confidence":"n","satellite":"N","instrument":"VIIRS","version":"2.0NRT","bright_ti4":307.73,"frp":8.81,"daynight":"N"},"geometry":{"type":"Point","coordinates":[-117.71224,39.74319]}},{"type":"Feature","properties":{"acq_date":"2026-08-26","acq_time":1019,"confidence":"n","satellite":"N","instrument":"VIIRS","version":"2.0NRT","bright_ti4":301.25,"frp":0.83,"daynight":"N"},"geometry":{"type":"Point","coordinates":[-117.67725,39.74391]}},{"type":"Feature","properties":{"acq_date":"2026-08-26","acq_time":1019,"confidence":"n","satellite":"N","instrument":"VIIRS","version":"2.0NRT","bright_ti4":299.17,"frp":2.78,"daynight":"N"},"geometry":{"type":"Point","coordinates":[-117.69759,39.74415]}},{"type":"Feature","properties":{"acq_date":"2026-08-26","acq_time":1019,"confidence":"n","satellite":"N","instrument":"VIIRS","version":"2.0NRT","bright_ti4":301.62,"frp":1.06,"daynight":"N"},"geometry":{"type":"Point","coordinates":[-117.68329,39.74519]}},{"type":"Feature","properties":{"acq_date":"2026-08-26","acq_time":1019,"confidence":"n","satellite":"N","instrument":"VIIRS","version":"2.0NRT","bright_ti4":320.81,"frp":2.78,"daynight":"N"},"geometry":{"type":"Point","coordinates":[-117.70427,39.74557]}},{"type":"Feature","properties":{"acq_date":"2026-08-26","acq_time":1019,"confidence":"n","satellite":"N","instrument":"VIIRS","version":"2.0NRT","bright_ti4":297.36,"frp":1.06,"daynight":"N"},"geometry":{"type":"Point","coordinates":[-117.68965,39.74654]}},{"type":"Feature","properties":{"acq_date":"2026-08-26","acq_time":1019,"confidence":"n","satellite":"N","instrument":"VIIRS","version":"2.0NRT","bright_ti4":345.8,"frp":8.81,"daynight":"N"},"geometry":{"type":"Point","coordinates":[-117.71073,39.74694]}},{"type":"Feature","properties":{"acq_date":"2026-08-26","acq_time":1019,"confidence":"n","satellite":"N","instrument":"VIIRS","version":"2.0NRT","bright_ti4":302.58,"frp":1.34,"daynight":"N"},"geometry":{"type":"Point","coordinates":[-117.69625,39.74794]}},{"type":"Feature","properties":{"acq_date":"2026-08-26","acq_time":1019,"confidence":"n","satellite":"N","instrument":"VIIRS","version":"2.0NRT","bright_ti4":301.65,"frp":1.34,"daynight":"N"},"geometry":{"type":"Point","coordinates":[-117.70309,39.74939]}},{"type":"Feature","properties":{"acq_date":"2026-08-26","acq_time":1019,"confidence":"n","satellite":"N","instrument":"VIIRS","version":"2.0NRT","bright_ti4":307.33,"frp":2.13,"daynight":"N"},"geometry":{"type":"Point","coordinates":[-117.68046,39.75275]}},{"type":"Feature","properties":{"acq_date":"2026-08-26","acq_time":1019,"confidence":"n","satellite":"N","instrument":"VIIRS","version":"2.0NRT","bright_ti4":318.06,"frp":2.13,"daynight":"N"},"geometry":{"type":"Point","coordinates":[-117.68718,39.75417]}},{"type":"Feature","properties":{"acq_date":"2026-08-26","acq_time":1019,"confidence":"n","satellite":"N","instrument":"VIIRS","version":"2.0NRT","bright_ti4":305.08,"frp":2.05,"daynight":"N"},"geometry":{"type":"Point","coordinates":[-117.69386,39.75558]}},{"type":"Feature","properties":{"acq_date":"2026-08-26","acq_time":1019,"confidence":"n","satellite":"N","instrument":"VIIRS","version":"2.0NRT","bright_ti4":295.79,"frp":0.35,"daynight":"N"},"geometry":{"type":"Point","coordinates":[-116.34689,40.31144]}},{"type":"Feature","properties":{"acq_date":"2026-08-26","acq_time":1019,"confidence":"n","satellite":"N","instrument":"VIIRS","version":"2.0NRT","bright_ti4":297.75,"frp":0.32,"daynight":"N"},"geometry":{"type":"Point","coordinates":[-116.34522,40.31538]}},{"type":"Feature","properties":{"acq_date":"2026-08-26","acq_time":1019,"confidence":"n","satellite":"N","instrument":"VIIRS","version":"2.0NRT","bright_ti4":305.38,"frp":0.51,"daynight":"N"},"geometry":{"type":"Point","coordinates":[-122.32288,40.73671]}},{"type":"Feature","properties":{"acq_date":"2026-08-26","acq_time":1019,"confidence":"n","satellite":"N","instrument":"VIIRS","version":"2.0NRT","bright_ti4":312.03,"frp":1.58,"daynight":"N"},"geometry":{"type":"Point","coordinates":[-114.25963,40.8209]}},{"type":"Feature","properties":{"acq_date":"2026-08-26","acq_time":1019,"confidence":"n","satellite":"N","instrument":"VIIRS","version":"2.0NRT","bright_ti4":313.94,"frp":1.95,"daynight":"N"},"geometry":{"type":"Point","coordinates":[-114.25423,40.82255]}},{"type":"Feature","properties":{"acq_date":"2026-08-26","acq_time":1019,"confidence":"n","satellite":"N","instrument":"VIIRS","version":"2.0NRT","bright_ti4":301.92,"frp":1.58,"daynight":"N"},"geometry":{"type":"Point","coordinates":[-114.25716,40.82507]}},{"type":"Feature","properties":{"acq_date":"2026-08-26","acq_time":1019,"confidence":"n","satellite":"N","instrument":"VIIRS","version":"2.0NRT","bright_ti4":297.42,"frp":0.38,"daynight":"N"},"geometry":{"type":"Point","coordinates":[-123.64056,41.10115]}},{"type":"Feature","properties":{"acq_date":"2026-08-26","acq_time":1019,"confidence":"n","satellite":"N","instrument":"VIIRS","version":"2.0NRT","bright_ti4":330.56,"frp":4.93,"daynight":"N"},"geometry":{"type":"Point","coordinates":[-117.72615,41.53642]}},{"type":"Feature","properties":{"acq_date":"2026-08-26","acq_time":1019,"confidence":"n","satellite":"N","instrument":"VIIRS","version":"2.0NRT","bright_ti4":302.6,"frp":0.9,"daynight":"N"},"geometry":{"type":"Point","coordinates":[-117.72507,41.54013]}},{"type":"Feature","properties":{"acq_date":"2026-08-26","acq_time":1019,"confidence":"n","satellite":"N","instrument":"VIIRS","version":"2.0NRT","bright_ti4":319.61,"frp":3.6,"daynight":"N"},"geometry":{"type":"Point","coordinates":[-117.71655,41.55016]}},{"type":"Feature","properties":{"acq_date":"2026-08-26","acq_time":1019,"confidence":"n","satellite":"N","instrument":"VIIRS","version":"2.0NRT","bright_ti4":300.87,"frp":1.84,"daynight":"N"},"geometry":{"type":"Point","coordinates":[-117.72742,41.5524]}},{"type":"Feature","properties":{"acq_date":"2026-08-26","acq_time":1019,"confidence":"n","satellite":"N","instrument":"VIIRS","version":"2.0NRT","bright_ti4":339.48,"frp":21,"daynight":"N"},"geometry":{"type":"Point","coordinates":[-117.70987,41.55273]}},{"type":"Feature","properties":{"acq_date":"2026-08-26","acq_time":1019,"confidence":"n","satellite":"N","instrument":"VIIRS","version":"2.0NRT","bright_ti4":299.78,"frp":0.62,"daynight":"N"},"geometry":{"type":"Point","coordinates":[-117.73279,41.5535]}},{"type":"Feature","properties":{"acq_date":"2026-08-26","acq_time":1019,"confidence":"n","satellite":"N","instrument":"VIIRS","version":"2.0NRT","bright_ti4":335.53,"frp":21,"daynight":"N"},"geometry":{"type":"Point","coordinates":[-117.71569,41.55392]}},{"type":"Feature","properties":{"acq_date":"2026-08-26","acq_time":1019,"confidence":"n","satellite":"N","instrument":"VIIRS","version":"2.0NRT","bright_ti4":298.15,"frp":1.9,"daynight":"N"},"geometry":{"type":"Point","coordinates":[-117.70319,41.55528]}},{"type":"Feature","properties":{"acq_date":"2026-08-26","acq_time":1019,"confidence":"n","satellite":"N","instrument":"VIIRS","version":"2.0NRT","bright_ti4":321.77,"frp":3.8,"daynight":"N"},"geometry":{"type":"Point","coordinates":[-117.72646,41.55613]}},{"type":"Feature","properties":{"acq_date":"2026-08-26","acq_time":1019,"confidence":"n","satellite":"N","instrument":"VIIRS","version":"2.0NRT","bright_ti4":340.11,"frp":21,"daynight":"N"},"geometry":{"type":"Point","coordinates":[-117.70911,41.5565]}},{"type":"Feature","properties":{"acq_date":"2026-08-26","acq_time":1019,"confidence":"n","satellite":"N","instrument":"VIIRS","version":"2.0NRT","bright_ti4":305.24,"frp":1.59,"daynight":"N"},"geometry":{"type":"Point","coordinates":[-117.73171,41.55721]}},{"type":"Feature","properties":{"acq_date":"2026-08-26","acq_time":1019,"confidence":"n","satellite":"N","instrument":"VIIRS","version":"2.0NRT","bright_ti4":324.74,"frp":21,"daynight":"N"},"geometry":{"type":"Point","coordinates":[-117.71488,41.55768]}},{"type":"Feature","properties":{"acq_date":"2026-08-26","acq_time":1019,"confidence":"n","satellite":"N","instrument":"VIIRS","version":"2.0NRT","bright_ti4":306.7,"frp":3.8,"daynight":"N"},"geometry":{"type":"Point","coordinates":[-117.72031,41.5588]}},{"type":"Feature","properties":{"acq_date":"2026-08-26","acq_time":1019,"confidence":"n","satellite":"N","instrument":"VIIRS","version":"2.0NRT","bright_ti4":328.53,"frp":39.41,"daynight":"N"},"geometry":{"type":"Point","coordinates":[-117.70255,41.55908]}},{"type":"Feature","properties":{"acq_date":"2026-08-26","acq_time":1019,"confidence":"n","satellite":"N","instrument":"VIIRS","version":"2.0NRT","bright_ti4":335.81,"frp":3.8,"daynight":"N"},"geometry":{"type":"Point","coordinates":[-117.72547,41.55986]}},{"type":"Feature","properties":{"acq_date":"2026-08-26","acq_time":1019,"confidence":"n","satellite":"N","instrument":"VIIRS","version":"2.0NRT","bright_ti4":346.62,"frp":32.78,"daynight":"N"},"geometry":{"type":"Point","coordinates":[-117.70842,41.56028]}},{"type":"Feature","properties":{"acq_date":"2026-08-26","acq_time":1019,"confidence":"n","satellite":"N","instrument":"VIIRS","version":"2.0NRT","bright_ti4":308.25,"frp":32.78,"daynight":"N"},"geometry":{"type":"Point","coordinates":[-117.71412,41.56145]}},{"type":"Feature","properties":{"acq_date":"2026-08-26","acq_time":1019,"confidence":"n","satellite":"N","instrument":"VIIRS","version":"2.0NRT","bright_ti4":295.78,"frp":39.41,"daynight":"N"},"geometry":{"type":"Point","coordinates":[-117.69615,41.5617]}},{"type":"Feature","properties":{"acq_date":"2026-08-26","acq_time":1019,"confidence":"n","satellite":"N","instrument":"VIIRS","version":"2.0NRT","bright_ti4":341.32,"frp":6.46,"daynight":"N"},"geometry":{"type":"Point","coordinates":[-117.71936,41.56253]}},{"type":"Feature","properties":{"acq_date":"2026-08-26","acq_time":1019,"confidence":"h","satellite":"N","instrument":"VIIRS","version":"2.0NRT","bright_ti4":367,"frp":39.41,"daynight":"N"},"geometry":{"type":"Point","coordinates":[-117.70174,41.56284]}},{"type":"Feature","properties":{"acq_date":"2026-08-26","acq_time":1019,"confidence":"n","satellite":"N","instrument":"VIIRS","version":"2.0NRT","bright_ti4":329.57,"frp":6.46,"daynight":"N"},"geometry":{"type":"Point","coordinates":[-117.7244,41.56356]}},{"type":"Feature","properties":{"acq_date":"2026-08-26","acq_time":1019,"confidence":"n","satellite":"N","instrument":"VIIRS","version":"2.0NRT","bright_ti4":336.73,"frp":32.78,"daynight":"N"},"geometry":{"type":"Point","coordinates":[-117.70728,41.56398]}},{"type":"Feature","properties":{"acq_date":"2026-08-26","acq_time":1019,"confidence":"n","satellite":"N","instrument":"VIIRS","version":"2.0NRT","bright_ti4":300.55,"frp":32.78,"daynight":"N"},"geometry":{"type":"Point","coordinates":[-117.71274,41.5651]}},{"type":"Feature","properties":{"acq_date":"2026-08-26","acq_time":1019,"confidence":"n","satellite":"N","instrument":"VIIRS","version":"2.0NRT","bright_ti4":295.27,"frp":0.99,"daynight":"N"},"geometry":{"type":"Point","coordinates":[-117.70028,41.56647]}},{"type":"Feature","properties":{"acq_date":"2026-08-26","acq_time":1019,"confidence":"n","satellite":"N","instrument":"VIIRS","version":"2.0NRT","bright_ti4":297.04,"frp":1.08,"daynight":"N"},"geometry":{"type":"Point","coordinates":[-119.90454,41.65725]}},{"type":"Feature","properties":{"acq_date":"2026-08-26","acq_time":1019,"confidence":"n","satellite":"N","instrument":"VIIRS","version":"2.0NRT","bright_ti4":307.08,"frp":1.85,"daynight":"N"},"geometry":{"type":"Point","coordinates":[-119.89954,41.67073]}},{"type":"Feature","properties":{"acq_date":"2026-08-26","acq_time":1019,"confidence":"n","satellite":"N","instrument":"VIIRS","version":"2.0NRT","bright_ti4":299.11,"frp":1.47,"daynight":"N"},"geometry":{"type":"Point","coordinates":[-119.89732,41.67753]}},{"type":"Feature","properties":{"acq_date":"2026-08-26","acq_time":1019,"confidence":"n","satellite":"N","instrument":"VIIRS","version":"2.0NRT","bright_ti4":306.63,"frp":2.39,"daynight":"N"},"geometry":{"type":"Point","coordinates":[-119.89052,41.69268]}},{"type":"Feature","properties":{"acq_date":"2026-08-26","acq_time":1019,"confidence":"n","satellite":"N","instrument":"VIIRS","version":"2.0NRT","bright_ti4":298.22,"frp":1.29,"daynight":"N"},"geometry":{"type":"Point","coordinates":[-119.89218,41.70381]}},{"type":"Feature","properties":{"acq_date":"2026-08-26","acq_time":1019,"confidence":"n","satellite":"N","instrument":"VIIRS","version":"2.0NRT","bright_ti4":301.49,"frp":1.75,"daynight":"N"},"geometry":{"type":"Point","coordinates":[-119.89613,41.70815]}},{"type":"Feature","properties":{"acq_date":"2026-08-26","acq_time":1019,"confidence":"n","satellite":"N","instrument":"VIIRS","version":"2.0NRT","bright_ti4":296.32,"frp":0.89,"daynight":"N"},"geometry":{"type":"Point","coordinates":[-119.89146,41.72168]}},{"type":"Feature","properties":{"acq_date":"2026-08-26","acq_time":1019,"confidence":"n","satellite":"N","instrument":"VIIRS","version":"2.0NRT","bright_ti4":297.15,"frp":0.89,"daynight":"N"},"geometry":{"type":"Point","coordinates":[-119.89668,41.72266]}},{"type":"Feature","properties":{"acq_date":"2026-08-26","acq_time":1019,"confidence":"n","satellite":"N","instrument":"VIIRS","version":"2.0NRT","bright_ti4":302.73,"frp":0.89,"daynight":"N"},"geometry":{"type":"Point","coordinates":[-119.89031,41.72507]}},{"type":"Feature","properties":{"acq_date":"2026-08-26","acq_time":1019,"confidence":"n","satellite":"N","instrument":"VIIRS","version":"2.0NRT","bright_ti4":303.72,"frp":0.89,"daynight":"N"},"geometry":{"type":"Point","coordinates":[-119.89555,41.72605]}},{"type":"Feature","properties":{"acq_date":"2026-08-26","acq_time":1019,"confidence":"n","satellite":"N","instrument":"VIIRS","version":"2.0NRT","bright_ti4":304.24,"frp":1.13,"daynight":"N"},"geometry":{"type":"Point","coordinates":[-119.88691,41.73525]}},{"type":"Feature","properties":{"acq_date":"2026-08-26","acq_time":1019,"confidence":"n","satellite":"N","instrument":"VIIRS","version":"2.0NRT","bright_ti4":301.03,"frp":1.13,"daynight":"N"},"geometry":{"type":"Point","coordinates":[-119.88582,41.73864]}},{"type":"Feature","properties":{"acq_date":"2026-08-26","acq_time":1019,"confidence":"n","satellite":"N","instrument":"VIIRS","version":"2.0NRT","bright_ti4":302.54,"frp":1.13,"daynight":"N"},"geometry":{"type":"Point","coordinates":[-119.89098,41.73961]}},{"type":"Feature","properties":{"acq_date":"2026-08-26","acq_time":1019,"confidence":"n","satellite":"N","instrument":"VIIRS","version":"2.0NRT","bright_ti4":302.88,"frp":1.82,"daynight":"N"},"geometry":{"type":"Point","coordinates":[-119.88471,41.74204]}},{"type":"Feature","properties":{"acq_date":"2026-08-26","acq_time":1019,"confidence":"n","satellite":"N","instrument":"VIIRS","version":"2.0NRT","bright_ti4":325.87,"frp":1.8,"daynight":"N"},"geometry":{"type":"Point","coordinates":[-119.87508,41.75467]}},{"type":"Feature","properties":{"acq_date":"2026-08-26","acq_time":1019,"confidence":"n","satellite":"N","instrument":"VIIRS","version":"2.0NRT","bright_ti4":321.02,"frp":1.8,"daynight":"N"},"geometry":{"type":"Point","coordinates":[-119.874,41.75807]}},{"type":"Feature","properties":{"acq_date":"2026-08-26","acq_time":1019,"confidence":"n","satellite":"N","instrument":"VIIRS","version":"2.0NRT","bright_ti4":296.99,"frp":1.29,"daynight":"N"},"geometry":{"type":"Point","coordinates":[-119.87189,41.76488]}},{"type":"Feature","properties":{"acq_date":"2026-08-26","acq_time":1019,"confidence":"n","satellite":"N","instrument":"VIIRS","version":"2.0NRT","bright_ti4":321.89,"frp":2.38,"daynight":"N"},"geometry":{"type":"Point","coordinates":[-117.89996,42.09003]}},{"type":"Feature","properties":{"acq_date":"2026-08-26","acq_time":1019,"confidence":"n","satellite":"N","instrument":"VIIRS","version":"2.0NRT","bright_ti4":323.37,"frp":2.38,"daynight":"N"},"geometry":{"type":"Point","coordinates":[-117.90607,42.09128]}},{"type":"Feature","properties":{"acq_date":"2026-08-26","acq_time":1019,"confidence":"n","satellite":"N","instrument":"VIIRS","version":"2.0NRT","bright_ti4":299.09,"frp":2.38,"daynight":"N"},"geometry":{"type":"Point","coordinates":[-117.90475,42.09487]}},{"type":"Feature","properties":{"acq_date":"2026-08-26","acq_time":1019,"confidence":"n","satellite":"N","instrument":"VIIRS","version":"2.0NRT","bright_ti4":326.31,"frp":5.29,"daynight":"N"},"geometry":{"type":"Point","coordinates":[-117.89674,42.0971]}},{"type":"Feature","properties":{"acq_date":"2026-08-26","acq_time":1019,"confidence":"n","satellite":"N","instrument":"VIIRS","version":"2.0NRT","bright_ti4":332.68,"frp":5.29,"daynight":"N"},"geometry":{"type":"Point","coordinates":[-117.89526,42.10066]}},{"type":"Feature","properties":{"acq_date":"2026-08-26","acq_time":1019,"confidence":"n","satellite":"N","instrument":"VIIRS","version":"2.0NRT","bright_ti4":330.32,"frp":5.29,"daynight":"N"},"geometry":{"type":"Point","coordinates":[-117.90173,42.10198]}},{"type":"Feature","properties":{"acq_date":"2026-08-26","acq_time":1019,"confidence":"n","satellite":"N","instrument":"VIIRS","version":"2.0NRT","bright_ti4":336.9,"frp":7.4,"daynight":"N"},"geometry":{"type":"Point","coordinates":[-117.90029,42.10555]}},{"type":"Feature","properties":{"acq_date":"2026-08-26","acq_time":1019,"confidence":"n","satellite":"N","instrument":"VIIRS","version":"2.0NRT","bright_ti4":332.89,"frp":7.4,"daynight":"N"},"geometry":{"type":"Point","coordinates":[-117.89904,42.10916]}},{"type":"Feature","properties":{"acq_date":"2026-08-26","acq_time":1019,"confidence":"n","satellite":"N","instrument":"VIIRS","version":"2.0NRT","bright_ti4":301.52,"frp":2.1,"daynight":"N"},"geometry":{"type":"Point","coordinates":[-117.90546,42.11047]}},{"type":"Feature","properties":{"acq_date":"2026-08-26","acq_time":1019,"confidence":"n","satellite":"N","instrument":"VIIRS","version":"2.0NRT","bright_ti4":342.57,"frp":13.76,"daynight":"N"},"geometry":{"type":"Point","coordinates":[-117.90428,42.11409]}},{"type":"Feature","properties":{"acq_date":"2026-08-26","acq_time":1019,"confidence":"n","satellite":"N","instrument":"VIIRS","version":"2.0NRT","bright_ti4":316.16,"frp":13.76,"daynight":"N"},"geometry":{"type":"Point","coordinates":[-117.91071,42.1154]}},{"type":"Feature","properties":{"acq_date":"2026-08-26","acq_time":1019,"confidence":"n","satellite":"N","instrument":"VIIRS","version":"2.0NRT","bright_ti4":307.59,"frp":13.76,"daynight":"N"},"geometry":{"type":"Point","coordinates":[-117.90321,42.11774]}},{"type":"Feature","properties":{"acq_date":"2026-08-26","acq_time":1019,"confidence":"n","satellite":"N","instrument":"VIIRS","version":"2.0NRT","bright_ti4":354.99,"frp":13.2,"daynight":"N"},"geometry":{"type":"Point","coordinates":[-117.90202,42.12135]}},{"type":"Feature","properties":{"acq_date":"2026-08-26","acq_time":1019,"confidence":"n","satellite":"N","instrument":"VIIRS","version":"2.0NRT","bright_ti4":300.62,"frp":0.7,"daynight":"N"},"geometry":{"type":"Point","coordinates":[-122.77395,42.38404]}},{"type":"Feature","properties":{"acq_date":"2026-08-26","acq_time":1019,"confidence":"n","satellite":"N","instrument":"VIIRS","version":"2.0NRT","bright_ti4":304.73,"frp":1.08,"daynight":"N"},"geometry":{"type":"Point","coordinates":[-121.66525,42.41949]}},{"type":"Feature","properties":{"acq_date":"2026-08-26","acq_time":1019,"confidence":"n","satellite":"N","instrument":"VIIRS","version":"2.0NRT","bright_ti4":298.72,"frp":1.08,"daynight":"N"},"geometry":{"type":"Point","coordinates":[-121.66991,42.42027]}},{"type":"Feature","properties":{"acq_date":"2026-08-26","acq_time":1019,"confidence":"n","satellite":"N","instrument":"VIIRS","version":"2.0NRT","bright_ti4":297.93,"frp":1.55,"daynight":"N"},"geometry":{"type":"Point","coordinates":[-121.67456,42.42104]}},{"type":"Feature","properties":{"acq_date":"2026-08-26","acq_time":1019,"confidence":"n","satellite":"N","instrument":"VIIRS","version":"2.0NRT","bright_ti4":323.79,"frp":4.1,"daynight":"N"},"geometry":{"type":"Point","coordinates":[-117.40096,42.69907]}},{"type":"Feature","properties":{"acq_date":"2026-08-26","acq_time":1019,"confidence":"n","satellite":"N","instrument":"VIIRS","version":"2.0NRT","bright_ti4":336.1,"frp":4.1,"daynight":"N"},"geometry":{"type":"Point","coordinates":[-117.40683,42.70027]}},{"type":"Feature","properties":{"acq_date":"2026-08-26","acq_time":1019,"confidence":"n","satellite":"N","instrument":"VIIRS","version":"2.0NRT","bright_ti4":323,"frp":4.1,"daynight":"N"},"geometry":{"type":"Point","coordinates":[-117.39957,42.7027]}},{"type":"Feature","properties":{"acq_date":"2026-08-26","acq_time":1019,"confidence":"n","satellite":"N","instrument":"VIIRS","version":"2.0NRT","bright_ti4":319.33,"frp":3.04,"daynight":"N"},"geometry":{"type":"Point","coordinates":[-117.3865,42.70392]}},{"type":"Feature","properties":{"acq_date":"2026-08-26","acq_time":1019,"confidence":"n","satellite":"N","instrument":"VIIRS","version":"2.0NRT","bright_ti4":301.33,"frp":3.04,"daynight":"N"},"geometry":{"type":"Point","coordinates":[-117.39237,42.70513]}},{"type":"Feature","properties":{"acq_date":"2026-08-26","acq_time":1019,"confidence":"n","satellite":"N","instrument":"VIIRS","version":"2.0NRT","bright_ti4":339.09,"frp":3.04,"daynight":"N"},"geometry":{"type":"Point","coordinates":[-117.38518,42.70756]}},{"type":"Feature","properties":{"acq_date":"2026-08-26","acq_time":1019,"confidence":"n","satellite":"N","instrument":"VIIRS","version":"2.0NRT","bright_ti4":302.78,"frp":1.26,"daynight":"N"},"geometry":{"type":"Point","coordinates":[-117.37792,42.70998]}},{"type":"Feature","properties":{"acq_date":"2026-08-26","acq_time":1019,"confidence":"n","satellite":"N","instrument":"VIIRS","version":"2.0NRT","bright_ti4":318.73,"frp":2.45,"daynight":"N"},"geometry":{"type":"Point","coordinates":[-117.38383,42.71119]}},{"type":"Feature","properties":{"acq_date":"2026-08-26","acq_time":1019,"confidence":"n","satellite":"N","instrument":"VIIRS","version":"2.0NRT","bright_ti4":328.26,"frp":2.24,"daynight":"N"},"geometry":{"type":"Point","coordinates":[-117.36926,42.71603]}},{"type":"Feature","properties":{"acq_date":"2026-08-26","acq_time":1019,"confidence":"n","satellite":"N","instrument":"VIIRS","version":"2.0NRT","bright_ti4":304.1,"frp":2.24,"daynight":"N"},"geometry":{"type":"Point","coordinates":[-117.37519,42.71724]}},{"type":"Feature","properties":{"acq_date":"2026-08-26","acq_time":1019,"confidence":"n","satellite":"N","instrument":"VIIRS","version":"2.0NRT","bright_ti4":306.01,"frp":1.65,"daynight":"N"},"geometry":{"type":"Point","coordinates":[-117.33511,42.7208]}},{"type":"Feature","properties":{"acq_date":"2026-08-26","acq_time":1019,"confidence":"n","satellite":"N","instrument":"VIIRS","version":"2.0NRT","bright_ti4":325.98,"frp":3.71,"daynight":"N"},"geometry":{"type":"Point","coordinates":[-117.33367,42.72443]}},{"type":"Feature","properties":{"acq_date":"2026-08-26","acq_time":1019,"confidence":"n","satellite":"N","instrument":"VIIRS","version":"2.0NRT","bright_ti4":305.13,"frp":3.7,"daynight":"N"},"geometry":{"type":"Point","coordinates":[-117.33956,42.72562]}},{"type":"Feature","properties":{"acq_date":"2026-08-26","acq_time":1019,"confidence":"n","satellite":"N","instrument":"VIIRS","version":"2.0NRT","bright_ti4":328.06,"frp":3.7,"daynight":"N"},"geometry":{"type":"Point","coordinates":[-117.34531,42.7268]}},{"type":"Feature","properties":{"acq_date":"2026-08-26","acq_time":1019,"confidence":"n","satellite":"N","instrument":"VIIRS","version":"2.0NRT","bright_ti4":310.84,"frp":2.44,"daynight":"N"},"geometry":{"type":"Point","coordinates":[-117.34428,42.72791]}},{"type":"Feature","properties":{"acq_date":"2026-08-26","acq_time":1019,"confidence":"n","satellite":"N","instrument":"VIIRS","version":"2.0NRT","bright_ti4":324,"frp":3,"daynight":"N"},"geometry":{"type":"Point","coordinates":[-117.35143,42.72805]}},{"type":"Feature","properties":{"acq_date":"2026-08-26","acq_time":1019,"confidence":"n","satellite":"N","instrument":"VIIRS","version":"2.0NRT","bright_ti4":333.53,"frp":2.44,"daynight":"N"},"geometry":{"type":"Point","coordinates":[-117.35034,42.72917]}},{"type":"Feature","properties":{"acq_date":"2026-08-26","acq_time":1019,"confidence":"n","satellite":"N","instrument":"VIIRS","version":"2.0NRT","bright_ti4":302.04,"frp":3.45,"daynight":"N"},"geometry":{"type":"Point","coordinates":[-117.35643,42.73045]}},{"type":"Feature","properties":{"acq_date":"2026-08-26","acq_time":1019,"confidence":"n","satellite":"N","instrument":"VIIRS","version":"2.0NRT","bright_ti4":321.17,"frp":3,"daynight":"N"},"geometry":{"type":"Point","coordinates":[-117.34978,42.73162]}},{"type":"Feature","properties":{"acq_date":"2026-08-26","acq_time":1019,"confidence":"n","satellite":"N","instrument":"VIIRS","version":"2.0NRT","bright_ti4":304.46,"frp":2.44,"daynight":"N"},"geometry":{"type":"Point","coordinates":[-117.34879,42.73276]}},{"type":"Feature","properties":{"acq_date":"2026-08-26","acq_time":1019,"confidence":"n","satellite":"N","instrument":"VIIRS","version":"2.0NRT","bright_ti4":317.56,"frp":3,"daynight":"N"},"geometry":{"type":"Point","coordinates":[-117.35571,42.73283]}},{"type":"Feature","properties":{"acq_date":"2026-08-26","acq_time":1019,"confidence":"n","satellite":"N","instrument":"VIIRS","version":"2.0NRT","bright_ti4":328.66,"frp":3.45,"daynight":"N"},"geometry":{"type":"Point","coordinates":[-117.35461,42.73398]}},{"type":"Feature","properties":{"acq_date":"2026-08-26","acq_time":1019,"confidence":"n","satellite":"N","instrument":"VIIRS","version":"2.0NRT","bright_ti4":318.79,"frp":3.1,"daynight":"N"},"geometry":{"type":"Point","coordinates":[-117.36151,42.73401]}},{"type":"Feature","properties":{"acq_date":"2026-08-26","acq_time":1019,"confidence":"n","satellite":"N","instrument":"VIIRS","version":"2.0NRT","bright_ti4":329.62,"frp":3.45,"daynight":"N"},"geometry":{"type":"Point","coordinates":[-117.3604,42.73518]}},{"type":"Feature","properties":{"acq_date":"2026-08-26","acq_time":1019,"confidence":"n","satellite":"N","instrument":"VIIRS","version":"2.0NRT","bright_ti4":328.04,"frp":4.59,"daynight":"N"},"geometry":{"type":"Point","coordinates":[-117.35399,42.73639]}},{"type":"Feature","properties":{"acq_date":"2026-08-26","acq_time":1019,"confidence":"n","satellite":"N","instrument":"VIIRS","version":"2.0NRT","bright_ti4":325.34,"frp":4.5,"daynight":"N"},"geometry":{"type":"Point","coordinates":[-117.36639,42.73643]}},{"type":"Feature","properties":{"acq_date":"2026-08-26","acq_time":1019,"confidence":"n","satellite":"N","instrument":"VIIRS","version":"2.0NRT","bright_ti4":303.88,"frp":1.33,"daynight":"N"},"geometry":{"type":"Point","coordinates":[-117.35297,42.73755]}},{"type":"Feature","properties":{"acq_date":"2026-08-26","acq_time":1019,"confidence":"n","satellite":"N","instrument":"VIIRS","version":"2.0NRT","bright_ti4":320.95,"frp":4.46,"daynight":"N"},"geometry":{"type":"Point","coordinates":[-117.35976,42.73756]}},{"type":"Feature","properties":{"acq_date":"2026-08-26","acq_time":1019,"confidence":"n","satellite":"N","instrument":"VIIRS","version":"2.0NRT","bright_ti4":303.49,"frp":1.33,"daynight":"N"},"geometry":{"type":"Point","coordinates":[-117.35878,42.73876]}},{"type":"Feature","properties":{"acq_date":"2026-08-26","acq_time":1019,"confidence":"n","satellite":"N","instrument":"VIIRS","version":"2.0NRT","bright_ti4":346.72,"frp":4.46,"daynight":"N"},"geometry":{"type":"Point","coordinates":[-117.36586,42.73881]}},{"type":"Feature","properties":{"acq_date":"2026-08-26","acq_time":1019,"confidence":"n","satellite":"N","instrument":"VIIRS","version":"2.0NRT","bright_ti4":340.55,"frp":4.02,"daynight":"N"},"geometry":{"type":"Point","coordinates":[-117.36489,42.74003]}},{"type":"Feature","properties":{"acq_date":"2026-08-26","acq_time":1019,"confidence":"n","satellite":"N","instrument":"VIIRS","version":"2.0NRT","bright_ti4":307.91,"frp":2.46,"daynight":"N"},"geometry":{"type":"Point","coordinates":[-117.37203,42.74006]}},{"type":"Feature","properties":{"acq_date":"2026-08-26","acq_time":1019,"confidence":"n","satellite":"N","instrument":"VIIRS","version":"2.0NRT","bright_ti4":303.44,"frp":2.41,"daynight":"N"},"geometry":{"type":"Point","coordinates":[-117.4035,42.74025]}},{"type":"Feature","properties":{"acq_date":"2026-08-26","acq_time":1019,"confidence":"n","satellite":"N","instrument":"VIIRS","version":"2.0NRT","bright_ti4":327.59,"frp":4.02,"daynight":"N"},"geometry":{"type":"Point","coordinates":[-117.37093,42.74129]}},{"type":"Feature","properties":{"acq_date":"2026-08-26","acq_time":1019,"confidence":"n","satellite":"N","instrument":"VIIRS","version":"2.0NRT","bright_ti4":312.51,"frp":2.41,"daynight":"N"},"geometry":{"type":"Point","coordinates":[-117.40934,42.74147]}},{"type":"Feature","properties":{"acq_date":"2026-08-26","acq_time":1019,"confidence":"n","satellite":"N","instrument":"VIIRS","version":"2.0NRT","bright_ti4":312.16,"frp":2.13,"daynight":"N"},"geometry":{"type":"Point","coordinates":[-117.40295,42.74243]}},{"type":"Feature","properties":{"acq_date":"2026-08-26","acq_time":1019,"confidence":"n","satellite":"N","instrument":"VIIRS","version":"2.0NRT","bright_ti4":327.49,"frp":4.46,"daynight":"N"},"geometry":{"type":"Point","coordinates":[-117.36455,42.74245]}},{"type":"Feature","properties":{"acq_date":"2026-08-26","acq_time":1019,"confidence":"n","satellite":"N","instrument":"VIIRS","version":"2.0NRT","bright_ti4":316.75,"frp":4.13,"daynight":"N"},"geometry":{"type":"Point","coordinates":[-117.41534,42.74272]}},{"type":"Feature","properties":{"acq_date":"2026-08-26","acq_time":1019,"confidence":"n","satellite":"N","instrument":"VIIRS","version":"2.0NRT","bright_ti4":333.91,"frp":5.7,"daynight":"N"},"geometry":{"type":"Point","coordinates":[-117.40885,42.74363]}},{"type":"Feature","properties":{"acq_date":"2026-08-26","acq_time":1019,"confidence":"n","satellite":"N","instrument":"VIIRS","version":"2.0NRT","bright_ti4":307.53,"frp":2.46,"daynight":"N"},"geometry":{"type":"Point","coordinates":[-117.37045,42.74364]}},{"type":"Feature","properties":{"acq_date":"2026-08-26","acq_time":1019,"confidence":"n","satellite":"N","instrument":"VIIRS","version":"2.0NRT","bright_ti4":328.57,"frp":5.7,"daynight":"N"},"geometry":{"type":"Point","coordinates":[-117.41494,42.74487]}},{"type":"Feature","properties":{"acq_date":"2026-08-26","acq_time":1019,"confidence":"n","satellite":"N","instrument":"VIIRS","version":"2.0NRT","bright_ti4":309.69,"frp":4.02,"daynight":"N"},"geometry":{"type":"Point","coordinates":[-117.36948,42.7449]}},{"type":"Feature","properties":{"acq_date":"2026-08-26","acq_time":1019,"confidence":"n","satellite":"N","instrument":"VIIRS","version":"2.0NRT","bright_ti4":319.69,"frp":2.41,"daynight":"N"},"geometry":{"type":"Point","coordinates":[-117.40761,42.74501]}},{"type":"Feature","properties":{"acq_date":"2026-08-26","acq_time":1019,"confidence":"n","satellite":"N","instrument":"VIIRS","version":"2.0NRT","bright_ti4":335.61,"frp":4.13,"daynight":"N"},"geometry":{"type":"Point","coordinates":[-117.41371,42.74628]}},{"type":"Feature","properties":{"acq_date":"2026-08-26","acq_time":1019,"confidence":"n","satellite":"N","instrument":"VIIRS","version":"2.0NRT","bright_ti4":310.44,"frp":2.83,"daynight":"N"},"geometry":{"type":"Point","coordinates":[-117.40726,42.74721]}},{"type":"Feature","properties":{"acq_date":"2026-08-26","acq_time":1019,"confidence":"n","satellite":"N","instrument":"VIIRS","version":"2.0NRT","bright_ti4":324.97,"frp":4.42,"daynight":"N"},"geometry":{"type":"Point","coordinates":[-117.38852,42.74731]}},{"type":"Feature","properties":{"acq_date":"2026-08-26","acq_time":1019,"confidence":"n","satellite":"N","instrument":"VIIRS","version":"2.0NRT","bright_ti4":311.57,"frp":3.1,"daynight":"N"},"geometry":{"type":"Point","coordinates":[-117.3816,42.74743]}},{"type":"Feature","properties":{"acq_date":"2026-08-26","acq_time":1019,"confidence":"n","satellite":"N","instrument":"VIIRS","version":"2.0NRT","bright_ti4":329.43,"frp":6.15,"daynight":"N"},"geometry":{"type":"Point","coordinates":[-117.38755,42.74866]}},{"type":"Feature","properties":{"acq_date":"2026-08-26","acq_time":1021,"confidence":"n","satellite":"N","instrument":"VIIRS","version":"2.0NRT","bright_ti4":305.18,"frp":1.23,"daynight":"N"},"geometry":{"type":"Point","coordinates":[-116.92522,32.42182]}},{"type":"Feature","properties":{"acq_date":"2026-08-26","acq_time":1021,"confidence":"n","satellite":"N","instrument":"VIIRS","version":"2.0NRT","bright_ti4":328.54,"frp":5.06,"daynight":"N"},"geometry":{"type":"Point","coordinates":[-117.07578,32.4368]}},{"type":"Feature","properties":{"acq_date":"2026-08-26","acq_time":1021,"confidence":"n","satellite":"N","instrument":"VIIRS","version":"2.0NRT","bright_ti4":322.65,"frp":2.25,"daynight":"N"},"geometry":{"type":"Point","coordinates":[-116.77337,32.52707]}},{"type":"Feature","properties":{"acq_date":"2026-08-26","acq_time":1021,"confidence":"n","satellite":"N","instrument":"VIIRS","version":"2.0NRT","bright_ti4":327.17,"frp":3.32,"daynight":"N"},"geometry":{"type":"Point","coordinates":[-116.77558,32.52796]}},{"type":"Feature","properties":{"acq_date":"2026-08-26","acq_time":1021,"confidence":"n","satellite":"N","instrument":"VIIRS","version":"2.0NRT","bright_ti4":320.55,"frp":4.82,"daynight":"N"},"geometry":{"type":"Point","coordinates":[-116.77983,32.52861]}},{"type":"Feature","properties":{"acq_date":"2026-08-26","acq_time":1021,"confidence":"n","satellite":"N","instrument":"VIIRS","version":"2.0NRT","bright_ti4":305.8,"frp":3.32,"daynight":"N"},"geometry":{"type":"Point","coordinates":[-116.78184,32.5294]}},{"type":"Feature","properties":{"acq_date":"2026-08-26","acq_time":1021,"confidence":"n","satellite":"N","instrument":"VIIRS","version":"2.0NRT","bright_ti4":303.36,"frp":0.8,"daynight":"N"},"geometry":{"type":"Point","coordinates":[-117.61766,33.4932]}},{"type":"Feature","properties":{"acq_date":"2026-08-26","acq_time":1021,"confidence":"n","satellite":"N","instrument":"VIIRS","version":"2.0NRT","bright_ti4":303.19,"frp":0.84,"daynight":"N"},"geometry":{"type":"Point","coordinates":[-117.82426,33.61405]}},{"type":"Feature","properties":{"acq_date":"2026-08-26","acq_time":1021,"confidence":"n","satellite":"N","instrument":"VIIRS","version":"2.0NRT","bright_ti4":305.9,"frp":0.52,"daynight":"N"},"geometry":{"type":"Point","coordinates":[-117.7093,33.71704]}},{"type":"Feature","properties":{"acq_date":"2026-08-26","acq_time":1021,"confidence":"n","satellite":"N","instrument":"VIIRS","version":"2.0NRT","bright_ti4":309.67,"frp":1.34,"daynight":"N"},"geometry":{"type":"Point","coordinates":[-117.47347,33.79394]}},{"type":"Feature","properties":{"acq_date":"2026-08-26","acq_time":1021,"confidence":"n","satellite":"N","instrument":"VIIRS","version":"2.0NRT","bright_ti4":307.15,"frp":1.52,"daynight":"N"},"geometry":{"type":"Point","coordinates":[-118.24383,33.82096]}},{"type":"Feature","properties":{"acq_date":"2026-08-26","acq_time":1021,"confidence":"n","satellite":"N","instrument":"VIIRS","version":"2.0NRT","bright_ti4":329.86,"frp":5.03,"daynight":"N"},"geometry":{"type":"Point","coordinates":[-118.20882,33.83574]}},{"type":"Feature","properties":{"acq_date":"2026-08-26","acq_time":1021,"confidence":"n","satellite":"N","instrument":"VIIRS","version":"2.0NRT","bright_ti4":342.24,"frp":5.03,"daynight":"N"},"geometry":{"type":"Point","coordinates":[-118.2075,33.83993]}},{"type":"Feature","properties":{"acq_date":"2026-08-26","acq_time":1021,"confidence":"n","satellite":"N","instrument":"VIIRS","version":"2.0NRT","bright_ti4":308.09,"frp":1.25,"daynight":"N"},"geometry":{"type":"Point","coordinates":[-117.49573,34.07884]}},{"type":"Feature","properties":{"acq_date":"2026-08-26","acq_time":1021,"confidence":"n","satellite":"N","instrument":"VIIRS","version":"2.0NRT","bright_ti4":309.79,"frp":1.68,"daynight":"N"},"geometry":{"type":"Point","coordinates":[-118.19363,34.15499]}},{"type":"Feature","properties":{"acq_date":"2026-08-26","acq_time":1021,"confidence":"n","satellite":"N","instrument":"VIIRS","version":"2.0NRT","bright_ti4":318.92,"frp":2.85,"daynight":"N"},"geometry":{"type":"Point","coordinates":[-118.5181,34.33495]}},{"type":"Feature","properties":{"acq_date":"2026-08-26","acq_time":1021,"confidence":"n","satellite":"N","instrument":"VIIRS","version":"2.0NRT","bright_ti4":306.76,"frp":1.61,"daynight":"N"},"geometry":{"type":"Point","coordinates":[-118.64487,34.42946]}},{"type":"Feature","properties":{"acq_date":"2026-08-26","acq_time":1021,"confidence":"n","satellite":"N","instrument":"VIIRS","version":"2.0NRT","bright_ti4":316.93,"frp":2.51,"daynight":"N"},"geometry":{"type":"Point","coordinates":[-117.33636,34.60892]}},{"type":"Feature","properties":{"acq_date":"2026-08-26","acq_time":1021,"confidence":"n","satellite":"N","instrument":"VIIRS","version":"2.0NRT","bright_ti4":309.11,"frp":2.6,"daynight":"N"},"geometry":{"type":"Point","coordinates":[-117.09843,34.62293]}}]}