{"type":"FeatureCollection","name":"FIRMS VIIRS CA (last 1 day)","crs":{"type":"name","properties":{"name":"EPSG:4326"}},"fetched_at_utc":"2026-08-22T14:25:02.697Z","source":{"url":"https://firms.modaps.eosdis.nasa.gov/api/area/csv/8c4af552cf654445dd280dfb3ad9337c/VIIRS_SNPP_NRT/-125,32,-113,43.5/1","dataset":"VIIRS_SNPP_NRT","bbox":"-125,32,-113,43.5","day_range":"1"},"features":[{"type":"Feature","properties":{"acq_date":"2026-08-22","acq_time":954,"confidence":"n","satellite":"N","instrument":"VIIRS","version":"2.0NRT","bright_ti4":312.52,"frp":1.25,"daynight":"N"},"geometry":{"type":"Point","coordinates":[-114.25488,40.8228]}},{"type":"Feature","properties":{"acq_date":"2026-08-22","acq_time":954,"confidence":"n","satellite":"N","instrument":"VIIRS","version":"2.0NRT","bright_ti4":298.77,"frp":0.66,"daynight":"N"},"geometry":{"type":"Point","coordinates":[-122.77785,42.38359]}},{"type":"Feature","properties":{"acq_date":"2026-08-22","acq_time":954,"confidence":"n","satellite":"N","instrument":"VIIRS","version":"2.0NRT","bright_ti4":296.14,"frp":0.71,"daynight":"N"},"geometry":{"type":"Point","coordinates":[-121.6536,42.40704]}},{"type":"Feature","properties":{"acq_date":"2026-08-22","acq_time":954,"confidence":"n","satellite":"N","instrument":"VIIRS","version":"2.0NRT","bright_ti4":298.83,"frp":0.94,"daynight":"N"},"geometry":{"type":"Point","coordinates":[-121.66418,42.41593]}},{"type":"Feature","properties":{"acq_date":"2026-08-22","acq_time":954,"confidence":"n","satellite":"N","instrument":"VIIRS","version":"2.0NRT","bright_ti4":301.19,"frp":0.94,"daynight":"N"},"geometry":{"type":"Point","coordinates":[-121.67026,42.41661]}},{"type":"Feature","properties":{"acq_date":"2026-08-22","acq_time":954,"confidence":"n","satellite":"N","instrument":"VIIRS","version":"2.0NRT","bright_ti4":296.71,"frp":0.54,"daynight":"N"},"geometry":{"type":"Point","coordinates":[-121.6756,42.42768]}},{"type":"Feature","properties":{"acq_date":"2026-08-22","acq_time":954,"confidence":"n","satellite":"N","instrument":"VIIRS","version":"2.0NRT","bright_ti4":318.63,"frp":1.24,"daynight":"N"},"geometry":{"type":"Point","coordinates":[-115.66655,43.14622]}},{"type":"Feature","properties":{"acq_date":"2026-08-22","acq_time":954,"confidence":"n","satellite":"N","instrument":"VIIRS","version":"2.0NRT","bright_ti4":310.09,"frp":1.24,"daynight":"N"},"geometry":{"type":"Point","coordinates":[-115.73431,43.18118]}},{"type":"Feature","properties":{"acq_date":"2026-08-22","acq_time":956,"confidence":"n","satellite":"N","instrument":"VIIRS","version":"2.0NRT","bright_ti4":329.76,"frp":3.13,"daynight":"N"},"geometry":{"type":"Point","coordinates":[-116.83299,32.49405]}},{"type":"Feature","properties":{"acq_date":"2026-08-22","acq_time":956,"confidence":"n","satellite":"N","instrument":"VIIRS","version":"2.0NRT","bright_ti4":302.86,"frp":4.57,"daynight":"N"},"geometry":{"type":"Point","coordinates":[-116.83748,32.49485]}},{"type":"Feature","properties":{"acq_date":"2026-08-22","acq_time":956,"confidence":"n","satellite":"N","instrument":"VIIRS","version":"2.0NRT","bright_ti4":329.15,"frp":3.13,"daynight":"N"},"geometry":{"type":"Point","coordinates":[-116.83227,32.4975]}},{"type":"Feature","properties":{"acq_date":"2026-08-22","acq_time":956,"confidence":"n","satellite":"N","instrument":"VIIRS","version":"2.0NRT","bright_ti4":336.56,"frp":8.14,"daynight":"N"},"geometry":{"type":"Point","coordinates":[-114.93624,32.53598]}},{"type":"Feature","properties":{"acq_date":"2026-08-22","acq_time":956,"confidence":"n","satellite":"N","instrument":"VIIRS","version":"2.0NRT","bright_ti4":344.24,"frp":21.28,"daynight":"N"},"geometry":{"type":"Point","coordinates":[-114.93523,32.53967]}},{"type":"Feature","properties":{"acq_date":"2026-08-22","acq_time":956,"confidence":"n","satellite":"N","instrument":"VIIRS","version":"2.0NRT","bright_ti4":314.95,"frp":2.77,"daynight":"N"},"geometry":{"type":"Point","coordinates":[-115.09926,32.57935]}},{"type":"Feature","properties":{"acq_date":"2026-08-22","acq_time":956,"confidence":"n","satellite":"N","instrument":"VIIRS","version":"2.0NRT","bright_ti4":331.97,"frp":2.77,"daynight":"N"},"geometry":{"type":"Point","coordinates":[-115.09827,32.58301]}},{"type":"Feature","properties":{"acq_date":"2026-08-22","acq_time":956,"confidence":"n","satellite":"N","instrument":"VIIRS","version":"2.0NRT","bright_ti4":310.18,"frp":0.92,"daynight":"N"},"geometry":{"type":"Point","coordinates":[-117.14725,32.85639]}},{"type":"Feature","properties":{"acq_date":"2026-08-22","acq_time":956,"confidence":"n","satellite":"N","instrument":"VIIRS","version":"2.0NRT","bright_ti4":307.19,"frp":0.74,"daynight":"N"},"geometry":{"type":"Point","coordinates":[-117.0289,32.85674]}},{"type":"Feature","properties":{"acq_date":"2026-08-22","acq_time":956,"confidence":"n","satellite":"N","instrument":"VIIRS","version":"2.0NRT","bright_ti4":301.23,"frp":0.53,"daynight":"N"},"geometry":{"type":"Point","coordinates":[-117.61714,33.49009]}},{"type":"Feature","properties":{"acq_date":"2026-08-22","acq_time":956,"confidence":"n","satellite":"N","instrument":"VIIRS","version":"2.0NRT","bright_ti4":304.07,"frp":0.53,"daynight":"N"},"geometry":{"type":"Point","coordinates":[-117.61636,33.49343]}},{"type":"Feature","properties":{"acq_date":"2026-08-22","acq_time":956,"confidence":"n","satellite":"N","instrument":"VIIRS","version":"2.0NRT","bright_ti4":314.3,"frp":0.72,"daynight":"N"},"geometry":{"type":"Point","coordinates":[-117.82159,33.61327]}},{"type":"Feature","properties":{"acq_date":"2026-08-22","acq_time":956,"confidence":"n","satellite":"N","instrument":"VIIRS","version":"2.0NRT","bright_ti4":307.04,"frp":0.77,"daynight":"N"},"geometry":{"type":"Point","coordinates":[-117.71082,33.71708]}},{"type":"Feature","properties":{"acq_date":"2026-08-22","acq_time":956,"confidence":"n","satellite":"N","instrument":"VIIRS","version":"2.0NRT","bright_ti4":319.28,"frp":1.13,"daynight":"N"},"geometry":{"type":"Point","coordinates":[-117.47366,33.79279]}},{"type":"Feature","properties":{"acq_date":"2026-08-22","acq_time":956,"confidence":"n","satellite":"N","instrument":"VIIRS","version":"2.0NRT","bright_ti4":309.09,"frp":1.09,"daynight":"N"},"geometry":{"type":"Point","coordinates":[-118.24242,33.81985]}},{"type":"Feature","properties":{"acq_date":"2026-08-22","acq_time":956,"confidence":"n","satellite":"N","instrument":"VIIRS","version":"2.0NRT","bright_ti4":306.01,"frp":1.08,"daynight":"N"},"geometry":{"type":"Point","coordinates":[-118.33392,33.85204]}},{"type":"Feature","properties":{"acq_date":"2026-08-22","acq_time":956,"confidence":"n","satellite":"N","instrument":"VIIRS","version":"2.0NRT","bright_ti4":304.47,"frp":0.48,"daynight":"N"},"geometry":{"type":"Point","coordinates":[-116.99934,33.87611]}},{"type":"Feature","properties":{"acq_date":"2026-08-22","acq_time":956,"confidence":"n","satellite":"N","instrument":"VIIRS","version":"2.0NRT","bright_ti4":305.53,"frp":0.65,"daynight":"N"},"geometry":{"type":"Point","coordinates":[-118.10721,34.0358]}},{"type":"Feature","properties":{"acq_date":"2026-08-22","acq_time":956,"confidence":"n","satellite":"N","instrument":"VIIRS","version":"2.0NRT","bright_ti4":314.05,"frp":1.03,"daynight":"N"},"geometry":{"type":"Point","coordinates":[-117.89153,34.03679]}},{"type":"Feature","properties":{"acq_date":"2026-08-22","acq_time":956,"confidence":"n","satellite":"N","instrument":"VIIRS","version":"2.0NRT","bright_ti4":304.59,"frp":0.6,"daynight":"N"},"geometry":{"type":"Point","coordinates":[-117.9248,34.11464]}},{"type":"Feature","properties":{"acq_date":"2026-08-22","acq_time":956,"confidence":"n","satellite":"N","instrument":"VIIRS","version":"2.0NRT","bright_ti4":309.14,"frp":0.62,"daynight":"N"},"geometry":{"type":"Point","coordinates":[-117.42785,34.14304]}},{"type":"Feature","properties":{"acq_date":"2026-08-22","acq_time":956,"confidence":"n","satellite":"N","instrument":"VIIRS","version":"2.0NRT","bright_ti4":313.16,"frp":1.23,"daynight":"N"},"geometry":{"type":"Point","coordinates":[-118.19386,34.15232]}},{"type":"Feature","properties":{"acq_date":"2026-08-22","acq_time":956,"confidence":"n","satellite":"N","instrument":"VIIRS","version":"2.0NRT","bright_ti4":306.19,"frp":0.35,"daynight":"N"},"geometry":{"type":"Point","coordinates":[-118.38096,34.24366]}},{"type":"Feature","properties":{"acq_date":"2026-08-22","acq_time":956,"confidence":"n","satellite":"N","instrument":"VIIRS","version":"2.0NRT","bright_ti4":302.5,"frp":0.23,"daynight":"N"},"geometry":{"type":"Point","coordinates":[-118.8039,34.29143]}},{"type":"Feature","properties":{"acq_date":"2026-08-22","acq_time":956,"confidence":"n","satellite":"N","instrument":"VIIRS","version":"2.0NRT","bright_ti4":318.39,"frp":1.31,"daynight":"N"},"geometry":{"type":"Point","coordinates":[-118.5206,34.3344]}},{"type":"Feature","properties":{"acq_date":"2026-08-22","acq_time":956,"confidence":"n","satellite":"N","instrument":"VIIRS","version":"2.0NRT","bright_ti4":312.21,"frp":0.88,"daynight":"N"},"geometry":{"type":"Point","coordinates":[-116.85136,34.35355]}},{"type":"Feature","properties":{"acq_date":"2026-08-22","acq_time":956,"confidence":"n","satellite":"N","instrument":"VIIRS","version":"2.0NRT","bright_ti4":304.54,"frp":0.66,"daynight":"N"},"geometry":{"type":"Point","coordinates":[-118.64447,34.42941]}},{"type":"Feature","properties":{"acq_date":"2026-08-22","acq_time":956,"confidence":"n","satellite":"N","instrument":"VIIRS","version":"2.0NRT","bright_ti4":320.74,"frp":2.83,"daynight":"N"},"geometry":{"type":"Point","coordinates":[-114.31632,34.54527]}},{"type":"Feature","properties":{"acq_date":"2026-08-22","acq_time":956,"confidence":"n","satellite":"N","instrument":"VIIRS","version":"2.0NRT","bright_ti4":328.84,"frp":3.65,"daynight":"N"},"geometry":{"type":"Point","coordinates":[-114.31532,34.54894]}},{"type":"Feature","properties":{"acq_date":"2026-08-22","acq_time":956,"confidence":"n","satellite":"N","instrument":"VIIRS","version":"2.0NRT","bright_ti4":313.92,"frp":1.69,"daynight":"N"},"geometry":{"type":"Point","coordinates":[-117.33517,34.60677]}},{"type":"Feature","properties":{"acq_date":"2026-08-22","acq_time":956,"confidence":"n","satellite":"N","instrument":"VIIRS","version":"2.0NRT","bright_ti4":322.26,"frp":2.37,"daynight":"N"},"geometry":{"type":"Point","coordinates":[-117.09929,34.62182]}},{"type":"Feature","properties":{"acq_date":"2026-08-22","acq_time":956,"confidence":"n","satellite":"N","instrument":"VIIRS","version":"2.0NRT","bright_ti4":307.87,"frp":0.74,"daynight":"N"},"geometry":{"type":"Point","coordinates":[-118.74895,34.81962]}},{"type":"Feature","properties":{"acq_date":"2026-08-22","acq_time":956,"confidence":"n","satellite":"N","instrument":"VIIRS","version":"2.0NRT","bright_ti4":302.86,"frp":0.67,"daynight":"N"},"geometry":{"type":"Point","coordinates":[-118.3668,35.1221]}},{"type":"Feature","properties":{"acq_date":"2026-08-22","acq_time":956,"confidence":"n","satellite":"N","instrument":"VIIRS","version":"2.0NRT","bright_ti4":311.1,"frp":1.79,"daynight":"N"},"geometry":{"type":"Point","coordinates":[-113.31504,35.51847]}},{"type":"Feature","properties":{"acq_date":"2026-08-22","acq_time":956,"confidence":"n","satellite":"N","instrument":"VIIRS","version":"2.0NRT","bright_ti4":319.2,"frp":1.86,"daynight":"N"},"geometry":{"type":"Point","coordinates":[-121.67368,36.21636]}},{"type":"Feature","properties":{"acq_date":"2026-08-22","acq_time":956,"confidence":"n","satellite":"N","instrument":"VIIRS","version":"2.0NRT","bright_ti4":317.34,"frp":1.86,"daynight":"N"},"geometry":{"type":"Point","coordinates":[-121.67848,36.21698]}},{"type":"Feature","properties":{"acq_date":"2026-08-22","acq_time":956,"confidence":"n","satellite":"N","instrument":"VIIRS","version":"2.0NRT","bright_ti4":339.44,"frp":3.55,"daynight":"N"},"geometry":{"type":"Point","coordinates":[-121.66863,36.21932]}},{"type":"Feature","properties":{"acq_date":"2026-08-22","acq_time":956,"confidence":"n","satellite":"N","instrument":"VIIRS","version":"2.0NRT","bright_ti4":313.17,"frp":1.86,"daynight":"N"},"geometry":{"type":"Point","coordinates":[-121.67339,36.21993]}},{"type":"Feature","properties":{"acq_date":"2026-08-22","acq_time":956,"confidence":"n","satellite":"N","instrument":"VIIRS","version":"2.0NRT","bright_ti4":311.17,"frp":3.55,"daynight":"N"},"geometry":{"type":"Point","coordinates":[-121.66352,36.22227]}},{"type":"Feature","properties":{"acq_date":"2026-08-22","acq_time":956,"confidence":"n","satellite":"N","instrument":"VIIRS","version":"2.0NRT","bright_ti4":334.99,"frp":3.55,"daynight":"N"},"geometry":{"type":"Point","coordinates":[-121.66832,36.22289]}},{"type":"Feature","properties":{"acq_date":"2026-08-22","acq_time":956,"confidence":"n","satellite":"N","instrument":"VIIRS","version":"2.0NRT","bright_ti4":309.44,"frp":1.86,"daynight":"N"},"geometry":{"type":"Point","coordinates":[-121.67306,36.2235]}},{"type":"Feature","properties":{"acq_date":"2026-08-22","acq_time":956,"confidence":"n","satellite":"N","instrument":"VIIRS","version":"2.0NRT","bright_ti4":330.26,"frp":4.04,"daynight":"N"},"geometry":{"type":"Point","coordinates":[-121.66796,36.22646]}},{"type":"Feature","properties":{"acq_date":"2026-08-22","acq_time":956,"confidence":"n","satellite":"N","instrument":"VIIRS","version":"2.0NRT","bright_ti4":335.48,"frp":6.37,"daynight":"N"},"geometry":{"type":"Point","coordinates":[-121.67271,36.22706]}},{"type":"Feature","properties":{"acq_date":"2026-08-22","acq_time":956,"confidence":"n","satellite":"N","instrument":"VIIRS","version":"2.0NRT","bright_ti4":334.09,"frp":2.61,"daynight":"N"},"geometry":{"type":"Point","coordinates":[-121.68633,36.22883]}},{"type":"Feature","properties":{"acq_date":"2026-08-22","acq_time":956,"confidence":"n","satellite":"N","instrument":"VIIRS","version":"2.0NRT","bright_ti4":329.48,"frp":4.04,"daynight":"N"},"geometry":{"type":"Point","coordinates":[-121.66749,36.23]}},{"type":"Feature","properties":{"acq_date":"2026-08-22","acq_time":956,"confidence":"n","satellite":"N","instrument":"VIIRS","version":"2.0NRT","bright_ti4":348.32,"frp":6.37,"daynight":"N"},"geometry":{"type":"Point","coordinates":[-121.67229,36.23062]}},{"type":"Feature","properties":{"acq_date":"2026-08-22","acq_time":956,"confidence":"n","satellite":"N","instrument":"VIIRS","version":"2.0NRT","bright_ti4":332.03,"frp":6.37,"daynight":"N"},"geometry":{"type":"Point","coordinates":[-121.67691,36.23122]}},{"type":"Feature","properties":{"acq_date":"2026-08-22","acq_time":956,"confidence":"n","satellite":"N","instrument":"VIIRS","version":"2.0NRT","bright_ti4":306.33,"frp":2.61,"daynight":"N"},"geometry":{"type":"Point","coordinates":[-121.68143,36.23181]}},{"type":"Feature","properties":{"acq_date":"2026-08-22","acq_time":956,"confidence":"n","satellite":"N","instrument":"VIIRS","version":"2.0NRT","bright_ti4":335.69,"frp":5.69,"daynight":"N"},"geometry":{"type":"Point","coordinates":[-121.67176,36.23417]}},{"type":"Feature","properties":{"acq_date":"2026-08-22","acq_time":956,"confidence":"n","satellite":"N","instrument":"VIIRS","version":"2.0NRT","bright_ti4":304.61,"frp":1.04,"daynight":"N"},"geometry":{"type":"Point","coordinates":[-121.70479,36.24567]}},{"type":"Feature","properties":{"acq_date":"2026-08-22","acq_time":956,"confidence":"n","satellite":"N","instrument":"VIIRS","version":"2.0NRT","bright_ti4":309.19,"frp":0.73,"daynight":"N"},"geometry":{"type":"Point","coordinates":[-121.68446,36.24666]}},{"type":"Feature","properties":{"acq_date":"2026-08-22","acq_time":956,"confidence":"n","satellite":"N","instrument":"VIIRS","version":"2.0NRT","bright_ti4":305.82,"frp":1.5,"daynight":"N"},"geometry":{"type":"Point","coordinates":[-121.71494,36.24697]}},{"type":"Feature","properties":{"acq_date":"2026-08-22","acq_time":956,"confidence":"n","satellite":"N","instrument":"VIIRS","version":"2.0NRT","bright_ti4":325.81,"frp":2.68,"daynight":"N"},"geometry":{"type":"Point","coordinates":[-121.68927,36.24728]}},{"type":"Feature","properties":{"acq_date":"2026-08-22","acq_time":956,"confidence":"n","satellite":"N","instrument":"VIIRS","version":"2.0NRT","bright_ti4":316.76,"frp":2.68,"daynight":"N"},"geometry":{"type":"Point","coordinates":[-121.69415,36.24791]}},{"type":"Feature","properties":{"acq_date":"2026-08-22","acq_time":956,"confidence":"n","satellite":"N","instrument":"VIIRS","version":"2.0NRT","bright_ti4":306.45,"frp":1.04,"daynight":"N"},"geometry":{"type":"Point","coordinates":[-121.70427,36.24922]}},{"type":"Feature","properties":{"acq_date":"2026-08-22","acq_time":956,"confidence":"n","satellite":"N","instrument":"VIIRS","version":"2.0NRT","bright_ti4":345.01,"frp":3.13,"daynight":"N"},"geometry":{"type":"Point","coordinates":[-121.68868,36.25083]}},{"type":"Feature","properties":{"acq_date":"2026-08-22","acq_time":956,"confidence":"n","satellite":"N","instrument":"VIIRS","version":"2.0NRT","bright_ti4":328.46,"frp":3.13,"daynight":"N"},"geometry":{"type":"Point","coordinates":[-121.69376,36.25148]}},{"type":"Feature","properties":{"acq_date":"2026-08-22","acq_time":956,"confidence":"n","satellite":"N","instrument":"VIIRS","version":"2.0NRT","bright_ti4":306.97,"frp":2.65,"daynight":"N"},"geometry":{"type":"Point","coordinates":[-121.69882,36.25213]}},{"type":"Feature","properties":{"acq_date":"2026-08-22","acq_time":956,"confidence":"n","satellite":"N","instrument":"VIIRS","version":"2.0NRT","bright_ti4":302.46,"frp":2.43,"daynight":"N"},"geometry":{"type":"Point","coordinates":[-121.67773,36.25303]}},{"type":"Feature","properties":{"acq_date":"2026-08-22","acq_time":956,"confidence":"n","satellite":"N","instrument":"VIIRS","version":"2.0NRT","bright_ti4":330.93,"frp":2.43,"daynight":"N"},"geometry":{"type":"Point","coordinates":[-121.68273,36.25367]}},{"type":"Feature","properties":{"acq_date":"2026-08-22","acq_time":956,"confidence":"n","satellite":"N","instrument":"VIIRS","version":"2.0NRT","bright_ti4":305.28,"frp":3.13,"daynight":"N"},"geometry":{"type":"Point","coordinates":[-121.68795,36.25435]}},{"type":"Feature","properties":{"acq_date":"2026-08-22","acq_time":956,"confidence":"n","satellite":"N","instrument":"VIIRS","version":"2.0NRT","bright_ti4":311.25,"frp":2.65,"daynight":"N"},"geometry":{"type":"Point","coordinates":[-121.69818,36.25567]}},{"type":"Feature","properties":{"acq_date":"2026-08-22","acq_time":956,"confidence":"n","satellite":"N","instrument":"VIIRS","version":"2.0NRT","bright_ti4":333.08,"frp":2.65,"daynight":"N"},"geometry":{"type":"Point","coordinates":[-121.70299,36.25629]}},{"type":"Feature","properties":{"acq_date":"2026-08-22","acq_time":956,"confidence":"n","satellite":"N","instrument":"VIIRS","version":"2.0NRT","bright_ti4":310.03,"frp":1.59,"daynight":"N"},"geometry":{"type":"Point","coordinates":[-121.68177,36.25717]}},{"type":"Feature","properties":{"acq_date":"2026-08-22","acq_time":956,"confidence":"n","satellite":"N","instrument":"VIIRS","version":"2.0NRT","bright_ti4":332.15,"frp":4.72,"daynight":"N"},"geometry":{"type":"Point","coordinates":[-121.69728,36.25917]}},{"type":"Feature","properties":{"acq_date":"2026-08-22","acq_time":956,"confidence":"n","satellite":"N","instrument":"VIIRS","version":"2.0NRT","bright_ti4":351.47,"frp":4.72,"daynight":"N"},"geometry":{"type":"Point","coordinates":[-121.70197,36.25979]}},{"type":"Feature","properties":{"acq_date":"2026-08-22","acq_time":956,"confidence":"n","satellite":"N","instrument":"VIIRS","version":"2.0NRT","bright_ti4":315.16,"frp":1.59,"daynight":"N"},"geometry":{"type":"Point","coordinates":[-121.68079,36.26066]}},{"type":"Feature","properties":{"acq_date":"2026-08-22","acq_time":956,"confidence":"n","satellite":"N","instrument":"VIIRS","version":"2.0NRT","bright_ti4":309.93,"frp":2.26,"daynight":"N"},"geometry":{"type":"Point","coordinates":[-121.68605,36.26134]}},{"type":"Feature","properties":{"acq_date":"2026-08-22","acq_time":956,"confidence":"n","satellite":"N","instrument":"VIIRS","version":"2.0NRT","bright_ti4":316.21,"frp":2.26,"daynight":"N"},"geometry":{"type":"Point","coordinates":[-121.69129,36.26202]}},{"type":"Feature","properties":{"acq_date":"2026-08-22","acq_time":956,"confidence":"n","satellite":"N","instrument":"VIIRS","version":"2.0NRT","bright_ti4":339.94,"frp":4.72,"daynight":"N"},"geometry":{"type":"Point","coordinates":[-121.69639,36.26268]}},{"type":"Feature","properties":{"acq_date":"2026-08-22","acq_time":956,"confidence":"n","satellite":"N","instrument":"VIIRS","version":"2.0NRT","bright_ti4":329.48,"frp":4.72,"daynight":"N"},"geometry":{"type":"Point","coordinates":[-121.70103,36.26328]}},{"type":"Feature","properties":{"acq_date":"2026-08-22","acq_time":956,"confidence":"n","satellite":"N","instrument":"VIIRS","version":"2.0NRT","bright_ti4":324.53,"frp":2.68,"daynight":"N"},"geometry":{"type":"Point","coordinates":[-121.69025,36.2655]}},{"type":"Feature","properties":{"acq_date":"2026-08-22","acq_time":956,"confidence":"n","satellite":"N","instrument":"VIIRS","version":"2.0NRT","bright_ti4":301.91,"frp":0.6,"daynight":"N"},"geometry":{"type":"Point","coordinates":[-120.58467,36.65004]}},{"type":"Feature","properties":{"acq_date":"2026-08-22","acq_time":956,"confidence":"n","satellite":"N","instrument":"VIIRS","version":"2.0NRT","bright_ti4":304.12,"frp":0.46,"daynight":"N"},"geometry":{"type":"Point","coordinates":[-120.57987,36.69505]}},{"type":"Feature","properties":{"acq_date":"2026-08-22","acq_time":956,"confidence":"n","satellite":"N","instrument":"VIIRS","version":"2.0NRT","bright_ti4":321.04,"frp":1.74,"daynight":"N"},"geometry":{"type":"Point","coordinates":[-120.27526,36.98346]}},{"type":"Feature","properties":{"acq_date":"2026-08-22","acq_time":956,"confidence":"n","satellite":"N","instrument":"VIIRS","version":"2.0NRT","bright_ti4":314.54,"frp":1.77,"daynight":"N"},"geometry":{"type":"Point","coordinates":[-120.27769,36.98374]}},{"type":"Feature","properties":{"acq_date":"2026-08-22","acq_time":956,"confidence":"n","satellite":"N","instrument":"VIIRS","version":"2.0NRT","bright_ti4":308.87,"frp":0.96,"daynight":"N"},"geometry":{"type":"Point","coordinates":[-121.93169,37.45468]}},{"type":"Feature","properties":{"acq_date":"2026-08-22","acq_time":956,"confidence":"n","satellite":"N","instrument":"VIIRS","version":"2.0NRT","bright_ti4":298.39,"frp":0.23,"daynight":"N"},"geometry":{"type":"Point","coordinates":[-121.65891,37.75442]}},{"type":"Feature","properties":{"acq_date":"2026-08-22","acq_time":956,"confidence":"n","satellite":"N","instrument":"VIIRS","version":"2.0NRT","bright_ti4":301.17,"frp":0.57,"daynight":"N"},"geometry":{"type":"Point","coordinates":[-121.18776,37.88466]}},{"type":"Feature","properties":{"acq_date":"2026-08-22","acq_time":956,"confidence":"n","satellite":"N","instrument":"VIIRS","version":"2.0NRT","bright_ti4":301.92,"frp":0.52,"daynight":"N"},"geometry":{"type":"Point","coordinates":[-121.93493,38.00364]}}]}