{"type":"FeatureCollection","name":"FIRMS VIIRS CA (last 1 day)","crs":{"type":"name","properties":{"name":"EPSG:4326"}},"fetched_at_utc":"2026-09-25T18:23:12.109Z","source":{"url":"https://firms.modaps.eosdis.nasa.gov/api/area/csv/8c4af552cf654445dd280dfb3ad9337c/VIIRS_SNPP_NRT/-125,32,-113,43.5/1","dataset":"VIIRS_SNPP_NRT","bbox":"-125,32,-113,43.5","day_range":"1"},"features":[{"type":"Feature","properties":{"acq_date":"2026-09-25","acq_time":915,"confidence":"n","satellite":"N","instrument":"VIIRS","version":"2.0NRT","bright_ti4":311.88,"frp":1.52,"daynight":"N"},"geometry":{"type":"Point","coordinates":[-114.25541,40.82128]}},{"type":"Feature","properties":{"acq_date":"2026-09-25","acq_time":915,"confidence":"n","satellite":"N","instrument":"VIIRS","version":"2.0NRT","bright_ti4":305.36,"frp":1.96,"daynight":"N"},"geometry":{"type":"Point","coordinates":[-114.25419,40.82234]}},{"type":"Feature","properties":{"acq_date":"2026-09-25","acq_time":915,"confidence":"n","satellite":"N","instrument":"VIIRS","version":"2.0NRT","bright_ti4":295.32,"frp":0.25,"daynight":"N"},"geometry":{"type":"Point","coordinates":[-118.17097,41.31877]}},{"type":"Feature","properties":{"acq_date":"2026-09-25","acq_time":915,"confidence":"n","satellite":"N","instrument":"VIIRS","version":"2.0NRT","bright_ti4":303.07,"frp":0.44,"daynight":"N"},"geometry":{"type":"Point","coordinates":[-115.73186,43.18092]}},{"type":"Feature","properties":{"acq_date":"2026-09-25","acq_time":917,"confidence":"n","satellite":"N","instrument":"VIIRS","version":"2.0NRT","bright_ti4":315.47,"frp":2.12,"daynight":"N"},"geometry":{"type":"Point","coordinates":[-117.33627,34.60827]}},{"type":"Feature","properties":{"acq_date":"2026-09-25","acq_time":917,"confidence":"n","satellite":"N","instrument":"VIIRS","version":"2.0NRT","bright_ti4":316.27,"frp":1.73,"daynight":"N"},"geometry":{"type":"Point","coordinates":[-113.31639,35.51648]}},{"type":"Feature","properties":{"acq_date":"2026-09-25","acq_time":917,"confidence":"n","satellite":"N","instrument":"VIIRS","version":"2.0NRT","bright_ti4":313.76,"frp":1.41,"daynight":"N"},"geometry":{"type":"Point","coordinates":[-114.91177,36.35776]}},{"type":"Feature","properties":{"acq_date":"2026-09-25","acq_time":917,"confidence":"n","satellite":"N","instrument":"VIIRS","version":"2.0NRT","bright_ti4":306.39,"frp":0.74,"daynight":"N"},"geometry":{"type":"Point","coordinates":[-114.87621,36.38289]}},{"type":"Feature","properties":{"acq_date":"2026-09-25","acq_time":917,"confidence":"n","satellite":"N","instrument":"VIIRS","version":"2.0NRT","bright_ti4":297.45,"frp":0.65,"daynight":"N"},"geometry":{"type":"Point","coordinates":[-121.93365,37.4538]}},{"type":"Feature","properties":{"acq_date":"2026-09-25","acq_time":917,"confidence":"n","satellite":"N","instrument":"VIIRS","version":"2.0NRT","bright_ti4":298.18,"frp":1.41,"daynight":"N"},"geometry":{"type":"Point","coordinates":[-119.59015,37.59232]}},{"type":"Feature","properties":{"acq_date":"2026-09-25","acq_time":917,"confidence":"n","satellite":"N","instrument":"VIIRS","version":"2.0NRT","bright_ti4":304.67,"frp":1.56,"daynight":"N"},"geometry":{"type":"Point","coordinates":[-119.58844,37.59761]}},{"type":"Feature","properties":{"acq_date":"2026-09-25","acq_time":917,"confidence":"n","satellite":"N","instrument":"VIIRS","version":"2.0NRT","bright_ti4":303.87,"frp":2.35,"daynight":"N"},"geometry":{"type":"Point","coordinates":[-119.5932,37.5979]}},{"type":"Feature","properties":{"acq_date":"2026-09-25","acq_time":917,"confidence":"n","satellite":"N","instrument":"VIIRS","version":"2.0NRT","bright_ti4":332.66,"frp":2.35,"daynight":"N"},"geometry":{"type":"Point","coordinates":[-119.59766,37.59817]}},{"type":"Feature","properties":{"acq_date":"2026-09-25","acq_time":917,"confidence":"n","satellite":"N","instrument":"VIIRS","version":"2.0NRT","bright_ti4":309.38,"frp":1.82,"daynight":"N"},"geometry":{"type":"Point","coordinates":[-119.60175,37.59842]}},{"type":"Feature","properties":{"acq_date":"2026-09-25","acq_time":917,"confidence":"n","satellite":"N","instrument":"VIIRS","version":"2.0NRT","bright_ti4":310.88,"frp":1.56,"daynight":"N"},"geometry":{"type":"Point","coordinates":[-119.58697,37.60291]}},{"type":"Feature","properties":{"acq_date":"2026-09-25","acq_time":917,"confidence":"n","satellite":"N","instrument":"VIIRS","version":"2.0NRT","bright_ti4":313.57,"frp":2.35,"daynight":"N"},"geometry":{"type":"Point","coordinates":[-119.59142,37.60319]}},{"type":"Feature","properties":{"acq_date":"2026-09-25","acq_time":917,"confidence":"n","satellite":"N","instrument":"VIIRS","version":"2.0NRT","bright_ti4":297.12,"frp":1.82,"daynight":"N"},"geometry":{"type":"Point","coordinates":[-119.60094,37.60377]}},{"type":"Feature","properties":{"acq_date":"2026-09-25","acq_time":917,"confidence":"n","satellite":"N","instrument":"VIIRS","version":"2.0NRT","bright_ti4":295.09,"frp":1.6,"daynight":"N"},"geometry":{"type":"Point","coordinates":[-119.58649,37.60827]}},{"type":"Feature","properties":{"acq_date":"2026-09-25","acq_time":917,"confidence":"n","satellite":"N","instrument":"VIIRS","version":"2.0NRT","bright_ti4":338.45,"frp":5.32,"daynight":"N"},"geometry":{"type":"Point","coordinates":[-119.59093,37.60854]}},{"type":"Feature","properties":{"acq_date":"2026-09-25","acq_time":917,"confidence":"h","satellite":"N","instrument":"VIIRS","version":"2.0NRT","bright_ti4":367,"frp":5.32,"daynight":"N"},"geometry":{"type":"Point","coordinates":[-119.59537,37.60882]}},{"type":"Feature","properties":{"acq_date":"2026-09-25","acq_time":917,"confidence":"n","satellite":"N","instrument":"VIIRS","version":"2.0NRT","bright_ti4":312.19,"frp":3.89,"daynight":"N"},"geometry":{"type":"Point","coordinates":[-119.60007,37.60911]}},{"type":"Feature","properties":{"acq_date":"2026-09-25","acq_time":917,"confidence":"n","satellite":"N","instrument":"VIIRS","version":"2.0NRT","bright_ti4":297.86,"frp":0.94,"daynight":"N"},"geometry":{"type":"Point","coordinates":[-119.61009,37.60973]}},{"type":"Feature","properties":{"acq_date":"2026-09-25","acq_time":917,"confidence":"n","satellite":"N","instrument":"VIIRS","version":"2.0NRT","bright_ti4":306.08,"frp":5.32,"daynight":"N"},"geometry":{"type":"Point","coordinates":[-119.59525,37.6142]}},{"type":"Feature","properties":{"acq_date":"2026-09-25","acq_time":917,"confidence":"n","satellite":"N","instrument":"VIIRS","version":"2.0NRT","bright_ti4":340.82,"frp":3.89,"daynight":"N"},"geometry":{"type":"Point","coordinates":[-119.59989,37.61449]}},{"type":"Feature","properties":{"acq_date":"2026-09-25","acq_time":917,"confidence":"n","satellite":"N","instrument":"VIIRS","version":"2.0NRT","bright_ti4":298.38,"frp":3.89,"daynight":"N"},"geometry":{"type":"Point","coordinates":[-119.60468,37.61479]}},{"type":"Feature","properties":{"acq_date":"2026-09-25","acq_time":917,"confidence":"n","satellite":"N","instrument":"VIIRS","version":"2.0NRT","bright_ti4":299.21,"frp":1.67,"daynight":"N"},"geometry":{"type":"Point","coordinates":[-119.6006,37.61993]}},{"type":"Feature","properties":{"acq_date":"2026-09-25","acq_time":917,"confidence":"n","satellite":"N","instrument":"VIIRS","version":"2.0NRT","bright_ti4":302.22,"frp":26.6,"daynight":"N"},"geometry":{"type":"Point","coordinates":[-119.61974,37.62112]}},{"type":"Feature","properties":{"acq_date":"2026-09-25","acq_time":917,"confidence":"n","satellite":"N","instrument":"VIIRS","version":"2.0NRT","bright_ti4":316.03,"frp":26.6,"daynight":"N"},"geometry":{"type":"Point","coordinates":[-119.62471,37.62143]}},{"type":"Feature","properties":{"acq_date":"2026-09-25","acq_time":917,"confidence":"n","satellite":"N","instrument":"VIIRS","version":"2.0NRT","bright_ti4":299.83,"frp":1.4,"daynight":"N"},"geometry":{"type":"Point","coordinates":[-119.59619,37.62505]}},{"type":"Feature","properties":{"acq_date":"2026-09-25","acq_time":917,"confidence":"n","satellite":"N","instrument":"VIIRS","version":"2.0NRT","bright_ti4":319.07,"frp":1.67,"daynight":"N"},"geometry":{"type":"Point","coordinates":[-119.60089,37.62535]}},{"type":"Feature","properties":{"acq_date":"2026-09-25","acq_time":917,"confidence":"n","satellite":"N","instrument":"VIIRS","version":"2.0NRT","bright_ti4":317.65,"frp":9.52,"daynight":"N"},"geometry":{"type":"Point","coordinates":[-119.61369,37.62615]}},{"type":"Feature","properties":{"acq_date":"2026-09-25","acq_time":917,"confidence":"n","satellite":"N","instrument":"VIIRS","version":"2.0NRT","bright_ti4":322.99,"frp":26.6,"daynight":"N"},"geometry":{"type":"Point","coordinates":[-119.61798,37.62642]}},{"type":"Feature","properties":{"acq_date":"2026-09-25","acq_time":917,"confidence":"h","satellite":"N","instrument":"VIIRS","version":"2.0NRT","bright_ti4":367,"frp":26.6,"daynight":"N"},"geometry":{"type":"Point","coordinates":[-119.62262,37.62671]}},{"type":"Feature","properties":{"acq_date":"2026-09-25","acq_time":917,"confidence":"n","satellite":"N","instrument":"VIIRS","version":"2.0NRT","bright_ti4":341.49,"frp":27.68,"daynight":"N"},"geometry":{"type":"Point","coordinates":[-119.62778,37.62703]}},{"type":"Feature","properties":{"acq_date":"2026-09-25","acq_time":917,"confidence":"n","satellite":"N","instrument":"VIIRS","version":"2.0NRT","bright_ti4":314.51,"frp":1.27,"daynight":"N"},"geometry":{"type":"Point","coordinates":[-119.59644,37.63046]}},{"type":"Feature","properties":{"acq_date":"2026-09-25","acq_time":917,"confidence":"n","satellite":"N","instrument":"VIIRS","version":"2.0NRT","bright_ti4":302.6,"frp":3.17,"daynight":"N"},"geometry":{"type":"Point","coordinates":[-119.60093,37.63074]}},{"type":"Feature","properties":{"acq_date":"2026-09-25","acq_time":917,"confidence":"n","satellite":"N","instrument":"VIIRS","version":"2.0NRT","bright_ti4":327.49,"frp":3.39,"daynight":"N"},"geometry":{"type":"Point","coordinates":[-119.61303,37.6315]}},{"type":"Feature","properties":{"acq_date":"2026-09-25","acq_time":917,"confidence":"n","satellite":"N","instrument":"VIIRS","version":"2.0NRT","bright_ti4":352.08,"frp":5.71,"daynight":"N"},"geometry":{"type":"Point","coordinates":[-119.61698,37.63175]}},{"type":"Feature","properties":{"acq_date":"2026-09-25","acq_time":917,"confidence":"n","satellite":"N","instrument":"VIIRS","version":"2.0NRT","bright_ti4":322.11,"frp":5.71,"daynight":"N"},"geometry":{"type":"Point","coordinates":[-119.62117,37.63202]}},{"type":"Feature","properties":{"acq_date":"2026-09-25","acq_time":917,"confidence":"n","satellite":"N","instrument":"VIIRS","version":"2.0NRT","bright_ti4":336.86,"frp":3.39,"daynight":"N"},"geometry":{"type":"Point","coordinates":[-119.60851,37.63662]}},{"type":"Feature","properties":{"acq_date":"2026-09-25","acq_time":917,"confidence":"n","satellite":"N","instrument":"VIIRS","version":"2.0NRT","bright_ti4":299.35,"frp":3.39,"daynight":"N"},"geometry":{"type":"Point","coordinates":[-119.6123,37.63686]}},{"type":"Feature","properties":{"acq_date":"2026-09-25","acq_time":917,"confidence":"n","satellite":"N","instrument":"VIIRS","version":"2.0NRT","bright_ti4":311.65,"frp":1.57,"daynight":"N"},"geometry":{"type":"Point","coordinates":[-119.60725,37.63864]}},{"type":"Feature","properties":{"acq_date":"2026-09-25","acq_time":917,"confidence":"n","satellite":"N","instrument":"VIIRS","version":"2.0NRT","bright_ti4":304.84,"frp":2.2,"daynight":"N"},"geometry":{"type":"Point","coordinates":[-119.61105,37.63886]}},{"type":"Feature","properties":{"acq_date":"2026-09-25","acq_time":917,"confidence":"n","satellite":"N","instrument":"VIIRS","version":"2.0NRT","bright_ti4":297.07,"frp":0.31,"daynight":"N"},"geometry":{"type":"Point","coordinates":[-121.1872,37.88127]}},{"type":"Feature","properties":{"acq_date":"2026-09-25","acq_time":917,"confidence":"n","satellite":"N","instrument":"VIIRS","version":"2.0NRT","bright_ti4":312.18,"frp":1.47,"daynight":"N"},"geometry":{"type":"Point","coordinates":[-122.15832,39.07104]}},{"type":"Feature","properties":{"acq_date":"2026-09-25","acq_time":920,"confidence":"n","satellite":"N","instrument":"VIIRS","version":"2.0NRT","bright_ti4":304.8,"frp":0.51,"daynight":"N"},"geometry":{"type":"Point","coordinates":[-116.96491,32.44502]}},{"type":"Feature","properties":{"acq_date":"2026-09-25","acq_time":920,"confidence":"n","satellite":"N","instrument":"VIIRS","version":"2.0NRT","bright_ti4":304.96,"frp":0.55,"daynight":"N"},"geometry":{"type":"Point","coordinates":[-116.83653,32.49465]}},{"type":"Feature","properties":{"acq_date":"2026-09-25","acq_time":920,"confidence":"n","satellite":"N","instrument":"VIIRS","version":"2.0NRT","bright_ti4":302.28,"frp":0.97,"daynight":"N"},"geometry":{"type":"Point","coordinates":[-116.7925,32.49895]}},{"type":"Feature","properties":{"acq_date":"2026-09-25","acq_time":920,"confidence":"n","satellite":"N","instrument":"VIIRS","version":"2.0NRT","bright_ti4":304.02,"frp":0.42,"daynight":"N"},"geometry":{"type":"Point","coordinates":[-117.14912,32.85814]}},{"type":"Feature","properties":{"acq_date":"2026-09-25","acq_time":920,"confidence":"n","satellite":"N","instrument":"VIIRS","version":"2.0NRT","bright_ti4":300.56,"frp":0.54,"daynight":"N"},"geometry":{"type":"Point","coordinates":[-117.82378,33.61365]}},{"type":"Feature","properties":{"acq_date":"2026-09-25","acq_time":920,"confidence":"n","satellite":"N","instrument":"VIIRS","version":"2.0NRT","bright_ti4":299.2,"frp":0.32,"daynight":"N"},"geometry":{"type":"Point","coordinates":[-117.82451,33.6155]}},{"type":"Feature","properties":{"acq_date":"2026-09-25","acq_time":920,"confidence":"n","satellite":"N","instrument":"VIIRS","version":"2.0NRT","bright_ti4":303.72,"frp":1.1,"daynight":"N"},"geometry":{"type":"Point","coordinates":[-117.71162,33.71431]}},{"type":"Feature","properties":{"acq_date":"2026-09-25","acq_time":920,"confidence":"n","satellite":"N","instrument":"VIIRS","version":"2.0NRT","bright_ti4":304.65,"frp":0.89,"daynight":"N"},"geometry":{"type":"Point","coordinates":[-117.7116,33.71598]}},{"type":"Feature","properties":{"acq_date":"2026-09-25","acq_time":920,"confidence":"n","satellite":"N","instrument":"VIIRS","version":"2.0NRT","bright_ti4":304.72,"frp":1.18,"daynight":"N"},"geometry":{"type":"Point","coordinates":[-117.477,33.79523]}},{"type":"Feature","properties":{"acq_date":"2026-09-25","acq_time":920,"confidence":"n","satellite":"N","instrument":"VIIRS","version":"2.0NRT","bright_ti4":305.14,"frp":1.9,"daynight":"N"},"geometry":{"type":"Point","coordinates":[-118.33148,33.85353]}},{"type":"Feature","properties":{"acq_date":"2026-09-25","acq_time":920,"confidence":"n","satellite":"N","instrument":"VIIRS","version":"2.0NRT","bright_ti4":302.82,"frp":0.98,"daynight":"N"},"geometry":{"type":"Point","coordinates":[-118.33172,33.85424]}},{"type":"Feature","properties":{"acq_date":"2026-09-25","acq_time":920,"confidence":"n","satellite":"N","instrument":"VIIRS","version":"2.0NRT","bright_ti4":302.58,"frp":0.99,"daynight":"N"},"geometry":{"type":"Point","coordinates":[-118.19306,34.15511]}},{"type":"Feature","properties":{"acq_date":"2026-09-25","acq_time":920,"confidence":"n","satellite":"N","instrument":"VIIRS","version":"2.0NRT","bright_ti4":310.03,"frp":1.7,"daynight":"N"},"geometry":{"type":"Point","coordinates":[-118.51911,34.33553]}},{"type":"Feature","properties":{"acq_date":"2026-09-25","acq_time":920,"confidence":"n","satellite":"N","instrument":"VIIRS","version":"2.0NRT","bright_ti4":299.28,"frp":0.58,"daynight":"N"},"geometry":{"type":"Point","coordinates":[-118.64301,34.43105]}}]}