{"type":"FeatureCollection","name":"FIRMS VIIRS CA (last 1 day)","crs":{"type":"name","properties":{"name":"EPSG:4326"}},"fetched_at_utc":"2026-09-29T19:12:34.071Z","source":{"url":"https://firms.modaps.eosdis.nasa.gov/api/area/csv/8c4af552cf654445dd280dfb3ad9337c/VIIRS_SNPP_NRT/-125,32,-113,43.5/1","dataset":"VIIRS_SNPP_NRT","bbox":"-125,32,-113,43.5","day_range":"1"},"features":[{"type":"Feature","properties":{"acq_date":"2026-09-29","acq_time":941,"confidence":"n","satellite":"N","instrument":"VIIRS","version":"2.0NRT","bright_ti4":298.62,"frp":1.32,"daynight":"N"},"geometry":{"type":"Point","coordinates":[-119.2643,39.61816]}},{"type":"Feature","properties":{"acq_date":"2026-09-29","acq_time":941,"confidence":"n","satellite":"N","instrument":"VIIRS","version":"2.0NRT","bright_ti4":297.2,"frp":1.87,"daynight":"N"},"geometry":{"type":"Point","coordinates":[-121.72953,42.62102]}},{"type":"Feature","properties":{"acq_date":"2026-09-29","acq_time":943,"confidence":"n","satellite":"N","instrument":"VIIRS","version":"2.0NRT","bright_ti4":301.78,"frp":0.46,"daynight":"N"},"geometry":{"type":"Point","coordinates":[-116.77808,32.52607]}},{"type":"Feature","properties":{"acq_date":"2026-09-29","acq_time":943,"confidence":"n","satellite":"N","instrument":"VIIRS","version":"2.0NRT","bright_ti4":305.28,"frp":0.52,"daynight":"N"},"geometry":{"type":"Point","coordinates":[-117.01033,32.59812]}},{"type":"Feature","properties":{"acq_date":"2026-09-29","acq_time":943,"confidence":"n","satellite":"N","instrument":"VIIRS","version":"2.0NRT","bright_ti4":302.69,"frp":0.36,"daynight":"N"},"geometry":{"type":"Point","coordinates":[-117.14672,32.8557]}},{"type":"Feature","properties":{"acq_date":"2026-09-29","acq_time":943,"confidence":"n","satellite":"N","instrument":"VIIRS","version":"2.0NRT","bright_ti4":305.22,"frp":0.95,"daynight":"N"},"geometry":{"type":"Point","coordinates":[-117.61575,33.49295]}},{"type":"Feature","properties":{"acq_date":"2026-09-29","acq_time":943,"confidence":"n","satellite":"N","instrument":"VIIRS","version":"2.0NRT","bright_ti4":307.97,"frp":1.06,"daynight":"N"},"geometry":{"type":"Point","coordinates":[-117.82076,33.61314]}},{"type":"Feature","properties":{"acq_date":"2026-09-29","acq_time":943,"confidence":"n","satellite":"N","instrument":"VIIRS","version":"2.0NRT","bright_ti4":320.54,"frp":1.18,"daynight":"N"},"geometry":{"type":"Point","coordinates":[-117.7121,33.71607]}},{"type":"Feature","properties":{"acq_date":"2026-09-29","acq_time":943,"confidence":"n","satellite":"N","instrument":"VIIRS","version":"2.0NRT","bright_ti4":321.03,"frp":1.54,"daynight":"N"},"geometry":{"type":"Point","coordinates":[-117.4748,33.79381]}},{"type":"Feature","properties":{"acq_date":"2026-09-29","acq_time":943,"confidence":"n","satellite":"N","instrument":"VIIRS","version":"2.0NRT","bright_ti4":305.8,"frp":1.78,"daynight":"N"},"geometry":{"type":"Point","coordinates":[-118.24307,33.81893]}},{"type":"Feature","properties":{"acq_date":"2026-09-29","acq_time":943,"confidence":"n","satellite":"N","instrument":"VIIRS","version":"2.0NRT","bright_ti4":302.16,"frp":0.79,"daynight":"N"},"geometry":{"type":"Point","coordinates":[-118.33208,33.85065]}},{"type":"Feature","properties":{"acq_date":"2026-09-29","acq_time":943,"confidence":"n","satellite":"N","instrument":"VIIRS","version":"2.0NRT","bright_ti4":304.46,"frp":0.79,"daynight":"N"},"geometry":{"type":"Point","coordinates":[-118.33141,33.85411]}},{"type":"Feature","properties":{"acq_date":"2026-09-29","acq_time":943,"confidence":"n","satellite":"N","instrument":"VIIRS","version":"2.0NRT","bright_ti4":296.43,"frp":0.34,"daynight":"N"},"geometry":{"type":"Point","coordinates":[-116.9986,33.87516]}},{"type":"Feature","properties":{"acq_date":"2026-09-29","acq_time":943,"confidence":"n","satellite":"N","instrument":"VIIRS","version":"2.0NRT","bright_ti4":299.91,"frp":0.55,"daynight":"N"},"geometry":{"type":"Point","coordinates":[-117.12153,33.95522]}},{"type":"Feature","properties":{"acq_date":"2026-09-29","acq_time":943,"confidence":"n","satellite":"N","instrument":"VIIRS","version":"2.0NRT","bright_ti4":305.74,"frp":0.46,"daynight":"N"},"geometry":{"type":"Point","coordinates":[-118.10417,34.03537]}},{"type":"Feature","properties":{"acq_date":"2026-09-29","acq_time":943,"confidence":"n","satellite":"N","instrument":"VIIRS","version":"2.0NRT","bright_ti4":297.45,"frp":0.11,"daynight":"N"},"geometry":{"type":"Point","coordinates":[-117.55776,34.03588]}},{"type":"Feature","properties":{"acq_date":"2026-09-29","acq_time":943,"confidence":"n","satellite":"N","instrument":"VIIRS","version":"2.0NRT","bright_ti4":297.89,"frp":0.51,"daynight":"N"},"geometry":{"type":"Point","coordinates":[-117.82288,34.04209]}},{"type":"Feature","properties":{"acq_date":"2026-09-29","acq_time":943,"confidence":"n","satellite":"N","instrument":"VIIRS","version":"2.0NRT","bright_ti4":304.23,"frp":0.51,"daynight":"N"},"geometry":{"type":"Point","coordinates":[-117.92483,34.115]}},{"type":"Feature","properties":{"acq_date":"2026-09-29","acq_time":943,"confidence":"n","satellite":"N","instrument":"VIIRS","version":"2.0NRT","bright_ti4":307.25,"frp":0.59,"daynight":"N"},"geometry":{"type":"Point","coordinates":[-117.42551,34.1422]}},{"type":"Feature","properties":{"acq_date":"2026-09-29","acq_time":943,"confidence":"n","satellite":"N","instrument":"VIIRS","version":"2.0NRT","bright_ti4":310.22,"frp":1.28,"daynight":"N"},"geometry":{"type":"Point","coordinates":[-118.19415,34.15183]}},{"type":"Feature","properties":{"acq_date":"2026-09-29","acq_time":943,"confidence":"n","satellite":"N","instrument":"VIIRS","version":"2.0NRT","bright_ti4":297.55,"frp":0.21,"daynight":"N"},"geometry":{"type":"Point","coordinates":[-119.21371,34.23268]}},{"type":"Feature","properties":{"acq_date":"2026-09-29","acq_time":943,"confidence":"n","satellite":"N","instrument":"VIIRS","version":"2.0NRT","bright_ti4":296.37,"frp":0.48,"daynight":"N"},"geometry":{"type":"Point","coordinates":[-116.85374,34.35223]}},{"type":"Feature","properties":{"acq_date":"2026-09-29","acq_time":943,"confidence":"n","satellite":"N","instrument":"VIIRS","version":"2.0NRT","bright_ti4":297.89,"frp":0.48,"daynight":"N"},"geometry":{"type":"Point","coordinates":[-116.85312,34.35558]}},{"type":"Feature","properties":{"acq_date":"2026-09-29","acq_time":943,"confidence":"n","satellite":"N","instrument":"VIIRS","version":"2.0NRT","bright_ti4":300,"frp":0.61,"daynight":"N"},"geometry":{"type":"Point","coordinates":[-118.64664,34.42808]}},{"type":"Feature","properties":{"acq_date":"2026-09-29","acq_time":943,"confidence":"n","satellite":"N","instrument":"VIIRS","version":"2.0NRT","bright_ti4":305.23,"frp":0.99,"daynight":"N"},"geometry":{"type":"Point","coordinates":[-118.64333,34.43072]}},{"type":"Feature","properties":{"acq_date":"2026-09-29","acq_time":943,"confidence":"n","satellite":"N","instrument":"VIIRS","version":"2.0NRT","bright_ti4":295.37,"frp":0.37,"daynight":"N"},"geometry":{"type":"Point","coordinates":[-118.15371,34.56587]}},{"type":"Feature","properties":{"acq_date":"2026-09-29","acq_time":943,"confidence":"n","satellite":"N","instrument":"VIIRS","version":"2.0NRT","bright_ti4":313.58,"frp":1.92,"daynight":"N"},"geometry":{"type":"Point","coordinates":[-117.33687,34.60773]}},{"type":"Feature","properties":{"acq_date":"2026-09-29","acq_time":943,"confidence":"n","satellite":"N","instrument":"VIIRS","version":"2.0NRT","bright_ti4":318.61,"frp":2.14,"daynight":"N"},"geometry":{"type":"Point","coordinates":[-117.10051,34.62216]}},{"type":"Feature","properties":{"acq_date":"2026-09-29","acq_time":943,"confidence":"n","satellite":"N","instrument":"VIIRS","version":"2.0NRT","bright_ti4":299.13,"frp":0.61,"daynight":"N"},"geometry":{"type":"Point","coordinates":[-118.75053,34.81858]}},{"type":"Feature","properties":{"acq_date":"2026-09-29","acq_time":943,"confidence":"n","satellite":"N","instrument":"VIIRS","version":"2.0NRT","bright_ti4":320.15,"frp":2.37,"daynight":"N"},"geometry":{"type":"Point","coordinates":[-119.57504,36.57162]}},{"type":"Feature","properties":{"acq_date":"2026-09-29","acq_time":943,"confidence":"n","satellite":"N","instrument":"VIIRS","version":"2.0NRT","bright_ti4":303.04,"frp":1.92,"daynight":"N"},"geometry":{"type":"Point","coordinates":[-119.58059,36.5723]}},{"type":"Feature","properties":{"acq_date":"2026-09-29","acq_time":943,"confidence":"n","satellite":"N","instrument":"VIIRS","version":"2.0NRT","bright_ti4":312.12,"frp":2.37,"daynight":"N"},"geometry":{"type":"Point","coordinates":[-119.57436,36.57537]}},{"type":"Feature","properties":{"acq_date":"2026-09-29","acq_time":943,"confidence":"n","satellite":"N","instrument":"VIIRS","version":"2.0NRT","bright_ti4":303.19,"frp":1.92,"daynight":"N"},"geometry":{"type":"Point","coordinates":[-119.5799,36.57604]}},{"type":"Feature","properties":{"acq_date":"2026-09-29","acq_time":943,"confidence":"n","satellite":"N","instrument":"VIIRS","version":"2.0NRT","bright_ti4":298.16,"frp":0.75,"daynight":"N"},"geometry":{"type":"Point","coordinates":[-120.19335,37.02543]}},{"type":"Feature","properties":{"acq_date":"2026-09-29","acq_time":943,"confidence":"n","satellite":"N","instrument":"VIIRS","version":"2.0NRT","bright_ti4":301.53,"frp":0.57,"daynight":"N"},"geometry":{"type":"Point","coordinates":[-121.93247,37.45293]}},{"type":"Feature","properties":{"acq_date":"2026-09-29","acq_time":943,"confidence":"n","satellite":"N","instrument":"VIIRS","version":"2.0NRT","bright_ti4":318.05,"frp":2.59,"daynight":"N"},"geometry":{"type":"Point","coordinates":[-119.5869,37.59537]}},{"type":"Feature","properties":{"acq_date":"2026-09-29","acq_time":943,"confidence":"n","satellite":"N","instrument":"VIIRS","version":"2.0NRT","bright_ti4":299.25,"frp":2.63,"daynight":"N"},"geometry":{"type":"Point","coordinates":[-119.58495,37.60287]}},{"type":"Feature","properties":{"acq_date":"2026-09-29","acq_time":943,"confidence":"n","satellite":"N","instrument":"VIIRS","version":"2.0NRT","bright_ti4":296.72,"frp":3.03,"daynight":"N"},"geometry":{"type":"Point","coordinates":[-119.59016,37.60733]}},{"type":"Feature","properties":{"acq_date":"2026-09-29","acq_time":943,"confidence":"n","satellite":"N","instrument":"VIIRS","version":"2.0NRT","bright_ti4":337.2,"frp":3.03,"daynight":"N"},"geometry":{"type":"Point","coordinates":[-119.58958,37.61112]}},{"type":"Feature","properties":{"acq_date":"2026-09-29","acq_time":943,"confidence":"n","satellite":"N","instrument":"VIIRS","version":"2.0NRT","bright_ti4":304.49,"frp":3.16,"daynight":"N"},"geometry":{"type":"Point","coordinates":[-119.59545,37.6118]}},{"type":"Feature","properties":{"acq_date":"2026-09-29","acq_time":943,"confidence":"n","satellite":"N","instrument":"VIIRS","version":"2.0NRT","bright_ti4":298.54,"frp":1.11,"daynight":"N"},"geometry":{"type":"Point","coordinates":[-119.62502,37.62294]}},{"type":"Feature","properties":{"acq_date":"2026-09-29","acq_time":943,"confidence":"n","satellite":"N","instrument":"VIIRS","version":"2.0NRT","bright_ti4":300.98,"frp":1.45,"daynight":"N"},"geometry":{"type":"Point","coordinates":[-119.6302,37.6274]}},{"type":"Feature","properties":{"acq_date":"2026-09-29","acq_time":943,"confidence":"n","satellite":"N","instrument":"VIIRS","version":"2.0NRT","bright_ti4":332.42,"frp":4.05,"daynight":"N"},"geometry":{"type":"Point","coordinates":[-119.62283,37.63042]}},{"type":"Feature","properties":{"acq_date":"2026-09-29","acq_time":943,"confidence":"n","satellite":"N","instrument":"VIIRS","version":"2.0NRT","bright_ti4":304.45,"frp":1.34,"daynight":"N"},"geometry":{"type":"Point","coordinates":[-119.59319,37.63085]}},{"type":"Feature","properties":{"acq_date":"2026-09-29","acq_time":943,"confidence":"n","satellite":"N","instrument":"VIIRS","version":"2.0NRT","bright_ti4":296.98,"frp":1.45,"daynight":"N"},"geometry":{"type":"Point","coordinates":[-119.6292,37.63116]}},{"type":"Feature","properties":{"acq_date":"2026-09-29","acq_time":943,"confidence":"n","satellite":"N","instrument":"VIIRS","version":"2.0NRT","bright_ti4":335.27,"frp":11.16,"daynight":"N"},"geometry":{"type":"Point","coordinates":[-119.62208,37.6342]}},{"type":"Feature","properties":{"acq_date":"2026-09-29","acq_time":943,"confidence":"n","satellite":"N","instrument":"VIIRS","version":"2.0NRT","bright_ti4":299.39,"frp":1.2,"daynight":"N"},"geometry":{"type":"Point","coordinates":[-119.60433,37.63602]}},{"type":"Feature","properties":{"acq_date":"2026-09-29","acq_time":943,"confidence":"n","satellite":"N","instrument":"VIIRS","version":"2.0NRT","bright_ti4":340.16,"frp":11.16,"daynight":"N"},"geometry":{"type":"Point","coordinates":[-119.62134,37.63799]}},{"type":"Feature","properties":{"acq_date":"2026-09-29","acq_time":943,"confidence":"n","satellite":"N","instrument":"VIIRS","version":"2.0NRT","bright_ti4":297.75,"frp":0.76,"daynight":"N"},"geometry":{"type":"Point","coordinates":[-119.59798,37.63914]}},{"type":"Feature","properties":{"acq_date":"2026-09-29","acq_time":943,"confidence":"n","satellite":"N","instrument":"VIIRS","version":"2.0NRT","bright_ti4":317.36,"frp":2.6,"daynight":"N"},"geometry":{"type":"Point","coordinates":[-119.6037,37.63981]}},{"type":"Feature","properties":{"acq_date":"2026-09-29","acq_time":943,"confidence":"n","satellite":"N","instrument":"VIIRS","version":"2.0NRT","bright_ti4":320.38,"frp":2.6,"daynight":"N"},"geometry":{"type":"Point","coordinates":[-119.60931,37.64046]}},{"type":"Feature","properties":{"acq_date":"2026-09-29","acq_time":943,"confidence":"n","satellite":"N","instrument":"VIIRS","version":"2.0NRT","bright_ti4":298.11,"frp":2.05,"daynight":"N"},"geometry":{"type":"Point","coordinates":[-119.62068,37.64178]}},{"type":"Feature","properties":{"acq_date":"2026-09-29","acq_time":943,"confidence":"n","satellite":"N","instrument":"VIIRS","version":"2.0NRT","bright_ti4":322.96,"frp":2.6,"daynight":"N"},"geometry":{"type":"Point","coordinates":[-119.6031,37.64361]}},{"type":"Feature","properties":{"acq_date":"2026-09-29","acq_time":943,"confidence":"n","satellite":"N","instrument":"VIIRS","version":"2.0NRT","bright_ti4":309.75,"frp":2.6,"daynight":"N"},"geometry":{"type":"Point","coordinates":[-119.60879,37.64427]}},{"type":"Feature","properties":{"acq_date":"2026-09-29","acq_time":943,"confidence":"n","satellite":"N","instrument":"VIIRS","version":"2.0NRT","bright_ti4":316.03,"frp":2.05,"daynight":"N"},"geometry":{"type":"Point","coordinates":[-119.62008,37.64558]}},{"type":"Feature","properties":{"acq_date":"2026-09-29","acq_time":943,"confidence":"n","satellite":"N","instrument":"VIIRS","version":"2.0NRT","bright_ti4":301.96,"frp":1.32,"daynight":"N"},"geometry":{"type":"Point","coordinates":[-119.60824,37.64808]}},{"type":"Feature","properties":{"acq_date":"2026-09-29","acq_time":943,"confidence":"n","satellite":"N","instrument":"VIIRS","version":"2.0NRT","bright_ti4":307.36,"frp":2.35,"daynight":"N"},"geometry":{"type":"Point","coordinates":[-119.61392,37.64874]}},{"type":"Feature","properties":{"acq_date":"2026-09-29","acq_time":943,"confidence":"n","satellite":"N","instrument":"VIIRS","version":"2.0NRT","bright_ti4":301.88,"frp":2.35,"daynight":"N"},"geometry":{"type":"Point","coordinates":[-119.61954,37.64939]}},{"type":"Feature","properties":{"acq_date":"2026-09-29","acq_time":943,"confidence":"n","satellite":"N","instrument":"VIIRS","version":"2.0NRT","bright_ti4":331.37,"frp":8.56,"daynight":"N"},"geometry":{"type":"Point","coordinates":[-119.62541,37.65007]}},{"type":"Feature","properties":{"acq_date":"2026-09-29","acq_time":943,"confidence":"n","satellite":"N","instrument":"VIIRS","version":"2.0NRT","bright_ti4":323.39,"frp":2.35,"daynight":"N"},"geometry":{"type":"Point","coordinates":[-119.61903,37.6532]}},{"type":"Feature","properties":{"acq_date":"2026-09-29","acq_time":943,"confidence":"n","satellite":"N","instrument":"VIIRS","version":"2.0NRT","bright_ti4":353.83,"frp":8.56,"daynight":"N"},"geometry":{"type":"Point","coordinates":[-119.62486,37.65388]}},{"type":"Feature","properties":{"acq_date":"2026-09-29","acq_time":943,"confidence":"n","satellite":"N","instrument":"VIIRS","version":"2.0NRT","bright_ti4":297.25,"frp":2.04,"daynight":"N"},"geometry":{"type":"Point","coordinates":[-119.61791,37.65594]}},{"type":"Feature","properties":{"acq_date":"2026-09-29","acq_time":943,"confidence":"n","satellite":"N","instrument":"VIIRS","version":"2.0NRT","bright_ti4":322.57,"frp":2.04,"daynight":"N"},"geometry":{"type":"Point","coordinates":[-119.6237,37.65658]}},{"type":"Feature","properties":{"acq_date":"2026-09-29","acq_time":943,"confidence":"n","satellite":"N","instrument":"VIIRS","version":"2.0NRT","bright_ti4":298.62,"frp":0.78,"daynight":"N"},"geometry":{"type":"Point","coordinates":[-119.61854,37.65702]}},{"type":"Feature","properties":{"acq_date":"2026-09-29","acq_time":943,"confidence":"n","satellite":"N","instrument":"VIIRS","version":"2.0NRT","bright_ti4":313.29,"frp":1.61,"daynight":"N"},"geometry":{"type":"Point","coordinates":[-119.62958,37.65724]}},{"type":"Feature","properties":{"acq_date":"2026-09-29","acq_time":943,"confidence":"n","satellite":"N","instrument":"VIIRS","version":"2.0NRT","bright_ti4":304.32,"frp":0.54,"daynight":"N"},"geometry":{"type":"Point","coordinates":[-121.18638,37.88216]}},{"type":"Feature","properties":{"acq_date":"2026-09-29","acq_time":943,"confidence":"n","satellite":"N","instrument":"VIIRS","version":"2.0NRT","bright_ti4":296.62,"frp":0.45,"daynight":"N"},"geometry":{"type":"Point","coordinates":[-122.39671,37.94427]}},{"type":"Feature","properties":{"acq_date":"2026-09-29","acq_time":943,"confidence":"n","satellite":"N","instrument":"VIIRS","version":"2.0NRT","bright_ti4":302.84,"frp":0.75,"daynight":"N"},"geometry":{"type":"Point","coordinates":[-121.93645,38.00292]}},{"type":"Feature","properties":{"acq_date":"2026-09-29","acq_time":943,"confidence":"n","satellite":"N","instrument":"VIIRS","version":"2.0NRT","bright_ti4":301.63,"frp":0.6,"daynight":"N"},"geometry":{"type":"Point","coordinates":[-121.93533,38.00412]}},{"type":"Feature","properties":{"acq_date":"2026-09-29","acq_time":943,"confidence":"n","satellite":"N","instrument":"VIIRS","version":"2.0NRT","bright_ti4":302.11,"frp":0.73,"daynight":"N"},"geometry":{"type":"Point","coordinates":[-121.45441,38.17259]}},{"type":"Feature","properties":{"acq_date":"2026-09-29","acq_time":943,"confidence":"n","satellite":"N","instrument":"VIIRS","version":"2.0NRT","bright_ti4":305.03,"frp":1.24,"daynight":"N"},"geometry":{"type":"Point","coordinates":[-121.45544,38.17316]}},{"type":"Feature","properties":{"acq_date":"2026-09-29","acq_time":943,"confidence":"n","satellite":"N","instrument":"VIIRS","version":"2.0NRT","bright_ti4":299.49,"frp":0.63,"daynight":"N"},"geometry":{"type":"Point","coordinates":[-121.9452,38.53125]}},{"type":"Feature","properties":{"acq_date":"2026-09-29","acq_time":943,"confidence":"n","satellite":"N","instrument":"VIIRS","version":"2.0NRT","bright_ti4":299.28,"frp":0.8,"daynight":"N"},"geometry":{"type":"Point","coordinates":[-113.68924,42.21875]}},{"type":"Feature","properties":{"acq_date":"2026-09-29","acq_time":943,"confidence":"n","satellite":"N","instrument":"VIIRS","version":"2.0NRT","bright_ti4":300.35,"frp":0.94,"daynight":"N"},"geometry":{"type":"Point","coordinates":[-115.73402,43.18063]}}]}