{"type":"FeatureCollection","name":"FIRMS VIIRS CA (last 1 day)","crs":{"type":"name","properties":{"name":"EPSG:4326"}},"fetched_at_utc":"2026-08-14T14:54:39.483Z","source":{"url":"https://firms.modaps.eosdis.nasa.gov/api/area/csv/8c4af552cf654445dd280dfb3ad9337c/VIIRS_SNPP_NRT/-125,32,-113,43.5/1","dataset":"VIIRS_SNPP_NRT","bbox":"-125,32,-113,43.5","day_range":"1"},"features":[{"type":"Feature","properties":{"acq_date":"2026-08-14","acq_time":905,"confidence":"n","satellite":"N","instrument":"VIIRS","version":"2.0NRT","bright_ti4":296.75,"frp":0.69,"daynight":"N"},"geometry":{"type":"Point","coordinates":[-120.58247,36.69369]}},{"type":"Feature","properties":{"acq_date":"2026-08-14","acq_time":907,"confidence":"n","satellite":"N","instrument":"VIIRS","version":"2.0NRT","bright_ti4":298.37,"frp":1.56,"daynight":"N"},"geometry":{"type":"Point","coordinates":[-117.42821,34.14117]}},{"type":"Feature","properties":{"acq_date":"2026-08-14","acq_time":907,"confidence":"n","satellite":"N","instrument":"VIIRS","version":"2.0NRT","bright_ti4":298.22,"frp":0.76,"daynight":"N"},"geometry":{"type":"Point","coordinates":[-118.7513,34.81939]}},{"type":"Feature","properties":{"acq_date":"2026-08-14","acq_time":907,"confidence":"n","satellite":"N","instrument":"VIIRS","version":"2.0NRT","bright_ti4":296.52,"frp":0.57,"daynight":"N"},"geometry":{"type":"Point","coordinates":[-113.31275,35.51807]}},{"type":"Feature","properties":{"acq_date":"2026-08-14","acq_time":1043,"confidence":"n","satellite":"N","instrument":"VIIRS","version":"2.0NRT","bright_ti4":307.15,"frp":1.92,"daynight":"N"},"geometry":{"type":"Point","coordinates":[-114.25735,40.82405]}},{"type":"Feature","properties":{"acq_date":"2026-08-14","acq_time":1043,"confidence":"n","satellite":"N","instrument":"VIIRS","version":"2.0NRT","bright_ti4":297.06,"frp":1.1,"daynight":"N"},"geometry":{"type":"Point","coordinates":[-123.65204,41.09451]}},{"type":"Feature","properties":{"acq_date":"2026-08-14","acq_time":1043,"confidence":"n","satellite":"N","instrument":"VIIRS","version":"2.0NRT","bright_ti4":311.93,"frp":2.84,"daynight":"N"},"geometry":{"type":"Point","coordinates":[-123.65769,41.09571]}},{"type":"Feature","properties":{"acq_date":"2026-08-14","acq_time":1043,"confidence":"n","satellite":"N","instrument":"VIIRS","version":"2.0NRT","bright_ti4":302.18,"frp":1.1,"daynight":"N"},"geometry":{"type":"Point","coordinates":[-123.64488,41.09704]}},{"type":"Feature","properties":{"acq_date":"2026-08-14","acq_time":1043,"confidence":"n","satellite":"N","instrument":"VIIRS","version":"2.0NRT","bright_ti4":306.28,"frp":1.09,"daynight":"N"},"geometry":{"type":"Point","coordinates":[-123.64302,41.10071]}},{"type":"Feature","properties":{"acq_date":"2026-08-14","acq_time":1043,"confidence":"n","satellite":"N","instrument":"VIIRS","version":"2.0NRT","bright_ti4":298.13,"frp":1.09,"daynight":"N"},"geometry":{"type":"Point","coordinates":[-123.64832,41.10183]}},{"type":"Feature","properties":{"acq_date":"2026-08-14","acq_time":1043,"confidence":"n","satellite":"N","instrument":"VIIRS","version":"2.0NRT","bright_ti4":298.87,"frp":1.4,"daynight":"N"},"geometry":{"type":"Point","coordinates":[-123.65906,41.10411]}},{"type":"Feature","properties":{"acq_date":"2026-08-14","acq_time":1043,"confidence":"n","satellite":"N","instrument":"VIIRS","version":"2.0NRT","bright_ti4":307.12,"frp":1.4,"daynight":"N"},"geometry":{"type":"Point","coordinates":[-123.65195,41.10666]}},{"type":"Feature","properties":{"acq_date":"2026-08-14","acq_time":1043,"confidence":"n","satellite":"N","instrument":"VIIRS","version":"2.0NRT","bright_ti4":314.08,"frp":1.4,"daynight":"N"},"geometry":{"type":"Point","coordinates":[-123.65771,41.10788]}},{"type":"Feature","properties":{"acq_date":"2026-08-14","acq_time":1043,"confidence":"n","satellite":"N","instrument":"VIIRS","version":"2.0NRT","bright_ti4":304.58,"frp":0.78,"daynight":"N"},"geometry":{"type":"Point","coordinates":[-123.62876,41.11798]}},{"type":"Feature","properties":{"acq_date":"2026-08-14","acq_time":1043,"confidence":"n","satellite":"N","instrument":"VIIRS","version":"2.0NRT","bright_ti4":309.24,"frp":2.06,"daynight":"N"},"geometry":{"type":"Point","coordinates":[-123.63509,41.11932]}},{"type":"Feature","properties":{"acq_date":"2026-08-14","acq_time":1043,"confidence":"n","satellite":"N","instrument":"VIIRS","version":"2.0NRT","bright_ti4":313.5,"frp":2.06,"daynight":"N"},"geometry":{"type":"Point","coordinates":[-123.64091,41.12054]}},{"type":"Feature","properties":{"acq_date":"2026-08-14","acq_time":1043,"confidence":"n","satellite":"N","instrument":"VIIRS","version":"2.0NRT","bright_ti4":307.35,"frp":2.06,"daynight":"N"},"geometry":{"type":"Point","coordinates":[-123.62816,41.12191]}},{"type":"Feature","properties":{"acq_date":"2026-08-14","acq_time":1043,"confidence":"n","satellite":"N","instrument":"VIIRS","version":"2.0NRT","bright_ti4":299.25,"frp":1.39,"daynight":"N"},"geometry":{"type":"Point","coordinates":[-123.63455,41.12326]}},{"type":"Feature","properties":{"acq_date":"2026-08-14","acq_time":1043,"confidence":"n","satellite":"N","instrument":"VIIRS","version":"2.0NRT","bright_ti4":307.44,"frp":2.73,"daynight":"N"},"geometry":{"type":"Point","coordinates":[-123.61919,41.12813]}},{"type":"Feature","properties":{"acq_date":"2026-08-14","acq_time":1043,"confidence":"n","satellite":"N","instrument":"VIIRS","version":"2.0NRT","bright_ti4":302.62,"frp":1.11,"daynight":"N"},"geometry":{"type":"Point","coordinates":[-123.62415,41.13728]}},{"type":"Feature","properties":{"acq_date":"2026-08-14","acq_time":1043,"confidence":"n","satellite":"N","instrument":"VIIRS","version":"2.0NRT","bright_ti4":310.7,"frp":1.31,"daynight":"N"},"geometry":{"type":"Point","coordinates":[-123.67843,41.14061]}},{"type":"Feature","properties":{"acq_date":"2026-08-14","acq_time":1043,"confidence":"n","satellite":"N","instrument":"VIIRS","version":"2.0NRT","bright_ti4":298.79,"frp":1.11,"daynight":"N"},"geometry":{"type":"Point","coordinates":[-123.62299,41.1411]}},{"type":"Feature","properties":{"acq_date":"2026-08-14","acq_time":1043,"confidence":"n","satellite":"N","instrument":"VIIRS","version":"2.0NRT","bright_ti4":298.53,"frp":1.31,"daynight":"N"},"geometry":{"type":"Point","coordinates":[-123.67716,41.14439]}},{"type":"Feature","properties":{"acq_date":"2026-08-14","acq_time":1043,"confidence":"n","satellite":"N","instrument":"VIIRS","version":"2.0NRT","bright_ti4":307.88,"frp":1.94,"daynight":"N"},"geometry":{"type":"Point","coordinates":[-123.62192,41.14492]}},{"type":"Feature","properties":{"acq_date":"2026-08-14","acq_time":1043,"confidence":"n","satellite":"N","instrument":"VIIRS","version":"2.0NRT","bright_ti4":305.42,"frp":1.89,"daynight":"N"},"geometry":{"type":"Point","coordinates":[-123.67613,41.14822]}},{"type":"Feature","properties":{"acq_date":"2026-08-14","acq_time":1043,"confidence":"n","satellite":"N","instrument":"VIIRS","version":"2.0NRT","bright_ti4":306.57,"frp":1.37,"daynight":"N"},"geometry":{"type":"Point","coordinates":[-123.66495,41.14991]}},{"type":"Feature","properties":{"acq_date":"2026-08-14","acq_time":1043,"confidence":"n","satellite":"N","instrument":"VIIRS","version":"2.0NRT","bright_ti4":301.56,"frp":1.37,"daynight":"N"},"geometry":{"type":"Point","coordinates":[-123.67001,41.15098]}},{"type":"Feature","properties":{"acq_date":"2026-08-14","acq_time":1043,"confidence":"n","satellite":"N","instrument":"VIIRS","version":"2.0NRT","bright_ti4":328.87,"frp":6.51,"daynight":"N"},"geometry":{"type":"Point","coordinates":[-123.65787,41.15247]}},{"type":"Feature","properties":{"acq_date":"2026-08-14","acq_time":1043,"confidence":"n","satellite":"N","instrument":"VIIRS","version":"2.0NRT","bright_ti4":344.36,"frp":22.85,"daynight":"N"},"geometry":{"type":"Point","coordinates":[-123.66367,41.15369]}},{"type":"Feature","properties":{"acq_date":"2026-08-14","acq_time":1043,"confidence":"n","satellite":"N","instrument":"VIIRS","version":"2.0NRT","bright_ti4":298.99,"frp":0.96,"daynight":"N"},"geometry":{"type":"Point","coordinates":[-123.20596,42.42918]}},{"type":"Feature","properties":{"acq_date":"2026-08-14","acq_time":1043,"confidence":"n","satellite":"N","instrument":"VIIRS","version":"2.0NRT","bright_ti4":302.69,"frp":0.96,"daynight":"N"},"geometry":{"type":"Point","coordinates":[-123.21276,42.43063]}},{"type":"Feature","properties":{"acq_date":"2026-08-14","acq_time":1043,"confidence":"n","satellite":"N","instrument":"VIIRS","version":"2.0NRT","bright_ti4":300.01,"frp":2.25,"daynight":"N"},"geometry":{"type":"Point","coordinates":[-123.20519,42.43306]}},{"type":"Feature","properties":{"acq_date":"2026-08-14","acq_time":1043,"confidence":"n","satellite":"N","instrument":"VIIRS","version":"2.0NRT","bright_ti4":328.29,"frp":2.25,"daynight":"N"},"geometry":{"type":"Point","coordinates":[-123.21224,42.43456]}},{"type":"Feature","properties":{"acq_date":"2026-08-14","acq_time":1043,"confidence":"n","satellite":"N","instrument":"VIIRS","version":"2.0NRT","bright_ti4":304.69,"frp":2.25,"daynight":"N"},"geometry":{"type":"Point","coordinates":[-123.20438,42.43692]}},{"type":"Feature","properties":{"acq_date":"2026-08-14","acq_time":1043,"confidence":"n","satellite":"N","instrument":"VIIRS","version":"2.0NRT","bright_ti4":326.18,"frp":2.25,"daynight":"N"},"geometry":{"type":"Point","coordinates":[-123.21162,42.43847]}},{"type":"Feature","properties":{"acq_date":"2026-08-14","acq_time":1043,"confidence":"n","satellite":"N","instrument":"VIIRS","version":"2.0NRT","bright_ti4":298.44,"frp":0.57,"daynight":"N"},"geometry":{"type":"Point","coordinates":[-123.19569,42.4391]}},{"type":"Feature","properties":{"acq_date":"2026-08-14","acq_time":1043,"confidence":"n","satellite":"N","instrument":"VIIRS","version":"2.0NRT","bright_ti4":304.02,"frp":0.95,"daynight":"N"},"geometry":{"type":"Point","coordinates":[-123.20324,42.44072]}},{"type":"Feature","properties":{"acq_date":"2026-08-14","acq_time":1043,"confidence":"n","satellite":"N","instrument":"VIIRS","version":"2.0NRT","bright_ti4":304.34,"frp":0.95,"daynight":"N"},"geometry":{"type":"Point","coordinates":[-123.21077,42.44233]}},{"type":"Feature","properties":{"acq_date":"2026-08-14","acq_time":1045,"confidence":"n","satellite":"N","instrument":"VIIRS","version":"2.0NRT","bright_ti4":300.25,"frp":1.48,"daynight":"N"},"geometry":{"type":"Point","coordinates":[-116.85369,34.35248]}},{"type":"Feature","properties":{"acq_date":"2026-08-14","acq_time":1045,"confidence":"n","satellite":"N","instrument":"VIIRS","version":"2.0NRT","bright_ti4":302.67,"frp":2.71,"daynight":"N"},"geometry":{"type":"Point","coordinates":[-117.33465,34.60653]}},{"type":"Feature","properties":{"acq_date":"2026-08-14","acq_time":1045,"confidence":"n","satellite":"N","instrument":"VIIRS","version":"2.0NRT","bright_ti4":307.44,"frp":3.86,"daynight":"N"},"geometry":{"type":"Point","coordinates":[-117.33997,34.60727]}},{"type":"Feature","properties":{"acq_date":"2026-08-14","acq_time":1045,"confidence":"n","satellite":"N","instrument":"VIIRS","version":"2.0NRT","bright_ti4":299.81,"frp":3.48,"daynight":"N"},"geometry":{"type":"Point","coordinates":[-117.33989,34.608]}},{"type":"Feature","properties":{"acq_date":"2026-08-14","acq_time":1045,"confidence":"n","satellite":"N","instrument":"VIIRS","version":"2.0NRT","bright_ti4":302.51,"frp":2.01,"daynight":"N"},"geometry":{"type":"Point","coordinates":[-117.10162,34.62307]}},{"type":"Feature","properties":{"acq_date":"2026-08-14","acq_time":1045,"confidence":"n","satellite":"N","instrument":"VIIRS","version":"2.0NRT","bright_ti4":297.23,"frp":0.84,"daynight":"N"},"geometry":{"type":"Point","coordinates":[-121.18518,37.88298]}}]}