{"type":"FeatureCollection","name":"FIRMS VIIRS CA (last 1 day)","crs":{"type":"name","properties":{"name":"EPSG:4326"}},"fetched_at_utc":"2026-09-17T18:02:18.181Z","source":{"url":"https://firms.modaps.eosdis.nasa.gov/api/area/csv/8c4af552cf654445dd280dfb3ad9337c/VIIRS_SNPP_NRT/-125,32,-113,43.5/1","dataset":"VIIRS_SNPP_NRT","bbox":"-125,32,-113,43.5","day_range":"1"},"features":[{"type":"Feature","properties":{"acq_date":"2026-09-17","acq_time":1009,"confidence":"n","satellite":"N","instrument":"VIIRS","version":"2.0NRT","bright_ti4":298.62,"frp":0.61,"daynight":"N"},"geometry":{"type":"Point","coordinates":[-116.85252,34.35601]}},{"type":"Feature","properties":{"acq_date":"2026-09-17","acq_time":1009,"confidence":"n","satellite":"N","instrument":"VIIRS","version":"2.0NRT","bright_ti4":309.05,"frp":1.65,"daynight":"N"},"geometry":{"type":"Point","coordinates":[-117.33514,34.60911]}},{"type":"Feature","properties":{"acq_date":"2026-09-17","acq_time":1009,"confidence":"n","satellite":"N","instrument":"VIIRS","version":"2.0NRT","bright_ti4":300.17,"frp":0.46,"daynight":"N"},"geometry":{"type":"Point","coordinates":[-117.33804,34.61061]}},{"type":"Feature","properties":{"acq_date":"2026-09-17","acq_time":1009,"confidence":"n","satellite":"N","instrument":"VIIRS","version":"2.0NRT","bright_ti4":302.01,"frp":1.23,"daynight":"N"},"geometry":{"type":"Point","coordinates":[-117.09789,34.6212]}},{"type":"Feature","properties":{"acq_date":"2026-09-17","acq_time":1009,"confidence":"n","satellite":"N","instrument":"VIIRS","version":"2.0NRT","bright_ti4":304.87,"frp":1.23,"daynight":"N"},"geometry":{"type":"Point","coordinates":[-117.10325,34.62226]}},{"type":"Feature","properties":{"acq_date":"2026-09-17","acq_time":1009,"confidence":"n","satellite":"N","instrument":"VIIRS","version":"2.0NRT","bright_ti4":295.48,"frp":0.48,"daynight":"N"},"geometry":{"type":"Point","coordinates":[-118.36732,35.12258]}},{"type":"Feature","properties":{"acq_date":"2026-09-17","acq_time":1009,"confidence":"n","satellite":"N","instrument":"VIIRS","version":"2.0NRT","bright_ti4":308.8,"frp":1.71,"daynight":"N"},"geometry":{"type":"Point","coordinates":[-113.31499,35.51831]}},{"type":"Feature","properties":{"acq_date":"2026-09-17","acq_time":1009,"confidence":"n","satellite":"N","instrument":"VIIRS","version":"2.0NRT","bright_ti4":300.62,"frp":1.08,"daynight":"N"},"geometry":{"type":"Point","coordinates":[-113.31377,35.5192]}},{"type":"Feature","properties":{"acq_date":"2026-09-17","acq_time":1009,"confidence":"n","satellite":"N","instrument":"VIIRS","version":"2.0NRT","bright_ti4":311.47,"frp":0.96,"daynight":"N"},"geometry":{"type":"Point","coordinates":[-114.91276,36.35722]}},{"type":"Feature","properties":{"acq_date":"2026-09-17","acq_time":1009,"confidence":"n","satellite":"N","instrument":"VIIRS","version":"2.0NRT","bright_ti4":303.96,"frp":0.38,"daynight":"N"},"geometry":{"type":"Point","coordinates":[-114.87608,36.38346]}},{"type":"Feature","properties":{"acq_date":"2026-09-17","acq_time":1009,"confidence":"n","satellite":"N","instrument":"VIIRS","version":"2.0NRT","bright_ti4":299.42,"frp":0.52,"daynight":"N"},"geometry":{"type":"Point","coordinates":[-120.58447,36.65036]}},{"type":"Feature","properties":{"acq_date":"2026-09-17","acq_time":1009,"confidence":"n","satellite":"N","instrument":"VIIRS","version":"2.0NRT","bright_ti4":296.16,"frp":0.37,"daynight":"N"},"geometry":{"type":"Point","coordinates":[-121.76659,36.71261]}},{"type":"Feature","properties":{"acq_date":"2026-09-17","acq_time":1009,"confidence":"n","satellite":"N","instrument":"VIIRS","version":"2.0NRT","bright_ti4":304.96,"frp":0.73,"daynight":"N"},"geometry":{"type":"Point","coordinates":[-120.19482,37.025]}},{"type":"Feature","properties":{"acq_date":"2026-09-17","acq_time":1009,"confidence":"n","satellite":"N","instrument":"VIIRS","version":"2.0NRT","bright_ti4":299.21,"frp":1.52,"daynight":"N"},"geometry":{"type":"Point","coordinates":[-120.13334,37.03539]}},{"type":"Feature","properties":{"acq_date":"2026-09-17","acq_time":1009,"confidence":"n","satellite":"N","instrument":"VIIRS","version":"2.0NRT","bright_ti4":318.58,"frp":1.52,"daynight":"N"},"geometry":{"type":"Point","coordinates":[-120.13248,37.03869]}},{"type":"Feature","properties":{"acq_date":"2026-09-17","acq_time":1009,"confidence":"n","satellite":"N","instrument":"VIIRS","version":"2.0NRT","bright_ti4":296.5,"frp":0.45,"daynight":"N"},"geometry":{"type":"Point","coordinates":[-121.67864,37.18476]}},{"type":"Feature","properties":{"acq_date":"2026-09-17","acq_time":1009,"confidence":"n","satellite":"N","instrument":"VIIRS","version":"2.0NRT","bright_ti4":297.38,"frp":0.93,"daynight":"N"},"geometry":{"type":"Point","coordinates":[-119.61139,37.56712]}},{"type":"Feature","properties":{"acq_date":"2026-09-17","acq_time":1009,"confidence":"n","satellite":"N","instrument":"VIIRS","version":"2.0NRT","bright_ti4":310.31,"frp":2.18,"daynight":"N"},"geometry":{"type":"Point","coordinates":[-119.60183,37.56894]}},{"type":"Feature","properties":{"acq_date":"2026-09-17","acq_time":1009,"confidence":"n","satellite":"N","instrument":"VIIRS","version":"2.0NRT","bright_ti4":328.39,"frp":2.18,"daynight":"N"},"geometry":{"type":"Point","coordinates":[-119.60619,37.56969]}},{"type":"Feature","properties":{"acq_date":"2026-09-17","acq_time":1009,"confidence":"n","satellite":"N","instrument":"VIIRS","version":"2.0NRT","bright_ti4":303.43,"frp":0.93,"daynight":"N"},"geometry":{"type":"Point","coordinates":[-119.61054,37.57043]}},{"type":"Feature","properties":{"acq_date":"2026-09-17","acq_time":1009,"confidence":"n","satellite":"N","instrument":"VIIRS","version":"2.0NRT","bright_ti4":325.05,"frp":4.57,"daynight":"N"},"geometry":{"type":"Point","coordinates":[-119.60098,37.57226]}},{"type":"Feature","properties":{"acq_date":"2026-09-17","acq_time":1009,"confidence":"n","satellite":"N","instrument":"VIIRS","version":"2.0NRT","bright_ti4":352.22,"frp":4.57,"daynight":"N"},"geometry":{"type":"Point","coordinates":[-119.60535,37.57301]}},{"type":"Feature","properties":{"acq_date":"2026-09-17","acq_time":1009,"confidence":"n","satellite":"N","instrument":"VIIRS","version":"2.0NRT","bright_ti4":318.89,"frp":1.39,"daynight":"N"},"geometry":{"type":"Point","coordinates":[-119.60976,37.57376]}},{"type":"Feature","properties":{"acq_date":"2026-09-17","acq_time":1009,"confidence":"n","satellite":"N","instrument":"VIIRS","version":"2.0NRT","bright_ti4":298.84,"frp":1.39,"daynight":"N"},"geometry":{"type":"Point","coordinates":[-119.61414,37.57451]}},{"type":"Feature","properties":{"acq_date":"2026-09-17","acq_time":1009,"confidence":"n","satellite":"N","instrument":"VIIRS","version":"2.0NRT","bright_ti4":298.55,"frp":1.05,"daynight":"N"},"geometry":{"type":"Point","coordinates":[-119.61854,37.57526]}},{"type":"Feature","properties":{"acq_date":"2026-09-17","acq_time":1009,"confidence":"n","satellite":"N","instrument":"VIIRS","version":"2.0NRT","bright_ti4":325.89,"frp":4.57,"daynight":"N"},"geometry":{"type":"Point","coordinates":[-119.60017,37.57558]}},{"type":"Feature","properties":{"acq_date":"2026-09-17","acq_time":1009,"confidence":"n","satellite":"N","instrument":"VIIRS","version":"2.0NRT","bright_ti4":345.26,"frp":4.57,"daynight":"N"},"geometry":{"type":"Point","coordinates":[-119.60458,37.57633]}},{"type":"Feature","properties":{"acq_date":"2026-09-17","acq_time":1009,"confidence":"n","satellite":"N","instrument":"VIIRS","version":"2.0NRT","bright_ti4":312.67,"frp":1.39,"daynight":"N"},"geometry":{"type":"Point","coordinates":[-119.60896,37.57708]}},{"type":"Feature","properties":{"acq_date":"2026-09-17","acq_time":1009,"confidence":"n","satellite":"N","instrument":"VIIRS","version":"2.0NRT","bright_ti4":305.71,"frp":1.39,"daynight":"N"},"geometry":{"type":"Point","coordinates":[-119.61333,37.57784]}},{"type":"Feature","properties":{"acq_date":"2026-09-17","acq_time":1009,"confidence":"n","satellite":"N","instrument":"VIIRS","version":"2.0NRT","bright_ti4":303.82,"frp":1.05,"daynight":"N"},"geometry":{"type":"Point","coordinates":[-119.61773,37.57859]}},{"type":"Feature","properties":{"acq_date":"2026-09-17","acq_time":1009,"confidence":"n","satellite":"N","instrument":"VIIRS","version":"2.0NRT","bright_ti4":296.69,"frp":0.38,"daynight":"N"},"geometry":{"type":"Point","coordinates":[-120.6416,37.57866]}},{"type":"Feature","properties":{"acq_date":"2026-09-17","acq_time":1009,"confidence":"n","satellite":"N","instrument":"VIIRS","version":"2.0NRT","bright_ti4":312.76,"frp":7.26,"daynight":"N"},"geometry":{"type":"Point","coordinates":[-119.59936,37.5789]}},{"type":"Feature","properties":{"acq_date":"2026-09-17","acq_time":1009,"confidence":"n","satellite":"N","instrument":"VIIRS","version":"2.0NRT","bright_ti4":312.21,"frp":7.26,"daynight":"N"},"geometry":{"type":"Point","coordinates":[-119.60377,37.57966]}},{"type":"Feature","properties":{"acq_date":"2026-09-17","acq_time":1009,"confidence":"n","satellite":"N","instrument":"VIIRS","version":"2.0NRT","bright_ti4":309.91,"frp":1.28,"daynight":"N"},"geometry":{"type":"Point","coordinates":[-119.60817,37.58041]}},{"type":"Feature","properties":{"acq_date":"2026-09-17","acq_time":1009,"confidence":"n","satellite":"N","instrument":"VIIRS","version":"2.0NRT","bright_ti4":308.7,"frp":1.28,"daynight":"N"},"geometry":{"type":"Point","coordinates":[-119.61254,37.58116]}},{"type":"Feature","properties":{"acq_date":"2026-09-17","acq_time":1009,"confidence":"n","satellite":"N","instrument":"VIIRS","version":"2.0NRT","bright_ti4":301.93,"frp":1.03,"daynight":"N"},"geometry":{"type":"Point","coordinates":[-119.61693,37.58191]}},{"type":"Feature","properties":{"acq_date":"2026-09-17","acq_time":1009,"confidence":"n","satellite":"N","instrument":"VIIRS","version":"2.0NRT","bright_ti4":335.84,"frp":7.26,"daynight":"N"},"geometry":{"type":"Point","coordinates":[-119.59853,37.58223]}},{"type":"Feature","properties":{"acq_date":"2026-09-17","acq_time":1009,"confidence":"n","satellite":"N","instrument":"VIIRS","version":"2.0NRT","bright_ti4":352.24,"frp":7.26,"daynight":"N"},"geometry":{"type":"Point","coordinates":[-119.60297,37.58298]}},{"type":"Feature","properties":{"acq_date":"2026-09-17","acq_time":1009,"confidence":"n","satellite":"N","instrument":"VIIRS","version":"2.0NRT","bright_ti4":310.52,"frp":1.28,"daynight":"N"},"geometry":{"type":"Point","coordinates":[-119.60736,37.58373]}},{"type":"Feature","properties":{"acq_date":"2026-09-17","acq_time":1009,"confidence":"n","satellite":"N","instrument":"VIIRS","version":"2.0NRT","bright_ti4":308.6,"frp":1.28,"daynight":"N"},"geometry":{"type":"Point","coordinates":[-119.61173,37.58448]}},{"type":"Feature","properties":{"acq_date":"2026-09-17","acq_time":1009,"confidence":"n","satellite":"N","instrument":"VIIRS","version":"2.0NRT","bright_ti4":304.32,"frp":1.03,"daynight":"N"},"geometry":{"type":"Point","coordinates":[-119.6161,37.58523]}},{"type":"Feature","properties":{"acq_date":"2026-09-17","acq_time":1009,"confidence":"n","satellite":"N","instrument":"VIIRS","version":"2.0NRT","bright_ti4":347.25,"frp":19.95,"daynight":"N"},"geometry":{"type":"Point","coordinates":[-119.5977,37.58554]}},{"type":"Feature","properties":{"acq_date":"2026-09-17","acq_time":1009,"confidence":"n","satellite":"N","instrument":"VIIRS","version":"2.0NRT","bright_ti4":347.37,"frp":19.95,"daynight":"N"},"geometry":{"type":"Point","coordinates":[-119.60214,37.5863]}},{"type":"Feature","properties":{"acq_date":"2026-09-17","acq_time":1009,"confidence":"n","satellite":"N","instrument":"VIIRS","version":"2.0NRT","bright_ti4":309.36,"frp":2.65,"daynight":"N"},"geometry":{"type":"Point","coordinates":[-119.60653,37.58706]}},{"type":"Feature","properties":{"acq_date":"2026-09-17","acq_time":1009,"confidence":"n","satellite":"N","instrument":"VIIRS","version":"2.0NRT","bright_ti4":303.43,"frp":2.65,"daynight":"N"},"geometry":{"type":"Point","coordinates":[-119.61092,37.5878]}},{"type":"Feature","properties":{"acq_date":"2026-09-17","acq_time":1009,"confidence":"n","satellite":"N","instrument":"VIIRS","version":"2.0NRT","bright_ti4":307.4,"frp":1.38,"daynight":"N"},"geometry":{"type":"Point","coordinates":[-119.61529,37.58855]}},{"type":"Feature","properties":{"acq_date":"2026-09-17","acq_time":1009,"confidence":"n","satellite":"N","instrument":"VIIRS","version":"2.0NRT","bright_ti4":346.78,"frp":19.95,"daynight":"N"},"geometry":{"type":"Point","coordinates":[-119.59683,37.58885]}},{"type":"Feature","properties":{"acq_date":"2026-09-17","acq_time":1009,"confidence":"n","satellite":"N","instrument":"VIIRS","version":"2.0NRT","bright_ti4":311.4,"frp":1.38,"daynight":"N"},"geometry":{"type":"Point","coordinates":[-119.61968,37.58929]}},{"type":"Feature","properties":{"acq_date":"2026-09-17","acq_time":1009,"confidence":"n","satellite":"N","instrument":"VIIRS","version":"2.0NRT","bright_ti4":347.45,"frp":19.95,"daynight":"N"},"geometry":{"type":"Point","coordinates":[-119.60129,37.58961]}},{"type":"Feature","properties":{"acq_date":"2026-09-17","acq_time":1009,"confidence":"n","satellite":"N","instrument":"VIIRS","version":"2.0NRT","bright_ti4":307.05,"frp":3.3,"daynight":"N"},"geometry":{"type":"Point","coordinates":[-119.62405,37.59005]}},{"type":"Feature","properties":{"acq_date":"2026-09-17","acq_time":1009,"confidence":"n","satellite":"N","instrument":"VIIRS","version":"2.0NRT","bright_ti4":332.48,"frp":2.65,"daynight":"N"},"geometry":{"type":"Point","coordinates":[-119.6057,37.59037]}},{"type":"Feature","properties":{"acq_date":"2026-09-17","acq_time":1009,"confidence":"n","satellite":"N","instrument":"VIIRS","version":"2.0NRT","bright_ti4":306.85,"frp":1.38,"daynight":"N"},"geometry":{"type":"Point","coordinates":[-119.61446,37.59187]}},{"type":"Feature","properties":{"acq_date":"2026-09-17","acq_time":1009,"confidence":"n","satellite":"N","instrument":"VIIRS","version":"2.0NRT","bright_ti4":331.17,"frp":23.27,"daynight":"N"},"geometry":{"type":"Point","coordinates":[-119.59597,37.59217]}},{"type":"Feature","properties":{"acq_date":"2026-09-17","acq_time":1009,"confidence":"n","satellite":"N","instrument":"VIIRS","version":"2.0NRT","bright_ti4":322.07,"frp":1.38,"daynight":"N"},"geometry":{"type":"Point","coordinates":[-119.61884,37.59261]}},{"type":"Feature","properties":{"acq_date":"2026-09-17","acq_time":1009,"confidence":"n","satellite":"N","instrument":"VIIRS","version":"2.0NRT","bright_ti4":348.58,"frp":23.27,"daynight":"N"},"geometry":{"type":"Point","coordinates":[-119.6004,37.59292]}},{"type":"Feature","properties":{"acq_date":"2026-09-17","acq_time":1009,"confidence":"n","satellite":"N","instrument":"VIIRS","version":"2.0NRT","bright_ti4":351.24,"frp":3.3,"daynight":"N"},"geometry":{"type":"Point","coordinates":[-119.62321,37.59336]}},{"type":"Feature","properties":{"acq_date":"2026-09-17","acq_time":1009,"confidence":"n","satellite":"N","instrument":"VIIRS","version":"2.0NRT","bright_ti4":355.5,"frp":14.12,"daynight":"N"},"geometry":{"type":"Point","coordinates":[-119.60484,37.59368]}},{"type":"Feature","properties":{"acq_date":"2026-09-17","acq_time":1009,"confidence":"n","satellite":"N","instrument":"VIIRS","version":"2.0NRT","bright_ti4":306.6,"frp":3.3,"daynight":"N"},"geometry":{"type":"Point","coordinates":[-119.62754,37.59409]}},{"type":"Feature","properties":{"acq_date":"2026-09-17","acq_time":1009,"confidence":"n","satellite":"N","instrument":"VIIRS","version":"2.0NRT","bright_ti4":296.93,"frp":14.12,"daynight":"N"},"geometry":{"type":"Point","coordinates":[-119.60921,37.59443]}},{"type":"Feature","properties":{"acq_date":"2026-09-17","acq_time":1009,"confidence":"n","satellite":"N","instrument":"VIIRS","version":"2.0NRT","bright_ti4":304,"frp":2.27,"daynight":"N"},"geometry":{"type":"Point","coordinates":[-119.61361,37.59518]}},{"type":"Feature","properties":{"acq_date":"2026-09-17","acq_time":1009,"confidence":"n","satellite":"N","instrument":"VIIRS","version":"2.0NRT","bright_ti4":325.33,"frp":2.27,"daynight":"N"},"geometry":{"type":"Point","coordinates":[-119.61799,37.59592]}},{"type":"Feature","properties":{"acq_date":"2026-09-17","acq_time":1009,"confidence":"n","satellite":"N","instrument":"VIIRS","version":"2.0NRT","bright_ti4":342.2,"frp":3.52,"daynight":"N"},"geometry":{"type":"Point","coordinates":[-119.62232,37.59666]}},{"type":"Feature","properties":{"acq_date":"2026-09-17","acq_time":1009,"confidence":"n","satellite":"N","instrument":"VIIRS","version":"2.0NRT","bright_ti4":351.42,"frp":14.12,"daynight":"N"},"geometry":{"type":"Point","coordinates":[-119.60394,37.59698]}},{"type":"Feature","properties":{"acq_date":"2026-09-17","acq_time":1009,"confidence":"n","satellite":"N","instrument":"VIIRS","version":"2.0NRT","bright_ti4":337.14,"frp":3.52,"daynight":"N"},"geometry":{"type":"Point","coordinates":[-119.62659,37.59739]}},{"type":"Feature","properties":{"acq_date":"2026-09-17","acq_time":1009,"confidence":"n","satellite":"N","instrument":"VIIRS","version":"2.0NRT","bright_ti4":299.78,"frp":14.12,"daynight":"N"},"geometry":{"type":"Point","coordinates":[-119.60833,37.59774]}},{"type":"Feature","properties":{"acq_date":"2026-09-17","acq_time":1009,"confidence":"n","satellite":"N","instrument":"VIIRS","version":"2.0NRT","bright_ti4":334.58,"frp":46.04,"daynight":"N"},"geometry":{"type":"Point","coordinates":[-119.59428,37.59879]}},{"type":"Feature","properties":{"acq_date":"2026-09-17","acq_time":1009,"confidence":"n","satellite":"N","instrument":"VIIRS","version":"2.0NRT","bright_ti4":338.31,"frp":2.27,"daynight":"N"},"geometry":{"type":"Point","coordinates":[-119.61702,37.59922]}},{"type":"Feature","properties":{"acq_date":"2026-09-17","acq_time":1009,"confidence":"n","satellite":"N","instrument":"VIIRS","version":"2.0NRT","bright_ti4":325,"frp":3.52,"daynight":"N"},"geometry":{"type":"Point","coordinates":[-119.62132,37.59995]}},{"type":"Feature","properties":{"acq_date":"2026-09-17","acq_time":1009,"confidence":"n","satellite":"N","instrument":"VIIRS","version":"2.0NRT","bright_ti4":333.44,"frp":1.39,"daynight":"N"},"geometry":{"type":"Point","coordinates":[-119.60304,37.60029]}},{"type":"Feature","properties":{"acq_date":"2026-09-17","acq_time":1009,"confidence":"n","satellite":"N","instrument":"VIIRS","version":"2.0NRT","bright_ti4":311.71,"frp":3.52,"daynight":"N"},"geometry":{"type":"Point","coordinates":[-119.62559,37.60068]}},{"type":"Feature","properties":{"acq_date":"2026-09-17","acq_time":1009,"confidence":"n","satellite":"N","instrument":"VIIRS","version":"2.0NRT","bright_ti4":298.24,"frp":1.39,"daynight":"N"},"geometry":{"type":"Point","coordinates":[-119.60741,37.60104]}},{"type":"Feature","properties":{"acq_date":"2026-09-17","acq_time":1009,"confidence":"h","satellite":"N","instrument":"VIIRS","version":"2.0NRT","bright_ti4":367,"frp":46.04,"daynight":"N"},"geometry":{"type":"Point","coordinates":[-119.59346,37.60211]}},{"type":"Feature","properties":{"acq_date":"2026-09-17","acq_time":1009,"confidence":"n","satellite":"N","instrument":"VIIRS","version":"2.0NRT","bright_ti4":320.11,"frp":3.05,"daynight":"N"},"geometry":{"type":"Point","coordinates":[-119.61605,37.60251]}},{"type":"Feature","properties":{"acq_date":"2026-09-17","acq_time":1009,"confidence":"n","satellite":"N","instrument":"VIIRS","version":"2.0NRT","bright_ti4":302.67,"frp":46.04,"daynight":"N"},"geometry":{"type":"Point","coordinates":[-119.59782,37.60286]}},{"type":"Feature","properties":{"acq_date":"2026-09-17","acq_time":1009,"confidence":"n","satellite":"N","instrument":"VIIRS","version":"2.0NRT","bright_ti4":311.03,"frp":1.17,"daynight":"N"},"geometry":{"type":"Point","coordinates":[-119.62032,37.60323]}},{"type":"Feature","properties":{"acq_date":"2026-09-17","acq_time":1009,"confidence":"n","satellite":"N","instrument":"VIIRS","version":"2.0NRT","bright_ti4":299.07,"frp":1.39,"daynight":"N"},"geometry":{"type":"Point","coordinates":[-119.60216,37.6036]}},{"type":"Feature","properties":{"acq_date":"2026-09-17","acq_time":1009,"confidence":"n","satellite":"N","instrument":"VIIRS","version":"2.0NRT","bright_ti4":299.79,"frp":1.39,"daynight":"N"},"geometry":{"type":"Point","coordinates":[-119.60649,37.60434]}},{"type":"Feature","properties":{"acq_date":"2026-09-17","acq_time":1009,"confidence":"n","satellite":"N","instrument":"VIIRS","version":"2.0NRT","bright_ti4":318.35,"frp":3.05,"daynight":"N"},"geometry":{"type":"Point","coordinates":[-119.61083,37.60508]}},{"type":"Feature","properties":{"acq_date":"2026-09-17","acq_time":1009,"confidence":"n","satellite":"N","instrument":"VIIRS","version":"2.0NRT","bright_ti4":310.71,"frp":1.58,"daynight":"N"},"geometry":{"type":"Point","coordinates":[-119.59261,37.60543]}},{"type":"Feature","properties":{"acq_date":"2026-09-17","acq_time":1009,"confidence":"n","satellite":"N","instrument":"VIIRS","version":"2.0NRT","bright_ti4":346.79,"frp":3.05,"daynight":"N"},"geometry":{"type":"Point","coordinates":[-119.61514,37.6058]}},{"type":"Feature","properties":{"acq_date":"2026-09-17","acq_time":1009,"confidence":"n","satellite":"N","instrument":"VIIRS","version":"2.0NRT","bright_ti4":295.89,"frp":1.17,"daynight":"N"},"geometry":{"type":"Point","coordinates":[-119.6194,37.60653]}},{"type":"Feature","properties":{"acq_date":"2026-09-17","acq_time":1009,"confidence":"n","satellite":"N","instrument":"VIIRS","version":"2.0NRT","bright_ti4":300.77,"frp":1.17,"daynight":"N"},"geometry":{"type":"Point","coordinates":[-119.62367,37.60727]}},{"type":"Feature","properties":{"acq_date":"2026-09-17","acq_time":1009,"confidence":"n","satellite":"N","instrument":"VIIRS","version":"2.0NRT","bright_ti4":298.9,"frp":1.1,"daynight":"N"},"geometry":{"type":"Point","coordinates":[-119.60563,37.60765]}},{"type":"Feature","properties":{"acq_date":"2026-09-17","acq_time":1009,"confidence":"n","satellite":"N","instrument":"VIIRS","version":"2.0NRT","bright_ti4":327.12,"frp":9.12,"daynight":"N"},"geometry":{"type":"Point","coordinates":[-119.60995,37.60838]}},{"type":"Feature","properties":{"acq_date":"2026-09-17","acq_time":1009,"confidence":"n","satellite":"N","instrument":"VIIRS","version":"2.0NRT","bright_ti4":349.65,"frp":9.12,"daynight":"N"},"geometry":{"type":"Point","coordinates":[-119.61423,37.60911]}},{"type":"Feature","properties":{"acq_date":"2026-09-17","acq_time":1009,"confidence":"n","satellite":"N","instrument":"VIIRS","version":"2.0NRT","bright_ti4":308.56,"frp":1.7,"daynight":"N"},"geometry":{"type":"Point","coordinates":[-119.6185,37.60984]}},{"type":"Feature","properties":{"acq_date":"2026-09-17","acq_time":1009,"confidence":"n","satellite":"N","instrument":"VIIRS","version":"2.0NRT","bright_ti4":304.7,"frp":1.7,"daynight":"N"},"geometry":{"type":"Point","coordinates":[-119.62277,37.61057]}},{"type":"Feature","properties":{"acq_date":"2026-09-17","acq_time":1009,"confidence":"n","satellite":"N","instrument":"VIIRS","version":"2.0NRT","bright_ti4":299.37,"frp":9.12,"daynight":"N"},"geometry":{"type":"Point","coordinates":[-119.60907,37.61169]}},{"type":"Feature","properties":{"acq_date":"2026-09-17","acq_time":1009,"confidence":"n","satellite":"N","instrument":"VIIRS","version":"2.0NRT","bright_ti4":326.04,"frp":9.12,"daynight":"N"},"geometry":{"type":"Point","coordinates":[-119.61336,37.61242]}},{"type":"Feature","properties":{"acq_date":"2026-09-17","acq_time":1009,"confidence":"n","satellite":"N","instrument":"VIIRS","version":"2.0NRT","bright_ti4":326.81,"frp":1.7,"daynight":"N"},"geometry":{"type":"Point","coordinates":[-119.61762,37.61315]}},{"type":"Feature","properties":{"acq_date":"2026-09-17","acq_time":1009,"confidence":"n","satellite":"N","instrument":"VIIRS","version":"2.0NRT","bright_ti4":303.94,"frp":1.7,"daynight":"N"},"geometry":{"type":"Point","coordinates":[-119.62189,37.61388]}},{"type":"Feature","properties":{"acq_date":"2026-09-17","acq_time":1009,"confidence":"n","satellite":"N","instrument":"VIIRS","version":"2.0NRT","bright_ti4":311.17,"frp":0.73,"daynight":"N"},"geometry":{"type":"Point","coordinates":[-120.74982,37.6303]}},{"type":"Feature","properties":{"acq_date":"2026-09-17","acq_time":1009,"confidence":"n","satellite":"N","instrument":"VIIRS","version":"2.0NRT","bright_ti4":300.06,"frp":0.19,"daynight":"N"},"geometry":{"type":"Point","coordinates":[-121.65875,37.75541]}},{"type":"Feature","properties":{"acq_date":"2026-09-17","acq_time":1009,"confidence":"n","satellite":"N","instrument":"VIIRS","version":"2.0NRT","bright_ti4":297.18,"frp":0.19,"daynight":"N"},"geometry":{"type":"Point","coordinates":[-121.15003,37.77839]}},{"type":"Feature","properties":{"acq_date":"2026-09-17","acq_time":1009,"confidence":"n","satellite":"N","instrument":"VIIRS","version":"2.0NRT","bright_ti4":307.07,"frp":0.83,"daynight":"N"},"geometry":{"type":"Point","coordinates":[-121.18468,37.88251]}},{"type":"Feature","properties":{"acq_date":"2026-09-17","acq_time":1009,"confidence":"n","satellite":"N","instrument":"VIIRS","version":"2.0NRT","bright_ti4":295.17,"frp":0.33,"daynight":"N"},"geometry":{"type":"Point","coordinates":[-121.83465,38.31403]}},{"type":"Feature","properties":{"acq_date":"2026-09-17","acq_time":1009,"confidence":"n","satellite":"N","instrument":"VIIRS","version":"2.0NRT","bright_ti4":300.57,"frp":1.46,"daynight":"N"},"geometry":{"type":"Point","coordinates":[-120.0311,39.40921]}},{"type":"Feature","properties":{"acq_date":"2026-09-17","acq_time":1009,"confidence":"n","satellite":"N","instrument":"VIIRS","version":"2.0NRT","bright_ti4":297.39,"frp":1.36,"daynight":"N"},"geometry":{"type":"Point","coordinates":[-120.04358,39.41465]}},{"type":"Feature","properties":{"acq_date":"2026-09-17","acq_time":1009,"confidence":"n","satellite":"N","instrument":"VIIRS","version":"2.0NRT","bright_ti4":296.43,"frp":0.81,"daynight":"N"},"geometry":{"type":"Point","coordinates":[-120.03378,39.41648]}},{"type":"Feature","properties":{"acq_date":"2026-09-17","acq_time":1009,"confidence":"n","satellite":"N","instrument":"VIIRS","version":"2.0NRT","bright_ti4":295.99,"frp":0.62,"daynight":"N"},"geometry":{"type":"Point","coordinates":[-120.03821,39.4172]}},{"type":"Feature","properties":{"acq_date":"2026-09-17","acq_time":1009,"confidence":"n","satellite":"N","instrument":"VIIRS","version":"2.0NRT","bright_ti4":295.88,"frp":1.38,"daynight":"N"},"geometry":{"type":"Point","coordinates":[-120.04712,39.41864]}},{"type":"Feature","properties":{"acq_date":"2026-09-17","acq_time":1009,"confidence":"n","satellite":"N","instrument":"VIIRS","version":"2.0NRT","bright_ti4":296.45,"frp":0.62,"daynight":"N"},"geometry":{"type":"Point","coordinates":[-120.03731,39.42047]}},{"type":"Feature","properties":{"acq_date":"2026-09-17","acq_time":1009,"confidence":"n","satellite":"N","instrument":"VIIRS","version":"2.0NRT","bright_ti4":295.38,"frp":0.62,"daynight":"N"},"geometry":{"type":"Point","coordinates":[-120.04176,39.42119]}},{"type":"Feature","properties":{"acq_date":"2026-09-17","acq_time":1009,"confidence":"n","satellite":"N","instrument":"VIIRS","version":"2.0NRT","bright_ti4":313.6,"frp":1.04,"daynight":"N"},"geometry":{"type":"Point","coordinates":[-120.04532,39.42519]}},{"type":"Feature","properties":{"acq_date":"2026-09-17","acq_time":1009,"confidence":"n","satellite":"N","instrument":"VIIRS","version":"2.0NRT","bright_ti4":295.99,"frp":1.04,"daynight":"N"},"geometry":{"type":"Point","coordinates":[-120.04978,39.42591]}},{"type":"Feature","properties":{"acq_date":"2026-09-17","acq_time":1009,"confidence":"n","satellite":"N","instrument":"VIIRS","version":"2.0NRT","bright_ti4":302.62,"frp":0.84,"daynight":"N"},"geometry":{"type":"Point","coordinates":[-120.05424,39.42662]}},{"type":"Feature","properties":{"acq_date":"2026-09-17","acq_time":1009,"confidence":"n","satellite":"N","instrument":"VIIRS","version":"2.0NRT","bright_ti4":303.81,"frp":0.84,"daynight":"N"},"geometry":{"type":"Point","coordinates":[-120.05334,39.4299]}},{"type":"Feature","properties":{"acq_date":"2026-09-17","acq_time":1009,"confidence":"n","satellite":"N","instrument":"VIIRS","version":"2.0NRT","bright_ti4":313.27,"frp":1.76,"daynight":"N"},"geometry":{"type":"Point","coordinates":[-119.26378,39.61983]}},{"type":"Feature","properties":{"acq_date":"2026-09-17","acq_time":1009,"confidence":"n","satellite":"N","instrument":"VIIRS","version":"2.0NRT","bright_ti4":303.17,"frp":0.83,"daynight":"N"},"geometry":{"type":"Point","coordinates":[-117.6689,41.54272]}},{"type":"Feature","properties":{"acq_date":"2026-09-17","acq_time":1009,"confidence":"n","satellite":"N","instrument":"VIIRS","version":"2.0NRT","bright_ti4":298.51,"frp":0.7,"daynight":"N"},"geometry":{"type":"Point","coordinates":[-122.77626,42.38254]}}]}