{"type":"FeatureCollection","name":"FIRMS VIIRS CA (last 1 day)","crs":{"type":"name","properties":{"name":"EPSG:4326"}},"fetched_at_utc":"2026-08-17T14:31:39.800Z","source":{"url":"https://firms.modaps.eosdis.nasa.gov/api/area/csv/8c4af552cf654445dd280dfb3ad9337c/VIIRS_SNPP_NRT/-125,32,-113,43.5/1","dataset":"VIIRS_SNPP_NRT","bbox":"-125,32,-113,43.5","day_range":"1"},"features":[{"type":"Feature","properties":{"acq_date":"2026-08-17","acq_time":947,"confidence":"n","satellite":"N","instrument":"VIIRS","version":"2.0NRT","bright_ti4":299.94,"frp":0.74,"daynight":"N"},"geometry":{"type":"Point","coordinates":[-117.56461,39.76466]}},{"type":"Feature","properties":{"acq_date":"2026-08-17","acq_time":947,"confidence":"n","satellite":"N","instrument":"VIIRS","version":"2.0NRT","bright_ti4":317.57,"frp":1.06,"daynight":"N"},"geometry":{"type":"Point","coordinates":[-117.56369,39.768]}},{"type":"Feature","properties":{"acq_date":"2026-08-17","acq_time":947,"confidence":"n","satellite":"N","instrument":"VIIRS","version":"2.0NRT","bright_ti4":300.68,"frp":1.06,"daynight":"N"},"geometry":{"type":"Point","coordinates":[-117.56824,39.76864]}},{"type":"Feature","properties":{"acq_date":"2026-08-17","acq_time":947,"confidence":"n","satellite":"N","instrument":"VIIRS","version":"2.0NRT","bright_ti4":327.05,"frp":3.24,"daynight":"N"},"geometry":{"type":"Point","coordinates":[-117.57281,39.76929]}},{"type":"Feature","properties":{"acq_date":"2026-08-17","acq_time":947,"confidence":"n","satellite":"N","instrument":"VIIRS","version":"2.0NRT","bright_ti4":341.48,"frp":3.24,"daynight":"N"},"geometry":{"type":"Point","coordinates":[-117.5774,39.76994]}},{"type":"Feature","properties":{"acq_date":"2026-08-17","acq_time":947,"confidence":"n","satellite":"N","instrument":"VIIRS","version":"2.0NRT","bright_ti4":300.44,"frp":2.06,"daynight":"N"},"geometry":{"type":"Point","coordinates":[-117.58209,39.7706]}},{"type":"Feature","properties":{"acq_date":"2026-08-17","acq_time":947,"confidence":"n","satellite":"N","instrument":"VIIRS","version":"2.0NRT","bright_ti4":304.72,"frp":1.06,"daynight":"N"},"geometry":{"type":"Point","coordinates":[-117.56279,39.77134]}},{"type":"Feature","properties":{"acq_date":"2026-08-17","acq_time":947,"confidence":"n","satellite":"N","instrument":"VIIRS","version":"2.0NRT","bright_ti4":312.19,"frp":1.06,"daynight":"N"},"geometry":{"type":"Point","coordinates":[-117.56735,39.77199]}},{"type":"Feature","properties":{"acq_date":"2026-08-17","acq_time":947,"confidence":"n","satellite":"N","instrument":"VIIRS","version":"2.0NRT","bright_ti4":320.46,"frp":3.24,"daynight":"N"},"geometry":{"type":"Point","coordinates":[-117.57194,39.77264]}},{"type":"Feature","properties":{"acq_date":"2026-08-17","acq_time":947,"confidence":"n","satellite":"N","instrument":"VIIRS","version":"2.0NRT","bright_ti4":324,"frp":3.24,"daynight":"N"},"geometry":{"type":"Point","coordinates":[-117.57657,39.77329]}},{"type":"Feature","properties":{"acq_date":"2026-08-17","acq_time":947,"confidence":"n","satellite":"N","instrument":"VIIRS","version":"2.0NRT","bright_ti4":322.77,"frp":2.06,"daynight":"N"},"geometry":{"type":"Point","coordinates":[-117.58128,39.77395]}},{"type":"Feature","properties":{"acq_date":"2026-08-17","acq_time":947,"confidence":"n","satellite":"N","instrument":"VIIRS","version":"2.0NRT","bright_ti4":301.95,"frp":0.73,"daynight":"N"},"geometry":{"type":"Point","coordinates":[-117.56646,39.77532]}},{"type":"Feature","properties":{"acq_date":"2026-08-17","acq_time":947,"confidence":"n","satellite":"N","instrument":"VIIRS","version":"2.0NRT","bright_ti4":315.14,"frp":3.17,"daynight":"N"},"geometry":{"type":"Point","coordinates":[-117.57111,39.77598]}},{"type":"Feature","properties":{"acq_date":"2026-08-17","acq_time":947,"confidence":"n","satellite":"N","instrument":"VIIRS","version":"2.0NRT","bright_ti4":324.06,"frp":3.17,"daynight":"N"},"geometry":{"type":"Point","coordinates":[-117.57579,39.77665]}},{"type":"Feature","properties":{"acq_date":"2026-08-17","acq_time":947,"confidence":"n","satellite":"N","instrument":"VIIRS","version":"2.0NRT","bright_ti4":303.4,"frp":0.63,"daynight":"N"},"geometry":{"type":"Point","coordinates":[-117.53738,39.77813]}},{"type":"Feature","properties":{"acq_date":"2026-08-17","acq_time":947,"confidence":"n","satellite":"N","instrument":"VIIRS","version":"2.0NRT","bright_ti4":297,"frp":0.73,"daynight":"N"},"geometry":{"type":"Point","coordinates":[-117.56559,39.77867]}},{"type":"Feature","properties":{"acq_date":"2026-08-17","acq_time":947,"confidence":"n","satellite":"N","instrument":"VIIRS","version":"2.0NRT","bright_ti4":304.01,"frp":3.17,"daynight":"N"},"geometry":{"type":"Point","coordinates":[-117.57026,39.77933]}},{"type":"Feature","properties":{"acq_date":"2026-08-17","acq_time":947,"confidence":"n","satellite":"N","instrument":"VIIRS","version":"2.0NRT","bright_ti4":352.64,"frp":3.17,"daynight":"N"},"geometry":{"type":"Point","coordinates":[-117.57496,39.77999]}},{"type":"Feature","properties":{"acq_date":"2026-08-17","acq_time":947,"confidence":"n","satellite":"N","instrument":"VIIRS","version":"2.0NRT","bright_ti4":351.11,"frp":6.7,"daynight":"N"},"geometry":{"type":"Point","coordinates":[-117.57967,39.78066]}},{"type":"Feature","properties":{"acq_date":"2026-08-17","acq_time":947,"confidence":"n","satellite":"N","instrument":"VIIRS","version":"2.0NRT","bright_ti4":320.38,"frp":6.7,"daynight":"N"},"geometry":{"type":"Point","coordinates":[-117.58438,39.78133]}},{"type":"Feature","properties":{"acq_date":"2026-08-17","acq_time":947,"confidence":"n","satellite":"N","instrument":"VIIRS","version":"2.0NRT","bright_ti4":297.92,"frp":0.63,"daynight":"N"},"geometry":{"type":"Point","coordinates":[-117.53658,39.78148]}},{"type":"Feature","properties":{"acq_date":"2026-08-17","acq_time":947,"confidence":"n","satellite":"N","instrument":"VIIRS","version":"2.0NRT","bright_ti4":301.18,"frp":1.05,"daynight":"N"},"geometry":{"type":"Point","coordinates":[-117.56944,39.78268]}},{"type":"Feature","properties":{"acq_date":"2026-08-17","acq_time":947,"confidence":"n","satellite":"N","instrument":"VIIRS","version":"2.0NRT","bright_ti4":315.06,"frp":1.05,"daynight":"N"},"geometry":{"type":"Point","coordinates":[-117.57413,39.78334]}},{"type":"Feature","properties":{"acq_date":"2026-08-17","acq_time":947,"confidence":"n","satellite":"N","instrument":"VIIRS","version":"2.0NRT","bright_ti4":338.52,"frp":2.37,"daynight":"N"},"geometry":{"type":"Point","coordinates":[-117.5788,39.78401]}},{"type":"Feature","properties":{"acq_date":"2026-08-17","acq_time":947,"confidence":"n","satellite":"N","instrument":"VIIRS","version":"2.0NRT","bright_ti4":303.94,"frp":1.04,"daynight":"N"},"geometry":{"type":"Point","coordinates":[-117.5312,39.78418]}},{"type":"Feature","properties":{"acq_date":"2026-08-17","acq_time":947,"confidence":"n","satellite":"N","instrument":"VIIRS","version":"2.0NRT","bright_ti4":310.68,"frp":2.37,"daynight":"N"},"geometry":{"type":"Point","coordinates":[-117.58351,39.78468]}},{"type":"Feature","properties":{"acq_date":"2026-08-17","acq_time":947,"confidence":"n","satellite":"N","instrument":"VIIRS","version":"2.0NRT","bright_ti4":312.49,"frp":1.04,"daynight":"N"},"geometry":{"type":"Point","coordinates":[-117.53577,39.78484]}},{"type":"Feature","properties":{"acq_date":"2026-08-17","acq_time":947,"confidence":"n","satellite":"N","instrument":"VIIRS","version":"2.0NRT","bright_ti4":304.47,"frp":0.84,"daynight":"N"},"geometry":{"type":"Point","coordinates":[-117.5403,39.78548]}},{"type":"Feature","properties":{"acq_date":"2026-08-17","acq_time":947,"confidence":"n","satellite":"N","instrument":"VIIRS","version":"2.0NRT","bright_ti4":301.39,"frp":1.05,"daynight":"N"},"geometry":{"type":"Point","coordinates":[-117.57328,39.78669]}},{"type":"Feature","properties":{"acq_date":"2026-08-17","acq_time":947,"confidence":"n","satellite":"N","instrument":"VIIRS","version":"2.0NRT","bright_ti4":308.46,"frp":2.37,"daynight":"N"},"geometry":{"type":"Point","coordinates":[-117.57795,39.78735]}},{"type":"Feature","properties":{"acq_date":"2026-08-17","acq_time":947,"confidence":"n","satellite":"N","instrument":"VIIRS","version":"2.0NRT","bright_ti4":321.49,"frp":2.37,"daynight":"N"},"geometry":{"type":"Point","coordinates":[-117.58265,39.78802]}},{"type":"Feature","properties":{"acq_date":"2026-08-17","acq_time":947,"confidence":"n","satellite":"N","instrument":"VIIRS","version":"2.0NRT","bright_ti4":307.41,"frp":1.04,"daynight":"N"},"geometry":{"type":"Point","coordinates":[-117.53497,39.78819]}},{"type":"Feature","properties":{"acq_date":"2026-08-17","acq_time":947,"confidence":"n","satellite":"N","instrument":"VIIRS","version":"2.0NRT","bright_ti4":303.04,"frp":0.84,"daynight":"N"},"geometry":{"type":"Point","coordinates":[-117.5395,39.78883]}},{"type":"Feature","properties":{"acq_date":"2026-08-17","acq_time":947,"confidence":"n","satellite":"N","instrument":"VIIRS","version":"2.0NRT","bright_ti4":307.77,"frp":0.84,"daynight":"N"},"geometry":{"type":"Point","coordinates":[-117.54401,39.78947]}},{"type":"Feature","properties":{"acq_date":"2026-08-17","acq_time":947,"confidence":"n","satellite":"N","instrument":"VIIRS","version":"2.0NRT","bright_ti4":311.48,"frp":1.26,"daynight":"N"},"geometry":{"type":"Point","coordinates":[-117.58187,39.79138]}},{"type":"Feature","properties":{"acq_date":"2026-08-17","acq_time":947,"confidence":"n","satellite":"N","instrument":"VIIRS","version":"2.0NRT","bright_ti4":306.72,"frp":0.7,"daynight":"N"},"geometry":{"type":"Point","coordinates":[-117.54771,39.79346]}},{"type":"Feature","properties":{"acq_date":"2026-08-17","acq_time":947,"confidence":"n","satellite":"N","instrument":"VIIRS","version":"2.0NRT","bright_ti4":301.94,"frp":0.7,"daynight":"N"},"geometry":{"type":"Point","coordinates":[-117.55224,39.7941]}},{"type":"Feature","properties":{"acq_date":"2026-08-17","acq_time":947,"confidence":"n","satellite":"N","instrument":"VIIRS","version":"2.0NRT","bright_ti4":302.51,"frp":1.26,"daynight":"N"},"geometry":{"type":"Point","coordinates":[-117.58108,39.79473]}},{"type":"Feature","properties":{"acq_date":"2026-08-17","acq_time":947,"confidence":"n","satellite":"N","instrument":"VIIRS","version":"2.0NRT","bright_ti4":314.72,"frp":2.21,"daynight":"N"},"geometry":{"type":"Point","coordinates":[-117.5803,39.79809]}},{"type":"Feature","properties":{"acq_date":"2026-08-17","acq_time":947,"confidence":"n","satellite":"N","instrument":"VIIRS","version":"2.0NRT","bright_ti4":295.62,"frp":0.81,"daynight":"N"},"geometry":{"type":"Point","coordinates":[-117.55611,39.79812]}},{"type":"Feature","properties":{"acq_date":"2026-08-17","acq_time":947,"confidence":"n","satellite":"N","instrument":"VIIRS","version":"2.0NRT","bright_ti4":295.32,"frp":0.88,"daynight":"N"},"geometry":{"type":"Point","coordinates":[-117.58509,39.79877]}},{"type":"Feature","properties":{"acq_date":"2026-08-17","acq_time":947,"confidence":"n","satellite":"N","instrument":"VIIRS","version":"2.0NRT","bright_ti4":298.59,"frp":1.11,"daynight":"N"},"geometry":{"type":"Point","coordinates":[-117.56475,39.80282]}},{"type":"Feature","properties":{"acq_date":"2026-08-17","acq_time":947,"confidence":"n","satellite":"N","instrument":"VIIRS","version":"2.0NRT","bright_ti4":307.82,"frp":1.11,"daynight":"N"},"geometry":{"type":"Point","coordinates":[-117.56407,39.80619]}},{"type":"Feature","properties":{"acq_date":"2026-08-17","acq_time":947,"confidence":"n","satellite":"N","instrument":"VIIRS","version":"2.0NRT","bright_ti4":305.84,"frp":1.22,"daynight":"N"},"geometry":{"type":"Point","coordinates":[-117.56342,39.80957]}},{"type":"Feature","properties":{"acq_date":"2026-08-17","acq_time":947,"confidence":"n","satellite":"N","instrument":"VIIRS","version":"2.0NRT","bright_ti4":311.38,"frp":1.22,"daynight":"N"},"geometry":{"type":"Point","coordinates":[-117.56803,39.81023]}},{"type":"Feature","properties":{"acq_date":"2026-08-17","acq_time":947,"confidence":"n","satellite":"N","instrument":"VIIRS","version":"2.0NRT","bright_ti4":301.2,"frp":1.06,"daynight":"N"},"geometry":{"type":"Point","coordinates":[-114.25425,40.82012]}},{"type":"Feature","properties":{"acq_date":"2026-08-17","acq_time":947,"confidence":"n","satellite":"N","instrument":"VIIRS","version":"2.0NRT","bright_ti4":302.25,"frp":1.06,"daynight":"N"},"geometry":{"type":"Point","coordinates":[-114.25324,40.8234]}},{"type":"Feature","properties":{"acq_date":"2026-08-17","acq_time":947,"confidence":"n","satellite":"N","instrument":"VIIRS","version":"2.0NRT","bright_ti4":310.87,"frp":1.66,"daynight":"N"},"geometry":{"type":"Point","coordinates":[-121.56812,42.34368]}},{"type":"Feature","properties":{"acq_date":"2026-08-17","acq_time":947,"confidence":"n","satellite":"N","instrument":"VIIRS","version":"2.0NRT","bright_ti4":310.67,"frp":2.57,"daynight":"N"},"geometry":{"type":"Point","coordinates":[-121.57269,42.34412]}},{"type":"Feature","properties":{"acq_date":"2026-08-17","acq_time":947,"confidence":"n","satellite":"N","instrument":"VIIRS","version":"2.0NRT","bright_ti4":327.73,"frp":2.57,"daynight":"N"},"geometry":{"type":"Point","coordinates":[-121.57732,42.34456]}},{"type":"Feature","properties":{"acq_date":"2026-08-17","acq_time":947,"confidence":"n","satellite":"N","instrument":"VIIRS","version":"2.0NRT","bright_ti4":299.54,"frp":0.62,"daynight":"N"},"geometry":{"type":"Point","coordinates":[-121.56754,42.34775]}},{"type":"Feature","properties":{"acq_date":"2026-08-17","acq_time":947,"confidence":"n","satellite":"N","instrument":"VIIRS","version":"2.0NRT","bright_ti4":324.53,"frp":3.01,"daynight":"N"},"geometry":{"type":"Point","coordinates":[-121.57675,42.34863]}},{"type":"Feature","properties":{"acq_date":"2026-08-17","acq_time":947,"confidence":"n","satellite":"N","instrument":"VIIRS","version":"2.0NRT","bright_ti4":299.82,"frp":1.19,"daynight":"N"},"geometry":{"type":"Point","coordinates":[-121.58141,42.34907]}},{"type":"Feature","properties":{"acq_date":"2026-08-17","acq_time":947,"confidence":"n","satellite":"N","instrument":"VIIRS","version":"2.0NRT","bright_ti4":308.24,"frp":1.02,"daynight":"N"},"geometry":{"type":"Point","coordinates":[-121.60369,42.35945]}},{"type":"Feature","properties":{"acq_date":"2026-08-17","acq_time":947,"confidence":"n","satellite":"N","instrument":"VIIRS","version":"2.0NRT","bright_ti4":298.44,"frp":0.61,"daynight":"N"},"geometry":{"type":"Point","coordinates":[-121.69398,42.41365]}},{"type":"Feature","properties":{"acq_date":"2026-08-17","acq_time":947,"confidence":"n","satellite":"N","instrument":"VIIRS","version":"2.0NRT","bright_ti4":300.32,"frp":0.67,"daynight":"N"},"geometry":{"type":"Point","coordinates":[-121.65958,42.41858]}},{"type":"Feature","properties":{"acq_date":"2026-08-17","acq_time":947,"confidence":"n","satellite":"N","instrument":"VIIRS","version":"2.0NRT","bright_ti4":305.92,"frp":1.82,"daynight":"N"},"geometry":{"type":"Point","coordinates":[-121.66437,42.42733]}},{"type":"Feature","properties":{"acq_date":"2026-08-17","acq_time":947,"confidence":"n","satellite":"N","instrument":"VIIRS","version":"2.0NRT","bright_ti4":318.06,"frp":1.82,"daynight":"N"},"geometry":{"type":"Point","coordinates":[-121.66881,42.42777]}},{"type":"Feature","properties":{"acq_date":"2026-08-17","acq_time":947,"confidence":"n","satellite":"N","instrument":"VIIRS","version":"2.0NRT","bright_ti4":298.57,"frp":1.46,"daynight":"N"},"geometry":{"type":"Point","coordinates":[-120.79612,43.00066]}},{"type":"Feature","properties":{"acq_date":"2026-08-17","acq_time":947,"confidence":"n","satellite":"N","instrument":"VIIRS","version":"2.0NRT","bright_ti4":300.09,"frp":1.13,"daynight":"N"},"geometry":{"type":"Point","coordinates":[-120.79562,43.00309]}},{"type":"Feature","properties":{"acq_date":"2026-08-17","acq_time":947,"confidence":"n","satellite":"N","instrument":"VIIRS","version":"2.0NRT","bright_ti4":297.32,"frp":1.04,"daynight":"N"},"geometry":{"type":"Point","coordinates":[-120.79009,43.00404]}},{"type":"Feature","properties":{"acq_date":"2026-08-17","acq_time":947,"confidence":"n","satellite":"N","instrument":"VIIRS","version":"2.0NRT","bright_ti4":302.17,"frp":1.46,"daynight":"N"},"geometry":{"type":"Point","coordinates":[-120.79581,43.00463]}},{"type":"Feature","properties":{"acq_date":"2026-08-17","acq_time":947,"confidence":"n","satellite":"N","instrument":"VIIRS","version":"2.0NRT","bright_ti4":300.51,"frp":1.13,"daynight":"N"},"geometry":{"type":"Point","coordinates":[-120.79521,43.00705]}},{"type":"Feature","properties":{"acq_date":"2026-08-17","acq_time":947,"confidence":"n","satellite":"N","instrument":"VIIRS","version":"2.0NRT","bright_ti4":296.45,"frp":1.85,"daynight":"N"},"geometry":{"type":"Point","coordinates":[-120.79535,43.00859]}},{"type":"Feature","properties":{"acq_date":"2026-08-17","acq_time":947,"confidence":"n","satellite":"N","instrument":"VIIRS","version":"2.0NRT","bright_ti4":295.31,"frp":0.53,"daynight":"N"},"geometry":{"type":"Point","coordinates":[-115.67023,43.14676]}},{"type":"Feature","properties":{"acq_date":"2026-08-17","acq_time":947,"confidence":"n","satellite":"N","instrument":"VIIRS","version":"2.0NRT","bright_ti4":299.45,"frp":0.56,"daynight":"N"},"geometry":{"type":"Point","coordinates":[-115.73524,43.1804]}},{"type":"Feature","properties":{"acq_date":"2026-08-17","acq_time":949,"confidence":"n","satellite":"N","instrument":"VIIRS","version":"2.0NRT","bright_ti4":333.35,"frp":10.79,"daynight":"N"},"geometry":{"type":"Point","coordinates":[-116.31895,32.49892]}},{"type":"Feature","properties":{"acq_date":"2026-08-17","acq_time":949,"confidence":"n","satellite":"N","instrument":"VIIRS","version":"2.0NRT","bright_ti4":312.3,"frp":0.98,"daynight":"N"},"geometry":{"type":"Point","coordinates":[-115.35102,32.54399]}},{"type":"Feature","properties":{"acq_date":"2026-08-17","acq_time":949,"confidence":"n","satellite":"N","instrument":"VIIRS","version":"2.0NRT","bright_ti4":301.43,"frp":0.51,"daynight":"N"},"geometry":{"type":"Point","coordinates":[-117.0284,32.85636]}},{"type":"Feature","properties":{"acq_date":"2026-08-17","acq_time":949,"confidence":"n","satellite":"N","instrument":"VIIRS","version":"2.0NRT","bright_ti4":306.69,"frp":0.58,"daynight":"N"},"geometry":{"type":"Point","coordinates":[-117.14686,32.85868]}},{"type":"Feature","properties":{"acq_date":"2026-08-17","acq_time":949,"confidence":"n","satellite":"N","instrument":"VIIRS","version":"2.0NRT","bright_ti4":301.11,"frp":0.48,"daynight":"N"},"geometry":{"type":"Point","coordinates":[-117.61624,33.49167]}},{"type":"Feature","properties":{"acq_date":"2026-08-17","acq_time":949,"confidence":"n","satellite":"N","instrument":"VIIRS","version":"2.0NRT","bright_ti4":309.57,"frp":1.05,"daynight":"N"},"geometry":{"type":"Point","coordinates":[-117.82388,33.61225]}},{"type":"Feature","properties":{"acq_date":"2026-08-17","acq_time":949,"confidence":"n","satellite":"N","instrument":"VIIRS","version":"2.0NRT","bright_ti4":302.89,"frp":0.73,"daynight":"N"},"geometry":{"type":"Point","coordinates":[-117.71236,33.71722]}},{"type":"Feature","properties":{"acq_date":"2026-08-17","acq_time":949,"confidence":"n","satellite":"N","instrument":"VIIRS","version":"2.0NRT","bright_ti4":310.02,"frp":0.83,"daynight":"N"},"geometry":{"type":"Point","coordinates":[-118.23697,33.77788]}},{"type":"Feature","properties":{"acq_date":"2026-08-17","acq_time":949,"confidence":"n","satellite":"N","instrument":"VIIRS","version":"2.0NRT","bright_ti4":314.79,"frp":1.02,"daynight":"N"},"geometry":{"type":"Point","coordinates":[-117.47501,33.79502]}},{"type":"Feature","properties":{"acq_date":"2026-08-17","acq_time":949,"confidence":"n","satellite":"N","instrument":"VIIRS","version":"2.0NRT","bright_ti4":305.95,"frp":1.28,"daynight":"N"},"geometry":{"type":"Point","coordinates":[-118.23732,33.81549]}},{"type":"Feature","properties":{"acq_date":"2026-08-17","acq_time":949,"confidence":"n","satellite":"N","instrument":"VIIRS","version":"2.0NRT","bright_ti4":306.57,"frp":1.43,"daynight":"N"},"geometry":{"type":"Point","coordinates":[-118.2449,33.82006]}},{"type":"Feature","properties":{"acq_date":"2026-08-17","acq_time":949,"confidence":"n","satellite":"N","instrument":"VIIRS","version":"2.0NRT","bright_ti4":309.48,"frp":1.19,"daynight":"N"},"geometry":{"type":"Point","coordinates":[-118.33202,33.85383]}},{"type":"Feature","properties":{"acq_date":"2026-08-17","acq_time":949,"confidence":"n","satellite":"N","instrument":"VIIRS","version":"2.0NRT","bright_ti4":301.42,"frp":0.27,"daynight":"N"},"geometry":{"type":"Point","coordinates":[-116.99737,33.87782]}},{"type":"Feature","properties":{"acq_date":"2026-08-17","acq_time":949,"confidence":"n","satellite":"N","instrument":"VIIRS","version":"2.0NRT","bright_ti4":302.14,"frp":0.42,"daynight":"N"},"geometry":{"type":"Point","coordinates":[-117.12048,33.95575]}},{"type":"Feature","properties":{"acq_date":"2026-08-17","acq_time":949,"confidence":"n","satellite":"N","instrument":"VIIRS","version":"2.0NRT","bright_ti4":305.39,"frp":0.64,"daynight":"N"},"geometry":{"type":"Point","coordinates":[-118.10628,34.03631]}},{"type":"Feature","properties":{"acq_date":"2026-08-17","acq_time":949,"confidence":"n","satellite":"N","instrument":"VIIRS","version":"2.0NRT","bright_ti4":301.4,"frp":0.47,"daynight":"N"},"geometry":{"type":"Point","coordinates":[-117.82352,34.0397]}},{"type":"Feature","properties":{"acq_date":"2026-08-17","acq_time":949,"confidence":"n","satellite":"N","instrument":"VIIRS","version":"2.0NRT","bright_ti4":314.96,"frp":1.04,"daynight":"N"},"geometry":{"type":"Point","coordinates":[-118.1929,34.15443]}},{"type":"Feature","properties":{"acq_date":"2026-08-17","acq_time":949,"confidence":"n","satellite":"N","instrument":"VIIRS","version":"2.0NRT","bright_ti4":308.23,"frp":0.59,"daynight":"N"},"geometry":{"type":"Point","coordinates":[-118.38256,34.24392]}},{"type":"Feature","properties":{"acq_date":"2026-08-17","acq_time":949,"confidence":"n","satellite":"N","instrument":"VIIRS","version":"2.0NRT","bright_ti4":297.49,"frp":0.44,"daynight":"N"},"geometry":{"type":"Point","coordinates":[-118.80439,34.29261]}},{"type":"Feature","properties":{"acq_date":"2026-08-17","acq_time":949,"confidence":"n","satellite":"N","instrument":"VIIRS","version":"2.0NRT","bright_ti4":323.43,"frp":1.94,"daynight":"N"},"geometry":{"type":"Point","coordinates":[-118.52077,34.33495]}},{"type":"Feature","properties":{"acq_date":"2026-08-17","acq_time":949,"confidence":"n","satellite":"N","instrument":"VIIRS","version":"2.0NRT","bright_ti4":313.15,"frp":1.09,"daynight":"N"},"geometry":{"type":"Point","coordinates":[-116.85368,34.35439]}},{"type":"Feature","properties":{"acq_date":"2026-08-17","acq_time":949,"confidence":"n","satellite":"N","instrument":"VIIRS","version":"2.0NRT","bright_ti4":315.1,"frp":2.02,"daynight":"N"},"geometry":{"type":"Point","coordinates":[-118.64528,34.42888]}},{"type":"Feature","properties":{"acq_date":"2026-08-17","acq_time":949,"confidence":"n","satellite":"N","instrument":"VIIRS","version":"2.0NRT","bright_ti4":301.69,"frp":0.32,"daynight":"N"},"geometry":{"type":"Point","coordinates":[-118.15118,34.56817]}},{"type":"Feature","properties":{"acq_date":"2026-08-17","acq_time":949,"confidence":"n","satellite":"N","instrument":"VIIRS","version":"2.0NRT","bright_ti4":304.43,"frp":0.91,"daynight":"N"},"geometry":{"type":"Point","coordinates":[-117.33855,34.6087]}},{"type":"Feature","properties":{"acq_date":"2026-08-17","acq_time":949,"confidence":"n","satellite":"N","instrument":"VIIRS","version":"2.0NRT","bright_ti4":320.59,"frp":1.75,"daynight":"N"},"geometry":{"type":"Point","coordinates":[-117.09896,34.62173]}},{"type":"Feature","properties":{"acq_date":"2026-08-17","acq_time":949,"confidence":"n","satellite":"N","instrument":"VIIRS","version":"2.0NRT","bright_ti4":302.92,"frp":0.99,"daynight":"N"},"geometry":{"type":"Point","coordinates":[-117.1031,34.62239]}},{"type":"Feature","properties":{"acq_date":"2026-08-17","acq_time":949,"confidence":"n","satellite":"N","instrument":"VIIRS","version":"2.0NRT","bright_ti4":302,"frp":0.27,"daynight":"N"},"geometry":{"type":"Point","coordinates":[-118.74834,34.81866]}},{"type":"Feature","properties":{"acq_date":"2026-08-17","acq_time":949,"confidence":"n","satellite":"N","instrument":"VIIRS","version":"2.0NRT","bright_ti4":305.2,"frp":1.56,"daynight":"N"},"geometry":{"type":"Point","coordinates":[-114.09019,35.14328]}},{"type":"Feature","properties":{"acq_date":"2026-08-17","acq_time":949,"confidence":"n","satellite":"N","instrument":"VIIRS","version":"2.0NRT","bright_ti4":314.94,"frp":1.21,"daynight":"N"},"geometry":{"type":"Point","coordinates":[-113.31276,35.51569]}},{"type":"Feature","properties":{"acq_date":"2026-08-17","acq_time":949,"confidence":"n","satellite":"N","instrument":"VIIRS","version":"2.0NRT","bright_ti4":311.85,"frp":2.01,"daynight":"N"},"geometry":{"type":"Point","coordinates":[-114.91069,36.3563]}},{"type":"Feature","properties":{"acq_date":"2026-08-17","acq_time":949,"confidence":"n","satellite":"N","instrument":"VIIRS","version":"2.0NRT","bright_ti4":310.34,"frp":2.12,"daynight":"N"},"geometry":{"type":"Point","coordinates":[-114.87623,36.38173]}},{"type":"Feature","properties":{"acq_date":"2026-08-17","acq_time":949,"confidence":"n","satellite":"N","instrument":"VIIRS","version":"2.0NRT","bright_ti4":305.73,"frp":0.48,"daynight":"N"},"geometry":{"type":"Point","coordinates":[-119.55783,36.59834]}},{"type":"Feature","properties":{"acq_date":"2026-08-17","acq_time":949,"confidence":"n","satellite":"N","instrument":"VIIRS","version":"2.0NRT","bright_ti4":302.47,"frp":0.61,"daynight":"N"},"geometry":{"type":"Point","coordinates":[-120.58089,36.69409]}},{"type":"Feature","properties":{"acq_date":"2026-08-17","acq_time":949,"confidence":"n","satellite":"N","instrument":"VIIRS","version":"2.0NRT","bright_ti4":305.77,"frp":1.03,"daynight":"N"},"geometry":{"type":"Point","coordinates":[-121.93285,37.45563]}},{"type":"Feature","properties":{"acq_date":"2026-08-17","acq_time":949,"confidence":"n","satellite":"N","instrument":"VIIRS","version":"2.0NRT","bright_ti4":303.96,"frp":0.81,"daynight":"N"},"geometry":{"type":"Point","coordinates":[-121.93121,37.4557]}},{"type":"Feature","properties":{"acq_date":"2026-08-17","acq_time":949,"confidence":"n","satellite":"N","instrument":"VIIRS","version":"2.0NRT","bright_ti4":298.09,"frp":0.73,"daynight":"N"},"geometry":{"type":"Point","coordinates":[-121.18491,37.88236]}}]}