{"type":"FeatureCollection","name":"FIRMS VIIRS CA (last 1 day)","crs":{"type":"name","properties":{"name":"EPSG:4326"}},"fetched_at_utc":"2026-08-18T14:36:26.709Z","source":{"url":"https://firms.modaps.eosdis.nasa.gov/api/area/csv/8c4af552cf654445dd280dfb3ad9337c/VIIRS_SNPP_NRT/-125,32,-113,43.5/1","dataset":"VIIRS_SNPP_NRT","bbox":"-125,32,-113,43.5","day_range":"1"},"features":[{"type":"Feature","properties":{"acq_date":"2026-08-18","acq_time":928,"confidence":"n","satellite":"N","instrument":"VIIRS","version":"2.0NRT","bright_ti4":307.34,"frp":1.55,"daynight":"N"},"geometry":{"type":"Point","coordinates":[-114.25381,40.82183]}},{"type":"Feature","properties":{"acq_date":"2026-08-18","acq_time":928,"confidence":"n","satellite":"N","instrument":"VIIRS","version":"2.0NRT","bright_ti4":300.65,"frp":0.74,"daynight":"N"},"geometry":{"type":"Point","coordinates":[-123.64208,41.10827]}},{"type":"Feature","properties":{"acq_date":"2026-08-18","acq_time":928,"confidence":"n","satellite":"N","instrument":"VIIRS","version":"2.0NRT","bright_ti4":304.61,"frp":1.05,"daynight":"N"},"geometry":{"type":"Point","coordinates":[-123.6143,41.1243]}},{"type":"Feature","properties":{"acq_date":"2026-08-18","acq_time":928,"confidence":"n","satellite":"N","instrument":"VIIRS","version":"2.0NRT","bright_ti4":301.01,"frp":1.14,"daynight":"N"},"geometry":{"type":"Point","coordinates":[-123.6166,41.12576]}},{"type":"Feature","properties":{"acq_date":"2026-08-18","acq_time":928,"confidence":"n","satellite":"N","instrument":"VIIRS","version":"2.0NRT","bright_ti4":308.75,"frp":0.93,"daynight":"N"},"geometry":{"type":"Point","coordinates":[-123.63416,41.13797]}},{"type":"Feature","properties":{"acq_date":"2026-08-18","acq_time":928,"confidence":"n","satellite":"N","instrument":"VIIRS","version":"2.0NRT","bright_ti4":302.93,"frp":0.76,"daynight":"N"},"geometry":{"type":"Point","coordinates":[-123.634,41.14243]}},{"type":"Feature","properties":{"acq_date":"2026-08-18","acq_time":928,"confidence":"n","satellite":"N","instrument":"VIIRS","version":"2.0NRT","bright_ti4":310.49,"frp":0.72,"daynight":"N"},"geometry":{"type":"Point","coordinates":[-121.57307,42.34501]}},{"type":"Feature","properties":{"acq_date":"2026-08-18","acq_time":928,"confidence":"n","satellite":"N","instrument":"VIIRS","version":"2.0NRT","bright_ti4":299.64,"frp":0.72,"daynight":"N"},"geometry":{"type":"Point","coordinates":[-121.57701,42.34523]}},{"type":"Feature","properties":{"acq_date":"2026-08-18","acq_time":928,"confidence":"n","satellite":"N","instrument":"VIIRS","version":"2.0NRT","bright_ti4":298.87,"frp":0.72,"daynight":"N"},"geometry":{"type":"Point","coordinates":[-121.57286,42.35023]}},{"type":"Feature","properties":{"acq_date":"2026-08-18","acq_time":928,"confidence":"n","satellite":"N","instrument":"VIIRS","version":"2.0NRT","bright_ti4":297.52,"frp":0.72,"daynight":"N"},"geometry":{"type":"Point","coordinates":[-121.57679,42.35045]}},{"type":"Feature","properties":{"acq_date":"2026-08-18","acq_time":928,"confidence":"n","satellite":"N","instrument":"VIIRS","version":"2.0NRT","bright_ti4":303.7,"frp":1.29,"daynight":"N"},"geometry":{"type":"Point","coordinates":[-121.58074,42.35067]}},{"type":"Feature","properties":{"acq_date":"2026-08-18","acq_time":928,"confidence":"n","satellite":"N","instrument":"VIIRS","version":"2.0NRT","bright_ti4":314.22,"frp":1.07,"daynight":"N"},"geometry":{"type":"Point","coordinates":[-121.59597,42.36201]}},{"type":"Feature","properties":{"acq_date":"2026-08-18","acq_time":928,"confidence":"n","satellite":"N","instrument":"VIIRS","version":"2.0NRT","bright_ti4":299.08,"frp":1.07,"daynight":"N"},"geometry":{"type":"Point","coordinates":[-121.59992,42.36223]}},{"type":"Feature","properties":{"acq_date":"2026-08-18","acq_time":928,"confidence":"n","satellite":"N","instrument":"VIIRS","version":"2.0NRT","bright_ti4":323.27,"frp":1.36,"daynight":"N"},"geometry":{"type":"Point","coordinates":[-121.59564,42.36723]}},{"type":"Feature","properties":{"acq_date":"2026-08-18","acq_time":928,"confidence":"n","satellite":"N","instrument":"VIIRS","version":"2.0NRT","bright_ti4":315.28,"frp":1.36,"daynight":"N"},"geometry":{"type":"Point","coordinates":[-121.59946,42.36744]}},{"type":"Feature","properties":{"acq_date":"2026-08-18","acq_time":928,"confidence":"n","satellite":"N","instrument":"VIIRS","version":"2.0NRT","bright_ti4":309.83,"frp":1.85,"daynight":"N"},"geometry":{"type":"Point","coordinates":[-121.60331,42.36766]}},{"type":"Feature","properties":{"acq_date":"2026-08-18","acq_time":928,"confidence":"n","satellite":"N","instrument":"VIIRS","version":"2.0NRT","bright_ti4":296.62,"frp":1.36,"daynight":"N"},"geometry":{"type":"Point","coordinates":[-121.59913,42.37267]}},{"type":"Feature","properties":{"acq_date":"2026-08-18","acq_time":928,"confidence":"n","satellite":"N","instrument":"VIIRS","version":"2.0NRT","bright_ti4":299.85,"frp":0.68,"daynight":"N"},"geometry":{"type":"Point","coordinates":[-121.67121,42.41306]}},{"type":"Feature","properties":{"acq_date":"2026-08-18","acq_time":928,"confidence":"n","satellite":"N","instrument":"VIIRS","version":"2.0NRT","bright_ti4":309.43,"frp":0.68,"daynight":"N"},"geometry":{"type":"Point","coordinates":[-121.67558,42.41329]}},{"type":"Feature","properties":{"acq_date":"2026-08-18","acq_time":928,"confidence":"n","satellite":"N","instrument":"VIIRS","version":"2.0NRT","bright_ti4":308.07,"frp":1.2,"daynight":"N"},"geometry":{"type":"Point","coordinates":[-115.67082,43.14678]}},{"type":"Feature","properties":{"acq_date":"2026-08-18","acq_time":930,"confidence":"n","satellite":"N","instrument":"VIIRS","version":"2.0NRT","bright_ti4":315.82,"frp":2.81,"daynight":"N"},"geometry":{"type":"Point","coordinates":[-117.33574,34.60831]}},{"type":"Feature","properties":{"acq_date":"2026-08-18","acq_time":930,"confidence":"n","satellite":"N","instrument":"VIIRS","version":"2.0NRT","bright_ti4":308.25,"frp":1.08,"daynight":"N"},"geometry":{"type":"Point","coordinates":[-117.10079,34.62288]}},{"type":"Feature","properties":{"acq_date":"2026-08-18","acq_time":930,"confidence":"n","satellite":"N","instrument":"VIIRS","version":"2.0NRT","bright_ti4":321.41,"frp":2.49,"daynight":"N"},"geometry":{"type":"Point","coordinates":[-113.31548,35.51665]}},{"type":"Feature","properties":{"acq_date":"2026-08-18","acq_time":930,"confidence":"n","satellite":"N","instrument":"VIIRS","version":"2.0NRT","bright_ti4":314.44,"frp":3.18,"daynight":"N"},"geometry":{"type":"Point","coordinates":[-114.91101,36.35866]}},{"type":"Feature","properties":{"acq_date":"2026-08-18","acq_time":930,"confidence":"n","satellite":"N","instrument":"VIIRS","version":"2.0NRT","bright_ti4":314.94,"frp":2.75,"daynight":"N"},"geometry":{"type":"Point","coordinates":[-114.87676,36.38264]}},{"type":"Feature","properties":{"acq_date":"2026-08-18","acq_time":930,"confidence":"n","satellite":"N","instrument":"VIIRS","version":"2.0NRT","bright_ti4":298.88,"frp":0.69,"daynight":"N"},"geometry":{"type":"Point","coordinates":[-121.18861,37.88205]}},{"type":"Feature","properties":{"acq_date":"2026-08-18","acq_time":930,"confidence":"n","satellite":"N","instrument":"VIIRS","version":"2.0NRT","bright_ti4":301.2,"frp":1.28,"daynight":"N"},"geometry":{"type":"Point","coordinates":[-122.11266,38.01397]}},{"type":"Feature","properties":{"acq_date":"2026-08-18","acq_time":930,"confidence":"n","satellite":"N","instrument":"VIIRS","version":"2.0NRT","bright_ti4":302.29,"frp":1.22,"daynight":"N"},"geometry":{"type":"Point","coordinates":[-122.11474,38.01546]}},{"type":"Feature","properties":{"acq_date":"2026-08-18","acq_time":930,"confidence":"n","satellite":"N","instrument":"VIIRS","version":"2.0NRT","bright_ti4":298.07,"frp":0.32,"daynight":"N"},"geometry":{"type":"Point","coordinates":[-119.26443,39.62161]}},{"type":"Feature","properties":{"acq_date":"2026-08-18","acq_time":930,"confidence":"n","satellite":"N","instrument":"VIIRS","version":"2.0NRT","bright_ti4":296.16,"frp":4.89,"daynight":"N"},"geometry":{"type":"Point","coordinates":[-117.59412,39.74039]}},{"type":"Feature","properties":{"acq_date":"2026-08-18","acq_time":930,"confidence":"n","satellite":"N","instrument":"VIIRS","version":"2.0NRT","bright_ti4":303.92,"frp":2.41,"daynight":"N"},"geometry":{"type":"Point","coordinates":[-117.575,39.7426]}},{"type":"Feature","properties":{"acq_date":"2026-08-18","acq_time":930,"confidence":"n","satellite":"N","instrument":"VIIRS","version":"2.0NRT","bright_ti4":336.63,"frp":2.41,"daynight":"N"},"geometry":{"type":"Point","coordinates":[-117.57961,39.74306]}},{"type":"Feature","properties":{"acq_date":"2026-08-18","acq_time":930,"confidence":"n","satellite":"N","instrument":"VIIRS","version":"2.0NRT","bright_ti4":339.73,"frp":4.89,"daynight":"N"},"geometry":{"type":"Point","coordinates":[-117.59305,39.74443]}},{"type":"Feature","properties":{"acq_date":"2026-08-18","acq_time":930,"confidence":"n","satellite":"N","instrument":"VIIRS","version":"2.0NRT","bright_ti4":338.7,"frp":4.89,"daynight":"N"},"geometry":{"type":"Point","coordinates":[-117.59755,39.74488]}},{"type":"Feature","properties":{"acq_date":"2026-08-18","acq_time":930,"confidence":"n","satellite":"N","instrument":"VIIRS","version":"2.0NRT","bright_ti4":317.75,"frp":2.43,"daynight":"N"},"geometry":{"type":"Point","coordinates":[-117.56947,39.74618]}},{"type":"Feature","properties":{"acq_date":"2026-08-18","acq_time":930,"confidence":"n","satellite":"N","instrument":"VIIRS","version":"2.0NRT","bright_ti4":301.3,"frp":1.2,"daynight":"N"},"geometry":{"type":"Point","coordinates":[-117.57862,39.74712]}},{"type":"Feature","properties":{"acq_date":"2026-08-18","acq_time":930,"confidence":"n","satellite":"N","instrument":"VIIRS","version":"2.0NRT","bright_ti4":326.31,"frp":2.93,"daynight":"N"},"geometry":{"type":"Point","coordinates":[-117.5831,39.74757]}},{"type":"Feature","properties":{"acq_date":"2026-08-18","acq_time":930,"confidence":"n","satellite":"N","instrument":"VIIRS","version":"2.0NRT","bright_ti4":299.77,"frp":0.75,"daynight":"N"},"geometry":{"type":"Point","coordinates":[-117.59409,39.75698]}},{"type":"Feature","properties":{"acq_date":"2026-08-18","acq_time":930,"confidence":"n","satellite":"N","instrument":"VIIRS","version":"2.0NRT","bright_ti4":297,"frp":0.64,"daynight":"N"},"geometry":{"type":"Point","coordinates":[-117.58778,39.75903]}},{"type":"Feature","properties":{"acq_date":"2026-08-18","acq_time":930,"confidence":"n","satellite":"N","instrument":"VIIRS","version":"2.0NRT","bright_ti4":296.95,"frp":1.25,"daynight":"N"},"geometry":{"type":"Point","coordinates":[-117.59222,39.75945]}},{"type":"Feature","properties":{"acq_date":"2026-08-18","acq_time":930,"confidence":"n","satellite":"N","instrument":"VIIRS","version":"2.0NRT","bright_ti4":295.86,"frp":0.75,"daynight":"N"},"geometry":{"type":"Point","coordinates":[-117.58882,39.7606]}},{"type":"Feature","properties":{"acq_date":"2026-08-18","acq_time":930,"confidence":"n","satellite":"N","instrument":"VIIRS","version":"2.0NRT","bright_ti4":340.01,"frp":10.73,"daynight":"N"},"geometry":{"type":"Point","coordinates":[-117.57935,39.7748]}},{"type":"Feature","properties":{"acq_date":"2026-08-18","acq_time":930,"confidence":"n","satellite":"N","instrument":"VIIRS","version":"2.0NRT","bright_ti4":339.16,"frp":10.73,"daynight":"N"},"geometry":{"type":"Point","coordinates":[-117.58437,39.77529]}},{"type":"Feature","properties":{"acq_date":"2026-08-18","acq_time":930,"confidence":"n","satellite":"N","instrument":"VIIRS","version":"2.0NRT","bright_ti4":302.78,"frp":2.21,"daynight":"N"},"geometry":{"type":"Point","coordinates":[-117.5787,39.77888]}},{"type":"Feature","properties":{"acq_date":"2026-08-18","acq_time":930,"confidence":"n","satellite":"N","instrument":"VIIRS","version":"2.0NRT","bright_ti4":331.06,"frp":2.21,"daynight":"N"},"geometry":{"type":"Point","coordinates":[-117.58365,39.77937]}},{"type":"Feature","properties":{"acq_date":"2026-08-18","acq_time":930,"confidence":"n","satellite":"N","instrument":"VIIRS","version":"2.0NRT","bright_ti4":298.42,"frp":1.05,"daynight":"N"},"geometry":{"type":"Point","coordinates":[-117.52018,39.79797]}},{"type":"Feature","properties":{"acq_date":"2026-08-18","acq_time":930,"confidence":"n","satellite":"N","instrument":"VIIRS","version":"2.0NRT","bright_ti4":303.86,"frp":1.05,"daynight":"N"},"geometry":{"type":"Point","coordinates":[-117.51958,39.80204]}},{"type":"Feature","properties":{"acq_date":"2026-08-18","acq_time":930,"confidence":"n","satellite":"N","instrument":"VIIRS","version":"2.0NRT","bright_ti4":312.32,"frp":2.23,"daynight":"N"},"geometry":{"type":"Point","coordinates":[-117.5875,39.8254]}},{"type":"Feature","properties":{"acq_date":"2026-08-18","acq_time":930,"confidence":"n","satellite":"N","instrument":"VIIRS","version":"2.0NRT","bright_ti4":338.09,"frp":1.97,"daynight":"N"},"geometry":{"type":"Point","coordinates":[-117.5873,39.82953]}},{"type":"Feature","properties":{"acq_date":"2026-08-18","acq_time":930,"confidence":"n","satellite":"N","instrument":"VIIRS","version":"2.0NRT","bright_ti4":301.06,"frp":1.97,"daynight":"N"},"geometry":{"type":"Point","coordinates":[-117.58692,39.83365]}},{"type":"Feature","properties":{"acq_date":"2026-08-18","acq_time":932,"confidence":"n","satellite":"N","instrument":"VIIRS","version":"2.0NRT","bright_ti4":314.4,"frp":1.06,"daynight":"N"},"geometry":{"type":"Point","coordinates":[-115.35308,32.54372]}},{"type":"Feature","properties":{"acq_date":"2026-08-18","acq_time":932,"confidence":"n","satellite":"N","instrument":"VIIRS","version":"2.0NRT","bright_ti4":329.98,"frp":2.45,"daynight":"N"},"geometry":{"type":"Point","coordinates":[-115.32265,32.66477]}},{"type":"Feature","properties":{"acq_date":"2026-08-18","acq_time":932,"confidence":"n","satellite":"N","instrument":"VIIRS","version":"2.0NRT","bright_ti4":302.1,"frp":0.61,"daynight":"N"},"geometry":{"type":"Point","coordinates":[-117.147,32.85707]}},{"type":"Feature","properties":{"acq_date":"2026-08-18","acq_time":932,"confidence":"n","satellite":"N","instrument":"VIIRS","version":"2.0NRT","bright_ti4":303.4,"frp":0.31,"daynight":"N"},"geometry":{"type":"Point","coordinates":[-117.02686,32.85727]}},{"type":"Feature","properties":{"acq_date":"2026-08-18","acq_time":932,"confidence":"n","satellite":"N","instrument":"VIIRS","version":"2.0NRT","bright_ti4":300.46,"frp":0.64,"daynight":"N"},"geometry":{"type":"Point","coordinates":[-117.14802,32.85888]}},{"type":"Feature","properties":{"acq_date":"2026-08-18","acq_time":932,"confidence":"n","satellite":"N","instrument":"VIIRS","version":"2.0NRT","bright_ti4":300.23,"frp":0.51,"daynight":"N"},"geometry":{"type":"Point","coordinates":[-117.61443,33.49218]}},{"type":"Feature","properties":{"acq_date":"2026-08-18","acq_time":932,"confidence":"n","satellite":"N","instrument":"VIIRS","version":"2.0NRT","bright_ti4":306.89,"frp":1.16,"daynight":"N"},"geometry":{"type":"Point","coordinates":[-117.82579,33.61221]}},{"type":"Feature","properties":{"acq_date":"2026-08-18","acq_time":932,"confidence":"n","satellite":"N","instrument":"VIIRS","version":"2.0NRT","bright_ti4":302.34,"frp":0.79,"daynight":"N"},"geometry":{"type":"Point","coordinates":[-117.70935,33.7139]}},{"type":"Feature","properties":{"acq_date":"2026-08-18","acq_time":932,"confidence":"n","satellite":"N","instrument":"VIIRS","version":"2.0NRT","bright_ti4":310.69,"frp":0.95,"daynight":"N"},"geometry":{"type":"Point","coordinates":[-117.47319,33.79316]}},{"type":"Feature","properties":{"acq_date":"2026-08-18","acq_time":932,"confidence":"n","satellite":"N","instrument":"VIIRS","version":"2.0NRT","bright_ti4":300.73,"frp":0.38,"daynight":"N"},"geometry":{"type":"Point","coordinates":[-117.43063,34.14106]}},{"type":"Feature","properties":{"acq_date":"2026-08-18","acq_time":932,"confidence":"n","satellite":"N","instrument":"VIIRS","version":"2.0NRT","bright_ti4":310.23,"frp":1.49,"daynight":"N"},"geometry":{"type":"Point","coordinates":[-118.19454,34.15356]}},{"type":"Feature","properties":{"acq_date":"2026-08-18","acq_time":932,"confidence":"n","satellite":"N","instrument":"VIIRS","version":"2.0NRT","bright_ti4":308.95,"frp":1.27,"daynight":"N"},"geometry":{"type":"Point","coordinates":[-118.19487,34.15457]}},{"type":"Feature","properties":{"acq_date":"2026-08-18","acq_time":932,"confidence":"n","satellite":"N","instrument":"VIIRS","version":"2.0NRT","bright_ti4":319.19,"frp":1.81,"daynight":"N"},"geometry":{"type":"Point","coordinates":[-118.52042,34.33604]}},{"type":"Feature","properties":{"acq_date":"2026-08-18","acq_time":1108,"confidence":"n","satellite":"N","instrument":"VIIRS","version":"2.0NRT","bright_ti4":297.95,"frp":0.86,"daynight":"N"},"geometry":{"type":"Point","coordinates":[-120.79514,43.00634]}},{"type":"Feature","properties":{"acq_date":"2026-08-18","acq_time":1110,"confidence":"n","satellite":"N","instrument":"VIIRS","version":"2.0NRT","bright_ti4":302.43,"frp":0.99,"daynight":"N"},"geometry":{"type":"Point","coordinates":[-121.69561,36.22247]}},{"type":"Feature","properties":{"acq_date":"2026-08-18","acq_time":1110,"confidence":"n","satellite":"N","instrument":"VIIRS","version":"2.0NRT","bright_ti4":296.64,"frp":0.89,"daynight":"N"},"geometry":{"type":"Point","coordinates":[-119.26726,39.61921]}},{"type":"Feature","properties":{"acq_date":"2026-08-18","acq_time":1110,"confidence":"n","satellite":"N","instrument":"VIIRS","version":"2.0NRT","bright_ti4":301.18,"frp":1.1,"daynight":"N"},"geometry":{"type":"Point","coordinates":[-119.26394,39.62177]}},{"type":"Feature","properties":{"acq_date":"2026-08-18","acq_time":1110,"confidence":"n","satellite":"N","instrument":"VIIRS","version":"2.0NRT","bright_ti4":295.8,"frp":1.36,"daynight":"N"},"geometry":{"type":"Point","coordinates":[-117.59526,39.73654]}},{"type":"Feature","properties":{"acq_date":"2026-08-18","acq_time":1110,"confidence":"n","satellite":"N","instrument":"VIIRS","version":"2.0NRT","bright_ti4":319.81,"frp":2.98,"daynight":"N"},"geometry":{"type":"Point","coordinates":[-117.59979,39.74252]}},{"type":"Feature","properties":{"acq_date":"2026-08-18","acq_time":1110,"confidence":"n","satellite":"N","instrument":"VIIRS","version":"2.0NRT","bright_ti4":301.45,"frp":4.03,"daynight":"N"},"geometry":{"type":"Point","coordinates":[-117.59364,39.7439]}},{"type":"Feature","properties":{"acq_date":"2026-08-18","acq_time":1110,"confidence":"n","satellite":"N","instrument":"VIIRS","version":"2.0NRT","bright_ti4":314.36,"frp":2.98,"daynight":"N"},"geometry":{"type":"Point","coordinates":[-117.60866,39.74551]}},{"type":"Feature","properties":{"acq_date":"2026-08-18","acq_time":1110,"confidence":"n","satellite":"N","instrument":"VIIRS","version":"2.0NRT","bright_ti4":318.09,"frp":4.03,"daynight":"N"},"geometry":{"type":"Point","coordinates":[-117.60336,39.74723]}},{"type":"Feature","properties":{"acq_date":"2026-08-18","acq_time":1110,"confidence":"n","satellite":"N","instrument":"VIIRS","version":"2.0NRT","bright_ti4":308.94,"frp":4.94,"daynight":"N"},"geometry":{"type":"Point","coordinates":[-117.61135,39.74997]}},{"type":"Feature","properties":{"acq_date":"2026-08-18","acq_time":1110,"confidence":"n","satellite":"N","instrument":"VIIRS","version":"2.0NRT","bright_ti4":303.31,"frp":2.98,"daynight":"N"},"geometry":{"type":"Point","coordinates":[-117.60715,39.75288]}},{"type":"Feature","properties":{"acq_date":"2026-08-18","acq_time":1110,"confidence":"n","satellite":"N","instrument":"VIIRS","version":"2.0NRT","bright_ti4":298.24,"frp":1.52,"daynight":"N"},"geometry":{"type":"Point","coordinates":[-117.59061,39.75868]}},{"type":"Feature","properties":{"acq_date":"2026-08-18","acq_time":1110,"confidence":"n","satellite":"N","instrument":"VIIRS","version":"2.0NRT","bright_ti4":296.04,"frp":1.52,"daynight":"N"},"geometry":{"type":"Point","coordinates":[-117.58735,39.76546]}},{"type":"Feature","properties":{"acq_date":"2026-08-18","acq_time":1110,"confidence":"n","satellite":"N","instrument":"VIIRS","version":"2.0NRT","bright_ti4":296.99,"frp":8.67,"daynight":"N"},"geometry":{"type":"Point","coordinates":[-117.57681,39.76976]}},{"type":"Feature","properties":{"acq_date":"2026-08-18","acq_time":1110,"confidence":"n","satellite":"N","instrument":"VIIRS","version":"2.0NRT","bright_ti4":353.25,"frp":13.56,"daynight":"N"},"geometry":{"type":"Point","coordinates":[-117.58462,39.77242]}},{"type":"Feature","properties":{"acq_date":"2026-08-18","acq_time":1110,"confidence":"n","satellite":"N","instrument":"VIIRS","version":"2.0NRT","bright_ti4":308.88,"frp":13.56,"daynight":"N"},"geometry":{"type":"Point","coordinates":[-117.59148,39.77478]}},{"type":"Feature","properties":{"acq_date":"2026-08-18","acq_time":1110,"confidence":"h","satellite":"N","instrument":"VIIRS","version":"2.0NRT","bright_ti4":367,"frp":13.56,"daynight":"N"},"geometry":{"type":"Point","coordinates":[-117.58128,39.77919]}},{"type":"Feature","properties":{"acq_date":"2026-08-18","acq_time":1110,"confidence":"n","satellite":"N","instrument":"VIIRS","version":"2.0NRT","bright_ti4":323.45,"frp":13.56,"daynight":"N"},"geometry":{"type":"Point","coordinates":[-117.58859,39.78168]}},{"type":"Feature","properties":{"acq_date":"2026-08-18","acq_time":1110,"confidence":"n","satellite":"N","instrument":"VIIRS","version":"2.0NRT","bright_ti4":303.9,"frp":2.65,"daynight":"N"},"geometry":{"type":"Point","coordinates":[-117.58965,39.82622]}},{"type":"Feature","properties":{"acq_date":"2026-08-18","acq_time":1110,"confidence":"n","satellite":"N","instrument":"VIIRS","version":"2.0NRT","bright_ti4":298.34,"frp":1.47,"daynight":"N"},"geometry":{"type":"Point","coordinates":[-117.58485,39.82775]}},{"type":"Feature","properties":{"acq_date":"2026-08-18","acq_time":1110,"confidence":"n","satellite":"N","instrument":"VIIRS","version":"2.0NRT","bright_ti4":306.64,"frp":1.47,"daynight":"N"},"geometry":{"type":"Point","coordinates":[-117.59171,39.83008]}},{"type":"Feature","properties":{"acq_date":"2026-08-18","acq_time":1110,"confidence":"n","satellite":"N","instrument":"VIIRS","version":"2.0NRT","bright_ti4":299.02,"frp":2.73,"daynight":"N"},"geometry":{"type":"Point","coordinates":[-117.59165,39.83481]}},{"type":"Feature","properties":{"acq_date":"2026-08-18","acq_time":1110,"confidence":"n","satellite":"N","instrument":"VIIRS","version":"2.0NRT","bright_ti4":306.38,"frp":1.13,"daynight":"N"},"geometry":{"type":"Point","coordinates":[-123.63452,41.10601]}},{"type":"Feature","properties":{"acq_date":"2026-08-18","acq_time":1110,"confidence":"n","satellite":"N","instrument":"VIIRS","version":"2.0NRT","bright_ti4":310.06,"frp":0.87,"daynight":"N"},"geometry":{"type":"Point","coordinates":[-123.63771,41.10688]}},{"type":"Feature","properties":{"acq_date":"2026-08-18","acq_time":1110,"confidence":"n","satellite":"N","instrument":"VIIRS","version":"2.0NRT","bright_ti4":299.31,"frp":0.87,"daynight":"N"},"geometry":{"type":"Point","coordinates":[-123.64066,41.10768]}},{"type":"Feature","properties":{"acq_date":"2026-08-18","acq_time":1110,"confidence":"n","satellite":"N","instrument":"VIIRS","version":"2.0NRT","bright_ti4":300.96,"frp":0.78,"daynight":"N"},"geometry":{"type":"Point","coordinates":[-123.64767,41.11525]}},{"type":"Feature","properties":{"acq_date":"2026-08-18","acq_time":1110,"confidence":"n","satellite":"N","instrument":"VIIRS","version":"2.0NRT","bright_ti4":300.18,"frp":1.03,"daynight":"N"},"geometry":{"type":"Point","coordinates":[-121.57447,42.34721]}},{"type":"Feature","properties":{"acq_date":"2026-08-18","acq_time":1110,"confidence":"n","satellite":"N","instrument":"VIIRS","version":"2.0NRT","bright_ti4":297.11,"frp":0.74,"daynight":"N"},"geometry":{"type":"Point","coordinates":[-121.57954,42.34867]}},{"type":"Feature","properties":{"acq_date":"2026-08-18","acq_time":1110,"confidence":"n","satellite":"N","instrument":"VIIRS","version":"2.0NRT","bright_ti4":300.53,"frp":0.94,"daynight":"N"},"geometry":{"type":"Point","coordinates":[-121.59616,42.36336]}},{"type":"Feature","properties":{"acq_date":"2026-08-18","acq_time":1110,"confidence":"n","satellite":"N","instrument":"VIIRS","version":"2.0NRT","bright_ti4":303.69,"frp":1.42,"daynight":"N"},"geometry":{"type":"Point","coordinates":[-121.59854,42.3663]}},{"type":"Feature","properties":{"acq_date":"2026-08-18","acq_time":1110,"confidence":"n","satellite":"N","instrument":"VIIRS","version":"2.0NRT","bright_ti4":299.99,"frp":0.94,"daynight":"N"},"geometry":{"type":"Point","coordinates":[-121.59816,42.37003]}},{"type":"Feature","properties":{"acq_date":"2026-08-18","acq_time":1110,"confidence":"n","satellite":"N","instrument":"VIIRS","version":"2.0NRT","bright_ti4":297.74,"frp":0.26,"daynight":"N"},"geometry":{"type":"Point","coordinates":[-122.77514,42.38438]}},{"type":"Feature","properties":{"acq_date":"2026-08-18","acq_time":1110,"confidence":"n","satellite":"N","instrument":"VIIRS","version":"2.0NRT","bright_ti4":300.14,"frp":0.44,"daynight":"N"},"geometry":{"type":"Point","coordinates":[-121.67079,42.41557]}},{"type":"Feature","properties":{"acq_date":"2026-08-18","acq_time":1110,"confidence":"n","satellite":"N","instrument":"VIIRS","version":"2.0NRT","bright_ti4":298.7,"frp":0.36,"daynight":"N"},"geometry":{"type":"Point","coordinates":[-121.69662,42.41703]}}]}