{"type":"FeatureCollection","name":"FIRMS VIIRS CA (last 1 day)","crs":{"type":"name","properties":{"name":"EPSG:4326"}},"fetched_at_utc":"2026-10-07T19:48:30.366Z","source":{"url":"https://firms.modaps.eosdis.nasa.gov/api/area/csv/8c4af552cf654445dd280dfb3ad9337c/VIIRS_SNPP_NRT/-125,32,-113,43.5/1","dataset":"VIIRS_SNPP_NRT","bbox":"-125,32,-113,43.5","day_range":"1"},"features":[{"type":"Feature","properties":{"acq_date":"2026-10-07","acq_time":854,"confidence":"n","satellite":"N","instrument":"VIIRS","version":"2.0NRT","bright_ti4":331.25,"frp":3.39,"daynight":"N"},"geometry":{"type":"Point","coordinates":[-116.5936,32.35106]}},{"type":"Feature","properties":{"acq_date":"2026-10-07","acq_time":854,"confidence":"n","satellite":"N","instrument":"VIIRS","version":"2.0NRT","bright_ti4":304.31,"frp":1.05,"daynight":"N"},"geometry":{"type":"Point","coordinates":[-118.3335,33.85112]}},{"type":"Feature","properties":{"acq_date":"2026-10-07","acq_time":854,"confidence":"n","satellite":"N","instrument":"VIIRS","version":"2.0NRT","bright_ti4":302.03,"frp":1.05,"daynight":"N"},"geometry":{"type":"Point","coordinates":[-117.33652,34.60558]}},{"type":"Feature","properties":{"acq_date":"2026-10-07","acq_time":854,"confidence":"n","satellite":"N","instrument":"VIIRS","version":"2.0NRT","bright_ti4":303.79,"frp":1.8,"daynight":"N"},"geometry":{"type":"Point","coordinates":[-117.33524,34.60658]}},{"type":"Feature","properties":{"acq_date":"2026-10-07","acq_time":854,"confidence":"n","satellite":"N","instrument":"VIIRS","version":"2.0NRT","bright_ti4":303.47,"frp":0.82,"daynight":"N"},"geometry":{"type":"Point","coordinates":[-113.31329,35.51486]}},{"type":"Feature","properties":{"acq_date":"2026-10-07","acq_time":854,"confidence":"n","satellite":"N","instrument":"VIIRS","version":"2.0NRT","bright_ti4":323.59,"frp":2.66,"daynight":"N"},"geometry":{"type":"Point","coordinates":[-114.91191,36.35592]}},{"type":"Feature","properties":{"acq_date":"2026-10-07","acq_time":1032,"confidence":"n","satellite":"N","instrument":"VIIRS","version":"2.0NRT","bright_ti4":306.18,"frp":0.56,"daynight":"N"},"geometry":{"type":"Point","coordinates":[-122.4329,40.46788]}},{"type":"Feature","properties":{"acq_date":"2026-10-07","acq_time":1032,"confidence":"n","satellite":"N","instrument":"VIIRS","version":"2.0NRT","bright_ti4":302.41,"frp":0.5,"daynight":"N"},"geometry":{"type":"Point","coordinates":[-122.32411,40.73782]}},{"type":"Feature","properties":{"acq_date":"2026-10-07","acq_time":1032,"confidence":"n","satellite":"N","instrument":"VIIRS","version":"2.0NRT","bright_ti4":320.29,"frp":1.89,"daynight":"N"},"geometry":{"type":"Point","coordinates":[-114.25729,40.82221]}},{"type":"Feature","properties":{"acq_date":"2026-10-07","acq_time":1032,"confidence":"n","satellite":"N","instrument":"VIIRS","version":"2.0NRT","bright_ti4":332.96,"frp":3.76,"daynight":"N"},"geometry":{"type":"Point","coordinates":[-123.50053,41.44482]}},{"type":"Feature","properties":{"acq_date":"2026-10-07","acq_time":1032,"confidence":"n","satellite":"N","instrument":"VIIRS","version":"2.0NRT","bright_ti4":299.73,"frp":0.45,"daynight":"N"},"geometry":{"type":"Point","coordinates":[-122.77384,42.38463]}},{"type":"Feature","properties":{"acq_date":"2026-10-07","acq_time":1032,"confidence":"n","satellite":"N","instrument":"VIIRS","version":"2.0NRT","bright_ti4":338.21,"frp":4.33,"daynight":"N"},"geometry":{"type":"Point","coordinates":[-122.91322,42.79348]}},{"type":"Feature","properties":{"acq_date":"2026-10-07","acq_time":1032,"confidence":"n","satellite":"N","instrument":"VIIRS","version":"2.0NRT","bright_ti4":338.2,"frp":4.33,"daynight":"N"},"geometry":{"type":"Point","coordinates":[-122.91824,42.79438]}},{"type":"Feature","properties":{"acq_date":"2026-10-07","acq_time":1032,"confidence":"n","satellite":"N","instrument":"VIIRS","version":"2.0NRT","bright_ti4":306.03,"frp":1.66,"daynight":"N"},"geometry":{"type":"Point","coordinates":[-122.92315,42.79528]}},{"type":"Feature","properties":{"acq_date":"2026-10-07","acq_time":1032,"confidence":"n","satellite":"N","instrument":"VIIRS","version":"2.0NRT","bright_ti4":314.48,"frp":1.84,"daynight":"N"},"geometry":{"type":"Point","coordinates":[-122.91201,42.79682]}},{"type":"Feature","properties":{"acq_date":"2026-10-07","acq_time":1032,"confidence":"n","satellite":"N","instrument":"VIIRS","version":"2.0NRT","bright_ti4":325.31,"frp":1.84,"daynight":"N"},"geometry":{"type":"Point","coordinates":[-122.91703,42.79773]}},{"type":"Feature","properties":{"acq_date":"2026-10-07","acq_time":1032,"confidence":"n","satellite":"N","instrument":"VIIRS","version":"2.0NRT","bright_ti4":310.54,"frp":1.74,"daynight":"N"},"geometry":{"type":"Point","coordinates":[-122.92196,42.79863]}},{"type":"Feature","properties":{"acq_date":"2026-10-07","acq_time":1032,"confidence":"n","satellite":"N","instrument":"VIIRS","version":"2.0NRT","bright_ti4":296.57,"frp":0.39,"daynight":"N"},"geometry":{"type":"Point","coordinates":[-115.73571,43.17864]}},{"type":"Feature","properties":{"acq_date":"2026-10-07","acq_time":1032,"confidence":"n","satellite":"N","instrument":"VIIRS","version":"2.0NRT","bright_ti4":298.26,"frp":0.97,"daynight":"N"},"geometry":{"type":"Point","coordinates":[-115.73537,43.17869]}},{"type":"Feature","properties":{"acq_date":"2026-10-07","acq_time":1034,"confidence":"n","satellite":"N","instrument":"VIIRS","version":"2.0NRT","bright_ti4":301.77,"frp":0.5,"daynight":"N"},"geometry":{"type":"Point","coordinates":[-117.01089,32.60043]}},{"type":"Feature","properties":{"acq_date":"2026-10-07","acq_time":1034,"confidence":"n","satellite":"N","instrument":"VIIRS","version":"2.0NRT","bright_ti4":303.37,"frp":0.73,"daynight":"N"},"geometry":{"type":"Point","coordinates":[-117.61711,33.49334]}},{"type":"Feature","properties":{"acq_date":"2026-10-07","acq_time":1034,"confidence":"n","satellite":"N","instrument":"VIIRS","version":"2.0NRT","bright_ti4":309.47,"frp":0.76,"daynight":"N"},"geometry":{"type":"Point","coordinates":[-117.70937,33.71586]}},{"type":"Feature","properties":{"acq_date":"2026-10-07","acq_time":1034,"confidence":"n","satellite":"N","instrument":"VIIRS","version":"2.0NRT","bright_ti4":306.33,"frp":0.6,"daynight":"N"},"geometry":{"type":"Point","coordinates":[-117.47435,33.79502]}},{"type":"Feature","properties":{"acq_date":"2026-10-07","acq_time":1034,"confidence":"n","satellite":"N","instrument":"VIIRS","version":"2.0NRT","bright_ti4":308.52,"frp":1.47,"daynight":"N"},"geometry":{"type":"Point","coordinates":[-118.24231,33.82061]}},{"type":"Feature","properties":{"acq_date":"2026-10-07","acq_time":1034,"confidence":"n","satellite":"N","instrument":"VIIRS","version":"2.0NRT","bright_ti4":306.91,"frp":1.72,"daynight":"N"},"geometry":{"type":"Point","coordinates":[-118.33231,33.85329]}},{"type":"Feature","properties":{"acq_date":"2026-10-07","acq_time":1034,"confidence":"n","satellite":"N","instrument":"VIIRS","version":"2.0NRT","bright_ti4":308.12,"frp":0.56,"daynight":"N"},"geometry":{"type":"Point","coordinates":[-117.89198,34.03416]}},{"type":"Feature","properties":{"acq_date":"2026-10-07","acq_time":1034,"confidence":"n","satellite":"N","instrument":"VIIRS","version":"2.0NRT","bright_ti4":303.37,"frp":0.25,"daynight":"N"},"geometry":{"type":"Point","coordinates":[-118.10535,34.03514]}},{"type":"Feature","properties":{"acq_date":"2026-10-07","acq_time":1034,"confidence":"n","satellite":"N","instrument":"VIIRS","version":"2.0NRT","bright_ti4":307.5,"frp":1.11,"daynight":"N"},"geometry":{"type":"Point","coordinates":[-118.1938,34.15186]}},{"type":"Feature","properties":{"acq_date":"2026-10-07","acq_time":1034,"confidence":"n","satellite":"N","instrument":"VIIRS","version":"2.0NRT","bright_ti4":310.73,"frp":1.74,"daynight":"N"},"geometry":{"type":"Point","coordinates":[-118.51975,34.33645]}},{"type":"Feature","properties":{"acq_date":"2026-10-07","acq_time":1034,"confidence":"n","satellite":"N","instrument":"VIIRS","version":"2.0NRT","bright_ti4":300.3,"frp":1.09,"daynight":"N"},"geometry":{"type":"Point","coordinates":[-116.85473,34.35271]}},{"type":"Feature","properties":{"acq_date":"2026-10-07","acq_time":1034,"confidence":"n","satellite":"N","instrument":"VIIRS","version":"2.0NRT","bright_ti4":313.05,"frp":1.17,"daynight":"N"},"geometry":{"type":"Point","coordinates":[-117.33426,34.60885]}},{"type":"Feature","properties":{"acq_date":"2026-10-07","acq_time":1034,"confidence":"n","satellite":"N","instrument":"VIIRS","version":"2.0NRT","bright_ti4":305.88,"frp":1.17,"daynight":"N"},"geometry":{"type":"Point","coordinates":[-117.33775,34.60973]}},{"type":"Feature","properties":{"acq_date":"2026-10-07","acq_time":1034,"confidence":"n","satellite":"N","instrument":"VIIRS","version":"2.0NRT","bright_ti4":312.56,"frp":1.87,"daynight":"N"},"geometry":{"type":"Point","coordinates":[-117.10169,34.62151]}},{"type":"Feature","properties":{"acq_date":"2026-10-07","acq_time":1034,"confidence":"n","satellite":"N","instrument":"VIIRS","version":"2.0NRT","bright_ti4":312.26,"frp":1.9,"daynight":"N"},"geometry":{"type":"Point","coordinates":[-114.91238,36.35696]}},{"type":"Feature","properties":{"acq_date":"2026-10-07","acq_time":1034,"confidence":"n","satellite":"N","instrument":"VIIRS","version":"2.0NRT","bright_ti4":308.09,"frp":1.74,"daynight":"N"},"geometry":{"type":"Point","coordinates":[-114.90803,36.35866]}},{"type":"Feature","properties":{"acq_date":"2026-10-07","acq_time":1034,"confidence":"n","satellite":"N","instrument":"VIIRS","version":"2.0NRT","bright_ti4":308.03,"frp":0.9,"daynight":"N"},"geometry":{"type":"Point","coordinates":[-120.13982,37.03348]}},{"type":"Feature","properties":{"acq_date":"2026-10-07","acq_time":1034,"confidence":"n","satellite":"N","instrument":"VIIRS","version":"2.0NRT","bright_ti4":302.56,"frp":0.51,"daynight":"N"},"geometry":{"type":"Point","coordinates":[-121.93462,37.45407]}},{"type":"Feature","properties":{"acq_date":"2026-10-07","acq_time":1034,"confidence":"n","satellite":"N","instrument":"VIIRS","version":"2.0NRT","bright_ti4":299.72,"frp":2.14,"daynight":"N"},"geometry":{"type":"Point","coordinates":[-119.58287,37.60402]}},{"type":"Feature","properties":{"acq_date":"2026-10-07","acq_time":1034,"confidence":"n","satellite":"N","instrument":"VIIRS","version":"2.0NRT","bright_ti4":300.47,"frp":2.52,"daynight":"N"},"geometry":{"type":"Point","coordinates":[-119.59288,37.6264]}},{"type":"Feature","properties":{"acq_date":"2026-10-07","acq_time":1034,"confidence":"n","satellite":"N","instrument":"VIIRS","version":"2.0NRT","bright_ti4":324.57,"frp":2.77,"daynight":"N"},"geometry":{"type":"Point","coordinates":[-119.58843,37.62785]}},{"type":"Feature","properties":{"acq_date":"2026-10-07","acq_time":1034,"confidence":"n","satellite":"N","instrument":"VIIRS","version":"2.0NRT","bright_ti4":330.64,"frp":4.38,"daynight":"N"},"geometry":{"type":"Point","coordinates":[-119.59309,37.62889]}},{"type":"Feature","properties":{"acq_date":"2026-10-07","acq_time":1034,"confidence":"n","satellite":"N","instrument":"VIIRS","version":"2.0NRT","bright_ti4":317.57,"frp":2.52,"daynight":"N"},"geometry":{"type":"Point","coordinates":[-119.58631,37.62941]}},{"type":"Feature","properties":{"acq_date":"2026-10-07","acq_time":1034,"confidence":"n","satellite":"N","instrument":"VIIRS","version":"2.0NRT","bright_ti4":331.44,"frp":2.52,"daynight":"N"},"geometry":{"type":"Point","coordinates":[-119.59103,37.63049]}},{"type":"Feature","properties":{"acq_date":"2026-10-07","acq_time":1034,"confidence":"n","satellite":"N","instrument":"VIIRS","version":"2.0NRT","bright_ti4":300.55,"frp":1.21,"daynight":"N"},"geometry":{"type":"Point","coordinates":[-119.59575,37.63157]}},{"type":"Feature","properties":{"acq_date":"2026-10-07","acq_time":1034,"confidence":"n","satellite":"N","instrument":"VIIRS","version":"2.0NRT","bright_ti4":305.39,"frp":1.01,"daynight":"N"},"geometry":{"type":"Point","coordinates":[-119.58649,37.63194]}},{"type":"Feature","properties":{"acq_date":"2026-10-07","acq_time":1034,"confidence":"n","satellite":"N","instrument":"VIIRS","version":"2.0NRT","bright_ti4":324.41,"frp":2.35,"daynight":"N"},"geometry":{"type":"Point","coordinates":[-119.59604,37.63407]}},{"type":"Feature","properties":{"acq_date":"2026-10-07","acq_time":1034,"confidence":"n","satellite":"N","instrument":"VIIRS","version":"2.0NRT","bright_ti4":318.97,"frp":1.94,"daynight":"N"},"geometry":{"type":"Point","coordinates":[-119.59398,37.63568]}},{"type":"Feature","properties":{"acq_date":"2026-10-07","acq_time":1034,"confidence":"n","satellite":"N","instrument":"VIIRS","version":"2.0NRT","bright_ti4":303.61,"frp":1.09,"daynight":"N"},"geometry":{"type":"Point","coordinates":[-121.18365,37.88164]}},{"type":"Feature","properties":{"acq_date":"2026-10-07","acq_time":1034,"confidence":"n","satellite":"N","instrument":"VIIRS","version":"2.0NRT","bright_ti4":300.91,"frp":0.46,"daynight":"N"},"geometry":{"type":"Point","coordinates":[-121.98625,38.21513]}},{"type":"Feature","properties":{"acq_date":"2026-10-07","acq_time":1034,"confidence":"n","satellite":"N","instrument":"VIIRS","version":"2.0NRT","bright_ti4":305.14,"frp":0.64,"daynight":"N"},"geometry":{"type":"Point","coordinates":[-122.59103,40.04329]}},{"type":"Feature","properties":{"acq_date":"2026-10-07","acq_time":1034,"confidence":"n","satellite":"N","instrument":"VIIRS","version":"2.0NRT","bright_ti4":319.92,"frp":2.08,"daynight":"N"},"geometry":{"type":"Point","coordinates":[-122.59637,40.04433]}},{"type":"Feature","properties":{"acq_date":"2026-10-07","acq_time":1034,"confidence":"n","satellite":"N","instrument":"VIIRS","version":"2.0NRT","bright_ti4":310.65,"frp":2.08,"daynight":"N"},"geometry":{"type":"Point","coordinates":[-122.60164,40.04535]}},{"type":"Feature","properties":{"acq_date":"2026-10-07","acq_time":1034,"confidence":"n","satellite":"N","instrument":"VIIRS","version":"2.0NRT","bright_ti4":329.44,"frp":7.27,"daynight":"N"},"geometry":{"type":"Point","coordinates":[-122.58986,40.0468]}},{"type":"Feature","properties":{"acq_date":"2026-10-07","acq_time":1034,"confidence":"n","satellite":"N","instrument":"VIIRS","version":"2.0NRT","bright_ti4":349.86,"frp":15.88,"daynight":"N"},"geometry":{"type":"Point","coordinates":[-122.59523,40.04784]}},{"type":"Feature","properties":{"acq_date":"2026-10-07","acq_time":1034,"confidence":"n","satellite":"N","instrument":"VIIRS","version":"2.0NRT","bright_ti4":315.47,"frp":15.88,"daynight":"N"},"geometry":{"type":"Point","coordinates":[-122.60045,40.04885]}},{"type":"Feature","properties":{"acq_date":"2026-10-07","acq_time":1034,"confidence":"n","satellite":"N","instrument":"VIIRS","version":"2.0NRT","bright_ti4":320.21,"frp":17.13,"daynight":"N"},"geometry":{"type":"Point","coordinates":[-122.60565,40.04987]}},{"type":"Feature","properties":{"acq_date":"2026-10-07","acq_time":1034,"confidence":"n","satellite":"N","instrument":"VIIRS","version":"2.0NRT","bright_ti4":343.07,"frp":7.27,"daynight":"N"},"geometry":{"type":"Point","coordinates":[-122.58873,40.05031]}},{"type":"Feature","properties":{"acq_date":"2026-10-07","acq_time":1034,"confidence":"n","satellite":"N","instrument":"VIIRS","version":"2.0NRT","bright_ti4":312.14,"frp":17.13,"daynight":"N"},"geometry":{"type":"Point","coordinates":[-122.61087,40.05088]}},{"type":"Feature","properties":{"acq_date":"2026-10-07","acq_time":1034,"confidence":"n","satellite":"N","instrument":"VIIRS","version":"2.0NRT","bright_ti4":347.93,"frp":15.88,"daynight":"N"},"geometry":{"type":"Point","coordinates":[-122.59402,40.05134]}},{"type":"Feature","properties":{"acq_date":"2026-10-07","acq_time":1034,"confidence":"n","satellite":"N","instrument":"VIIRS","version":"2.0NRT","bright_ti4":321.27,"frp":15.88,"daynight":"N"},"geometry":{"type":"Point","coordinates":[-122.59922,40.05235]}},{"type":"Feature","properties":{"acq_date":"2026-10-07","acq_time":1034,"confidence":"n","satellite":"N","instrument":"VIIRS","version":"2.0NRT","bright_ti4":345.8,"frp":17.13,"daynight":"N"},"geometry":{"type":"Point","coordinates":[-122.60441,40.05336]}},{"type":"Feature","properties":{"acq_date":"2026-10-07","acq_time":1034,"confidence":"n","satellite":"N","instrument":"VIIRS","version":"2.0NRT","bright_ti4":342,"frp":4.48,"daynight":"N"},"geometry":{"type":"Point","coordinates":[-122.58756,40.05382]}},{"type":"Feature","properties":{"acq_date":"2026-10-07","acq_time":1034,"confidence":"n","satellite":"N","instrument":"VIIRS","version":"2.0NRT","bright_ti4":311.83,"frp":17.13,"daynight":"N"},"geometry":{"type":"Point","coordinates":[-122.60966,40.05438]}},{"type":"Feature","properties":{"acq_date":"2026-10-07","acq_time":1034,"confidence":"n","satellite":"N","instrument":"VIIRS","version":"2.0NRT","bright_ti4":344.58,"frp":40.33,"daynight":"N"},"geometry":{"type":"Point","coordinates":[-122.59281,40.05484]}},{"type":"Feature","properties":{"acq_date":"2026-10-07","acq_time":1034,"confidence":"n","satellite":"N","instrument":"VIIRS","version":"2.0NRT","bright_ti4":345.77,"frp":40.33,"daynight":"N"},"geometry":{"type":"Point","coordinates":[-122.59798,40.05584]}},{"type":"Feature","properties":{"acq_date":"2026-10-07","acq_time":1034,"confidence":"n","satellite":"N","instrument":"VIIRS","version":"2.0NRT","bright_ti4":344.83,"frp":6.87,"daynight":"N"},"geometry":{"type":"Point","coordinates":[-122.60318,40.05685]}},{"type":"Feature","properties":{"acq_date":"2026-10-07","acq_time":1034,"confidence":"n","satellite":"N","instrument":"VIIRS","version":"2.0NRT","bright_ti4":302.67,"frp":4.48,"daynight":"N"},"geometry":{"type":"Point","coordinates":[-122.58631,40.0573]}},{"type":"Feature","properties":{"acq_date":"2026-10-07","acq_time":1034,"confidence":"n","satellite":"N","instrument":"VIIRS","version":"2.0NRT","bright_ti4":351.19,"frp":40.33,"daynight":"N"},"geometry":{"type":"Point","coordinates":[-122.5915,40.05831]}},{"type":"Feature","properties":{"acq_date":"2026-10-07","acq_time":1034,"confidence":"n","satellite":"N","instrument":"VIIRS","version":"2.0NRT","bright_ti4":334.47,"frp":40.33,"daynight":"N"},"geometry":{"type":"Point","coordinates":[-122.59673,40.05933]}},{"type":"Feature","properties":{"acq_date":"2026-10-07","acq_time":1034,"confidence":"n","satellite":"N","instrument":"VIIRS","version":"2.0NRT","bright_ti4":317.59,"frp":6.87,"daynight":"N"},"geometry":{"type":"Point","coordinates":[-122.60188,40.06032]}},{"type":"Feature","properties":{"acq_date":"2026-10-07","acq_time":1034,"confidence":"n","satellite":"N","instrument":"VIIRS","version":"2.0NRT","bright_ti4":309.09,"frp":1.26,"daynight":"N"},"geometry":{"type":"Point","coordinates":[-122.59022,40.06179]}},{"type":"Feature","properties":{"acq_date":"2026-10-07","acq_time":1034,"confidence":"n","satellite":"N","instrument":"VIIRS","version":"2.0NRT","bright_ti4":317.94,"frp":1.26,"daynight":"N"},"geometry":{"type":"Point","coordinates":[-122.59546,40.06281]}}]}