{"type":"FeatureCollection","name":"FIRMS VIIRS CA (last 1 day)","crs":{"type":"name","properties":{"name":"EPSG:4326"}},"fetched_at_utc":"2026-09-26T17:40:10.972Z","source":{"url":"https://firms.modaps.eosdis.nasa.gov/api/area/csv/8c4af552cf654445dd280dfb3ad9337c/VIIRS_SNPP_NRT/-125,32,-113,43.5/1","dataset":"VIIRS_SNPP_NRT","bbox":"-125,32,-113,43.5","day_range":"1"},"features":[{"type":"Feature","properties":{"acq_date":"2026-09-26","acq_time":858,"confidence":"n","satellite":"N","instrument":"VIIRS","version":"2.0NRT","bright_ti4":295.89,"frp":2.03,"daynight":"N"},"geometry":{"type":"Point","coordinates":[-119.59538,37.59868]}},{"type":"Feature","properties":{"acq_date":"2026-09-26","acq_time":858,"confidence":"n","satellite":"N","instrument":"VIIRS","version":"2.0NRT","bright_ti4":301.16,"frp":1.92,"daynight":"N"},"geometry":{"type":"Point","coordinates":[-119.59075,37.59887]}},{"type":"Feature","properties":{"acq_date":"2026-09-26","acq_time":858,"confidence":"n","satellite":"N","instrument":"VIIRS","version":"2.0NRT","bright_ti4":296.23,"frp":1.59,"daynight":"N"},"geometry":{"type":"Point","coordinates":[-119.59949,37.59907]}},{"type":"Feature","properties":{"acq_date":"2026-09-26","acq_time":858,"confidence":"n","satellite":"N","instrument":"VIIRS","version":"2.0NRT","bright_ti4":297.59,"frp":2.03,"daynight":"N"},"geometry":{"type":"Point","coordinates":[-119.59324,37.60551]}},{"type":"Feature","properties":{"acq_date":"2026-09-26","acq_time":858,"confidence":"n","satellite":"N","instrument":"VIIRS","version":"2.0NRT","bright_ti4":297.7,"frp":3.84,"daynight":"N"},"geometry":{"type":"Point","coordinates":[-119.58891,37.6057]}},{"type":"Feature","properties":{"acq_date":"2026-09-26","acq_time":858,"confidence":"n","satellite":"N","instrument":"VIIRS","version":"2.0NRT","bright_ti4":343.34,"frp":9.37,"daynight":"N"},"geometry":{"type":"Point","coordinates":[-119.59343,37.61239]}},{"type":"Feature","properties":{"acq_date":"2026-09-26","acq_time":858,"confidence":"n","satellite":"N","instrument":"VIIRS","version":"2.0NRT","bright_ti4":334.68,"frp":9.37,"daynight":"N"},"geometry":{"type":"Point","coordinates":[-119.6025,37.61255]}},{"type":"Feature","properties":{"acq_date":"2026-09-26","acq_time":858,"confidence":"n","satellite":"N","instrument":"VIIRS","version":"2.0NRT","bright_ti4":302.71,"frp":3.84,"daynight":"N"},"geometry":{"type":"Point","coordinates":[-119.58947,37.61258]}},{"type":"Feature","properties":{"acq_date":"2026-09-26","acq_time":858,"confidence":"h","satellite":"N","instrument":"VIIRS","version":"2.0NRT","bright_ti4":367,"frp":19.76,"daynight":"N"},"geometry":{"type":"Point","coordinates":[-119.59798,37.61278]}},{"type":"Feature","properties":{"acq_date":"2026-09-26","acq_time":858,"confidence":"n","satellite":"N","instrument":"VIIRS","version":"2.0NRT","bright_ti4":298.61,"frp":3.99,"daynight":"N"},"geometry":{"type":"Point","coordinates":[-119.59699,37.62619]}},{"type":"Feature","properties":{"acq_date":"2026-09-26","acq_time":858,"confidence":"n","satellite":"N","instrument":"VIIRS","version":"2.0NRT","bright_ti4":295.62,"frp":16.58,"daynight":"N"},"geometry":{"type":"Point","coordinates":[-119.61329,37.62648]}},{"type":"Feature","properties":{"acq_date":"2026-09-26","acq_time":858,"confidence":"n","satellite":"N","instrument":"VIIRS","version":"2.0NRT","bright_ti4":337.98,"frp":16.58,"daynight":"N"},"geometry":{"type":"Point","coordinates":[-119.62182,37.62663]}},{"type":"Feature","properties":{"acq_date":"2026-09-26","acq_time":858,"confidence":"n","satellite":"N","instrument":"VIIRS","version":"2.0NRT","bright_ti4":332.7,"frp":16.62,"daynight":"N"},"geometry":{"type":"Point","coordinates":[-119.63377,37.62684]}},{"type":"Feature","properties":{"acq_date":"2026-09-26","acq_time":858,"confidence":"n","satellite":"N","instrument":"VIIRS","version":"2.0NRT","bright_ti4":320.75,"frp":9,"daynight":"N"},"geometry":{"type":"Point","coordinates":[-119.6174,37.62697]}},{"type":"Feature","properties":{"acq_date":"2026-09-26","acq_time":858,"confidence":"n","satellite":"N","instrument":"VIIRS","version":"2.0NRT","bright_ti4":356.96,"frp":9,"daynight":"N"},"geometry":{"type":"Point","coordinates":[-119.62725,37.6272]}},{"type":"Feature","properties":{"acq_date":"2026-09-26","acq_time":858,"confidence":"n","satellite":"N","instrument":"VIIRS","version":"2.0NRT","bright_ti4":295.12,"frp":3.99,"daynight":"N"},"geometry":{"type":"Point","coordinates":[-119.60586,37.63322]}},{"type":"Feature","properties":{"acq_date":"2026-09-26","acq_time":858,"confidence":"h","satellite":"N","instrument":"VIIRS","version":"2.0NRT","bright_ti4":367,"frp":16.58,"daynight":"N"},"geometry":{"type":"Point","coordinates":[-119.61272,37.63335]}},{"type":"Feature","properties":{"acq_date":"2026-09-26","acq_time":858,"confidence":"h","satellite":"N","instrument":"VIIRS","version":"2.0NRT","bright_ti4":367,"frp":16.58,"daynight":"N"},"geometry":{"type":"Point","coordinates":[-119.62009,37.63348]}},{"type":"Feature","properties":{"acq_date":"2026-09-26","acq_time":858,"confidence":"n","satellite":"N","instrument":"VIIRS","version":"2.0NRT","bright_ti4":335.51,"frp":12.18,"daynight":"N"},"geometry":{"type":"Point","coordinates":[-119.60945,37.63366]}},{"type":"Feature","properties":{"acq_date":"2026-09-26","acq_time":858,"confidence":"n","satellite":"N","instrument":"VIIRS","version":"2.0NRT","bright_ti4":297.24,"frp":16.62,"daynight":"N"},"geometry":{"type":"Point","coordinates":[-119.6306,37.63367]}},{"type":"Feature","properties":{"acq_date":"2026-09-26","acq_time":858,"confidence":"n","satellite":"N","instrument":"VIIRS","version":"2.0NRT","bright_ti4":357.17,"frp":21.62,"daynight":"N"},"geometry":{"type":"Point","coordinates":[-119.61642,37.63382]}},{"type":"Feature","properties":{"acq_date":"2026-09-26","acq_time":858,"confidence":"h","satellite":"N","instrument":"VIIRS","version":"2.0NRT","bright_ti4":367,"frp":21.62,"daynight":"N"},"geometry":{"type":"Point","coordinates":[-119.62495,37.63403]}},{"type":"Feature","properties":{"acq_date":"2026-09-26","acq_time":858,"confidence":"n","satellite":"N","instrument":"VIIRS","version":"2.0NRT","bright_ti4":313.41,"frp":5.33,"daynight":"N"},"geometry":{"type":"Point","coordinates":[-119.60579,37.6401]}},{"type":"Feature","properties":{"acq_date":"2026-09-26","acq_time":858,"confidence":"n","satellite":"N","instrument":"VIIRS","version":"2.0NRT","bright_ti4":341.4,"frp":14.7,"daynight":"N"},"geometry":{"type":"Point","coordinates":[-119.61254,37.64022]}},{"type":"Feature","properties":{"acq_date":"2026-09-26","acq_time":858,"confidence":"h","satellite":"N","instrument":"VIIRS","version":"2.0NRT","bright_ti4":367,"frp":14.7,"daynight":"N"},"geometry":{"type":"Point","coordinates":[-119.61983,37.64036]}},{"type":"Feature","properties":{"acq_date":"2026-09-26","acq_time":858,"confidence":"n","satellite":"N","instrument":"VIIRS","version":"2.0NRT","bright_ti4":343.71,"frp":12.18,"daynight":"N"},"geometry":{"type":"Point","coordinates":[-119.60941,37.64053]}},{"type":"Feature","properties":{"acq_date":"2026-09-26","acq_time":858,"confidence":"n","satellite":"N","instrument":"VIIRS","version":"2.0NRT","bright_ti4":344.34,"frp":21.62,"daynight":"N"},"geometry":{"type":"Point","coordinates":[-119.61631,37.6407]}},{"type":"Feature","properties":{"acq_date":"2026-09-26","acq_time":858,"confidence":"n","satellite":"N","instrument":"VIIRS","version":"2.0NRT","bright_ti4":326.36,"frp":21.62,"daynight":"N"},"geometry":{"type":"Point","coordinates":[-119.62434,37.64089]}},{"type":"Feature","properties":{"acq_date":"2026-09-26","acq_time":858,"confidence":"n","satellite":"N","instrument":"VIIRS","version":"2.0NRT","bright_ti4":302.52,"frp":1.24,"daynight":"N"},"geometry":{"type":"Point","coordinates":[-114.25451,40.81983]}},{"type":"Feature","properties":{"acq_date":"2026-09-26","acq_time":900,"confidence":"n","satellite":"N","instrument":"VIIRS","version":"2.0NRT","bright_ti4":336.12,"frp":1.73,"daynight":"N"},"geometry":{"type":"Point","coordinates":[-114.93554,32.53582]}},{"type":"Feature","properties":{"acq_date":"2026-09-26","acq_time":900,"confidence":"n","satellite":"N","instrument":"VIIRS","version":"2.0NRT","bright_ti4":300.04,"frp":3.17,"daynight":"N"},"geometry":{"type":"Point","coordinates":[-114.93909,32.53611]}},{"type":"Feature","properties":{"acq_date":"2026-09-26","acq_time":900,"confidence":"n","satellite":"N","instrument":"VIIRS","version":"2.0NRT","bright_ti4":315.62,"frp":1.73,"daynight":"N"},"geometry":{"type":"Point","coordinates":[-114.93495,32.54096]}},{"type":"Feature","properties":{"acq_date":"2026-09-26","acq_time":900,"confidence":"n","satellite":"N","instrument":"VIIRS","version":"2.0NRT","bright_ti4":303.73,"frp":0.6,"daynight":"N"},"geometry":{"type":"Point","coordinates":[-115.33949,32.55607]}},{"type":"Feature","properties":{"acq_date":"2026-09-26","acq_time":900,"confidence":"n","satellite":"N","instrument":"VIIRS","version":"2.0NRT","bright_ti4":299.76,"frp":0.39,"daynight":"N"},"geometry":{"type":"Point","coordinates":[-117.14948,32.8565]}},{"type":"Feature","properties":{"acq_date":"2026-09-26","acq_time":900,"confidence":"n","satellite":"N","instrument":"VIIRS","version":"2.0NRT","bright_ti4":346.57,"frp":9.65,"daynight":"N"},"geometry":{"type":"Point","coordinates":[-115.51063,33.06475]}},{"type":"Feature","properties":{"acq_date":"2026-09-26","acq_time":900,"confidence":"h","satellite":"N","instrument":"VIIRS","version":"2.0NRT","bright_ti4":367,"frp":9.65,"daynight":"N"},"geometry":{"type":"Point","coordinates":[-115.51453,33.06505]}},{"type":"Feature","properties":{"acq_date":"2026-09-26","acq_time":900,"confidence":"n","satellite":"N","instrument":"VIIRS","version":"2.0NRT","bright_ti4":340.55,"frp":19.5,"daynight":"N"},"geometry":{"type":"Point","coordinates":[-115.51064,33.06751]}},{"type":"Feature","properties":{"acq_date":"2026-09-26","acq_time":900,"confidence":"h","satellite":"N","instrument":"VIIRS","version":"2.0NRT","bright_ti4":367,"frp":19.5,"daynight":"N"},"geometry":{"type":"Point","coordinates":[-115.51455,33.06779]}},{"type":"Feature","properties":{"acq_date":"2026-09-26","acq_time":900,"confidence":"n","satellite":"N","instrument":"VIIRS","version":"2.0NRT","bright_ti4":343.24,"frp":9.65,"daynight":"N"},"geometry":{"type":"Point","coordinates":[-115.51009,33.0701]}},{"type":"Feature","properties":{"acq_date":"2026-09-26","acq_time":900,"confidence":"n","satellite":"N","instrument":"VIIRS","version":"2.0NRT","bright_ti4":329.23,"frp":9.65,"daynight":"N"},"geometry":{"type":"Point","coordinates":[-115.51399,33.07039]}},{"type":"Feature","properties":{"acq_date":"2026-09-26","acq_time":900,"confidence":"n","satellite":"N","instrument":"VIIRS","version":"2.0NRT","bright_ti4":303.06,"frp":1.25,"daynight":"N"},"geometry":{"type":"Point","coordinates":[-118.23937,33.7775]}},{"type":"Feature","properties":{"acq_date":"2026-09-26","acq_time":900,"confidence":"n","satellite":"N","instrument":"VIIRS","version":"2.0NRT","bright_ti4":300.5,"frp":0.56,"daynight":"N"},"geometry":{"type":"Point","coordinates":[-117.4744,33.79405]}},{"type":"Feature","properties":{"acq_date":"2026-09-26","acq_time":900,"confidence":"n","satellite":"N","instrument":"VIIRS","version":"2.0NRT","bright_ti4":302.29,"frp":0.55,"daynight":"N"},"geometry":{"type":"Point","coordinates":[-118.19489,34.15394]}},{"type":"Feature","properties":{"acq_date":"2026-09-26","acq_time":900,"confidence":"n","satellite":"N","instrument":"VIIRS","version":"2.0NRT","bright_ti4":303.19,"frp":1.05,"daynight":"N"},"geometry":{"type":"Point","coordinates":[-118.52217,34.33505]}},{"type":"Feature","properties":{"acq_date":"2026-09-26","acq_time":900,"confidence":"n","satellite":"N","instrument":"VIIRS","version":"2.0NRT","bright_ti4":302.3,"frp":1.26,"daynight":"N"},"geometry":{"type":"Point","coordinates":[-117.33553,34.60947]}},{"type":"Feature","properties":{"acq_date":"2026-09-26","acq_time":900,"confidence":"n","satellite":"N","instrument":"VIIRS","version":"2.0NRT","bright_ti4":299.04,"frp":0.43,"daynight":"N"},"geometry":{"type":"Point","coordinates":[-118.75043,34.81804]}},{"type":"Feature","properties":{"acq_date":"2026-09-26","acq_time":900,"confidence":"n","satellite":"N","instrument":"VIIRS","version":"2.0NRT","bright_ti4":299.38,"frp":0.61,"daynight":"N"},"geometry":{"type":"Point","coordinates":[-118.7508,34.81818]}},{"type":"Feature","properties":{"acq_date":"2026-09-26","acq_time":900,"confidence":"n","satellite":"N","instrument":"VIIRS","version":"2.0NRT","bright_ti4":297.51,"frp":1.29,"daynight":"N"},"geometry":{"type":"Point","coordinates":[-113.31599,35.51787]}},{"type":"Feature","properties":{"acq_date":"2026-09-26","acq_time":900,"confidence":"n","satellite":"N","instrument":"VIIRS","version":"2.0NRT","bright_ti4":318.07,"frp":0.92,"daynight":"N"},"geometry":{"type":"Point","coordinates":[-114.91117,36.35655]}},{"type":"Feature","properties":{"acq_date":"2026-09-26","acq_time":1038,"confidence":"n","satellite":"N","instrument":"VIIRS","version":"2.0NRT","bright_ti4":298.72,"frp":0.79,"daynight":"N"},"geometry":{"type":"Point","coordinates":[-122.32519,40.73666]}},{"type":"Feature","properties":{"acq_date":"2026-09-26","acq_time":1038,"confidence":"n","satellite":"N","instrument":"VIIRS","version":"2.0NRT","bright_ti4":300,"frp":0.42,"daynight":"N"},"geometry":{"type":"Point","coordinates":[-122.32487,40.7385]}},{"type":"Feature","properties":{"acq_date":"2026-09-26","acq_time":1038,"confidence":"n","satellite":"N","instrument":"VIIRS","version":"2.0NRT","bright_ti4":303.31,"frp":1.35,"daynight":"N"},"geometry":{"type":"Point","coordinates":[-114.25365,40.82084]}},{"type":"Feature","properties":{"acq_date":"2026-09-26","acq_time":1038,"confidence":"n","satellite":"N","instrument":"VIIRS","version":"2.0NRT","bright_ti4":299.46,"frp":1.83,"daynight":"N"},"geometry":{"type":"Point","coordinates":[-114.25935,40.82247]}},{"type":"Feature","properties":{"acq_date":"2026-09-26","acq_time":1041,"confidence":"n","satellite":"N","instrument":"VIIRS","version":"2.0NRT","bright_ti4":310.06,"frp":1.33,"daynight":"N"},"geometry":{"type":"Point","coordinates":[-114.93616,32.53557]}},{"type":"Feature","properties":{"acq_date":"2026-09-26","acq_time":1041,"confidence":"n","satellite":"N","instrument":"VIIRS","version":"2.0NRT","bright_ti4":321.43,"frp":1.98,"daynight":"N"},"geometry":{"type":"Point","coordinates":[-114.93359,32.53836]}},{"type":"Feature","properties":{"acq_date":"2026-09-26","acq_time":1041,"confidence":"n","satellite":"N","instrument":"VIIRS","version":"2.0NRT","bright_ti4":307.89,"frp":1.33,"daynight":"N"},"geometry":{"type":"Point","coordinates":[-114.93353,32.54201]}},{"type":"Feature","properties":{"acq_date":"2026-09-26","acq_time":1041,"confidence":"n","satellite":"N","instrument":"VIIRS","version":"2.0NRT","bright_ti4":331.58,"frp":4.64,"daynight":"N"},"geometry":{"type":"Point","coordinates":[-115.51186,33.06602]}},{"type":"Feature","properties":{"acq_date":"2026-09-26","acq_time":1041,"confidence":"n","satellite":"N","instrument":"VIIRS","version":"2.0NRT","bright_ti4":300.27,"frp":0.5,"daynight":"N"},"geometry":{"type":"Point","coordinates":[-118.79782,34.28959]}},{"type":"Feature","properties":{"acq_date":"2026-09-26","acq_time":1041,"confidence":"n","satellite":"N","instrument":"VIIRS","version":"2.0NRT","bright_ti4":315.52,"frp":0.94,"daynight":"N"},"geometry":{"type":"Point","coordinates":[-118.51892,34.33412]}},{"type":"Feature","properties":{"acq_date":"2026-09-26","acq_time":1041,"confidence":"n","satellite":"N","instrument":"VIIRS","version":"2.0NRT","bright_ti4":301.05,"frp":0.93,"daynight":"N"},"geometry":{"type":"Point","coordinates":[-116.85281,34.35371]}},{"type":"Feature","properties":{"acq_date":"2026-09-26","acq_time":1041,"confidence":"n","satellite":"N","instrument":"VIIRS","version":"2.0NRT","bright_ti4":301.46,"frp":0.73,"daynight":"N"},"geometry":{"type":"Point","coordinates":[-118.64319,34.42836]}},{"type":"Feature","properties":{"acq_date":"2026-09-26","acq_time":1041,"confidence":"n","satellite":"N","instrument":"VIIRS","version":"2.0NRT","bright_ti4":302.54,"frp":0.6,"daynight":"N"},"geometry":{"type":"Point","coordinates":[-118.6434,34.43252]}},{"type":"Feature","properties":{"acq_date":"2026-09-26","acq_time":1041,"confidence":"n","satellite":"N","instrument":"VIIRS","version":"2.0NRT","bright_ti4":317.38,"frp":2.15,"daynight":"N"},"geometry":{"type":"Point","coordinates":[-117.33705,34.60883]}},{"type":"Feature","properties":{"acq_date":"2026-09-26","acq_time":1041,"confidence":"n","satellite":"N","instrument":"VIIRS","version":"2.0NRT","bright_ti4":305.09,"frp":0.85,"daynight":"N"},"geometry":{"type":"Point","coordinates":[-114.91098,36.35814]}},{"type":"Feature","properties":{"acq_date":"2026-09-26","acq_time":1041,"confidence":"n","satellite":"N","instrument":"VIIRS","version":"2.0NRT","bright_ti4":300.99,"frp":0.41,"daynight":"N"},"geometry":{"type":"Point","coordinates":[-121.93024,37.45678]}},{"type":"Feature","properties":{"acq_date":"2026-09-26","acq_time":1041,"confidence":"n","satellite":"N","instrument":"VIIRS","version":"2.0NRT","bright_ti4":296.27,"frp":1.27,"daynight":"N"},"geometry":{"type":"Point","coordinates":[-119.59027,37.59113]}},{"type":"Feature","properties":{"acq_date":"2026-09-26","acq_time":1041,"confidence":"n","satellite":"N","instrument":"VIIRS","version":"2.0NRT","bright_ti4":301.23,"frp":1.46,"daynight":"N"},"geometry":{"type":"Point","coordinates":[-119.60112,37.59874]}},{"type":"Feature","properties":{"acq_date":"2026-09-26","acq_time":1041,"confidence":"n","satellite":"N","instrument":"VIIRS","version":"2.0NRT","bright_ti4":300.88,"frp":1.71,"daynight":"N"},"geometry":{"type":"Point","coordinates":[-119.58821,37.60056]}},{"type":"Feature","properties":{"acq_date":"2026-09-26","acq_time":1041,"confidence":"n","satellite":"N","instrument":"VIIRS","version":"2.0NRT","bright_ti4":297.64,"frp":1.46,"daynight":"N"},"geometry":{"type":"Point","coordinates":[-119.59972,37.60335]}},{"type":"Feature","properties":{"acq_date":"2026-09-26","acq_time":1041,"confidence":"n","satellite":"N","instrument":"VIIRS","version":"2.0NRT","bright_ti4":296.96,"frp":1.49,"daynight":"N"},"geometry":{"type":"Point","coordinates":[-119.60509,37.60466]}},{"type":"Feature","properties":{"acq_date":"2026-09-26","acq_time":1041,"confidence":"n","satellite":"N","instrument":"VIIRS","version":"2.0NRT","bright_ti4":317.59,"frp":3.1,"daynight":"N"},"geometry":{"type":"Point","coordinates":[-119.58686,37.60519]}},{"type":"Feature","properties":{"acq_date":"2026-09-26","acq_time":1041,"confidence":"n","satellite":"N","instrument":"VIIRS","version":"2.0NRT","bright_ti4":339.39,"frp":14.13,"daynight":"N"},"geometry":{"type":"Point","coordinates":[-119.59071,37.61108]}},{"type":"Feature","properties":{"acq_date":"2026-09-26","acq_time":1041,"confidence":"n","satellite":"N","instrument":"VIIRS","version":"2.0NRT","bright_ti4":351.45,"frp":14.13,"daynight":"N"},"geometry":{"type":"Point","coordinates":[-119.59649,37.61248]}},{"type":"Feature","properties":{"acq_date":"2026-09-26","acq_time":1041,"confidence":"n","satellite":"N","instrument":"VIIRS","version":"2.0NRT","bright_ti4":296.61,"frp":1.39,"daynight":"N"},"geometry":{"type":"Point","coordinates":[-119.62289,37.61889]}},{"type":"Feature","properties":{"acq_date":"2026-09-26","acq_time":1041,"confidence":"n","satellite":"N","instrument":"VIIRS","version":"2.0NRT","bright_ti4":306.46,"frp":6.87,"daynight":"N"},"geometry":{"type":"Point","coordinates":[-119.62189,37.62358]}},{"type":"Feature","properties":{"acq_date":"2026-09-26","acq_time":1041,"confidence":"n","satellite":"N","instrument":"VIIRS","version":"2.0NRT","bright_ti4":299.06,"frp":6.87,"daynight":"N"},"geometry":{"type":"Point","coordinates":[-119.62739,37.62492]}},{"type":"Feature","properties":{"acq_date":"2026-09-26","acq_time":1041,"confidence":"n","satellite":"N","instrument":"VIIRS","version":"2.0NRT","bright_ti4":311.37,"frp":2.03,"daynight":"N"},"geometry":{"type":"Point","coordinates":[-119.61498,37.62687]}},{"type":"Feature","properties":{"acq_date":"2026-09-26","acq_time":1041,"confidence":"n","satellite":"N","instrument":"VIIRS","version":"2.0NRT","bright_ti4":306.52,"frp":2.7,"daynight":"N"},"geometry":{"type":"Point","coordinates":[-119.5955,37.62711]}},{"type":"Feature","properties":{"acq_date":"2026-09-26","acq_time":1041,"confidence":"n","satellite":"N","instrument":"VIIRS","version":"2.0NRT","bright_ti4":343.86,"frp":6.87,"daynight":"N"},"geometry":{"type":"Point","coordinates":[-119.62101,37.62832]}},{"type":"Feature","properties":{"acq_date":"2026-09-26","acq_time":1041,"confidence":"n","satellite":"N","instrument":"VIIRS","version":"2.0NRT","bright_ti4":317.99,"frp":6.87,"daynight":"N"},"geometry":{"type":"Point","coordinates":[-119.62646,37.62964]}},{"type":"Feature","properties":{"acq_date":"2026-09-26","acq_time":1041,"confidence":"n","satellite":"N","instrument":"VIIRS","version":"2.0NRT","bright_ti4":317.9,"frp":12.67,"daynight":"N"},"geometry":{"type":"Point","coordinates":[-119.6133,37.6314]}},{"type":"Feature","properties":{"acq_date":"2026-09-26","acq_time":1041,"confidence":"n","satellite":"N","instrument":"VIIRS","version":"2.0NRT","bright_ti4":353.67,"frp":50.99,"daynight":"N"},"geometry":{"type":"Point","coordinates":[-119.61958,37.63292]}},{"type":"Feature","properties":{"acq_date":"2026-09-26","acq_time":1041,"confidence":"n","satellite":"N","instrument":"VIIRS","version":"2.0NRT","bright_ti4":352.63,"frp":12.67,"daynight":"N"},"geometry":{"type":"Point","coordinates":[-119.61164,37.63596]}},{"type":"Feature","properties":{"acq_date":"2026-09-26","acq_time":1041,"confidence":"n","satellite":"N","instrument":"VIIRS","version":"2.0NRT","bright_ti4":344.07,"frp":50.99,"daynight":"N"},"geometry":{"type":"Point","coordinates":[-119.61787,37.63745]}},{"type":"Feature","properties":{"acq_date":"2026-09-26","acq_time":1041,"confidence":"n","satellite":"N","instrument":"VIIRS","version":"2.0NRT","bright_ti4":339.88,"frp":11.29,"daynight":"N"},"geometry":{"type":"Point","coordinates":[-119.60957,37.6404]}},{"type":"Feature","properties":{"acq_date":"2026-09-26","acq_time":1041,"confidence":"n","satellite":"N","instrument":"VIIRS","version":"2.0NRT","bright_ti4":353.2,"frp":17,"daynight":"N"},"geometry":{"type":"Point","coordinates":[-119.61588,37.64192]}},{"type":"Feature","properties":{"acq_date":"2026-09-26","acq_time":1041,"confidence":"n","satellite":"N","instrument":"VIIRS","version":"2.0NRT","bright_ti4":299.02,"frp":0.84,"daynight":"N"},"geometry":{"type":"Point","coordinates":[-121.18489,37.88298]}},{"type":"Feature","properties":{"acq_date":"2026-09-26","acq_time":1041,"confidence":"n","satellite":"N","instrument":"VIIRS","version":"2.0NRT","bright_ti4":301.9,"frp":0.76,"daynight":"N"},"geometry":{"type":"Point","coordinates":[-122.39745,37.95058]}},{"type":"Feature","properties":{"acq_date":"2026-09-26","acq_time":1041,"confidence":"n","satellite":"N","instrument":"VIIRS","version":"2.0NRT","bright_ti4":302.29,"frp":1.22,"daynight":"N"},"geometry":{"type":"Point","coordinates":[-122.11134,38.01683]}},{"type":"Feature","properties":{"acq_date":"2026-09-26","acq_time":1041,"confidence":"n","satellite":"N","instrument":"VIIRS","version":"2.0NRT","bright_ti4":305.41,"frp":0.64,"daynight":"N"},"geometry":{"type":"Point","coordinates":[-121.57506,39.13343]}},{"type":"Feature","properties":{"acq_date":"2026-09-26","acq_time":1041,"confidence":"n","satellite":"N","instrument":"VIIRS","version":"2.0NRT","bright_ti4":308.25,"frp":0.98,"daynight":"N"},"geometry":{"type":"Point","coordinates":[-121.57224,39.13354]}}]}