{"type":"FeatureCollection","name":"FIRMS VIIRS CA (last 1 day)","crs":{"type":"name","properties":{"name":"EPSG:4326"}},"fetched_at_utc":"2026-08-16T14:26:38.364Z","source":{"url":"https://firms.modaps.eosdis.nasa.gov/api/area/csv/8c4af552cf654445dd280dfb3ad9337c/VIIRS_SNPP_NRT/-125,32,-113,43.5/1","dataset":"VIIRS_SNPP_NRT","bbox":"-125,32,-113,43.5","day_range":"1"},"features":[{"type":"Feature","properties":{"acq_date":"2026-08-16","acq_time":1006,"confidence":"n","satellite":"N","instrument":"VIIRS","version":"2.0NRT","bright_ti4":297.93,"frp":0.51,"daynight":"N"},"geometry":{"type":"Point","coordinates":[-117.86344,40.93941]}},{"type":"Feature","properties":{"acq_date":"2026-08-16","acq_time":1006,"confidence":"n","satellite":"N","instrument":"VIIRS","version":"2.0NRT","bright_ti4":297.61,"frp":0.59,"daynight":"N"},"geometry":{"type":"Point","coordinates":[-117.8612,40.93974]}},{"type":"Feature","properties":{"acq_date":"2026-08-16","acq_time":1006,"confidence":"n","satellite":"N","instrument":"VIIRS","version":"2.0NRT","bright_ti4":306.55,"frp":1.01,"daynight":"N"},"geometry":{"type":"Point","coordinates":[-121.5591,42.33198]}},{"type":"Feature","properties":{"acq_date":"2026-08-16","acq_time":1006,"confidence":"n","satellite":"N","instrument":"VIIRS","version":"2.0NRT","bright_ti4":308.76,"frp":1.01,"daynight":"N"},"geometry":{"type":"Point","coordinates":[-121.55824,42.33533]}},{"type":"Feature","properties":{"acq_date":"2026-08-16","acq_time":1006,"confidence":"n","satellite":"N","instrument":"VIIRS","version":"2.0NRT","bright_ti4":299.33,"frp":1.01,"daynight":"N"},"geometry":{"type":"Point","coordinates":[-121.56296,42.33599]}},{"type":"Feature","properties":{"acq_date":"2026-08-16","acq_time":1006,"confidence":"n","satellite":"N","instrument":"VIIRS","version":"2.0NRT","bright_ti4":295.29,"frp":0.61,"daynight":"N"},"geometry":{"type":"Point","coordinates":[-121.56213,42.33935]}},{"type":"Feature","properties":{"acq_date":"2026-08-16","acq_time":1006,"confidence":"n","satellite":"N","instrument":"VIIRS","version":"2.0NRT","bright_ti4":296.87,"frp":0.63,"daynight":"N"},"geometry":{"type":"Point","coordinates":[-121.58923,42.3501]}},{"type":"Feature","properties":{"acq_date":"2026-08-16","acq_time":1006,"confidence":"n","satellite":"N","instrument":"VIIRS","version":"2.0NRT","bright_ti4":298.97,"frp":0.9,"daynight":"N"},"geometry":{"type":"Point","coordinates":[-121.60295,42.3555]}},{"type":"Feature","properties":{"acq_date":"2026-08-16","acq_time":1006,"confidence":"n","satellite":"N","instrument":"VIIRS","version":"2.0NRT","bright_ti4":332.82,"frp":3.24,"daynight":"N"},"geometry":{"type":"Point","coordinates":[-121.60204,42.35884]}},{"type":"Feature","properties":{"acq_date":"2026-08-16","acq_time":1006,"confidence":"n","satellite":"N","instrument":"VIIRS","version":"2.0NRT","bright_ti4":325.22,"frp":3.24,"daynight":"N"},"geometry":{"type":"Point","coordinates":[-121.60117,42.3622]}},{"type":"Feature","properties":{"acq_date":"2026-08-16","acq_time":1006,"confidence":"n","satellite":"N","instrument":"VIIRS","version":"2.0NRT","bright_ti4":305.39,"frp":0.7,"daynight":"N"},"geometry":{"type":"Point","coordinates":[-122.77711,42.38413]}},{"type":"Feature","properties":{"acq_date":"2026-08-16","acq_time":1006,"confidence":"n","satellite":"N","instrument":"VIIRS","version":"2.0NRT","bright_ti4":298.34,"frp":0.61,"daynight":"N"},"geometry":{"type":"Point","coordinates":[-121.6424,42.39581]}},{"type":"Feature","properties":{"acq_date":"2026-08-16","acq_time":1006,"confidence":"n","satellite":"N","instrument":"VIIRS","version":"2.0NRT","bright_ti4":296.01,"frp":0.83,"daynight":"N"},"geometry":{"type":"Point","coordinates":[-121.6494,42.40723]}},{"type":"Feature","properties":{"acq_date":"2026-08-16","acq_time":1006,"confidence":"n","satellite":"N","instrument":"VIIRS","version":"2.0NRT","bright_ti4":299.16,"frp":0.69,"daynight":"N"},"geometry":{"type":"Point","coordinates":[-121.65611,42.41221]}},{"type":"Feature","properties":{"acq_date":"2026-08-16","acq_time":1006,"confidence":"n","satellite":"N","instrument":"VIIRS","version":"2.0NRT","bright_ti4":318.28,"frp":1.52,"daynight":"N"},"geometry":{"type":"Point","coordinates":[-121.69291,42.41332]}},{"type":"Feature","properties":{"acq_date":"2026-08-16","acq_time":1006,"confidence":"n","satellite":"N","instrument":"VIIRS","version":"2.0NRT","bright_ti4":299.52,"frp":0.4,"daynight":"N"},"geometry":{"type":"Point","coordinates":[-121.67238,42.41393]}},{"type":"Feature","properties":{"acq_date":"2026-08-16","acq_time":1006,"confidence":"n","satellite":"N","instrument":"VIIRS","version":"2.0NRT","bright_ti4":306.54,"frp":1.3,"daynight":"N"},"geometry":{"type":"Point","coordinates":[-121.69787,42.41402]}},{"type":"Feature","properties":{"acq_date":"2026-08-16","acq_time":1006,"confidence":"n","satellite":"N","instrument":"VIIRS","version":"2.0NRT","bright_ti4":303.52,"frp":1.05,"daynight":"N"},"geometry":{"type":"Point","coordinates":[-121.67731,42.41462]}},{"type":"Feature","properties":{"acq_date":"2026-08-16","acq_time":1006,"confidence":"n","satellite":"N","instrument":"VIIRS","version":"2.0NRT","bright_ti4":311.94,"frp":1.19,"daynight":"N"},"geometry":{"type":"Point","coordinates":[-121.67535,42.41488]}},{"type":"Feature","properties":{"acq_date":"2026-08-16","acq_time":1006,"confidence":"n","satellite":"N","instrument":"VIIRS","version":"2.0NRT","bright_ti4":298.16,"frp":0.64,"daynight":"N"},"geometry":{"type":"Point","coordinates":[-121.6795,42.41892]}},{"type":"Feature","properties":{"acq_date":"2026-08-16","acq_time":1006,"confidence":"n","satellite":"N","instrument":"VIIRS","version":"2.0NRT","bright_ti4":296.69,"frp":0.81,"daynight":"N"},"geometry":{"type":"Point","coordinates":[-121.65956,42.41964]}},{"type":"Feature","properties":{"acq_date":"2026-08-16","acq_time":1006,"confidence":"n","satellite":"N","instrument":"VIIRS","version":"2.0NRT","bright_ti4":295.39,"frp":0.61,"daynight":"N"},"geometry":{"type":"Point","coordinates":[-121.67812,42.42569]}},{"type":"Feature","properties":{"acq_date":"2026-08-16","acq_time":1006,"confidence":"n","satellite":"N","instrument":"VIIRS","version":"2.0NRT","bright_ti4":296.43,"frp":0.61,"daynight":"N"},"geometry":{"type":"Point","coordinates":[-121.68288,42.42635]}},{"type":"Feature","properties":{"acq_date":"2026-08-16","acq_time":1006,"confidence":"n","satellite":"N","instrument":"VIIRS","version":"2.0NRT","bright_ti4":303.48,"frp":1.59,"daynight":"N"},"geometry":{"type":"Point","coordinates":[-121.68143,42.43311]}},{"type":"Feature","properties":{"acq_date":"2026-08-16","acq_time":1006,"confidence":"n","satellite":"N","instrument":"VIIRS","version":"2.0NRT","bright_ti4":297.31,"frp":0.94,"daynight":"N"},"geometry":{"type":"Point","coordinates":[-121.69023,42.43781]}},{"type":"Feature","properties":{"acq_date":"2026-08-16","acq_time":1006,"confidence":"n","satellite":"N","instrument":"VIIRS","version":"2.0NRT","bright_ti4":315.55,"frp":0.96,"daynight":"N"},"geometry":{"type":"Point","coordinates":[-117.30089,42.95546]}},{"type":"Feature","properties":{"acq_date":"2026-08-16","acq_time":1006,"confidence":"n","satellite":"N","instrument":"VIIRS","version":"2.0NRT","bright_ti4":311.28,"frp":1.12,"daynight":"N"},"geometry":{"type":"Point","coordinates":[-115.6666,43.14518]}},{"type":"Feature","properties":{"acq_date":"2026-08-16","acq_time":1006,"confidence":"n","satellite":"N","instrument":"VIIRS","version":"2.0NRT","bright_ti4":305.22,"frp":1.15,"daynight":"N"},"geometry":{"type":"Point","coordinates":[-115.7326,43.17968]}},{"type":"Feature","properties":{"acq_date":"2026-08-16","acq_time":1009,"confidence":"n","satellite":"N","instrument":"VIIRS","version":"2.0NRT","bright_ti4":303.52,"frp":4.89,"daynight":"N"},"geometry":{"type":"Point","coordinates":[-116.83234,32.49523]}},{"type":"Feature","properties":{"acq_date":"2026-08-16","acq_time":1009,"confidence":"n","satellite":"N","instrument":"VIIRS","version":"2.0NRT","bright_ti4":338.26,"frp":4.89,"daynight":"N"},"geometry":{"type":"Point","coordinates":[-116.83633,32.49604]}},{"type":"Feature","properties":{"acq_date":"2026-08-16","acq_time":1009,"confidence":"n","satellite":"N","instrument":"VIIRS","version":"2.0NRT","bright_ti4":297.92,"frp":0.25,"daynight":"N"},"geometry":{"type":"Point","coordinates":[-116.79208,32.49953]}},{"type":"Feature","properties":{"acq_date":"2026-08-16","acq_time":1009,"confidence":"n","satellite":"N","instrument":"VIIRS","version":"2.0NRT","bright_ti4":300.72,"frp":0.91,"daynight":"N"},"geometry":{"type":"Point","coordinates":[-116.78947,32.50014]}},{"type":"Feature","properties":{"acq_date":"2026-08-16","acq_time":1009,"confidence":"n","satellite":"N","instrument":"VIIRS","version":"2.0NRT","bright_ti4":305.25,"frp":1.2,"daynight":"N"},"geometry":{"type":"Point","coordinates":[-117.61956,33.491]}},{"type":"Feature","properties":{"acq_date":"2026-08-16","acq_time":1009,"confidence":"n","satellite":"N","instrument":"VIIRS","version":"2.0NRT","bright_ti4":301.45,"frp":1.07,"daynight":"N"},"geometry":{"type":"Point","coordinates":[-117.82531,33.61383]}},{"type":"Feature","properties":{"acq_date":"2026-08-16","acq_time":1009,"confidence":"n","satellite":"N","instrument":"VIIRS","version":"2.0NRT","bright_ti4":305.35,"frp":1.25,"daynight":"N"},"geometry":{"type":"Point","coordinates":[-117.71151,33.71696]}},{"type":"Feature","properties":{"acq_date":"2026-08-16","acq_time":1009,"confidence":"n","satellite":"N","instrument":"VIIRS","version":"2.0NRT","bright_ti4":307.22,"frp":1,"daynight":"N"},"geometry":{"type":"Point","coordinates":[-118.23744,33.77774]}},{"type":"Feature","properties":{"acq_date":"2026-08-16","acq_time":1009,"confidence":"n","satellite":"N","instrument":"VIIRS","version":"2.0NRT","bright_ti4":306.69,"frp":1.48,"daynight":"N"},"geometry":{"type":"Point","coordinates":[-117.473,33.79486]}},{"type":"Feature","properties":{"acq_date":"2026-08-16","acq_time":1009,"confidence":"n","satellite":"N","instrument":"VIIRS","version":"2.0NRT","bright_ti4":308.1,"frp":1.34,"daynight":"N"},"geometry":{"type":"Point","coordinates":[-118.33288,33.85283]}},{"type":"Feature","properties":{"acq_date":"2026-08-16","acq_time":1009,"confidence":"n","satellite":"N","instrument":"VIIRS","version":"2.0NRT","bright_ti4":305.22,"frp":0.56,"daynight":"N"},"geometry":{"type":"Point","coordinates":[-118.10389,34.03566]}},{"type":"Feature","properties":{"acq_date":"2026-08-16","acq_time":1009,"confidence":"n","satellite":"N","instrument":"VIIRS","version":"2.0NRT","bright_ti4":303.08,"frp":0.23,"daynight":"N"},"geometry":{"type":"Point","coordinates":[-117.82009,34.0402]}},{"type":"Feature","properties":{"acq_date":"2026-08-16","acq_time":1009,"confidence":"n","satellite":"N","instrument":"VIIRS","version":"2.0NRT","bright_ti4":303.68,"frp":0.24,"daynight":"N"},"geometry":{"type":"Point","coordinates":[-117.42718,34.14269]}},{"type":"Feature","properties":{"acq_date":"2026-08-16","acq_time":1009,"confidence":"n","satellite":"N","instrument":"VIIRS","version":"2.0NRT","bright_ti4":316.79,"frp":1.86,"daynight":"N"},"geometry":{"type":"Point","coordinates":[-118.19294,34.15453]}},{"type":"Feature","properties":{"acq_date":"2026-08-16","acq_time":1009,"confidence":"n","satellite":"N","instrument":"VIIRS","version":"2.0NRT","bright_ti4":300.8,"frp":0.55,"daynight":"N"},"geometry":{"type":"Point","coordinates":[-118.38229,34.24297]}},{"type":"Feature","properties":{"acq_date":"2026-08-16","acq_time":1009,"confidence":"n","satellite":"N","instrument":"VIIRS","version":"2.0NRT","bright_ti4":300.22,"frp":0.34,"daynight":"N"},"geometry":{"type":"Point","coordinates":[-118.38004,34.24392]}},{"type":"Feature","properties":{"acq_date":"2026-08-16","acq_time":1009,"confidence":"n","satellite":"N","instrument":"VIIRS","version":"2.0NRT","bright_ti4":302.1,"frp":0.76,"daynight":"N"},"geometry":{"type":"Point","coordinates":[-118.80121,34.29141]}},{"type":"Feature","properties":{"acq_date":"2026-08-16","acq_time":1009,"confidence":"n","satellite":"N","instrument":"VIIRS","version":"2.0NRT","bright_ti4":322.9,"frp":1.55,"daynight":"N"},"geometry":{"type":"Point","coordinates":[-118.52134,34.33412]}},{"type":"Feature","properties":{"acq_date":"2026-08-16","acq_time":1009,"confidence":"n","satellite":"N","instrument":"VIIRS","version":"2.0NRT","bright_ti4":306.77,"frp":1.58,"daynight":"N"},"geometry":{"type":"Point","coordinates":[-116.85138,34.35324]}},{"type":"Feature","properties":{"acq_date":"2026-08-16","acq_time":1009,"confidence":"n","satellite":"N","instrument":"VIIRS","version":"2.0NRT","bright_ti4":314.84,"frp":1.3,"daynight":"N"},"geometry":{"type":"Point","coordinates":[-118.64452,34.42957]}},{"type":"Feature","properties":{"acq_date":"2026-08-16","acq_time":1009,"confidence":"n","satellite":"N","instrument":"VIIRS","version":"2.0NRT","bright_ti4":315.77,"frp":2.68,"daynight":"N"},"geometry":{"type":"Point","coordinates":[-117.33903,34.60753]}},{"type":"Feature","properties":{"acq_date":"2026-08-16","acq_time":1009,"confidence":"n","satellite":"N","instrument":"VIIRS","version":"2.0NRT","bright_ti4":316.44,"frp":2.67,"daynight":"N"},"geometry":{"type":"Point","coordinates":[-117.10045,34.62275]}},{"type":"Feature","properties":{"acq_date":"2026-08-16","acq_time":1009,"confidence":"n","satellite":"N","instrument":"VIIRS","version":"2.0NRT","bright_ti4":301.25,"frp":0.62,"daynight":"N"},"geometry":{"type":"Point","coordinates":[-118.75005,34.81841]}},{"type":"Feature","properties":{"acq_date":"2026-08-16","acq_time":1009,"confidence":"n","satellite":"N","instrument":"VIIRS","version":"2.0NRT","bright_ti4":309.34,"frp":0.73,"daynight":"N"},"geometry":{"type":"Point","coordinates":[-121.69743,36.2192]}},{"type":"Feature","properties":{"acq_date":"2026-08-16","acq_time":1009,"confidence":"n","satellite":"N","instrument":"VIIRS","version":"2.0NRT","bright_ti4":302.25,"frp":1.33,"daynight":"N"},"geometry":{"type":"Point","coordinates":[-121.71553,36.23569]}},{"type":"Feature","properties":{"acq_date":"2026-08-16","acq_time":1009,"confidence":"n","satellite":"N","instrument":"VIIRS","version":"2.0NRT","bright_ti4":321.49,"frp":1.33,"daynight":"N"},"geometry":{"type":"Point","coordinates":[-121.71975,36.23635]}},{"type":"Feature","properties":{"acq_date":"2026-08-16","acq_time":1009,"confidence":"n","satellite":"N","instrument":"VIIRS","version":"2.0NRT","bright_ti4":296.49,"frp":1.32,"daynight":"N"},"geometry":{"type":"Point","coordinates":[-121.71676,36.23868]}},{"type":"Feature","properties":{"acq_date":"2026-08-16","acq_time":1009,"confidence":"n","satellite":"N","instrument":"VIIRS","version":"2.0NRT","bright_ti4":327.71,"frp":1.32,"daynight":"N"},"geometry":{"type":"Point","coordinates":[-121.716,36.24197]}},{"type":"Feature","properties":{"acq_date":"2026-08-16","acq_time":1009,"confidence":"n","satellite":"N","instrument":"VIIRS","version":"2.0NRT","bright_ti4":310.16,"frp":1.32,"daynight":"N"},"geometry":{"type":"Point","coordinates":[-121.72021,36.24263]}},{"type":"Feature","properties":{"acq_date":"2026-08-16","acq_time":1009,"confidence":"n","satellite":"N","instrument":"VIIRS","version":"2.0NRT","bright_ti4":319.1,"frp":2.64,"daynight":"N"},"geometry":{"type":"Point","coordinates":[-121.7329,36.24463]}},{"type":"Feature","properties":{"acq_date":"2026-08-16","acq_time":1009,"confidence":"n","satellite":"N","instrument":"VIIRS","version":"2.0NRT","bright_ti4":300.04,"frp":2.06,"daynight":"N"},"geometry":{"type":"Point","coordinates":[-121.7152,36.24525]}},{"type":"Feature","properties":{"acq_date":"2026-08-16","acq_time":1009,"confidence":"n","satellite":"N","instrument":"VIIRS","version":"2.0NRT","bright_ti4":347.11,"frp":2.06,"daynight":"N"},"geometry":{"type":"Point","coordinates":[-121.71945,36.24592]}},{"type":"Feature","properties":{"acq_date":"2026-08-16","acq_time":1009,"confidence":"n","satellite":"N","instrument":"VIIRS","version":"2.0NRT","bright_ti4":308.99,"frp":1.32,"daynight":"N"},"geometry":{"type":"Point","coordinates":[-121.72369,36.24658]}},{"type":"Feature","properties":{"acq_date":"2026-08-16","acq_time":1009,"confidence":"n","satellite":"N","instrument":"VIIRS","version":"2.0NRT","bright_ti4":314.41,"frp":1.33,"daynight":"N"},"geometry":{"type":"Point","coordinates":[-121.73215,36.24791]}},{"type":"Feature","properties":{"acq_date":"2026-08-16","acq_time":1009,"confidence":"n","satellite":"N","instrument":"VIIRS","version":"2.0NRT","bright_ti4":322,"frp":1.33,"daynight":"N"},"geometry":{"type":"Point","coordinates":[-121.73637,36.24857]}},{"type":"Feature","properties":{"acq_date":"2026-08-16","acq_time":1009,"confidence":"n","satellite":"N","instrument":"VIIRS","version":"2.0NRT","bright_ti4":307.67,"frp":1.16,"daynight":"N"},"geometry":{"type":"Point","coordinates":[-114.91288,36.35574]}},{"type":"Feature","properties":{"acq_date":"2026-08-16","acq_time":1009,"confidence":"n","satellite":"N","instrument":"VIIRS","version":"2.0NRT","bright_ti4":305.04,"frp":0.87,"daynight":"N"},"geometry":{"type":"Point","coordinates":[-114.91147,36.35973]}},{"type":"Feature","properties":{"acq_date":"2026-08-16","acq_time":1009,"confidence":"n","satellite":"N","instrument":"VIIRS","version":"2.0NRT","bright_ti4":307.64,"frp":0.87,"daynight":"N"},"geometry":{"type":"Point","coordinates":[-114.87576,36.3821]}},{"type":"Feature","properties":{"acq_date":"2026-08-16","acq_time":1009,"confidence":"n","satellite":"N","instrument":"VIIRS","version":"2.0NRT","bright_ti4":302.96,"frp":0.32,"daynight":"N"},"geometry":{"type":"Point","coordinates":[-120.58172,36.69601]}},{"type":"Feature","properties":{"acq_date":"2026-08-16","acq_time":1009,"confidence":"n","satellite":"N","instrument":"VIIRS","version":"2.0NRT","bright_ti4":307.94,"frp":0.7,"daynight":"N"},"geometry":{"type":"Point","coordinates":[-120.65884,37.59977]}},{"type":"Feature","properties":{"acq_date":"2026-08-16","acq_time":1009,"confidence":"n","satellite":"N","instrument":"VIIRS","version":"2.0NRT","bright_ti4":307.5,"frp":0.88,"daynight":"N"},"geometry":{"type":"Point","coordinates":[-121.18645,37.8819]}},{"type":"Feature","properties":{"acq_date":"2026-08-16","acq_time":1009,"confidence":"n","satellite":"N","instrument":"VIIRS","version":"2.0NRT","bright_ti4":300.67,"frp":0.3,"daynight":"N"},"geometry":{"type":"Point","coordinates":[-121.93369,38.00369]}},{"type":"Feature","properties":{"acq_date":"2026-08-16","acq_time":1009,"confidence":"n","satellite":"N","instrument":"VIIRS","version":"2.0NRT","bright_ti4":301.4,"frp":0.94,"daynight":"N"},"geometry":{"type":"Point","coordinates":[-122.11388,38.01355]}},{"type":"Feature","properties":{"acq_date":"2026-08-16","acq_time":1009,"confidence":"n","satellite":"N","instrument":"VIIRS","version":"2.0NRT","bright_ti4":311.96,"frp":1.21,"daynight":"N"},"geometry":{"type":"Point","coordinates":[-120.84786,38.12377]}},{"type":"Feature","properties":{"acq_date":"2026-08-16","acq_time":1009,"confidence":"n","satellite":"N","instrument":"VIIRS","version":"2.0NRT","bright_ti4":300.96,"frp":0.44,"daynight":"N"},"geometry":{"type":"Point","coordinates":[-121.98359,38.21447]}},{"type":"Feature","properties":{"acq_date":"2026-08-16","acq_time":1009,"confidence":"n","satellite":"N","instrument":"VIIRS","version":"2.0NRT","bright_ti4":296.77,"frp":0.3,"daynight":"N"},"geometry":{"type":"Point","coordinates":[-121.83401,38.31408]}},{"type":"Feature","properties":{"acq_date":"2026-08-16","acq_time":1009,"confidence":"n","satellite":"N","instrument":"VIIRS","version":"2.0NRT","bright_ti4":300.11,"frp":0.63,"daynight":"N"},"geometry":{"type":"Point","coordinates":[-119.52364,39.56342]}},{"type":"Feature","properties":{"acq_date":"2026-08-16","acq_time":1009,"confidence":"n","satellite":"N","instrument":"VIIRS","version":"2.0NRT","bright_ti4":310.23,"frp":1.12,"daynight":"N"},"geometry":{"type":"Point","coordinates":[-119.26241,39.61832]}},{"type":"Feature","properties":{"acq_date":"2026-08-16","acq_time":1009,"confidence":"n","satellite":"N","instrument":"VIIRS","version":"2.0NRT","bright_ti4":295.22,"frp":0.34,"daynight":"N"},"geometry":{"type":"Point","coordinates":[-117.75847,39.65127]}},{"type":"Feature","properties":{"acq_date":"2026-08-16","acq_time":1009,"confidence":"n","satellite":"N","instrument":"VIIRS","version":"2.0NRT","bright_ti4":297.55,"frp":0.74,"daynight":"N"},"geometry":{"type":"Point","coordinates":[-117.75745,39.65465]}},{"type":"Feature","properties":{"acq_date":"2026-08-16","acq_time":1009,"confidence":"n","satellite":"N","instrument":"VIIRS","version":"2.0NRT","bright_ti4":309.9,"frp":1.26,"daynight":"N"},"geometry":{"type":"Point","coordinates":[-117.58699,39.79024]}},{"type":"Feature","properties":{"acq_date":"2026-08-16","acq_time":1009,"confidence":"n","satellite":"N","instrument":"VIIRS","version":"2.0NRT","bright_ti4":306.07,"frp":1.47,"daynight":"N"},"geometry":{"type":"Point","coordinates":[-117.59167,39.79109]}},{"type":"Feature","properties":{"acq_date":"2026-08-16","acq_time":1009,"confidence":"n","satellite":"N","instrument":"VIIRS","version":"2.0NRT","bright_ti4":301.72,"frp":1,"daynight":"N"},"geometry":{"type":"Point","coordinates":[-117.58453,39.79218]}},{"type":"Feature","properties":{"acq_date":"2026-08-16","acq_time":1009,"confidence":"n","satellite":"N","instrument":"VIIRS","version":"2.0NRT","bright_ti4":317.77,"frp":1,"daynight":"N"},"geometry":{"type":"Point","coordinates":[-117.5892,39.79304]}},{"type":"Feature","properties":{"acq_date":"2026-08-16","acq_time":1009,"confidence":"n","satellite":"N","instrument":"VIIRS","version":"2.0NRT","bright_ti4":304.23,"frp":1.26,"daynight":"N"},"geometry":{"type":"Point","coordinates":[-117.58595,39.79362]}},{"type":"Feature","properties":{"acq_date":"2026-08-16","acq_time":1009,"confidence":"n","satellite":"N","instrument":"VIIRS","version":"2.0NRT","bright_ti4":311.35,"frp":1.47,"daynight":"N"},"geometry":{"type":"Point","coordinates":[-117.59061,39.79448]}},{"type":"Feature","properties":{"acq_date":"2026-08-16","acq_time":1009,"confidence":"n","satellite":"N","instrument":"VIIRS","version":"2.0NRT","bright_ti4":297.02,"frp":1,"daynight":"N"},"geometry":{"type":"Point","coordinates":[-117.58347,39.79557]}},{"type":"Feature","properties":{"acq_date":"2026-08-16","acq_time":1009,"confidence":"n","satellite":"N","instrument":"VIIRS","version":"2.0NRT","bright_ti4":308.87,"frp":1,"daynight":"N"},"geometry":{"type":"Point","coordinates":[-117.58811,39.79642]}},{"type":"Feature","properties":{"acq_date":"2026-08-16","acq_time":1009,"confidence":"n","satellite":"N","instrument":"VIIRS","version":"2.0NRT","bright_ti4":309.21,"frp":2.14,"daynight":"N"},"geometry":{"type":"Point","coordinates":[-117.59279,39.79729]}},{"type":"Feature","properties":{"acq_date":"2026-08-16","acq_time":1009,"confidence":"n","satellite":"N","instrument":"VIIRS","version":"2.0NRT","bright_ti4":299.97,"frp":0.56,"daynight":"N"},"geometry":{"type":"Point","coordinates":[-117.60224,39.79903]}},{"type":"Feature","properties":{"acq_date":"2026-08-16","acq_time":1009,"confidence":"n","satellite":"N","instrument":"VIIRS","version":"2.0NRT","bright_ti4":320.39,"frp":1.62,"daynight":"N"},"geometry":{"type":"Point","coordinates":[-117.58702,39.79981]}},{"type":"Feature","properties":{"acq_date":"2026-08-16","acq_time":1009,"confidence":"n","satellite":"N","instrument":"VIIRS","version":"2.0NRT","bright_ti4":311.32,"frp":1.07,"daynight":"N"},"geometry":{"type":"Point","coordinates":[-117.59165,39.80066]}},{"type":"Feature","properties":{"acq_date":"2026-08-16","acq_time":1009,"confidence":"n","satellite":"N","instrument":"VIIRS","version":"2.0NRT","bright_ti4":299.45,"frp":1.07,"daynight":"N"},"geometry":{"type":"Point","coordinates":[-117.59632,39.80153]}},{"type":"Feature","properties":{"acq_date":"2026-08-16","acq_time":1009,"confidence":"n","satellite":"N","instrument":"VIIRS","version":"2.0NRT","bright_ti4":296.66,"frp":0.83,"daynight":"N"},"geometry":{"type":"Point","coordinates":[-117.60107,39.8024]}},{"type":"Feature","properties":{"acq_date":"2026-08-16","acq_time":1009,"confidence":"n","satellite":"N","instrument":"VIIRS","version":"2.0NRT","bright_ti4":304.65,"frp":1.62,"daynight":"N"},"geometry":{"type":"Point","coordinates":[-117.58595,39.8032]}},{"type":"Feature","properties":{"acq_date":"2026-08-16","acq_time":1009,"confidence":"n","satellite":"N","instrument":"VIIRS","version":"2.0NRT","bright_ti4":302.4,"frp":1.07,"daynight":"N"},"geometry":{"type":"Point","coordinates":[-117.59055,39.80404]}},{"type":"Feature","properties":{"acq_date":"2026-08-16","acq_time":1009,"confidence":"n","satellite":"N","instrument":"VIIRS","version":"2.0NRT","bright_ti4":313.52,"frp":1.77,"daynight":"N"},"geometry":{"type":"Point","coordinates":[-117.58948,39.80743]}},{"type":"Feature","properties":{"acq_date":"2026-08-16","acq_time":1009,"confidence":"n","satellite":"N","instrument":"VIIRS","version":"2.0NRT","bright_ti4":300.29,"frp":0.8,"daynight":"N"},"geometry":{"type":"Point","coordinates":[-122.17275,39.87502]}},{"type":"Feature","properties":{"acq_date":"2026-08-16","acq_time":1009,"confidence":"n","satellite":"N","instrument":"VIIRS","version":"2.0NRT","bright_ti4":301.84,"frp":0.8,"daynight":"N"},"geometry":{"type":"Point","coordinates":[-122.17738,39.87569]}},{"type":"Feature","properties":{"acq_date":"2026-08-16","acq_time":1009,"confidence":"n","satellite":"N","instrument":"VIIRS","version":"2.0NRT","bright_ti4":312.25,"frp":0.8,"daynight":"N"},"geometry":{"type":"Point","coordinates":[-122.17658,39.87904]}},{"type":"Feature","properties":{"acq_date":"2026-08-16","acq_time":1009,"confidence":"n","satellite":"N","instrument":"VIIRS","version":"2.0NRT","bright_ti4":299.18,"frp":0.55,"daynight":"N"},"geometry":{"type":"Point","coordinates":[-123.69739,41.07373]}},{"type":"Feature","properties":{"acq_date":"2026-08-16","acq_time":1009,"confidence":"n","satellite":"N","instrument":"VIIRS","version":"2.0NRT","bright_ti4":313.82,"frp":1.75,"daynight":"N"},"geometry":{"type":"Point","coordinates":[-123.62861,41.09795]}},{"type":"Feature","properties":{"acq_date":"2026-08-16","acq_time":1009,"confidence":"n","satellite":"N","instrument":"VIIRS","version":"2.0NRT","bright_ti4":313.38,"frp":1.63,"daynight":"N"},"geometry":{"type":"Point","coordinates":[-123.66305,41.09861]}},{"type":"Feature","properties":{"acq_date":"2026-08-16","acq_time":1009,"confidence":"n","satellite":"N","instrument":"VIIRS","version":"2.0NRT","bright_ti4":303.39,"frp":1.17,"daynight":"N"},"geometry":{"type":"Point","coordinates":[-123.63393,41.09861]}},{"type":"Feature","properties":{"acq_date":"2026-08-16","acq_time":1009,"confidence":"n","satellite":"N","instrument":"VIIRS","version":"2.0NRT","bright_ti4":300.23,"frp":1.13,"daynight":"N"},"geometry":{"type":"Point","coordinates":[-123.64504,41.10363]}},{"type":"Feature","properties":{"acq_date":"2026-08-16","acq_time":1009,"confidence":"n","satellite":"N","instrument":"VIIRS","version":"2.0NRT","bright_ti4":309.12,"frp":1.13,"daynight":"N"},"geometry":{"type":"Point","coordinates":[-123.64471,41.10723]}},{"type":"Feature","properties":{"acq_date":"2026-08-16","acq_time":1009,"confidence":"n","satellite":"N","instrument":"VIIRS","version":"2.0NRT","bright_ti4":299.15,"frp":0.72,"daynight":"N"},"geometry":{"type":"Point","coordinates":[-123.63705,41.11718]}},{"type":"Feature","properties":{"acq_date":"2026-08-16","acq_time":1009,"confidence":"n","satellite":"N","instrument":"VIIRS","version":"2.0NRT","bright_ti4":318.08,"frp":2.12,"daynight":"N"},"geometry":{"type":"Point","coordinates":[-123.62527,41.11933]}},{"type":"Feature","properties":{"acq_date":"2026-08-16","acq_time":1009,"confidence":"n","satellite":"N","instrument":"VIIRS","version":"2.0NRT","bright_ti4":313.94,"frp":1.39,"daynight":"N"},"geometry":{"type":"Point","coordinates":[-123.61921,41.1222]}},{"type":"Feature","properties":{"acq_date":"2026-08-16","acq_time":1009,"confidence":"n","satellite":"N","instrument":"VIIRS","version":"2.0NRT","bright_ti4":299.77,"frp":1.39,"daynight":"N"},"geometry":{"type":"Point","coordinates":[-123.62415,41.12282]}},{"type":"Feature","properties":{"acq_date":"2026-08-16","acq_time":1009,"confidence":"n","satellite":"N","instrument":"VIIRS","version":"2.0NRT","bright_ti4":321.82,"frp":1.39,"daynight":"N"},"geometry":{"type":"Point","coordinates":[-123.61831,41.12572]}},{"type":"Feature","properties":{"acq_date":"2026-08-16","acq_time":1009,"confidence":"n","satellite":"N","instrument":"VIIRS","version":"2.0NRT","bright_ti4":308.51,"frp":1.39,"daynight":"N"},"geometry":{"type":"Point","coordinates":[-123.62308,41.12632]}},{"type":"Feature","properties":{"acq_date":"2026-08-16","acq_time":1009,"confidence":"n","satellite":"N","instrument":"VIIRS","version":"2.0NRT","bright_ti4":295.98,"frp":0.73,"daynight":"N"},"geometry":{"type":"Point","coordinates":[-123.61737,41.12923]}},{"type":"Feature","properties":{"acq_date":"2026-08-16","acq_time":1009,"confidence":"n","satellite":"N","instrument":"VIIRS","version":"2.0NRT","bright_ti4":309.02,"frp":1.54,"daynight":"N"},"geometry":{"type":"Point","coordinates":[-123.63008,41.13811]}},{"type":"Feature","properties":{"acq_date":"2026-08-16","acq_time":1009,"confidence":"n","satellite":"N","instrument":"VIIRS","version":"2.0NRT","bright_ti4":302.1,"frp":1.85,"daynight":"N"},"geometry":{"type":"Point","coordinates":[-123.60953,41.13914]}},{"type":"Feature","properties":{"acq_date":"2026-08-16","acq_time":1009,"confidence":"n","satellite":"N","instrument":"VIIRS","version":"2.0NRT","bright_ti4":346.37,"frp":9.47,"daynight":"N"},"geometry":{"type":"Point","coordinates":[-123.61446,41.13977]}},{"type":"Feature","properties":{"acq_date":"2026-08-16","acq_time":1009,"confidence":"n","satellite":"N","instrument":"VIIRS","version":"2.0NRT","bright_ti4":312.47,"frp":1.54,"daynight":"N"},"geometry":{"type":"Point","coordinates":[-123.62909,41.14161]}},{"type":"Feature","properties":{"acq_date":"2026-08-16","acq_time":1009,"confidence":"n","satellite":"N","instrument":"VIIRS","version":"2.0NRT","bright_ti4":327.58,"frp":2.3,"daynight":"N"},"geometry":{"type":"Point","coordinates":[-123.60877,41.14268]}},{"type":"Feature","properties":{"acq_date":"2026-08-16","acq_time":1009,"confidence":"n","satellite":"N","instrument":"VIIRS","version":"2.0NRT","bright_ti4":334.45,"frp":5.36,"daynight":"N"},"geometry":{"type":"Point","coordinates":[-123.61366,41.1433]}},{"type":"Feature","properties":{"acq_date":"2026-08-16","acq_time":1009,"confidence":"n","satellite":"N","instrument":"VIIRS","version":"2.0NRT","bright_ti4":306.06,"frp":1.44,"daynight":"N"},"geometry":{"type":"Point","coordinates":[-123.68042,41.14813]}},{"type":"Feature","properties":{"acq_date":"2026-08-16","acq_time":1009,"confidence":"n","satellite":"N","instrument":"VIIRS","version":"2.0NRT","bright_ti4":346.75,"frp":7.29,"daynight":"N"},"geometry":{"type":"Point","coordinates":[-123.67963,41.15168]}},{"type":"Feature","properties":{"acq_date":"2026-08-16","acq_time":1009,"confidence":"n","satellite":"N","instrument":"VIIRS","version":"2.0NRT","bright_ti4":305.97,"frp":1.65,"daynight":"N"},"geometry":{"type":"Point","coordinates":[-123.66628,41.15361]}},{"type":"Feature","properties":{"acq_date":"2026-08-16","acq_time":1009,"confidence":"n","satellite":"N","instrument":"VIIRS","version":"2.0NRT","bright_ti4":301.27,"frp":1.65,"daynight":"N"},"geometry":{"type":"Point","coordinates":[-123.67239,41.1544]}},{"type":"Feature","properties":{"acq_date":"2026-08-16","acq_time":1009,"confidence":"n","satellite":"N","instrument":"VIIRS","version":"2.0NRT","bright_ti4":343.88,"frp":7.29,"daynight":"N"},"geometry":{"type":"Point","coordinates":[-123.67857,41.15519]}},{"type":"Feature","properties":{"acq_date":"2026-08-16","acq_time":1009,"confidence":"n","satellite":"N","instrument":"VIIRS","version":"2.0NRT","bright_ti4":316.5,"frp":8.95,"daynight":"N"},"geometry":{"type":"Point","coordinates":[-123.66549,41.15716]}},{"type":"Feature","properties":{"acq_date":"2026-08-16","acq_time":1009,"confidence":"n","satellite":"N","instrument":"VIIRS","version":"2.0NRT","bright_ti4":353.06,"frp":8.95,"daynight":"N"},"geometry":{"type":"Point","coordinates":[-123.67122,41.15789]}},{"type":"Feature","properties":{"acq_date":"2026-08-16","acq_time":1009,"confidence":"n","satellite":"N","instrument":"VIIRS","version":"2.0NRT","bright_ti4":301.95,"frp":3.33,"daynight":"N"},"geometry":{"type":"Point","coordinates":[-123.67724,41.15866]}},{"type":"Feature","properties":{"acq_date":"2026-08-16","acq_time":1009,"confidence":"n","satellite":"N","instrument":"VIIRS","version":"2.0NRT","bright_ti4":307.14,"frp":8.95,"daynight":"N"},"geometry":{"type":"Point","coordinates":[-123.67029,41.16141]}}]}