{"type":"FeatureCollection","name":"FIRMS VIIRS CA (last 1 day)","crs":{"type":"name","properties":{"name":"EPSG:4326"}},"fetched_at_utc":"2026-09-21T19:09:40.201Z","source":{"url":"https://firms.modaps.eosdis.nasa.gov/api/area/csv/8c4af552cf654445dd280dfb3ad9337c/VIIRS_SNPP_NRT/-125,32,-113,43.5/1","dataset":"VIIRS_SNPP_NRT","bbox":"-125,32,-113,43.5","day_range":"1"},"features":[{"type":"Feature","properties":{"acq_date":"2026-09-21","acq_time":852,"confidence":"n","satellite":"N","instrument":"VIIRS","version":"2.0NRT","bright_ti4":309.83,"frp":1.84,"daynight":"N"},"geometry":{"type":"Point","coordinates":[-114.91173,36.35971]}},{"type":"Feature","properties":{"acq_date":"2026-09-21","acq_time":852,"confidence":"n","satellite":"N","instrument":"VIIRS","version":"2.0NRT","bright_ti4":296.97,"frp":1.4,"daynight":"N"},"geometry":{"type":"Point","coordinates":[-114.25481,40.82359]}},{"type":"Feature","properties":{"acq_date":"2026-09-21","acq_time":854,"confidence":"n","satellite":"N","instrument":"VIIRS","version":"2.0NRT","bright_ti4":302.31,"frp":1.08,"daynight":"N"},"geometry":{"type":"Point","coordinates":[-117.33769,34.60508]}},{"type":"Feature","properties":{"acq_date":"2026-09-21","acq_time":1032,"confidence":"n","satellite":"N","instrument":"VIIRS","version":"2.0NRT","bright_ti4":304.21,"frp":1.51,"daynight":"N"},"geometry":{"type":"Point","coordinates":[-114.25414,40.82157]}},{"type":"Feature","properties":{"acq_date":"2026-09-21","acq_time":1032,"confidence":"n","satellite":"N","instrument":"VIIRS","version":"2.0NRT","bright_ti4":322.46,"frp":2.36,"daynight":"N"},"geometry":{"type":"Point","coordinates":[-114.25717,40.82185]}},{"type":"Feature","properties":{"acq_date":"2026-09-21","acq_time":1032,"confidence":"n","satellite":"N","instrument":"VIIRS","version":"2.0NRT","bright_ti4":305.31,"frp":2.09,"daynight":"N"},"geometry":{"type":"Point","coordinates":[-114.25884,40.82286]}},{"type":"Feature","properties":{"acq_date":"2026-09-21","acq_time":1032,"confidence":"n","satellite":"N","instrument":"VIIRS","version":"2.0NRT","bright_ti4":303.61,"frp":1.1,"daynight":"N"},"geometry":{"type":"Point","coordinates":[-122.87885,42.16956]}},{"type":"Feature","properties":{"acq_date":"2026-09-21","acq_time":1032,"confidence":"n","satellite":"N","instrument":"VIIRS","version":"2.0NRT","bright_ti4":295.27,"frp":1.1,"daynight":"N"},"geometry":{"type":"Point","coordinates":[-122.87288,42.17205]}},{"type":"Feature","properties":{"acq_date":"2026-09-21","acq_time":1032,"confidence":"n","satellite":"N","instrument":"VIIRS","version":"2.0NRT","bright_ti4":317.95,"frp":1.1,"daynight":"N"},"geometry":{"type":"Point","coordinates":[-122.87793,42.17299]}},{"type":"Feature","properties":{"acq_date":"2026-09-21","acq_time":1032,"confidence":"n","satellite":"N","instrument":"VIIRS","version":"2.0NRT","bright_ti4":300.83,"frp":1.24,"daynight":"N"},"geometry":{"type":"Point","coordinates":[-122.88273,42.17387]}},{"type":"Feature","properties":{"acq_date":"2026-09-21","acq_time":1032,"confidence":"n","satellite":"N","instrument":"VIIRS","version":"2.0NRT","bright_ti4":299.3,"frp":0.59,"daynight":"N"},"geometry":{"type":"Point","coordinates":[-122.77392,42.38427]}},{"type":"Feature","properties":{"acq_date":"2026-09-21","acq_time":1032,"confidence":"n","satellite":"N","instrument":"VIIRS","version":"2.0NRT","bright_ti4":298.21,"frp":0.74,"daynight":"N"},"geometry":{"type":"Point","coordinates":[-115.73118,43.17983]}},{"type":"Feature","properties":{"acq_date":"2026-09-21","acq_time":1034,"confidence":"n","satellite":"N","instrument":"VIIRS","version":"2.0NRT","bright_ti4":303.02,"frp":0.73,"daynight":"N"},"geometry":{"type":"Point","coordinates":[-116.85123,34.35526]}},{"type":"Feature","properties":{"acq_date":"2026-09-21","acq_time":1034,"confidence":"n","satellite":"N","instrument":"VIIRS","version":"2.0NRT","bright_ti4":317.04,"frp":2.39,"daynight":"N"},"geometry":{"type":"Point","coordinates":[-117.33511,34.60786]}},{"type":"Feature","properties":{"acq_date":"2026-09-21","acq_time":1034,"confidence":"n","satellite":"N","instrument":"VIIRS","version":"2.0NRT","bright_ti4":309.36,"frp":1.25,"daynight":"N"},"geometry":{"type":"Point","coordinates":[-117.10034,34.61998]}},{"type":"Feature","properties":{"acq_date":"2026-09-21","acq_time":1034,"confidence":"n","satellite":"N","instrument":"VIIRS","version":"2.0NRT","bright_ti4":300.21,"frp":1.09,"daynight":"N"},"geometry":{"type":"Point","coordinates":[-117.09854,34.62026]}},{"type":"Feature","properties":{"acq_date":"2026-09-21","acq_time":1034,"confidence":"n","satellite":"N","instrument":"VIIRS","version":"2.0NRT","bright_ti4":307.85,"frp":1.55,"daynight":"N"},"geometry":{"type":"Point","coordinates":[-117.1022,34.62118]}},{"type":"Feature","properties":{"acq_date":"2026-09-21","acq_time":1034,"confidence":"n","satellite":"N","instrument":"VIIRS","version":"2.0NRT","bright_ti4":300.41,"frp":1.36,"daynight":"N"},"geometry":{"type":"Point","coordinates":[-114.91359,36.35559]}},{"type":"Feature","properties":{"acq_date":"2026-09-21","acq_time":1034,"confidence":"n","satellite":"N","instrument":"VIIRS","version":"2.0NRT","bright_ti4":299.37,"frp":0.48,"daynight":"N"},"geometry":{"type":"Point","coordinates":[-120.13634,37.02844]}},{"type":"Feature","properties":{"acq_date":"2026-09-21","acq_time":1034,"confidence":"n","satellite":"N","instrument":"VIIRS","version":"2.0NRT","bright_ti4":307.24,"frp":1.04,"daynight":"N"},"geometry":{"type":"Point","coordinates":[-120.13829,37.03782]}},{"type":"Feature","properties":{"acq_date":"2026-09-21","acq_time":1034,"confidence":"n","satellite":"N","instrument":"VIIRS","version":"2.0NRT","bright_ti4":315.54,"frp":1.6,"daynight":"N"},"geometry":{"type":"Point","coordinates":[-119.59481,37.58828]}},{"type":"Feature","properties":{"acq_date":"2026-09-21","acq_time":1034,"confidence":"n","satellite":"N","instrument":"VIIRS","version":"2.0NRT","bright_ti4":299.09,"frp":1.6,"daynight":"N"},"geometry":{"type":"Point","coordinates":[-119.60015,37.5895]}},{"type":"Feature","properties":{"acq_date":"2026-09-21","acq_time":1034,"confidence":"n","satellite":"N","instrument":"VIIRS","version":"2.0NRT","bright_ti4":317.2,"frp":4.76,"daynight":"N"},"geometry":{"type":"Point","coordinates":[-119.58847,37.59137]}},{"type":"Feature","properties":{"acq_date":"2026-09-21","acq_time":1034,"confidence":"n","satellite":"N","instrument":"VIIRS","version":"2.0NRT","bright_ti4":349.18,"frp":5.85,"daynight":"N"},"geometry":{"type":"Point","coordinates":[-119.5935,37.59253]}},{"type":"Feature","properties":{"acq_date":"2026-09-21","acq_time":1034,"confidence":"n","satellite":"N","instrument":"VIIRS","version":"2.0NRT","bright_ti4":299.6,"frp":5.85,"daynight":"N"},"geometry":{"type":"Point","coordinates":[-119.59862,37.5937]}},{"type":"Feature","properties":{"acq_date":"2026-09-21","acq_time":1034,"confidence":"n","satellite":"N","instrument":"VIIRS","version":"2.0NRT","bright_ti4":338.75,"frp":4.76,"daynight":"N"},"geometry":{"type":"Point","coordinates":[-119.58755,37.59571]}},{"type":"Feature","properties":{"acq_date":"2026-09-21","acq_time":1034,"confidence":"n","satellite":"N","instrument":"VIIRS","version":"2.0NRT","bright_ti4":339.93,"frp":5.85,"daynight":"N"},"geometry":{"type":"Point","coordinates":[-119.59238,37.59681]}},{"type":"Feature","properties":{"acq_date":"2026-09-21","acq_time":1034,"confidence":"n","satellite":"N","instrument":"VIIRS","version":"2.0NRT","bright_ti4":329.12,"frp":5.85,"daynight":"N"},"geometry":{"type":"Point","coordinates":[-119.59728,37.59793]}},{"type":"Feature","properties":{"acq_date":"2026-09-21","acq_time":1034,"confidence":"n","satellite":"N","instrument":"VIIRS","version":"2.0NRT","bright_ti4":309.7,"frp":3.34,"daynight":"N"},"geometry":{"type":"Point","coordinates":[-119.60238,37.59909]}},{"type":"Feature","properties":{"acq_date":"2026-09-21","acq_time":1034,"confidence":"n","satellite":"N","instrument":"VIIRS","version":"2.0NRT","bright_ti4":333.61,"frp":4.58,"daynight":"N"},"geometry":{"type":"Point","coordinates":[-119.58656,37.60002]}},{"type":"Feature","properties":{"acq_date":"2026-09-21","acq_time":1034,"confidence":"n","satellite":"N","instrument":"VIIRS","version":"2.0NRT","bright_ti4":320.76,"frp":3.34,"daynight":"N"},"geometry":{"type":"Point","coordinates":[-119.60725,37.6002]}},{"type":"Feature","properties":{"acq_date":"2026-09-21","acq_time":1034,"confidence":"n","satellite":"N","instrument":"VIIRS","version":"2.0NRT","bright_ti4":300.78,"frp":4.78,"daynight":"N"},"geometry":{"type":"Point","coordinates":[-119.59144,37.60114]}},{"type":"Feature","properties":{"acq_date":"2026-09-21","acq_time":1034,"confidence":"n","satellite":"N","instrument":"VIIRS","version":"2.0NRT","bright_ti4":331.51,"frp":6.25,"daynight":"N"},"geometry":{"type":"Point","coordinates":[-119.61197,37.60128]}},{"type":"Feature","properties":{"acq_date":"2026-09-21","acq_time":1034,"confidence":"n","satellite":"N","instrument":"VIIRS","version":"2.0NRT","bright_ti4":337.03,"frp":4.78,"daynight":"N"},"geometry":{"type":"Point","coordinates":[-119.59626,37.60223]}},{"type":"Feature","properties":{"acq_date":"2026-09-21","acq_time":1034,"confidence":"n","satellite":"N","instrument":"VIIRS","version":"2.0NRT","bright_ti4":341.96,"frp":8.75,"daynight":"N"},"geometry":{"type":"Point","coordinates":[-119.60101,37.60332]}},{"type":"Feature","properties":{"acq_date":"2026-09-21","acq_time":1034,"confidence":"n","satellite":"N","instrument":"VIIRS","version":"2.0NRT","bright_ti4":340.06,"frp":8.75,"daynight":"N"},"geometry":{"type":"Point","coordinates":[-119.60565,37.60438]}},{"type":"Feature","properties":{"acq_date":"2026-09-21","acq_time":1034,"confidence":"n","satellite":"N","instrument":"VIIRS","version":"2.0NRT","bright_ti4":328.88,"frp":4.78,"daynight":"N"},"geometry":{"type":"Point","coordinates":[-119.59025,37.6054]}},{"type":"Feature","properties":{"acq_date":"2026-09-21","acq_time":1034,"confidence":"n","satellite":"N","instrument":"VIIRS","version":"2.0NRT","bright_ti4":332.9,"frp":20.47,"daynight":"N"},"geometry":{"type":"Point","coordinates":[-119.6103,37.60544]}},{"type":"Feature","properties":{"acq_date":"2026-09-21","acq_time":1034,"confidence":"n","satellite":"N","instrument":"VIIRS","version":"2.0NRT","bright_ti4":316.22,"frp":4.78,"daynight":"N"},"geometry":{"type":"Point","coordinates":[-119.59507,37.60651]}},{"type":"Feature","properties":{"acq_date":"2026-09-21","acq_time":1034,"confidence":"n","satellite":"N","instrument":"VIIRS","version":"2.0NRT","bright_ti4":307.93,"frp":8.75,"daynight":"N"},"geometry":{"type":"Point","coordinates":[-119.59972,37.60756]}},{"type":"Feature","properties":{"acq_date":"2026-09-21","acq_time":1034,"confidence":"n","satellite":"N","instrument":"VIIRS","version":"2.0NRT","bright_ti4":347.56,"frp":8.75,"daynight":"N"},"geometry":{"type":"Point","coordinates":[-119.60435,37.60862]}},{"type":"Feature","properties":{"acq_date":"2026-09-21","acq_time":1034,"confidence":"n","satellite":"N","instrument":"VIIRS","version":"2.0NRT","bright_ti4":322.8,"frp":2.45,"daynight":"N"},"geometry":{"type":"Point","coordinates":[-119.58861,37.60957]}},{"type":"Feature","properties":{"acq_date":"2026-09-21","acq_time":1034,"confidence":"n","satellite":"N","instrument":"VIIRS","version":"2.0NRT","bright_ti4":345.91,"frp":20.47,"daynight":"N"},"geometry":{"type":"Point","coordinates":[-119.60892,37.60966]}},{"type":"Feature","properties":{"acq_date":"2026-09-21","acq_time":1034,"confidence":"n","satellite":"N","instrument":"VIIRS","version":"2.0NRT","bright_ti4":303.85,"frp":20.47,"daynight":"N"},"geometry":{"type":"Point","coordinates":[-119.61332,37.61066]}},{"type":"Feature","properties":{"acq_date":"2026-09-21","acq_time":1034,"confidence":"n","satellite":"N","instrument":"VIIRS","version":"2.0NRT","bright_ti4":303.96,"frp":2.45,"daynight":"N"},"geometry":{"type":"Point","coordinates":[-119.59353,37.61069]}},{"type":"Feature","properties":{"acq_date":"2026-09-21","acq_time":1034,"confidence":"n","satellite":"N","instrument":"VIIRS","version":"2.0NRT","bright_ti4":306.11,"frp":7.37,"daynight":"N"},"geometry":{"type":"Point","coordinates":[-119.5983,37.61177]}},{"type":"Feature","properties":{"acq_date":"2026-09-21","acq_time":1034,"confidence":"n","satellite":"N","instrument":"VIIRS","version":"2.0NRT","bright_ti4":306.84,"frp":2.43,"daynight":"N"},"geometry":{"type":"Point","coordinates":[-119.62186,37.61261]}},{"type":"Feature","properties":{"acq_date":"2026-09-21","acq_time":1034,"confidence":"n","satellite":"N","instrument":"VIIRS","version":"2.0NRT","bright_ti4":352.13,"frp":7.37,"daynight":"N"},"geometry":{"type":"Point","coordinates":[-119.60294,37.61283]}},{"type":"Feature","properties":{"acq_date":"2026-09-21","acq_time":1034,"confidence":"n","satellite":"N","instrument":"VIIRS","version":"2.0NRT","bright_ti4":331.05,"frp":4.82,"daynight":"N"},"geometry":{"type":"Point","coordinates":[-119.60748,37.61386]}},{"type":"Feature","properties":{"acq_date":"2026-09-21","acq_time":1034,"confidence":"n","satellite":"N","instrument":"VIIRS","version":"2.0NRT","bright_ti4":302.89,"frp":4.82,"daynight":"N"},"geometry":{"type":"Point","coordinates":[-119.61192,37.61488]}},{"type":"Feature","properties":{"acq_date":"2026-09-21","acq_time":1034,"confidence":"n","satellite":"N","instrument":"VIIRS","version":"2.0NRT","bright_ti4":346.54,"frp":17.42,"daynight":"N"},"geometry":{"type":"Point","coordinates":[-119.61628,37.61587]}},{"type":"Feature","properties":{"acq_date":"2026-09-21","acq_time":1034,"confidence":"n","satellite":"N","instrument":"VIIRS","version":"2.0NRT","bright_ti4":351.02,"frp":17.42,"daynight":"N"},"geometry":{"type":"Point","coordinates":[-119.62064,37.61686]}},{"type":"Feature","properties":{"acq_date":"2026-09-21","acq_time":1034,"confidence":"n","satellite":"N","instrument":"VIIRS","version":"2.0NRT","bright_ti4":342.62,"frp":7.37,"daynight":"N"},"geometry":{"type":"Point","coordinates":[-119.60109,37.61695]}},{"type":"Feature","properties":{"acq_date":"2026-09-21","acq_time":1034,"confidence":"n","satellite":"N","instrument":"VIIRS","version":"2.0NRT","bright_ti4":301.42,"frp":3.05,"daynight":"N"},"geometry":{"type":"Point","coordinates":[-119.62515,37.61789]}},{"type":"Feature","properties":{"acq_date":"2026-09-21","acq_time":1034,"confidence":"n","satellite":"N","instrument":"VIIRS","version":"2.0NRT","bright_ti4":322.64,"frp":4.82,"daynight":"N"},"geometry":{"type":"Point","coordinates":[-119.60572,37.618]}},{"type":"Feature","properties":{"acq_date":"2026-09-21","acq_time":1034,"confidence":"n","satellite":"N","instrument":"VIIRS","version":"2.0NRT","bright_ti4":340.13,"frp":4.82,"daynight":"N"},"geometry":{"type":"Point","coordinates":[-119.61041,37.61907]}},{"type":"Feature","properties":{"acq_date":"2026-09-21","acq_time":1034,"confidence":"n","satellite":"N","instrument":"VIIRS","version":"2.0NRT","bright_ti4":309.3,"frp":3.85,"daynight":"N"},"geometry":{"type":"Point","coordinates":[-119.59464,37.62002]}},{"type":"Feature","properties":{"acq_date":"2026-09-21","acq_time":1034,"confidence":"n","satellite":"N","instrument":"VIIRS","version":"2.0NRT","bright_ti4":357.11,"frp":17.42,"daynight":"N"},"geometry":{"type":"Point","coordinates":[-119.61497,37.62011]}},{"type":"Feature","properties":{"acq_date":"2026-09-21","acq_time":1034,"confidence":"n","satellite":"N","instrument":"VIIRS","version":"2.0NRT","bright_ti4":329.45,"frp":3.85,"daynight":"N"},"geometry":{"type":"Point","coordinates":[-119.5992,37.62106]}},{"type":"Feature","properties":{"acq_date":"2026-09-21","acq_time":1034,"confidence":"n","satellite":"N","instrument":"VIIRS","version":"2.0NRT","bright_ti4":304.42,"frp":17.42,"daynight":"N"},"geometry":{"type":"Point","coordinates":[-119.61948,37.62112]}},{"type":"Feature","properties":{"acq_date":"2026-09-21","acq_time":1034,"confidence":"n","satellite":"N","instrument":"VIIRS","version":"2.0NRT","bright_ti4":351.99,"frp":15.95,"daynight":"N"},"geometry":{"type":"Point","coordinates":[-119.60387,37.62211]}},{"type":"Feature","properties":{"acq_date":"2026-09-21","acq_time":1034,"confidence":"n","satellite":"N","instrument":"VIIRS","version":"2.0NRT","bright_ti4":343.76,"frp":15.95,"daynight":"N"},"geometry":{"type":"Point","coordinates":[-119.60873,37.62322]}},{"type":"Feature","properties":{"acq_date":"2026-09-21","acq_time":1034,"confidence":"h","satellite":"N","instrument":"VIIRS","version":"2.0NRT","bright_ti4":367,"frp":85.2,"daynight":"N"},"geometry":{"type":"Point","coordinates":[-119.61363,37.62433]}},{"type":"Feature","properties":{"acq_date":"2026-09-21","acq_time":1034,"confidence":"n","satellite":"N","instrument":"VIIRS","version":"2.0NRT","bright_ti4":309.96,"frp":85.2,"daynight":"N"},"geometry":{"type":"Point","coordinates":[-119.61851,37.62543]}},{"type":"Feature","properties":{"acq_date":"2026-09-21","acq_time":1034,"confidence":"n","satellite":"N","instrument":"VIIRS","version":"2.0NRT","bright_ti4":338.65,"frp":15.95,"daynight":"N"},"geometry":{"type":"Point","coordinates":[-119.6021,37.62625]}},{"type":"Feature","properties":{"acq_date":"2026-09-21","acq_time":1034,"confidence":"n","satellite":"N","instrument":"VIIRS","version":"2.0NRT","bright_ti4":327.99,"frp":15.95,"daynight":"N"},"geometry":{"type":"Point","coordinates":[-119.60699,37.62735]}},{"type":"Feature","properties":{"acq_date":"2026-09-21","acq_time":1034,"confidence":"n","satellite":"N","instrument":"VIIRS","version":"2.0NRT","bright_ti4":298.99,"frp":1.03,"daynight":"N"},"geometry":{"type":"Point","coordinates":[-119.62788,37.62756]}},{"type":"Feature","properties":{"acq_date":"2026-09-21","acq_time":1034,"confidence":"n","satellite":"N","instrument":"VIIRS","version":"2.0NRT","bright_ti4":345.47,"frp":85.2,"daynight":"N"},"geometry":{"type":"Point","coordinates":[-119.61214,37.62852]}},{"type":"Feature","properties":{"acq_date":"2026-09-21","acq_time":1034,"confidence":"n","satellite":"N","instrument":"VIIRS","version":"2.0NRT","bright_ti4":304.15,"frp":1.95,"daynight":"N"},"geometry":{"type":"Point","coordinates":[-119.59566,37.62932]}},{"type":"Feature","properties":{"acq_date":"2026-09-21","acq_time":1034,"confidence":"n","satellite":"N","instrument":"VIIRS","version":"2.0NRT","bright_ti4":299.71,"frp":2.2,"daynight":"N"},"geometry":{"type":"Point","coordinates":[-119.57945,37.63019]}},{"type":"Feature","properties":{"acq_date":"2026-09-21","acq_time":1034,"confidence":"n","satellite":"N","instrument":"VIIRS","version":"2.0NRT","bright_ti4":356.6,"frp":10.4,"daynight":"N"},"geometry":{"type":"Point","coordinates":[-119.6004,37.6304]}},{"type":"Feature","properties":{"acq_date":"2026-09-21","acq_time":1034,"confidence":"n","satellite":"N","instrument":"VIIRS","version":"2.0NRT","bright_ti4":305,"frp":1.03,"daynight":"N"},"geometry":{"type":"Point","coordinates":[-119.62232,37.63083]}},{"type":"Feature","properties":{"acq_date":"2026-09-21","acq_time":1034,"confidence":"n","satellite":"N","instrument":"VIIRS","version":"2.0NRT","bright_ti4":353.82,"frp":10.4,"daynight":"N"},"geometry":{"type":"Point","coordinates":[-119.60535,37.63152]}},{"type":"Feature","properties":{"acq_date":"2026-09-21","acq_time":1034,"confidence":"n","satellite":"N","instrument":"VIIRS","version":"2.0NRT","bright_ti4":299.62,"frp":1.03,"daynight":"N"},"geometry":{"type":"Point","coordinates":[-119.62687,37.63186]}},{"type":"Feature","properties":{"acq_date":"2026-09-21","acq_time":1034,"confidence":"n","satellite":"N","instrument":"VIIRS","version":"2.0NRT","bright_ti4":338.85,"frp":8.64,"daynight":"N"},"geometry":{"type":"Point","coordinates":[-119.61063,37.63271]}},{"type":"Feature","properties":{"acq_date":"2026-09-21","acq_time":1034,"confidence":"n","satellite":"N","instrument":"VIIRS","version":"2.0NRT","bright_ti4":295.09,"frp":1.06,"daynight":"N"},"geometry":{"type":"Point","coordinates":[-119.57325,37.63332]}},{"type":"Feature","properties":{"acq_date":"2026-09-21","acq_time":1034,"confidence":"n","satellite":"N","instrument":"VIIRS","version":"2.0NRT","bright_ti4":296.63,"frp":1.66,"daynight":"N"},"geometry":{"type":"Point","coordinates":[-119.57787,37.63437]}},{"type":"Feature","properties":{"acq_date":"2026-09-21","acq_time":1034,"confidence":"n","satellite":"N","instrument":"VIIRS","version":"2.0NRT","bright_ti4":320.63,"frp":10.4,"daynight":"N"},"geometry":{"type":"Point","coordinates":[-119.59873,37.63456]}},{"type":"Feature","properties":{"acq_date":"2026-09-21","acq_time":1034,"confidence":"n","satellite":"N","instrument":"VIIRS","version":"2.0NRT","bright_ti4":301.39,"frp":2.41,"daynight":"N"},"geometry":{"type":"Point","coordinates":[-119.62094,37.63504]}},{"type":"Feature","properties":{"acq_date":"2026-09-21","acq_time":1034,"confidence":"n","satellite":"N","instrument":"VIIRS","version":"2.0NRT","bright_ti4":333.3,"frp":10.4,"daynight":"N"},"geometry":{"type":"Point","coordinates":[-119.60378,37.6357]}},{"type":"Feature","properties":{"acq_date":"2026-09-21","acq_time":1034,"confidence":"n","satellite":"N","instrument":"VIIRS","version":"2.0NRT","bright_ti4":303.21,"frp":8.64,"daynight":"N"},"geometry":{"type":"Point","coordinates":[-119.60912,37.6369]}}]}