{"type":"FeatureCollection","name":"FIRMS VIIRS CA (last 1 day)","crs":{"type":"name","properties":{"name":"EPSG:4326"}},"fetched_at_utc":"2026-09-22T18:00:00.165Z","source":{"url":"https://firms.modaps.eosdis.nasa.gov/api/area/csv/8c4af552cf654445dd280dfb3ad9337c/VIIRS_SNPP_NRT/-125,32,-113,43.5/1","dataset":"VIIRS_SNPP_NRT","bbox":"-125,32,-113,43.5","day_range":"1"},"features":[{"type":"Feature","properties":{"acq_date":"2026-09-22","acq_time":835,"confidence":"n","satellite":"N","instrument":"VIIRS","version":"2.0NRT","bright_ti4":301.58,"frp":1.85,"daynight":"N"},"geometry":{"type":"Point","coordinates":[-114.91496,36.35654]}},{"type":"Feature","properties":{"acq_date":"2026-09-22","acq_time":1013,"confidence":"n","satellite":"N","instrument":"VIIRS","version":"2.0NRT","bright_ti4":306.98,"frp":1.5,"daynight":"N"},"geometry":{"type":"Point","coordinates":[-114.91039,36.35664]}},{"type":"Feature","properties":{"acq_date":"2026-09-22","acq_time":1013,"confidence":"n","satellite":"N","instrument":"VIIRS","version":"2.0NRT","bright_ti4":305.78,"frp":1.4,"daynight":"N"},"geometry":{"type":"Point","coordinates":[-114.91153,36.35746]}},{"type":"Feature","properties":{"acq_date":"2026-09-22","acq_time":1013,"confidence":"n","satellite":"N","instrument":"VIIRS","version":"2.0NRT","bright_ti4":295.79,"frp":0.43,"daynight":"N"},"geometry":{"type":"Point","coordinates":[-120.1614,36.79872]}},{"type":"Feature","properties":{"acq_date":"2026-09-22","acq_time":1013,"confidence":"n","satellite":"N","instrument":"VIIRS","version":"2.0NRT","bright_ti4":295.43,"frp":0.35,"daynight":"N"},"geometry":{"type":"Point","coordinates":[-120.13593,37.03085]}},{"type":"Feature","properties":{"acq_date":"2026-09-22","acq_time":1013,"confidence":"n","satellite":"N","instrument":"VIIRS","version":"2.0NRT","bright_ti4":323.84,"frp":2.2,"daynight":"N"},"geometry":{"type":"Point","coordinates":[-120.13866,37.03849]}},{"type":"Feature","properties":{"acq_date":"2026-09-22","acq_time":1013,"confidence":"n","satellite":"N","instrument":"VIIRS","version":"2.0NRT","bright_ti4":302.85,"frp":0.34,"daynight":"N"},"geometry":{"type":"Point","coordinates":[-121.93221,37.45364]}},{"type":"Feature","properties":{"acq_date":"2026-09-22","acq_time":1013,"confidence":"n","satellite":"N","instrument":"VIIRS","version":"2.0NRT","bright_ti4":298.08,"frp":0.34,"daynight":"N"},"geometry":{"type":"Point","coordinates":[-121.93135,37.45694]}},{"type":"Feature","properties":{"acq_date":"2026-09-22","acq_time":1013,"confidence":"n","satellite":"N","instrument":"VIIRS","version":"2.0NRT","bright_ti4":304.29,"frp":2.52,"daynight":"N"},"geometry":{"type":"Point","coordinates":[-119.59393,37.57807]}},{"type":"Feature","properties":{"acq_date":"2026-09-22","acq_time":1013,"confidence":"n","satellite":"N","instrument":"VIIRS","version":"2.0NRT","bright_ti4":326.81,"frp":2.52,"daynight":"N"},"geometry":{"type":"Point","coordinates":[-119.59873,37.57895]}},{"type":"Feature","properties":{"acq_date":"2026-09-22","acq_time":1013,"confidence":"n","satellite":"N","instrument":"VIIRS","version":"2.0NRT","bright_ti4":316.08,"frp":3.89,"daynight":"N"},"geometry":{"type":"Point","coordinates":[-119.59122,37.5884]}},{"type":"Feature","properties":{"acq_date":"2026-09-22","acq_time":1013,"confidence":"n","satellite":"N","instrument":"VIIRS","version":"2.0NRT","bright_ti4":328.78,"frp":3.89,"daynight":"N"},"geometry":{"type":"Point","coordinates":[-119.59607,37.58929]}},{"type":"Feature","properties":{"acq_date":"2026-09-22","acq_time":1013,"confidence":"n","satellite":"N","instrument":"VIIRS","version":"2.0NRT","bright_ti4":347.02,"frp":7,"daynight":"N"},"geometry":{"type":"Point","coordinates":[-119.59034,37.59185]}},{"type":"Feature","properties":{"acq_date":"2026-09-22","acq_time":1013,"confidence":"n","satellite":"N","instrument":"VIIRS","version":"2.0NRT","bright_ti4":336.61,"frp":7,"daynight":"N"},"geometry":{"type":"Point","coordinates":[-119.59511,37.59273]}},{"type":"Feature","properties":{"acq_date":"2026-09-22","acq_time":1013,"confidence":"n","satellite":"N","instrument":"VIIRS","version":"2.0NRT","bright_ti4":330.43,"frp":7,"daynight":"N"},"geometry":{"type":"Point","coordinates":[-119.58952,37.5953]}},{"type":"Feature","properties":{"acq_date":"2026-09-22","acq_time":1013,"confidence":"n","satellite":"N","instrument":"VIIRS","version":"2.0NRT","bright_ti4":310.77,"frp":7,"daynight":"N"},"geometry":{"type":"Point","coordinates":[-119.59418,37.59616]}},{"type":"Feature","properties":{"acq_date":"2026-09-22","acq_time":1013,"confidence":"n","satellite":"N","instrument":"VIIRS","version":"2.0NRT","bright_ti4":300.4,"frp":2.18,"daynight":"N"},"geometry":{"type":"Point","coordinates":[-119.60376,37.59793]}},{"type":"Feature","properties":{"acq_date":"2026-09-22","acq_time":1013,"confidence":"n","satellite":"N","instrument":"VIIRS","version":"2.0NRT","bright_ti4":345.63,"frp":7.2,"daynight":"N"},"geometry":{"type":"Point","coordinates":[-119.58868,37.59876]}},{"type":"Feature","properties":{"acq_date":"2026-09-22","acq_time":1013,"confidence":"n","satellite":"N","instrument":"VIIRS","version":"2.0NRT","bright_ti4":300.59,"frp":1.52,"daynight":"N"},"geometry":{"type":"Point","coordinates":[-119.61313,37.59966]}},{"type":"Feature","properties":{"acq_date":"2026-09-22","acq_time":1013,"confidence":"n","satellite":"N","instrument":"VIIRS","version":"2.0NRT","bright_ti4":329.6,"frp":16.17,"daynight":"N"},"geometry":{"type":"Point","coordinates":[-119.59806,37.60049]}},{"type":"Feature","properties":{"acq_date":"2026-09-22","acq_time":1013,"confidence":"n","satellite":"N","instrument":"VIIRS","version":"2.0NRT","bright_ti4":353.7,"frp":16.17,"daynight":"N"},"geometry":{"type":"Point","coordinates":[-119.60276,37.60135]}},{"type":"Feature","properties":{"acq_date":"2026-09-22","acq_time":1013,"confidence":"n","satellite":"N","instrument":"VIIRS","version":"2.0NRT","bright_ti4":322.05,"frp":4.72,"daynight":"N"},"geometry":{"type":"Point","coordinates":[-119.60741,37.60221]}},{"type":"Feature","properties":{"acq_date":"2026-09-22","acq_time":1013,"confidence":"n","satellite":"N","instrument":"VIIRS","version":"2.0NRT","bright_ti4":347.81,"frp":16.17,"daynight":"N"},"geometry":{"type":"Point","coordinates":[-119.59718,37.60393]}},{"type":"Feature","properties":{"acq_date":"2026-09-22","acq_time":1013,"confidence":"n","satellite":"N","instrument":"VIIRS","version":"2.0NRT","bright_ti4":352.87,"frp":16.17,"daynight":"N"},"geometry":{"type":"Point","coordinates":[-119.60179,37.60478]}},{"type":"Feature","properties":{"acq_date":"2026-09-22","acq_time":1013,"confidence":"n","satellite":"N","instrument":"VIIRS","version":"2.0NRT","bright_ti4":332.2,"frp":4.72,"daynight":"N"},"geometry":{"type":"Point","coordinates":[-119.60639,37.60563]}},{"type":"Feature","properties":{"acq_date":"2026-09-22","acq_time":1013,"confidence":"n","satellite":"N","instrument":"VIIRS","version":"2.0NRT","bright_ti4":339.6,"frp":4.72,"daynight":"N"},"geometry":{"type":"Point","coordinates":[-119.61101,37.60648]}},{"type":"Feature","properties":{"acq_date":"2026-09-22","acq_time":1013,"confidence":"n","satellite":"N","instrument":"VIIRS","version":"2.0NRT","bright_ti4":319.62,"frp":2.97,"daynight":"N"},"geometry":{"type":"Point","coordinates":[-119.59157,37.6065]}},{"type":"Feature","properties":{"acq_date":"2026-09-22","acq_time":1013,"confidence":"n","satellite":"N","instrument":"VIIRS","version":"2.0NRT","bright_ti4":348.55,"frp":15.27,"daynight":"N"},"geometry":{"type":"Point","coordinates":[-119.59624,37.60736]}},{"type":"Feature","properties":{"acq_date":"2026-09-22","acq_time":1013,"confidence":"n","satellite":"N","instrument":"VIIRS","version":"2.0NRT","bright_ti4":352.66,"frp":15.27,"daynight":"N"},"geometry":{"type":"Point","coordinates":[-119.60086,37.60822]}},{"type":"Feature","properties":{"acq_date":"2026-09-22","acq_time":1013,"confidence":"n","satellite":"N","instrument":"VIIRS","version":"2.0NRT","bright_ti4":318.77,"frp":6.46,"daynight":"N"},"geometry":{"type":"Point","coordinates":[-119.60548,37.60906]}},{"type":"Feature","properties":{"acq_date":"2026-09-22","acq_time":1013,"confidence":"n","satellite":"N","instrument":"VIIRS","version":"2.0NRT","bright_ti4":350.99,"frp":6.46,"daynight":"N"},"geometry":{"type":"Point","coordinates":[-119.61004,37.60991]}},{"type":"Feature","properties":{"acq_date":"2026-09-22","acq_time":1013,"confidence":"n","satellite":"N","instrument":"VIIRS","version":"2.0NRT","bright_ti4":327.14,"frp":2.97,"daynight":"N"},"geometry":{"type":"Point","coordinates":[-119.59053,37.60992]}},{"type":"Feature","properties":{"acq_date":"2026-09-22","acq_time":1013,"confidence":"n","satellite":"N","instrument":"VIIRS","version":"2.0NRT","bright_ti4":327.87,"frp":15.27,"daynight":"N"},"geometry":{"type":"Point","coordinates":[-119.59525,37.61079]}},{"type":"Feature","properties":{"acq_date":"2026-09-22","acq_time":1013,"confidence":"n","satellite":"N","instrument":"VIIRS","version":"2.0NRT","bright_ti4":332.89,"frp":15.27,"daynight":"N"},"geometry":{"type":"Point","coordinates":[-119.59991,37.61164]}},{"type":"Feature","properties":{"acq_date":"2026-09-22","acq_time":1013,"confidence":"n","satellite":"N","instrument":"VIIRS","version":"2.0NRT","bright_ti4":314.26,"frp":4.15,"daynight":"N"},"geometry":{"type":"Point","coordinates":[-119.62347,37.61238]}},{"type":"Feature","properties":{"acq_date":"2026-09-22","acq_time":1013,"confidence":"n","satellite":"N","instrument":"VIIRS","version":"2.0NRT","bright_ti4":301.1,"frp":6.46,"daynight":"N"},"geometry":{"type":"Point","coordinates":[-119.60451,37.61249]}},{"type":"Feature","properties":{"acq_date":"2026-09-22","acq_time":1013,"confidence":"n","satellite":"N","instrument":"VIIRS","version":"2.0NRT","bright_ti4":305.28,"frp":2.71,"daynight":"N"},"geometry":{"type":"Point","coordinates":[-119.61804,37.61498]}},{"type":"Feature","properties":{"acq_date":"2026-09-22","acq_time":1013,"confidence":"n","satellite":"N","instrument":"VIIRS","version":"2.0NRT","bright_ti4":312.79,"frp":1.26,"daynight":"N"},"geometry":{"type":"Point","coordinates":[-119.59881,37.61505]}},{"type":"Feature","properties":{"acq_date":"2026-09-22","acq_time":1013,"confidence":"n","satellite":"N","instrument":"VIIRS","version":"2.0NRT","bright_ti4":339.14,"frp":4.15,"daynight":"N"},"geometry":{"type":"Point","coordinates":[-119.62255,37.61581]}},{"type":"Feature","properties":{"acq_date":"2026-09-22","acq_time":1013,"confidence":"n","satellite":"N","instrument":"VIIRS","version":"2.0NRT","bright_ti4":317.05,"frp":2.58,"daynight":"N"},"geometry":{"type":"Point","coordinates":[-119.60343,37.6159]}},{"type":"Feature","properties":{"acq_date":"2026-09-22","acq_time":1013,"confidence":"n","satellite":"N","instrument":"VIIRS","version":"2.0NRT","bright_ti4":351.88,"frp":21.27,"daynight":"N"},"geometry":{"type":"Point","coordinates":[-119.61713,37.61842]}},{"type":"Feature","properties":{"acq_date":"2026-09-22","acq_time":1013,"confidence":"n","satellite":"N","instrument":"VIIRS","version":"2.0NRT","bright_ti4":301.85,"frp":1.26,"daynight":"N"},"geometry":{"type":"Point","coordinates":[-119.59768,37.61845]}},{"type":"Feature","properties":{"acq_date":"2026-09-22","acq_time":1013,"confidence":"n","satellite":"N","instrument":"VIIRS","version":"2.0NRT","bright_ti4":325.17,"frp":7.64,"daynight":"N"},"geometry":{"type":"Point","coordinates":[-119.62165,37.61925]}},{"type":"Feature","properties":{"acq_date":"2026-09-22","acq_time":1013,"confidence":"n","satellite":"N","instrument":"VIIRS","version":"2.0NRT","bright_ti4":323.49,"frp":2.58,"daynight":"N"},"geometry":{"type":"Point","coordinates":[-119.60226,37.6193]}},{"type":"Feature","properties":{"acq_date":"2026-09-22","acq_time":1013,"confidence":"n","satellite":"N","instrument":"VIIRS","version":"2.0NRT","bright_ti4":314.58,"frp":21.27,"daynight":"N"},"geometry":{"type":"Point","coordinates":[-119.61163,37.62101]}},{"type":"Feature","properties":{"acq_date":"2026-09-22","acq_time":1013,"confidence":"n","satellite":"N","instrument":"VIIRS","version":"2.0NRT","bright_ti4":342.82,"frp":21.27,"daynight":"N"},"geometry":{"type":"Point","coordinates":[-119.61623,37.62185]}},{"type":"Feature","properties":{"acq_date":"2026-09-22","acq_time":1013,"confidence":"n","satellite":"N","instrument":"VIIRS","version":"2.0NRT","bright_ti4":327.92,"frp":7.64,"daynight":"N"},"geometry":{"type":"Point","coordinates":[-119.6208,37.6227]}},{"type":"Feature","properties":{"acq_date":"2026-09-22","acq_time":1013,"confidence":"n","satellite":"N","instrument":"VIIRS","version":"2.0NRT","bright_ti4":308.77,"frp":1.09,"daynight":"N"},"geometry":{"type":"Point","coordinates":[-119.60117,37.6227]}},{"type":"Feature","properties":{"acq_date":"2026-09-22","acq_time":1013,"confidence":"n","satellite":"N","instrument":"VIIRS","version":"2.0NRT","bright_ti4":295.08,"frp":1.09,"daynight":"N"},"geometry":{"type":"Point","coordinates":[-119.60583,37.62356]}},{"type":"Feature","properties":{"acq_date":"2026-09-22","acq_time":1013,"confidence":"n","satellite":"N","instrument":"VIIRS","version":"2.0NRT","bright_ti4":309.39,"frp":10.82,"daynight":"N"},"geometry":{"type":"Point","coordinates":[-119.61059,37.62442]}},{"type":"Feature","properties":{"acq_date":"2026-09-22","acq_time":1013,"confidence":"n","satellite":"N","instrument":"VIIRS","version":"2.0NRT","bright_ti4":347.54,"frp":10.82,"daynight":"N"},"geometry":{"type":"Point","coordinates":[-119.6153,37.62529]}},{"type":"Feature","properties":{"acq_date":"2026-09-22","acq_time":1013,"confidence":"n","satellite":"N","instrument":"VIIRS","version":"2.0NRT","bright_ti4":303.23,"frp":1.09,"daynight":"N"},"geometry":{"type":"Point","coordinates":[-119.6001,37.62611]}},{"type":"Feature","properties":{"acq_date":"2026-09-22","acq_time":1013,"confidence":"n","satellite":"N","instrument":"VIIRS","version":"2.0NRT","bright_ti4":315.24,"frp":10.82,"daynight":"N"},"geometry":{"type":"Point","coordinates":[-119.60954,37.62784]}},{"type":"Feature","properties":{"acq_date":"2026-09-22","acq_time":1013,"confidence":"n","satellite":"N","instrument":"VIIRS","version":"2.0NRT","bright_ti4":339.5,"frp":10.82,"daynight":"N"},"geometry":{"type":"Point","coordinates":[-119.61436,37.62872]}},{"type":"Feature","properties":{"acq_date":"2026-09-22","acq_time":1013,"confidence":"n","satellite":"N","instrument":"VIIRS","version":"2.0NRT","bright_ti4":321.69,"frp":1.75,"daynight":"N"},"geometry":{"type":"Point","coordinates":[-119.59901,37.62952]}},{"type":"Feature","properties":{"acq_date":"2026-09-22","acq_time":1013,"confidence":"n","satellite":"N","instrument":"VIIRS","version":"2.0NRT","bright_ti4":302.2,"frp":1.75,"daynight":"N"},"geometry":{"type":"Point","coordinates":[-119.60371,37.63038]}},{"type":"Feature","properties":{"acq_date":"2026-09-22","acq_time":1013,"confidence":"n","satellite":"N","instrument":"VIIRS","version":"2.0NRT","bright_ti4":334.73,"frp":7.95,"daynight":"N"},"geometry":{"type":"Point","coordinates":[-119.60852,37.63126]}},{"type":"Feature","properties":{"acq_date":"2026-09-22","acq_time":1013,"confidence":"n","satellite":"N","instrument":"VIIRS","version":"2.0NRT","bright_ti4":336.51,"frp":7.95,"daynight":"N"},"geometry":{"type":"Point","coordinates":[-119.61337,37.63214]}},{"type":"Feature","properties":{"acq_date":"2026-09-22","acq_time":1013,"confidence":"n","satellite":"N","instrument":"VIIRS","version":"2.0NRT","bright_ti4":317.33,"frp":1.75,"daynight":"N"},"geometry":{"type":"Point","coordinates":[-119.59796,37.63293]}},{"type":"Feature","properties":{"acq_date":"2026-09-22","acq_time":1013,"confidence":"n","satellite":"N","instrument":"VIIRS","version":"2.0NRT","bright_ti4":308.65,"frp":1.75,"daynight":"N"},"geometry":{"type":"Point","coordinates":[-119.60268,37.6338]}},{"type":"Feature","properties":{"acq_date":"2026-09-22","acq_time":1013,"confidence":"n","satellite":"N","instrument":"VIIRS","version":"2.0NRT","bright_ti4":339.68,"frp":7.95,"daynight":"N"},"geometry":{"type":"Point","coordinates":[-119.60751,37.63468]}},{"type":"Feature","properties":{"acq_date":"2026-09-22","acq_time":1013,"confidence":"n","satellite":"N","instrument":"VIIRS","version":"2.0NRT","bright_ti4":300.63,"frp":0.47,"daynight":"N"},"geometry":{"type":"Point","coordinates":[-121.65978,37.75648]}},{"type":"Feature","properties":{"acq_date":"2026-09-22","acq_time":1013,"confidence":"n","satellite":"N","instrument":"VIIRS","version":"2.0NRT","bright_ti4":311.8,"frp":1.31,"daynight":"N"},"geometry":{"type":"Point","coordinates":[-119.26257,39.62105]}},{"type":"Feature","properties":{"acq_date":"2026-09-22","acq_time":1013,"confidence":"n","satellite":"N","instrument":"VIIRS","version":"2.0NRT","bright_ti4":303.94,"frp":0.67,"daynight":"N"},"geometry":{"type":"Point","coordinates":[-122.32311,40.73737]}},{"type":"Feature","properties":{"acq_date":"2026-09-22","acq_time":1013,"confidence":"n","satellite":"N","instrument":"VIIRS","version":"2.0NRT","bright_ti4":301.89,"frp":1.54,"daynight":"N"},"geometry":{"type":"Point","coordinates":[-114.25502,40.82058]}},{"type":"Feature","properties":{"acq_date":"2026-09-22","acq_time":1013,"confidence":"n","satellite":"N","instrument":"VIIRS","version":"2.0NRT","bright_ti4":304.08,"frp":0.62,"daynight":"N"},"geometry":{"type":"Point","coordinates":[-122.77537,42.38442]}},{"type":"Feature","properties":{"acq_date":"2026-09-22","acq_time":1013,"confidence":"n","satellite":"N","instrument":"VIIRS","version":"2.0NRT","bright_ti4":299.58,"frp":0.55,"daynight":"N"},"geometry":{"type":"Point","coordinates":[-115.73576,43.1789]}},{"type":"Feature","properties":{"acq_date":"2026-09-22","acq_time":1013,"confidence":"n","satellite":"N","instrument":"VIIRS","version":"2.0NRT","bright_ti4":299.27,"frp":0.81,"daynight":"N"},"geometry":{"type":"Point","coordinates":[-115.73111,43.17939]}},{"type":"Feature","properties":{"acq_date":"2026-09-22","acq_time":1015,"confidence":"n","satellite":"N","instrument":"VIIRS","version":"2.0NRT","bright_ti4":301.9,"frp":0.9,"daynight":"N"},"geometry":{"type":"Point","coordinates":[-115.51922,32.53963]}},{"type":"Feature","properties":{"acq_date":"2026-09-22","acq_time":1015,"confidence":"n","satellite":"N","instrument":"VIIRS","version":"2.0NRT","bright_ti4":296.74,"frp":0.29,"daynight":"N"},"geometry":{"type":"Point","coordinates":[-118.38036,34.24456]}},{"type":"Feature","properties":{"acq_date":"2026-09-22","acq_time":1015,"confidence":"n","satellite":"N","instrument":"VIIRS","version":"2.0NRT","bright_ti4":305.38,"frp":0.97,"daynight":"N"},"geometry":{"type":"Point","coordinates":[-118.51613,34.33596]}},{"type":"Feature","properties":{"acq_date":"2026-09-22","acq_time":1015,"confidence":"n","satellite":"N","instrument":"VIIRS","version":"2.0NRT","bright_ti4":303.89,"frp":1.46,"daynight":"N"},"geometry":{"type":"Point","coordinates":[-116.85442,34.35353]}},{"type":"Feature","properties":{"acq_date":"2026-09-22","acq_time":1015,"confidence":"n","satellite":"N","instrument":"VIIRS","version":"2.0NRT","bright_ti4":305.35,"frp":0.7,"daynight":"N"},"geometry":{"type":"Point","coordinates":[-116.85114,34.3554]}},{"type":"Feature","properties":{"acq_date":"2026-09-22","acq_time":1015,"confidence":"n","satellite":"N","instrument":"VIIRS","version":"2.0NRT","bright_ti4":308.75,"frp":1.17,"daynight":"N"},"geometry":{"type":"Point","coordinates":[-118.64364,34.43149]}},{"type":"Feature","properties":{"acq_date":"2026-09-22","acq_time":1015,"confidence":"n","satellite":"N","instrument":"VIIRS","version":"2.0NRT","bright_ti4":315.47,"frp":0.9,"daynight":"N"},"geometry":{"type":"Point","coordinates":[-117.33466,34.6096]}},{"type":"Feature","properties":{"acq_date":"2026-09-22","acq_time":1015,"confidence":"n","satellite":"N","instrument":"VIIRS","version":"2.0NRT","bright_ti4":301.71,"frp":1.27,"daynight":"N"},"geometry":{"type":"Point","coordinates":[-117.09773,34.62321]}},{"type":"Feature","properties":{"acq_date":"2026-09-22","acq_time":1015,"confidence":"n","satellite":"N","instrument":"VIIRS","version":"2.0NRT","bright_ti4":305.97,"frp":1.63,"daynight":"N"},"geometry":{"type":"Point","coordinates":[-117.10202,34.62411]}}]}