{"type":"FeatureCollection","name":"FIRMS VIIRS CA (last 1 day)","crs":{"type":"name","properties":{"name":"EPSG:4326"}},"fetched_at_utc":"2026-09-03T17:40:40.428Z","source":{"url":"https://firms.modaps.eosdis.nasa.gov/api/area/csv/8c4af552cf654445dd280dfb3ad9337c/VIIRS_SNPP_NRT/-125,32,-113,43.5/1","dataset":"VIIRS_SNPP_NRT","bbox":"-125,32,-113,43.5","day_range":"1"},"features":[{"type":"Feature","properties":{"acq_date":"2026-09-03","acq_time":930,"confidence":"n","satellite":"N","instrument":"VIIRS","version":"2.0NRT","bright_ti4":314.03,"frp":1.38,"daynight":"N"},"geometry":{"type":"Point","coordinates":[-113.31583,35.51654]}},{"type":"Feature","properties":{"acq_date":"2026-09-03","acq_time":930,"confidence":"n","satellite":"N","instrument":"VIIRS","version":"2.0NRT","bright_ti4":307.81,"frp":1.08,"daynight":"N"},"geometry":{"type":"Point","coordinates":[-121.3255,35.87317]}},{"type":"Feature","properties":{"acq_date":"2026-09-03","acq_time":930,"confidence":"n","satellite":"N","instrument":"VIIRS","version":"2.0NRT","bright_ti4":311.57,"frp":3.94,"daynight":"N"},"geometry":{"type":"Point","coordinates":[-121.42329,35.89085]}},{"type":"Feature","properties":{"acq_date":"2026-09-03","acq_time":930,"confidence":"n","satellite":"N","instrument":"VIIRS","version":"2.0NRT","bright_ti4":328.66,"frp":3.94,"daynight":"N"},"geometry":{"type":"Point","coordinates":[-121.43146,35.89151]}},{"type":"Feature","properties":{"acq_date":"2026-09-03","acq_time":930,"confidence":"n","satellite":"N","instrument":"VIIRS","version":"2.0NRT","bright_ti4":304.79,"frp":5.53,"daynight":"N"},"geometry":{"type":"Point","coordinates":[-121.41644,35.8952]}},{"type":"Feature","properties":{"acq_date":"2026-09-03","acq_time":930,"confidence":"n","satellite":"N","instrument":"VIIRS","version":"2.0NRT","bright_ti4":310.95,"frp":6.09,"daynight":"N"},"geometry":{"type":"Point","coordinates":[-121.42435,35.89584]}},{"type":"Feature","properties":{"acq_date":"2026-09-03","acq_time":930,"confidence":"n","satellite":"N","instrument":"VIIRS","version":"2.0NRT","bright_ti4":338.51,"frp":6.09,"daynight":"N"},"geometry":{"type":"Point","coordinates":[-121.43228,35.89648]}},{"type":"Feature","properties":{"acq_date":"2026-09-03","acq_time":930,"confidence":"n","satellite":"N","instrument":"VIIRS","version":"2.0NRT","bright_ti4":343.44,"frp":5.53,"daynight":"N"},"geometry":{"type":"Point","coordinates":[-121.41721,35.90016]}},{"type":"Feature","properties":{"acq_date":"2026-09-03","acq_time":930,"confidence":"n","satellite":"N","instrument":"VIIRS","version":"2.0NRT","bright_ti4":307.91,"frp":1.17,"daynight":"N"},"geometry":{"type":"Point","coordinates":[-114.9137,36.35619]}},{"type":"Feature","properties":{"acq_date":"2026-09-03","acq_time":930,"confidence":"n","satellite":"N","instrument":"VIIRS","version":"2.0NRT","bright_ti4":307.69,"frp":0.81,"daynight":"N"},"geometry":{"type":"Point","coordinates":[-114.87874,36.3837]}},{"type":"Feature","properties":{"acq_date":"2026-09-03","acq_time":930,"confidence":"n","satellite":"N","instrument":"VIIRS","version":"2.0NRT","bright_ti4":301.14,"frp":0.26,"daynight":"N"},"geometry":{"type":"Point","coordinates":[-121.93327,37.45701]}},{"type":"Feature","properties":{"acq_date":"2026-09-03","acq_time":930,"confidence":"n","satellite":"N","instrument":"VIIRS","version":"2.0NRT","bright_ti4":298.25,"frp":1.39,"daynight":"N"},"geometry":{"type":"Point","coordinates":[-122.39543,37.94482]}},{"type":"Feature","properties":{"acq_date":"2026-09-03","acq_time":930,"confidence":"n","satellite":"N","instrument":"VIIRS","version":"2.0NRT","bright_ti4":301.98,"frp":1.1,"daynight":"N"},"geometry":{"type":"Point","coordinates":[-122.39894,37.95033]}},{"type":"Feature","properties":{"acq_date":"2026-09-03","acq_time":930,"confidence":"n","satellite":"N","instrument":"VIIRS","version":"2.0NRT","bright_ti4":299.56,"frp":0.85,"daynight":"N"},"geometry":{"type":"Point","coordinates":[-122.11275,38.01571]}},{"type":"Feature","properties":{"acq_date":"2026-09-03","acq_time":930,"confidence":"n","satellite":"N","instrument":"VIIRS","version":"2.0NRT","bright_ti4":297.08,"frp":1.02,"daynight":"N"},"geometry":{"type":"Point","coordinates":[-122.11653,38.01596]}},{"type":"Feature","properties":{"acq_date":"2026-09-03","acq_time":932,"confidence":"n","satellite":"N","instrument":"VIIRS","version":"2.0NRT","bright_ti4":306.55,"frp":3.67,"daynight":"N"},"geometry":{"type":"Point","coordinates":[-117.05666,32.47103]}},{"type":"Feature","properties":{"acq_date":"2026-09-03","acq_time":932,"confidence":"n","satellite":"N","instrument":"VIIRS","version":"2.0NRT","bright_ti4":328.58,"frp":3.67,"daynight":"N"},"geometry":{"type":"Point","coordinates":[-117.06178,32.47169]}},{"type":"Feature","properties":{"acq_date":"2026-09-03","acq_time":932,"confidence":"n","satellite":"N","instrument":"VIIRS","version":"2.0NRT","bright_ti4":324.71,"frp":3.6,"daynight":"N"},"geometry":{"type":"Point","coordinates":[-117.06103,32.47533]}},{"type":"Feature","properties":{"acq_date":"2026-09-03","acq_time":932,"confidence":"n","satellite":"N","instrument":"VIIRS","version":"2.0NRT","bright_ti4":324.81,"frp":1.88,"daynight":"N"},"geometry":{"type":"Point","coordinates":[-114.93569,32.53757]}},{"type":"Feature","properties":{"acq_date":"2026-09-03","acq_time":932,"confidence":"n","satellite":"N","instrument":"VIIRS","version":"2.0NRT","bright_ti4":301.71,"frp":0.68,"daynight":"N"},"geometry":{"type":"Point","coordinates":[-117.01025,32.59805]}},{"type":"Feature","properties":{"acq_date":"2026-09-03","acq_time":932,"confidence":"n","satellite":"N","instrument":"VIIRS","version":"2.0NRT","bright_ti4":310.34,"frp":0.92,"daynight":"N"},"geometry":{"type":"Point","coordinates":[-115.02433,32.60241]}},{"type":"Feature","properties":{"acq_date":"2026-09-03","acq_time":932,"confidence":"n","satellite":"N","instrument":"VIIRS","version":"2.0NRT","bright_ti4":310.7,"frp":1.07,"daynight":"N"},"geometry":{"type":"Point","coordinates":[-115.5081,32.6104]}},{"type":"Feature","properties":{"acq_date":"2026-09-03","acq_time":932,"confidence":"n","satellite":"N","instrument":"VIIRS","version":"2.0NRT","bright_ti4":303.16,"frp":0.65,"daynight":"N"},"geometry":{"type":"Point","coordinates":[-117.14888,32.85651]}},{"type":"Feature","properties":{"acq_date":"2026-09-03","acq_time":932,"confidence":"n","satellite":"N","instrument":"VIIRS","version":"2.0NRT","bright_ti4":299.35,"frp":0.46,"daynight":"N"},"geometry":{"type":"Point","coordinates":[-117.02819,32.85653]}},{"type":"Feature","properties":{"acq_date":"2026-09-03","acq_time":932,"confidence":"n","satellite":"N","instrument":"VIIRS","version":"2.0NRT","bright_ti4":301.27,"frp":1.1,"daynight":"N"},"geometry":{"type":"Point","coordinates":[-117.61478,33.49235]}},{"type":"Feature","properties":{"acq_date":"2026-09-03","acq_time":932,"confidence":"n","satellite":"N","instrument":"VIIRS","version":"2.0NRT","bright_ti4":308.58,"frp":0.55,"daynight":"N"},"geometry":{"type":"Point","coordinates":[-117.82185,33.61222]}},{"type":"Feature","properties":{"acq_date":"2026-09-03","acq_time":932,"confidence":"n","satellite":"N","instrument":"VIIRS","version":"2.0NRT","bright_ti4":304.58,"frp":1.37,"daynight":"N"},"geometry":{"type":"Point","coordinates":[-117.7107,33.71438]}},{"type":"Feature","properties":{"acq_date":"2026-09-03","acq_time":932,"confidence":"n","satellite":"N","instrument":"VIIRS","version":"2.0NRT","bright_ti4":308.51,"frp":1.5,"daynight":"N"},"geometry":{"type":"Point","coordinates":[-117.47335,33.79318]}},{"type":"Feature","properties":{"acq_date":"2026-09-03","acq_time":932,"confidence":"n","satellite":"N","instrument":"VIIRS","version":"2.0NRT","bright_ti4":305.92,"frp":1.72,"daynight":"N"},"geometry":{"type":"Point","coordinates":[-118.33483,33.85309]}},{"type":"Feature","properties":{"acq_date":"2026-09-03","acq_time":932,"confidence":"n","satellite":"N","instrument":"VIIRS","version":"2.0NRT","bright_ti4":295.52,"frp":0.45,"daynight":"N"},"geometry":{"type":"Point","coordinates":[-116.99875,33.87696]}},{"type":"Feature","properties":{"acq_date":"2026-09-03","acq_time":932,"confidence":"n","satellite":"N","instrument":"VIIRS","version":"2.0NRT","bright_ti4":296.12,"frp":0.56,"daynight":"N"},"geometry":{"type":"Point","coordinates":[-117.12478,33.95424]}},{"type":"Feature","properties":{"acq_date":"2026-09-03","acq_time":932,"confidence":"n","satellite":"N","instrument":"VIIRS","version":"2.0NRT","bright_ti4":299.34,"frp":0.37,"daynight":"N"},"geometry":{"type":"Point","coordinates":[-117.82246,34.0411]}},{"type":"Feature","properties":{"acq_date":"2026-09-03","acq_time":932,"confidence":"n","satellite":"N","instrument":"VIIRS","version":"2.0NRT","bright_ti4":307.65,"frp":1.53,"daynight":"N"},"geometry":{"type":"Point","coordinates":[-117.49391,34.07898]}},{"type":"Feature","properties":{"acq_date":"2026-09-03","acq_time":932,"confidence":"n","satellite":"N","instrument":"VIIRS","version":"2.0NRT","bright_ti4":304.5,"frp":0.63,"daynight":"N"},"geometry":{"type":"Point","coordinates":[-117.42972,34.14365]}},{"type":"Feature","properties":{"acq_date":"2026-09-03","acq_time":932,"confidence":"n","satellite":"N","instrument":"VIIRS","version":"2.0NRT","bright_ti4":308.47,"frp":1.42,"daynight":"N"},"geometry":{"type":"Point","coordinates":[-118.19337,34.15466]}},{"type":"Feature","properties":{"acq_date":"2026-09-03","acq_time":932,"confidence":"n","satellite":"N","instrument":"VIIRS","version":"2.0NRT","bright_ti4":304.91,"frp":0.92,"daynight":"N"},"geometry":{"type":"Point","coordinates":[-118.51832,34.33371]}},{"type":"Feature","properties":{"acq_date":"2026-09-03","acq_time":932,"confidence":"n","satellite":"N","instrument":"VIIRS","version":"2.0NRT","bright_ti4":305.9,"frp":0.92,"daynight":"N"},"geometry":{"type":"Point","coordinates":[-118.52226,34.33414]}},{"type":"Feature","properties":{"acq_date":"2026-09-03","acq_time":932,"confidence":"n","satellite":"N","instrument":"VIIRS","version":"2.0NRT","bright_ti4":310.98,"frp":1.43,"daynight":"N"},"geometry":{"type":"Point","coordinates":[-118.64585,34.4299]}},{"type":"Feature","properties":{"acq_date":"2026-09-03","acq_time":932,"confidence":"n","satellite":"N","instrument":"VIIRS","version":"2.0NRT","bright_ti4":313.18,"frp":1.95,"daynight":"N"},"geometry":{"type":"Point","coordinates":[-117.33652,34.6081]}},{"type":"Feature","properties":{"acq_date":"2026-09-03","acq_time":932,"confidence":"n","satellite":"N","instrument":"VIIRS","version":"2.0NRT","bright_ti4":306.58,"frp":1.35,"daynight":"N"},"geometry":{"type":"Point","coordinates":[-117.10031,34.62227]}},{"type":"Feature","properties":{"acq_date":"2026-09-03","acq_time":932,"confidence":"n","satellite":"N","instrument":"VIIRS","version":"2.0NRT","bright_ti4":296.71,"frp":0.81,"daynight":"N"},"geometry":{"type":"Point","coordinates":[-118.75144,34.81815]}},{"type":"Feature","properties":{"acq_date":"2026-09-03","acq_time":932,"confidence":"n","satellite":"N","instrument":"VIIRS","version":"2.0NRT","bright_ti4":302.87,"frp":0.26,"daynight":"N"},"geometry":{"type":"Point","coordinates":[-118.74916,34.81935]}},{"type":"Feature","properties":{"acq_date":"2026-09-03","acq_time":1110,"confidence":"n","satellite":"N","instrument":"VIIRS","version":"2.0NRT","bright_ti4":301,"frp":2.93,"daynight":"N"},"geometry":{"type":"Point","coordinates":[-121.42931,35.89057]}},{"type":"Feature","properties":{"acq_date":"2026-09-03","acq_time":1110,"confidence":"n","satellite":"N","instrument":"VIIRS","version":"2.0NRT","bright_ti4":314.02,"frp":2.93,"daynight":"N"},"geometry":{"type":"Point","coordinates":[-121.41994,35.89493]}},{"type":"Feature","properties":{"acq_date":"2026-09-03","acq_time":1110,"confidence":"n","satellite":"N","instrument":"VIIRS","version":"2.0NRT","bright_ti4":315.28,"frp":3.61,"daynight":"N"},"geometry":{"type":"Point","coordinates":[-121.43002,35.898]}},{"type":"Feature","properties":{"acq_date":"2026-09-03","acq_time":1110,"confidence":"n","satellite":"N","instrument":"VIIRS","version":"2.0NRT","bright_ti4":311.08,"frp":2.77,"daynight":"N"},"geometry":{"type":"Point","coordinates":[-121.41531,35.90073]}},{"type":"Feature","properties":{"acq_date":"2026-09-03","acq_time":1110,"confidence":"n","satellite":"N","instrument":"VIIRS","version":"2.0NRT","bright_ti4":296.91,"frp":0.57,"daynight":"N"},"geometry":{"type":"Point","coordinates":[-120.1305,37.02699]}},{"type":"Feature","properties":{"acq_date":"2026-09-03","acq_time":1110,"confidence":"n","satellite":"N","instrument":"VIIRS","version":"2.0NRT","bright_ti4":295.67,"frp":0.49,"daynight":"N"},"geometry":{"type":"Point","coordinates":[-120.13472,37.03583]}}]}