{"type":"FeatureCollection","name":"FIRMS VIIRS CA (last 1 day)","crs":{"type":"name","properties":{"name":"EPSG:4326"}},"fetched_at_utc":"2026-09-09T17:42:17.608Z","source":{"url":"https://firms.modaps.eosdis.nasa.gov/api/area/csv/8c4af552cf654445dd280dfb3ad9337c/VIIRS_SNPP_NRT/-125,32,-113,43.5/1","dataset":"VIIRS_SNPP_NRT","bbox":"-125,32,-113,43.5","day_range":"1"},"features":[{"type":"Feature","properties":{"acq_date":"2026-09-09","acq_time":915,"confidence":"n","satellite":"N","instrument":"VIIRS","version":"2.0NRT","bright_ti4":299.09,"frp":0.64,"daynight":"N"},"geometry":{"type":"Point","coordinates":[-115.66605,43.14574]}},{"type":"Feature","properties":{"acq_date":"2026-09-09","acq_time":915,"confidence":"n","satellite":"N","instrument":"VIIRS","version":"2.0NRT","bright_ti4":298.16,"frp":0.8,"daynight":"N"},"geometry":{"type":"Point","coordinates":[-115.73196,43.17848]}},{"type":"Feature","properties":{"acq_date":"2026-09-09","acq_time":917,"confidence":"n","satellite":"N","instrument":"VIIRS","version":"2.0NRT","bright_ti4":306.2,"frp":1.13,"daynight":"N"},"geometry":{"type":"Point","coordinates":[-113.3147,35.51647]}},{"type":"Feature","properties":{"acq_date":"2026-09-09","acq_time":917,"confidence":"n","satellite":"N","instrument":"VIIRS","version":"2.0NRT","bright_ti4":305.86,"frp":0.69,"daynight":"N"},"geometry":{"type":"Point","coordinates":[-113.31572,35.5182]}},{"type":"Feature","properties":{"acq_date":"2026-09-09","acq_time":917,"confidence":"n","satellite":"N","instrument":"VIIRS","version":"2.0NRT","bright_ti4":296.41,"frp":0.96,"daynight":"N"},"geometry":{"type":"Point","coordinates":[-121.38027,35.96187]}},{"type":"Feature","properties":{"acq_date":"2026-09-09","acq_time":917,"confidence":"n","satellite":"N","instrument":"VIIRS","version":"2.0NRT","bright_ti4":315.51,"frp":2.28,"daynight":"N"},"geometry":{"type":"Point","coordinates":[-114.91102,36.3558]}},{"type":"Feature","properties":{"acq_date":"2026-09-09","acq_time":917,"confidence":"n","satellite":"N","instrument":"VIIRS","version":"2.0NRT","bright_ti4":304.44,"frp":0.67,"daynight":"N"},"geometry":{"type":"Point","coordinates":[-119.98914,36.4377]}},{"type":"Feature","properties":{"acq_date":"2026-09-09","acq_time":917,"confidence":"n","satellite":"N","instrument":"VIIRS","version":"2.0NRT","bright_ti4":300.79,"frp":0.71,"daynight":"N"},"geometry":{"type":"Point","coordinates":[-119.9875,36.43917]}},{"type":"Feature","properties":{"acq_date":"2026-09-09","acq_time":917,"confidence":"n","satellite":"N","instrument":"VIIRS","version":"2.0NRT","bright_ti4":297.97,"frp":0.41,"daynight":"N"},"geometry":{"type":"Point","coordinates":[-121.5401,38.3526]}},{"type":"Feature","properties":{"acq_date":"2026-09-09","acq_time":1058,"confidence":"n","satellite":"N","instrument":"VIIRS","version":"2.0NRT","bright_ti4":302.24,"frp":2.09,"daynight":"N"},"geometry":{"type":"Point","coordinates":[-117.34041,34.60717]}},{"type":"Feature","properties":{"acq_date":"2026-09-09","acq_time":1058,"confidence":"n","satellite":"N","instrument":"VIIRS","version":"2.0NRT","bright_ti4":308.72,"frp":2.5,"daynight":"N"},"geometry":{"type":"Point","coordinates":[-117.33638,34.6105]}},{"type":"Feature","properties":{"acq_date":"2026-09-09","acq_time":1058,"confidence":"n","satellite":"N","instrument":"VIIRS","version":"2.0NRT","bright_ti4":306.86,"frp":1.05,"daynight":"N"},"geometry":{"type":"Point","coordinates":[-121.37669,35.96549]}},{"type":"Feature","properties":{"acq_date":"2026-09-09","acq_time":1058,"confidence":"n","satellite":"N","instrument":"VIIRS","version":"2.0NRT","bright_ti4":301.52,"frp":0.57,"daynight":"N"},"geometry":{"type":"Point","coordinates":[-120.13354,37.03707]}},{"type":"Feature","properties":{"acq_date":"2026-09-09","acq_time":1058,"confidence":"n","satellite":"N","instrument":"VIIRS","version":"2.0NRT","bright_ti4":301.19,"frp":0.43,"daynight":"N"},"geometry":{"type":"Point","coordinates":[-120.13171,37.04007]}},{"type":"Feature","properties":{"acq_date":"2026-09-09","acq_time":1058,"confidence":"n","satellite":"N","instrument":"VIIRS","version":"2.0NRT","bright_ti4":299.69,"frp":0.55,"daynight":"N"},"geometry":{"type":"Point","coordinates":[-121.93385,37.45401]}},{"type":"Feature","properties":{"acq_date":"2026-09-09","acq_time":1058,"confidence":"n","satellite":"N","instrument":"VIIRS","version":"2.0NRT","bright_ti4":298.49,"frp":1.1,"daynight":"N"},"geometry":{"type":"Point","coordinates":[-122.39342,37.94457]}},{"type":"Feature","properties":{"acq_date":"2026-09-09","acq_time":1058,"confidence":"n","satellite":"N","instrument":"VIIRS","version":"2.0NRT","bright_ti4":302.13,"frp":0.8,"daynight":"N"},"geometry":{"type":"Point","coordinates":[-122.39885,37.9515]}},{"type":"Feature","properties":{"acq_date":"2026-09-09","acq_time":1058,"confidence":"n","satellite":"N","instrument":"VIIRS","version":"2.0NRT","bright_ti4":300.92,"frp":0.54,"daynight":"N"},"geometry":{"type":"Point","coordinates":[-121.93612,38.0028]}},{"type":"Feature","properties":{"acq_date":"2026-09-09","acq_time":1058,"confidence":"n","satellite":"N","instrument":"VIIRS","version":"2.0NRT","bright_ti4":303.47,"frp":1.42,"daynight":"N"},"geometry":{"type":"Point","coordinates":[-122.11372,38.01692]}},{"type":"Feature","properties":{"acq_date":"2026-09-09","acq_time":1058,"confidence":"n","satellite":"N","instrument":"VIIRS","version":"2.0NRT","bright_ti4":295.65,"frp":0.25,"daynight":"N"},"geometry":{"type":"Point","coordinates":[-122.02222,39.54386]}}]}