{"type":"FeatureCollection","name":"FIRMS VIIRS CA (last 1 day)","crs":{"type":"name","properties":{"name":"EPSG:4326"}},"fetched_at_utc":"2026-09-23T18:18:52.689Z","source":{"url":"https://firms.modaps.eosdis.nasa.gov/api/area/csv/8c4af552cf654445dd280dfb3ad9337c/VIIRS_SNPP_NRT/-125,32,-113,43.5/1","dataset":"VIIRS_SNPP_NRT","bbox":"-125,32,-113,43.5","day_range":"1"},"features":[{"type":"Feature","properties":{"acq_date":"2026-09-23","acq_time":954,"confidence":"n","satellite":"N","instrument":"VIIRS","version":"2.0NRT","bright_ti4":318.92,"frp":1.19,"daynight":"N"},"geometry":{"type":"Point","coordinates":[-114.25394,40.8228]}},{"type":"Feature","properties":{"acq_date":"2026-09-23","acq_time":954,"confidence":"n","satellite":"N","instrument":"VIIRS","version":"2.0NRT","bright_ti4":296.83,"frp":0.76,"daynight":"N"},"geometry":{"type":"Point","coordinates":[-117.67049,41.54234]}},{"type":"Feature","properties":{"acq_date":"2026-09-23","acq_time":954,"confidence":"n","satellite":"N","instrument":"VIIRS","version":"2.0NRT","bright_ti4":300.34,"frp":0.45,"daynight":"N"},"geometry":{"type":"Point","coordinates":[-122.77671,42.3828]}},{"type":"Feature","properties":{"acq_date":"2026-09-23","acq_time":954,"confidence":"n","satellite":"N","instrument":"VIIRS","version":"2.0NRT","bright_ti4":327.14,"frp":2.72,"daynight":"N"},"geometry":{"type":"Point","coordinates":[-122.9023,42.61261]}},{"type":"Feature","properties":{"acq_date":"2026-09-23","acq_time":954,"confidence":"n","satellite":"N","instrument":"VIIRS","version":"2.0NRT","bright_ti4":304.08,"frp":0.55,"daynight":"N"},"geometry":{"type":"Point","coordinates":[-115.73193,43.17807]}},{"type":"Feature","properties":{"acq_date":"2026-09-23","acq_time":954,"confidence":"n","satellite":"N","instrument":"VIIRS","version":"2.0NRT","bright_ti4":295.33,"frp":0.55,"daynight":"N"},"geometry":{"type":"Point","coordinates":[-115.73096,43.18134]}},{"type":"Feature","properties":{"acq_date":"2026-09-23","acq_time":956,"confidence":"n","satellite":"N","instrument":"VIIRS","version":"2.0NRT","bright_ti4":306.53,"frp":1.09,"daynight":"N"},"geometry":{"type":"Point","coordinates":[-115.35136,32.54393]}},{"type":"Feature","properties":{"acq_date":"2026-09-23","acq_time":956,"confidence":"n","satellite":"N","instrument":"VIIRS","version":"2.0NRT","bright_ti4":305.39,"frp":0.81,"daynight":"N"},"geometry":{"type":"Point","coordinates":[-117.02697,32.85845]}},{"type":"Feature","properties":{"acq_date":"2026-09-23","acq_time":956,"confidence":"n","satellite":"N","instrument":"VIIRS","version":"2.0NRT","bright_ti4":307.43,"frp":0.88,"daynight":"N"},"geometry":{"type":"Point","coordinates":[-117.14885,32.8587]}},{"type":"Feature","properties":{"acq_date":"2026-09-23","acq_time":956,"confidence":"n","satellite":"N","instrument":"VIIRS","version":"2.0NRT","bright_ti4":309.92,"frp":0.89,"daynight":"N"},"geometry":{"type":"Point","coordinates":[-117.6162,33.49188]}},{"type":"Feature","properties":{"acq_date":"2026-09-23","acq_time":956,"confidence":"n","satellite":"N","instrument":"VIIRS","version":"2.0NRT","bright_ti4":310.65,"frp":1.05,"daynight":"N"},"geometry":{"type":"Point","coordinates":[-117.82381,33.61497]}},{"type":"Feature","properties":{"acq_date":"2026-09-23","acq_time":956,"confidence":"n","satellite":"N","instrument":"VIIRS","version":"2.0NRT","bright_ti4":315.43,"frp":1.42,"daynight":"N"},"geometry":{"type":"Point","coordinates":[-117.70973,33.71527]}},{"type":"Feature","properties":{"acq_date":"2026-09-23","acq_time":956,"confidence":"n","satellite":"N","instrument":"VIIRS","version":"2.0NRT","bright_ti4":305.54,"frp":0.91,"daynight":"N"},"geometry":{"type":"Point","coordinates":[-118.2364,33.77911]}},{"type":"Feature","properties":{"acq_date":"2026-09-23","acq_time":956,"confidence":"n","satellite":"N","instrument":"VIIRS","version":"2.0NRT","bright_ti4":313.73,"frp":1.76,"daynight":"N"},"geometry":{"type":"Point","coordinates":[-117.47301,33.79421]}},{"type":"Feature","properties":{"acq_date":"2026-09-23","acq_time":956,"confidence":"n","satellite":"N","instrument":"VIIRS","version":"2.0NRT","bright_ti4":305.62,"frp":1.54,"daynight":"N"},"geometry":{"type":"Point","coordinates":[-118.24364,33.82147]}},{"type":"Feature","properties":{"acq_date":"2026-09-23","acq_time":956,"confidence":"n","satellite":"N","instrument":"VIIRS","version":"2.0NRT","bright_ti4":306.37,"frp":0.99,"daynight":"N"},"geometry":{"type":"Point","coordinates":[-118.33095,33.85291]}},{"type":"Feature","properties":{"acq_date":"2026-09-23","acq_time":956,"confidence":"n","satellite":"N","instrument":"VIIRS","version":"2.0NRT","bright_ti4":301.54,"frp":0.2,"daynight":"N"},"geometry":{"type":"Point","coordinates":[-116.99723,33.87761]}},{"type":"Feature","properties":{"acq_date":"2026-09-23","acq_time":956,"confidence":"n","satellite":"N","instrument":"VIIRS","version":"2.0NRT","bright_ti4":298.99,"frp":0.51,"daynight":"N"},"geometry":{"type":"Point","coordinates":[-116.99949,33.87784]}},{"type":"Feature","properties":{"acq_date":"2026-09-23","acq_time":956,"confidence":"n","satellite":"N","instrument":"VIIRS","version":"2.0NRT","bright_ti4":303.59,"frp":0.52,"daynight":"N"},"geometry":{"type":"Point","coordinates":[-117.12179,33.95538]}},{"type":"Feature","properties":{"acq_date":"2026-09-23","acq_time":956,"confidence":"n","satellite":"N","instrument":"VIIRS","version":"2.0NRT","bright_ti4":303.95,"frp":0.63,"daynight":"N"},"geometry":{"type":"Point","coordinates":[-118.10539,34.03699]}},{"type":"Feature","properties":{"acq_date":"2026-09-23","acq_time":956,"confidence":"n","satellite":"N","instrument":"VIIRS","version":"2.0NRT","bright_ti4":299.87,"frp":0.55,"daynight":"N"},"geometry":{"type":"Point","coordinates":[-117.82005,34.03979]}},{"type":"Feature","properties":{"acq_date":"2026-09-23","acq_time":956,"confidence":"n","satellite":"N","instrument":"VIIRS","version":"2.0NRT","bright_ti4":302.08,"frp":0.53,"daynight":"N"},"geometry":{"type":"Point","coordinates":[-117.92364,34.11559]}},{"type":"Feature","properties":{"acq_date":"2026-09-23","acq_time":956,"confidence":"n","satellite":"N","instrument":"VIIRS","version":"2.0NRT","bright_ti4":312.04,"frp":0.92,"daynight":"N"},"geometry":{"type":"Point","coordinates":[-117.42785,34.14153]}},{"type":"Feature","properties":{"acq_date":"2026-09-23","acq_time":956,"confidence":"n","satellite":"N","instrument":"VIIRS","version":"2.0NRT","bright_ti4":311.46,"frp":1.11,"daynight":"N"},"geometry":{"type":"Point","coordinates":[-118.19226,34.153]}},{"type":"Feature","properties":{"acq_date":"2026-09-23","acq_time":956,"confidence":"n","satellite":"N","instrument":"VIIRS","version":"2.0NRT","bright_ti4":299.01,"frp":0.47,"daynight":"N"},"geometry":{"type":"Point","coordinates":[-118.38249,34.24511]}},{"type":"Feature","properties":{"acq_date":"2026-09-23","acq_time":956,"confidence":"n","satellite":"N","instrument":"VIIRS","version":"2.0NRT","bright_ti4":321.89,"frp":1.13,"daynight":"N"},"geometry":{"type":"Point","coordinates":[-118.52069,34.33578]}},{"type":"Feature","properties":{"acq_date":"2026-09-23","acq_time":956,"confidence":"n","satellite":"N","instrument":"VIIRS","version":"2.0NRT","bright_ti4":304.47,"frp":0.95,"daynight":"N"},"geometry":{"type":"Point","coordinates":[-116.85402,34.35574]}},{"type":"Feature","properties":{"acq_date":"2026-09-23","acq_time":956,"confidence":"n","satellite":"N","instrument":"VIIRS","version":"2.0NRT","bright_ti4":299.35,"frp":0.42,"daynight":"N"},"geometry":{"type":"Point","coordinates":[-118.64257,34.42962]}},{"type":"Feature","properties":{"acq_date":"2026-09-23","acq_time":956,"confidence":"n","satellite":"N","instrument":"VIIRS","version":"2.0NRT","bright_ti4":300.1,"frp":0.75,"daynight":"N"},"geometry":{"type":"Point","coordinates":[-118.64672,34.43028]}},{"type":"Feature","properties":{"acq_date":"2026-09-23","acq_time":956,"confidence":"n","satellite":"N","instrument":"VIIRS","version":"2.0NRT","bright_ti4":298.6,"frp":0.24,"daynight":"N"},"geometry":{"type":"Point","coordinates":[-118.1519,34.56792]}},{"type":"Feature","properties":{"acq_date":"2026-09-23","acq_time":956,"confidence":"n","satellite":"N","instrument":"VIIRS","version":"2.0NRT","bright_ti4":314.41,"frp":1.06,"daynight":"N"},"geometry":{"type":"Point","coordinates":[-117.33534,34.60812]}},{"type":"Feature","properties":{"acq_date":"2026-09-23","acq_time":956,"confidence":"n","satellite":"N","instrument":"VIIRS","version":"2.0NRT","bright_ti4":317.14,"frp":2.47,"daynight":"N"},"geometry":{"type":"Point","coordinates":[-117.10038,34.62343]}},{"type":"Feature","properties":{"acq_date":"2026-09-23","acq_time":956,"confidence":"n","satellite":"N","instrument":"VIIRS","version":"2.0NRT","bright_ti4":305.39,"frp":0.8,"daynight":"N"},"geometry":{"type":"Point","coordinates":[-118.75016,34.8206]}},{"type":"Feature","properties":{"acq_date":"2026-09-23","acq_time":956,"confidence":"n","satellite":"N","instrument":"VIIRS","version":"2.0NRT","bright_ti4":313.38,"frp":1.59,"daynight":"N"},"geometry":{"type":"Point","coordinates":[-113.31651,35.51727]}},{"type":"Feature","properties":{"acq_date":"2026-09-23","acq_time":956,"confidence":"n","satellite":"N","instrument":"VIIRS","version":"2.0NRT","bright_ti4":316.58,"frp":1.27,"daynight":"N"},"geometry":{"type":"Point","coordinates":[-119.27797,35.68113]}},{"type":"Feature","properties":{"acq_date":"2026-09-23","acq_time":956,"confidence":"n","satellite":"N","instrument":"VIIRS","version":"2.0NRT","bright_ti4":315.32,"frp":1.75,"daynight":"N"},"geometry":{"type":"Point","coordinates":[-119.28223,35.68177]}},{"type":"Feature","properties":{"acq_date":"2026-09-23","acq_time":956,"confidence":"n","satellite":"N","instrument":"VIIRS","version":"2.0NRT","bright_ti4":311.76,"frp":0.89,"daynight":"N"},"geometry":{"type":"Point","coordinates":[-121.70786,36.30328]}},{"type":"Feature","properties":{"acq_date":"2026-09-23","acq_time":956,"confidence":"n","satellite":"N","instrument":"VIIRS","version":"2.0NRT","bright_ti4":303.25,"frp":0.8,"daynight":"N"},"geometry":{"type":"Point","coordinates":[-114.91338,36.35621]}},{"type":"Feature","properties":{"acq_date":"2026-09-23","acq_time":956,"confidence":"n","satellite":"N","instrument":"VIIRS","version":"2.0NRT","bright_ti4":304.86,"frp":0.8,"daynight":"N"},"geometry":{"type":"Point","coordinates":[-114.91236,36.35968]}},{"type":"Feature","properties":{"acq_date":"2026-09-23","acq_time":956,"confidence":"n","satellite":"N","instrument":"VIIRS","version":"2.0NRT","bright_ti4":307.82,"frp":0.6,"daynight":"N"},"geometry":{"type":"Point","coordinates":[-114.87559,36.38207]}},{"type":"Feature","properties":{"acq_date":"2026-09-23","acq_time":956,"confidence":"n","satellite":"N","instrument":"VIIRS","version":"2.0NRT","bright_ti4":296.79,"frp":0.6,"daynight":"N"},"geometry":{"type":"Point","coordinates":[-118.97403,36.60759]}},{"type":"Feature","properties":{"acq_date":"2026-09-23","acq_time":956,"confidence":"n","satellite":"N","instrument":"VIIRS","version":"2.0NRT","bright_ti4":298.94,"frp":0.52,"daynight":"N"},"geometry":{"type":"Point","coordinates":[-120.13367,36.66416]}},{"type":"Feature","properties":{"acq_date":"2026-09-23","acq_time":956,"confidence":"n","satellite":"N","instrument":"VIIRS","version":"2.0NRT","bright_ti4":312.38,"frp":1.58,"daynight":"N"},"geometry":{"type":"Point","coordinates":[-120.7955,36.90126]}},{"type":"Feature","properties":{"acq_date":"2026-09-23","acq_time":956,"confidence":"n","satellite":"N","instrument":"VIIRS","version":"2.0NRT","bright_ti4":306.96,"frp":0.67,"daynight":"N"},"geometry":{"type":"Point","coordinates":[-120.13901,37.03796]}},{"type":"Feature","properties":{"acq_date":"2026-09-23","acq_time":956,"confidence":"n","satellite":"N","instrument":"VIIRS","version":"2.0NRT","bright_ti4":295.99,"frp":0.56,"daynight":"N"},"geometry":{"type":"Point","coordinates":[-121.6804,37.18309]}},{"type":"Feature","properties":{"acq_date":"2026-09-23","acq_time":956,"confidence":"n","satellite":"N","instrument":"VIIRS","version":"2.0NRT","bright_ti4":295.23,"frp":0.48,"daynight":"N"},"geometry":{"type":"Point","coordinates":[-121.67878,37.18367]}},{"type":"Feature","properties":{"acq_date":"2026-09-23","acq_time":956,"confidence":"n","satellite":"N","instrument":"VIIRS","version":"2.0NRT","bright_ti4":306.36,"frp":0.77,"daynight":"N"},"geometry":{"type":"Point","coordinates":[-121.93341,37.45573]}},{"type":"Feature","properties":{"acq_date":"2026-09-23","acq_time":956,"confidence":"n","satellite":"N","instrument":"VIIRS","version":"2.0NRT","bright_ti4":308.08,"frp":1.92,"daynight":"N"},"geometry":{"type":"Point","coordinates":[-119.5904,37.58852]}},{"type":"Feature","properties":{"acq_date":"2026-09-23","acq_time":956,"confidence":"n","satellite":"N","instrument":"VIIRS","version":"2.0NRT","bright_ti4":330.32,"frp":4.94,"daynight":"N"},"geometry":{"type":"Point","coordinates":[-119.59485,37.58916]}},{"type":"Feature","properties":{"acq_date":"2026-09-23","acq_time":956,"confidence":"n","satellite":"N","instrument":"VIIRS","version":"2.0NRT","bright_ti4":353.75,"frp":4.21,"daynight":"N"},"geometry":{"type":"Point","coordinates":[-119.58955,37.59187]}},{"type":"Feature","properties":{"acq_date":"2026-09-23","acq_time":956,"confidence":"n","satellite":"N","instrument":"VIIRS","version":"2.0NRT","bright_ti4":324.62,"frp":1.62,"daynight":"N"},"geometry":{"type":"Point","coordinates":[-119.59406,37.59251]}},{"type":"Feature","properties":{"acq_date":"2026-09-23","acq_time":956,"confidence":"n","satellite":"N","instrument":"VIIRS","version":"2.0NRT","bright_ti4":296.77,"frp":1.62,"daynight":"N"},"geometry":{"type":"Point","coordinates":[-119.59854,37.59315]}},{"type":"Feature","properties":{"acq_date":"2026-09-23","acq_time":956,"confidence":"n","satellite":"N","instrument":"VIIRS","version":"2.0NRT","bright_ti4":307.78,"frp":4.21,"daynight":"N"},"geometry":{"type":"Point","coordinates":[-119.58868,37.59521]}},{"type":"Feature","properties":{"acq_date":"2026-09-23","acq_time":956,"confidence":"n","satellite":"N","instrument":"VIIRS","version":"2.0NRT","bright_ti4":299.12,"frp":1.62,"daynight":"N"},"geometry":{"type":"Point","coordinates":[-119.59324,37.59586]}},{"type":"Feature","properties":{"acq_date":"2026-09-23","acq_time":956,"confidence":"n","satellite":"N","instrument":"VIIRS","version":"2.0NRT","bright_ti4":335.94,"frp":2.95,"daynight":"N"},"geometry":{"type":"Point","coordinates":[-119.58783,37.59855]}},{"type":"Feature","properties":{"acq_date":"2026-09-23","acq_time":956,"confidence":"n","satellite":"N","instrument":"VIIRS","version":"2.0NRT","bright_ti4":338.13,"frp":7.28,"daynight":"N"},"geometry":{"type":"Point","coordinates":[-119.60146,37.60049]}},{"type":"Feature","properties":{"acq_date":"2026-09-23","acq_time":956,"confidence":"n","satellite":"N","instrument":"VIIRS","version":"2.0NRT","bright_ti4":315.64,"frp":7.28,"daynight":"N"},"geometry":{"type":"Point","coordinates":[-119.60601,37.60114]}},{"type":"Feature","properties":{"acq_date":"2026-09-23","acq_time":956,"confidence":"n","satellite":"N","instrument":"VIIRS","version":"2.0NRT","bright_ti4":300.78,"frp":0.73,"daynight":"N"},"geometry":{"type":"Point","coordinates":[-119.61057,37.60179]}},{"type":"Feature","properties":{"acq_date":"2026-09-23","acq_time":956,"confidence":"n","satellite":"N","instrument":"VIIRS","version":"2.0NRT","bright_ti4":318.26,"frp":2.95,"daynight":"N"},"geometry":{"type":"Point","coordinates":[-119.58698,37.60189]}},{"type":"Feature","properties":{"acq_date":"2026-09-23","acq_time":956,"confidence":"n","satellite":"N","instrument":"VIIRS","version":"2.0NRT","bright_ti4":298.76,"frp":0.73,"daynight":"N"},"geometry":{"type":"Point","coordinates":[-119.6152,37.60245]}},{"type":"Feature","properties":{"acq_date":"2026-09-23","acq_time":956,"confidence":"n","satellite":"N","instrument":"VIIRS","version":"2.0NRT","bright_ti4":302.22,"frp":2.88,"daynight":"N"},"geometry":{"type":"Point","coordinates":[-119.59608,37.60319]}},{"type":"Feature","properties":{"acq_date":"2026-09-23","acq_time":956,"confidence":"n","satellite":"N","instrument":"VIIRS","version":"2.0NRT","bright_ti4":352.65,"frp":7.28,"daynight":"N"},"geometry":{"type":"Point","coordinates":[-119.60065,37.60384]}},{"type":"Feature","properties":{"acq_date":"2026-09-23","acq_time":956,"confidence":"n","satellite":"N","instrument":"VIIRS","version":"2.0NRT","bright_ti4":324.67,"frp":7.28,"daynight":"N"},"geometry":{"type":"Point","coordinates":[-119.60527,37.6045]}},{"type":"Feature","properties":{"acq_date":"2026-09-23","acq_time":956,"confidence":"n","satellite":"N","instrument":"VIIRS","version":"2.0NRT","bright_ti4":318.01,"frp":5.28,"daynight":"N"},"geometry":{"type":"Point","coordinates":[-119.59074,37.60589]}},{"type":"Feature","properties":{"acq_date":"2026-09-23","acq_time":956,"confidence":"n","satellite":"N","instrument":"VIIRS","version":"2.0NRT","bright_ti4":343.68,"frp":5.28,"daynight":"N"},"geometry":{"type":"Point","coordinates":[-119.59528,37.60654]}},{"type":"Feature","properties":{"acq_date":"2026-09-23","acq_time":956,"confidence":"h","satellite":"N","instrument":"VIIRS","version":"2.0NRT","bright_ti4":367,"frp":8.94,"daynight":"N"},"geometry":{"type":"Point","coordinates":[-119.59988,37.6072]}},{"type":"Feature","properties":{"acq_date":"2026-09-23","acq_time":956,"confidence":"n","satellite":"N","instrument":"VIIRS","version":"2.0NRT","bright_ti4":318.75,"frp":8.94,"daynight":"N"},"geometry":{"type":"Point","coordinates":[-119.60447,37.60785]}},{"type":"Feature","properties":{"acq_date":"2026-09-23","acq_time":956,"confidence":"n","satellite":"N","instrument":"VIIRS","version":"2.0NRT","bright_ti4":341.17,"frp":2.73,"daynight":"N"},"geometry":{"type":"Point","coordinates":[-119.60907,37.60851]}},{"type":"Feature","properties":{"acq_date":"2026-09-23","acq_time":956,"confidence":"n","satellite":"N","instrument":"VIIRS","version":"2.0NRT","bright_ti4":311.8,"frp":2.73,"daynight":"N"},"geometry":{"type":"Point","coordinates":[-119.61373,37.60917]}},{"type":"Feature","properties":{"acq_date":"2026-09-23","acq_time":956,"confidence":"n","satellite":"N","instrument":"VIIRS","version":"2.0NRT","bright_ti4":336.44,"frp":5.28,"daynight":"N"},"geometry":{"type":"Point","coordinates":[-119.59,37.60925]}},{"type":"Feature","properties":{"acq_date":"2026-09-23","acq_time":956,"confidence":"n","satellite":"N","instrument":"VIIRS","version":"2.0NRT","bright_ti4":345.68,"frp":5.28,"daynight":"N"},"geometry":{"type":"Point","coordinates":[-119.59452,37.6099]}},{"type":"Feature","properties":{"acq_date":"2026-09-23","acq_time":956,"confidence":"n","satellite":"N","instrument":"VIIRS","version":"2.0NRT","bright_ti4":337.01,"frp":8.94,"daynight":"N"},"geometry":{"type":"Point","coordinates":[-119.59908,37.61055]}},{"type":"Feature","properties":{"acq_date":"2026-09-23","acq_time":956,"confidence":"n","satellite":"N","instrument":"VIIRS","version":"2.0NRT","bright_ti4":304.58,"frp":2.73,"daynight":"N"},"geometry":{"type":"Point","coordinates":[-119.60829,37.61186]}},{"type":"Feature","properties":{"acq_date":"2026-09-23","acq_time":956,"confidence":"n","satellite":"N","instrument":"VIIRS","version":"2.0NRT","bright_ti4":331.9,"frp":5.39,"daynight":"N"},"geometry":{"type":"Point","coordinates":[-119.62234,37.61386]}},{"type":"Feature","properties":{"acq_date":"2026-09-23","acq_time":956,"confidence":"n","satellite":"N","instrument":"VIIRS","version":"2.0NRT","bright_ti4":296.28,"frp":0.83,"daynight":"N"},"geometry":{"type":"Point","coordinates":[-119.60295,37.61456]}},{"type":"Feature","properties":{"acq_date":"2026-09-23","acq_time":956,"confidence":"n","satellite":"N","instrument":"VIIRS","version":"2.0NRT","bright_ti4":311.96,"frp":4.56,"daynight":"N"},"geometry":{"type":"Point","coordinates":[-119.61687,37.61655]}},{"type":"Feature","properties":{"acq_date":"2026-09-23","acq_time":956,"confidence":"n","satellite":"N","instrument":"VIIRS","version":"2.0NRT","bright_ti4":326.65,"frp":4.56,"daynight":"N"},"geometry":{"type":"Point","coordinates":[-119.62156,37.61721]}},{"type":"Feature","properties":{"acq_date":"2026-09-23","acq_time":956,"confidence":"n","satellite":"N","instrument":"VIIRS","version":"2.0NRT","bright_ti4":296.04,"frp":0.83,"daynight":"N"},"geometry":{"type":"Point","coordinates":[-119.5977,37.61728]}},{"type":"Feature","properties":{"acq_date":"2026-09-23","acq_time":956,"confidence":"n","satellite":"N","instrument":"VIIRS","version":"2.0NRT","bright_ti4":320.81,"frp":4.56,"daynight":"N"},"geometry":{"type":"Point","coordinates":[-119.61608,37.6199]}},{"type":"Feature","properties":{"acq_date":"2026-09-23","acq_time":956,"confidence":"n","satellite":"N","instrument":"VIIRS","version":"2.0NRT","bright_ti4":354.05,"frp":4.56,"daynight":"N"},"geometry":{"type":"Point","coordinates":[-119.62072,37.62056]}},{"type":"Feature","properties":{"acq_date":"2026-09-23","acq_time":956,"confidence":"n","satellite":"N","instrument":"VIIRS","version":"2.0NRT","bright_ti4":307.44,"frp":1.26,"daynight":"N"},"geometry":{"type":"Point","coordinates":[-119.60162,37.6213]}},{"type":"Feature","properties":{"acq_date":"2026-09-23","acq_time":956,"confidence":"n","satellite":"N","instrument":"VIIRS","version":"2.0NRT","bright_ti4":298.59,"frp":6.55,"daynight":"N"},"geometry":{"type":"Point","coordinates":[-119.61527,37.62325]}},{"type":"Feature","properties":{"acq_date":"2026-09-23","acq_time":956,"confidence":"n","satellite":"N","instrument":"VIIRS","version":"2.0NRT","bright_ti4":327.59,"frp":6.55,"daynight":"N"},"geometry":{"type":"Point","coordinates":[-119.61987,37.62391]}},{"type":"Feature","properties":{"acq_date":"2026-09-23","acq_time":956,"confidence":"n","satellite":"N","instrument":"VIIRS","version":"2.0NRT","bright_ti4":314.9,"frp":1.26,"daynight":"N"},"geometry":{"type":"Point","coordinates":[-119.60091,37.62467]}},{"type":"Feature","properties":{"acq_date":"2026-09-23","acq_time":956,"confidence":"n","satellite":"N","instrument":"VIIRS","version":"2.0NRT","bright_ti4":301.75,"frp":1.66,"daynight":"N"},"geometry":{"type":"Point","coordinates":[-119.60999,37.62596]}},{"type":"Feature","properties":{"acq_date":"2026-09-23","acq_time":956,"confidence":"n","satellite":"N","instrument":"VIIRS","version":"2.0NRT","bright_ti4":352.4,"frp":6.55,"daynight":"N"},"geometry":{"type":"Point","coordinates":[-119.61449,37.62661]}},{"type":"Feature","properties":{"acq_date":"2026-09-23","acq_time":956,"confidence":"n","satellite":"N","instrument":"VIIRS","version":"2.0NRT","bright_ti4":327.4,"frp":1.97,"daynight":"N"},"geometry":{"type":"Point","coordinates":[-119.59564,37.62738]}},{"type":"Feature","properties":{"acq_date":"2026-09-23","acq_time":956,"confidence":"n","satellite":"N","instrument":"VIIRS","version":"2.0NRT","bright_ti4":308.75,"frp":1.97,"daynight":"N"},"geometry":{"type":"Point","coordinates":[-119.60022,37.62803]}},{"type":"Feature","properties":{"acq_date":"2026-09-23","acq_time":956,"confidence":"n","satellite":"N","instrument":"VIIRS","version":"2.0NRT","bright_ti4":304.42,"frp":2.61,"daynight":"N"},"geometry":{"type":"Point","coordinates":[-119.60925,37.62933]}},{"type":"Feature","properties":{"acq_date":"2026-09-23","acq_time":956,"confidence":"n","satellite":"N","instrument":"VIIRS","version":"2.0NRT","bright_ti4":352.13,"frp":17.34,"daynight":"N"},"geometry":{"type":"Point","coordinates":[-119.6137,37.62996]}},{"type":"Feature","properties":{"acq_date":"2026-09-23","acq_time":956,"confidence":"n","satellite":"N","instrument":"VIIRS","version":"2.0NRT","bright_ti4":302.72,"frp":1.97,"daynight":"N"},"geometry":{"type":"Point","coordinates":[-119.59949,37.63139]}},{"type":"Feature","properties":{"acq_date":"2026-09-23","acq_time":956,"confidence":"n","satellite":"N","instrument":"VIIRS","version":"2.0NRT","bright_ti4":299.5,"frp":2.61,"daynight":"N"},"geometry":{"type":"Point","coordinates":[-119.60403,37.63204]}},{"type":"Feature","properties":{"acq_date":"2026-09-23","acq_time":956,"confidence":"n","satellite":"N","instrument":"VIIRS","version":"2.0NRT","bright_ti4":336.37,"frp":2.61,"daynight":"N"},"geometry":{"type":"Point","coordinates":[-119.60848,37.63268]}},{"type":"Feature","properties":{"acq_date":"2026-09-23","acq_time":956,"confidence":"n","satellite":"N","instrument":"VIIRS","version":"2.0NRT","bright_ti4":329.41,"frp":17.34,"daynight":"N"},"geometry":{"type":"Point","coordinates":[-119.61295,37.63332]}},{"type":"Feature","properties":{"acq_date":"2026-09-23","acq_time":956,"confidence":"n","satellite":"N","instrument":"VIIRS","version":"2.0NRT","bright_ti4":305.67,"frp":0.55,"daynight":"N"},"geometry":{"type":"Point","coordinates":[-119.59877,37.63475]}},{"type":"Feature","properties":{"acq_date":"2026-09-23","acq_time":956,"confidence":"n","satellite":"N","instrument":"VIIRS","version":"2.0NRT","bright_ti4":338.96,"frp":5.05,"daynight":"N"},"geometry":{"type":"Point","coordinates":[-119.60773,37.63604]}},{"type":"Feature","properties":{"acq_date":"2026-09-23","acq_time":956,"confidence":"n","satellite":"N","instrument":"VIIRS","version":"2.0NRT","bright_ti4":297.18,"frp":0.4,"daynight":"N"},"geometry":{"type":"Point","coordinates":[-121.14939,37.77741]}},{"type":"Feature","properties":{"acq_date":"2026-09-23","acq_time":956,"confidence":"n","satellite":"N","instrument":"VIIRS","version":"2.0NRT","bright_ti4":306.79,"frp":1.09,"daynight":"N"},"geometry":{"type":"Point","coordinates":[-121.18791,37.88292]}},{"type":"Feature","properties":{"acq_date":"2026-09-23","acq_time":956,"confidence":"n","satellite":"N","instrument":"VIIRS","version":"2.0NRT","bright_ti4":297.92,"frp":0.32,"daynight":"N"},"geometry":{"type":"Point","coordinates":[-121.83611,38.31461]}},{"type":"Feature","properties":{"acq_date":"2026-09-23","acq_time":956,"confidence":"n","satellite":"N","instrument":"VIIRS","version":"2.0NRT","bright_ti4":299.58,"frp":0.7,"daynight":"N"},"geometry":{"type":"Point","coordinates":[-119.61848,39.49361]}},{"type":"Feature","properties":{"acq_date":"2026-09-23","acq_time":956,"confidence":"n","satellite":"N","instrument":"VIIRS","version":"2.0NRT","bright_ti4":307.3,"frp":1.53,"daynight":"N"},"geometry":{"type":"Point","coordinates":[-119.26321,39.61841]}},{"type":"Feature","properties":{"acq_date":"2026-09-23","acq_time":956,"confidence":"n","satellite":"N","instrument":"VIIRS","version":"2.0NRT","bright_ti4":296.99,"frp":0.47,"daynight":"N"},"geometry":{"type":"Point","coordinates":[-119.26241,39.62179]}},{"type":"Feature","properties":{"acq_date":"2026-09-23","acq_time":956,"confidence":"n","satellite":"N","instrument":"VIIRS","version":"2.0NRT","bright_ti4":303,"frp":0.79,"daynight":"N"},"geometry":{"type":"Point","coordinates":[-122.24516,39.69965]}},{"type":"Feature","properties":{"acq_date":"2026-09-23","acq_time":956,"confidence":"n","satellite":"N","instrument":"VIIRS","version":"2.0NRT","bright_ti4":312.01,"frp":2.33,"daynight":"N"},"geometry":{"type":"Point","coordinates":[-122.20125,40.07299]}},{"type":"Feature","properties":{"acq_date":"2026-09-23","acq_time":956,"confidence":"n","satellite":"N","instrument":"VIIRS","version":"2.0NRT","bright_ti4":324.02,"frp":2.33,"daynight":"N"},"geometry":{"type":"Point","coordinates":[-122.20728,40.07366]}},{"type":"Feature","properties":{"acq_date":"2026-09-23","acq_time":956,"confidence":"n","satellite":"N","instrument":"VIIRS","version":"2.0NRT","bright_ti4":306.79,"frp":0.92,"daynight":"N"},"geometry":{"type":"Point","coordinates":[-122.20052,40.07679]}},{"type":"Feature","properties":{"acq_date":"2026-09-23","acq_time":956,"confidence":"n","satellite":"N","instrument":"VIIRS","version":"2.0NRT","bright_ti4":301.83,"frp":0.92,"daynight":"N"},"geometry":{"type":"Point","coordinates":[-122.20654,40.07746]}},{"type":"Feature","properties":{"acq_date":"2026-09-23","acq_time":956,"confidence":"n","satellite":"N","instrument":"VIIRS","version":"2.0NRT","bright_ti4":302.53,"frp":1.24,"daynight":"N"},"geometry":{"type":"Point","coordinates":[-119.9734,40.95187]}},{"type":"Feature","properties":{"acq_date":"2026-09-23","acq_time":956,"confidence":"n","satellite":"N","instrument":"VIIRS","version":"2.0NRT","bright_ti4":301.54,"frp":1.3,"daynight":"N"},"geometry":{"type":"Point","coordinates":[-119.97183,40.95192]}},{"type":"Feature","properties":{"acq_date":"2026-09-23","acq_time":958,"confidence":"n","satellite":"N","instrument":"VIIRS","version":"2.0NRT","bright_ti4":309.5,"frp":1.29,"daynight":"N"},"geometry":{"type":"Point","coordinates":[-116.83624,32.49757]}},{"type":"Feature","properties":{"acq_date":"2026-09-23","acq_time":958,"confidence":"n","satellite":"N","instrument":"VIIRS","version":"2.0NRT","bright_ti4":304.54,"frp":0.47,"daynight":"N"},"geometry":{"type":"Point","coordinates":[-117.00969,32.59823]}}]}