{"type":"FeatureCollection","name":"FIRMS VIIRS CA (last 1 day)","crs":{"type":"name","properties":{"name":"EPSG:4326"}},"fetched_at_utc":"2026-09-20T17:20:44.211Z","source":{"url":"https://firms.modaps.eosdis.nasa.gov/api/area/csv/8c4af552cf654445dd280dfb3ad9337c/VIIRS_SNPP_NRT/-125,32,-113,43.5/1","dataset":"VIIRS_SNPP_NRT","bbox":"-125,32,-113,43.5","day_range":"1"},"features":[{"type":"Feature","properties":{"acq_date":"2026-09-20","acq_time":909,"confidence":"n","satellite":"N","instrument":"VIIRS","version":"2.0NRT","bright_ti4":301.88,"frp":0.56,"daynight":"N"},"geometry":{"type":"Point","coordinates":[-119.26331,39.62243]}},{"type":"Feature","properties":{"acq_date":"2026-09-20","acq_time":909,"confidence":"n","satellite":"N","instrument":"VIIRS","version":"2.0NRT","bright_ti4":307.19,"frp":2.14,"daynight":"N"},"geometry":{"type":"Point","coordinates":[-114.25436,40.82271]}},{"type":"Feature","properties":{"acq_date":"2026-09-20","acq_time":911,"confidence":"n","satellite":"N","instrument":"VIIRS","version":"2.0NRT","bright_ti4":298.71,"frp":1.07,"daynight":"N"},"geometry":{"type":"Point","coordinates":[-117.47533,33.79242]}},{"type":"Feature","properties":{"acq_date":"2026-09-20","acq_time":911,"confidence":"n","satellite":"N","instrument":"VIIRS","version":"2.0NRT","bright_ti4":301.21,"frp":0.77,"daynight":"N"},"geometry":{"type":"Point","coordinates":[-117.47413,33.79302]}},{"type":"Feature","properties":{"acq_date":"2026-09-20","acq_time":911,"confidence":"n","satellite":"N","instrument":"VIIRS","version":"2.0NRT","bright_ti4":300.05,"frp":0.97,"daynight":"N"},"geometry":{"type":"Point","coordinates":[-118.23685,33.81743]}},{"type":"Feature","properties":{"acq_date":"2026-09-20","acq_time":911,"confidence":"n","satellite":"N","instrument":"VIIRS","version":"2.0NRT","bright_ti4":306.04,"frp":1.11,"daynight":"N"},"geometry":{"type":"Point","coordinates":[-118.33259,33.8511]}},{"type":"Feature","properties":{"acq_date":"2026-09-20","acq_time":911,"confidence":"n","satellite":"N","instrument":"VIIRS","version":"2.0NRT","bright_ti4":303.1,"frp":1.32,"daynight":"N"},"geometry":{"type":"Point","coordinates":[-118.33421,33.85538]}},{"type":"Feature","properties":{"acq_date":"2026-09-20","acq_time":911,"confidence":"n","satellite":"N","instrument":"VIIRS","version":"2.0NRT","bright_ti4":302.84,"frp":0.51,"daynight":"N"},"geometry":{"type":"Point","coordinates":[-118.19577,34.15092]}},{"type":"Feature","properties":{"acq_date":"2026-09-20","acq_time":911,"confidence":"n","satellite":"N","instrument":"VIIRS","version":"2.0NRT","bright_ti4":301.37,"frp":0.43,"daynight":"N"},"geometry":{"type":"Point","coordinates":[-118.19659,34.151]}},{"type":"Feature","properties":{"acq_date":"2026-09-20","acq_time":911,"confidence":"n","satellite":"N","instrument":"VIIRS","version":"2.0NRT","bright_ti4":303.77,"frp":0.51,"daynight":"N"},"geometry":{"type":"Point","coordinates":[-118.19425,34.1561]}},{"type":"Feature","properties":{"acq_date":"2026-09-20","acq_time":911,"confidence":"n","satellite":"N","instrument":"VIIRS","version":"2.0NRT","bright_ti4":300.06,"frp":0.43,"daynight":"N"},"geometry":{"type":"Point","coordinates":[-118.1951,34.15616]}},{"type":"Feature","properties":{"acq_date":"2026-09-20","acq_time":911,"confidence":"n","satellite":"N","instrument":"VIIRS","version":"2.0NRT","bright_ti4":303.08,"frp":0.72,"daynight":"N"},"geometry":{"type":"Point","coordinates":[-118.52001,34.33688]}},{"type":"Feature","properties":{"acq_date":"2026-09-20","acq_time":911,"confidence":"n","satellite":"N","instrument":"VIIRS","version":"2.0NRT","bright_ti4":297.87,"frp":0.46,"daynight":"N"},"geometry":{"type":"Point","coordinates":[-118.64544,34.42946]}},{"type":"Feature","properties":{"acq_date":"2026-09-20","acq_time":911,"confidence":"n","satellite":"N","instrument":"VIIRS","version":"2.0NRT","bright_ti4":303.36,"frp":2.56,"daynight":"N"},"geometry":{"type":"Point","coordinates":[-117.34039,34.60635]}},{"type":"Feature","properties":{"acq_date":"2026-09-20","acq_time":911,"confidence":"n","satellite":"N","instrument":"VIIRS","version":"2.0NRT","bright_ti4":299.69,"frp":1.06,"daynight":"N"},"geometry":{"type":"Point","coordinates":[-117.3337,34.60649]}},{"type":"Feature","properties":{"acq_date":"2026-09-20","acq_time":911,"confidence":"n","satellite":"N","instrument":"VIIRS","version":"2.0NRT","bright_ti4":299.35,"frp":0.66,"daynight":"N"},"geometry":{"type":"Point","coordinates":[-117.34097,34.60707]}},{"type":"Feature","properties":{"acq_date":"2026-09-20","acq_time":911,"confidence":"n","satellite":"N","instrument":"VIIRS","version":"2.0NRT","bright_ti4":298.39,"frp":1.18,"daynight":"N"},"geometry":{"type":"Point","coordinates":[-117.10116,34.62328]}},{"type":"Feature","properties":{"acq_date":"2026-09-20","acq_time":911,"confidence":"n","satellite":"N","instrument":"VIIRS","version":"2.0NRT","bright_ti4":302.1,"frp":0.75,"daynight":"N"},"geometry":{"type":"Point","coordinates":[-118.75043,34.81828]}},{"type":"Feature","properties":{"acq_date":"2026-09-20","acq_time":911,"confidence":"n","satellite":"N","instrument":"VIIRS","version":"2.0NRT","bright_ti4":295.99,"frp":0.7,"daynight":"N"},"geometry":{"type":"Point","coordinates":[-113.94663,35.26578]}},{"type":"Feature","properties":{"acq_date":"2026-09-20","acq_time":911,"confidence":"n","satellite":"N","instrument":"VIIRS","version":"2.0NRT","bright_ti4":309.86,"frp":1.55,"daynight":"N"},"geometry":{"type":"Point","coordinates":[-113.31267,35.51558]}},{"type":"Feature","properties":{"acq_date":"2026-09-20","acq_time":911,"confidence":"n","satellite":"N","instrument":"VIIRS","version":"2.0NRT","bright_ti4":313.67,"frp":1.58,"daynight":"N"},"geometry":{"type":"Point","coordinates":[-113.31484,35.51648]}},{"type":"Feature","properties":{"acq_date":"2026-09-20","acq_time":911,"confidence":"n","satellite":"N","instrument":"VIIRS","version":"2.0NRT","bright_ti4":302.06,"frp":1.65,"daynight":"N"},"geometry":{"type":"Point","coordinates":[-114.91388,36.3592]}},{"type":"Feature","properties":{"acq_date":"2026-09-20","acq_time":911,"confidence":"n","satellite":"N","instrument":"VIIRS","version":"2.0NRT","bright_ti4":302.86,"frp":0.7,"daynight":"N"},"geometry":{"type":"Point","coordinates":[-114.87803,36.38281]}},{"type":"Feature","properties":{"acq_date":"2026-09-20","acq_time":911,"confidence":"n","satellite":"N","instrument":"VIIRS","version":"2.0NRT","bright_ti4":296.42,"frp":2.58,"daynight":"N"},"geometry":{"type":"Point","coordinates":[-119.59836,37.58477]}},{"type":"Feature","properties":{"acq_date":"2026-09-20","acq_time":911,"confidence":"n","satellite":"N","instrument":"VIIRS","version":"2.0NRT","bright_ti4":303.29,"frp":2.88,"daynight":"N"},"geometry":{"type":"Point","coordinates":[-119.59454,37.58523]}},{"type":"Feature","properties":{"acq_date":"2026-09-20","acq_time":911,"confidence":"n","satellite":"N","instrument":"VIIRS","version":"2.0NRT","bright_ti4":318.73,"frp":2.58,"daynight":"N"},"geometry":{"type":"Point","coordinates":[-119.59231,37.59035]}},{"type":"Feature","properties":{"acq_date":"2026-09-20","acq_time":911,"confidence":"n","satellite":"N","instrument":"VIIRS","version":"2.0NRT","bright_ti4":321.24,"frp":2.58,"daynight":"N"},"geometry":{"type":"Point","coordinates":[-119.59728,37.59058]}},{"type":"Feature","properties":{"acq_date":"2026-09-20","acq_time":911,"confidence":"n","satellite":"N","instrument":"VIIRS","version":"2.0NRT","bright_ti4":323.72,"frp":2.99,"daynight":"N"},"geometry":{"type":"Point","coordinates":[-119.60191,37.59079]}},{"type":"Feature","properties":{"acq_date":"2026-09-20","acq_time":911,"confidence":"n","satellite":"N","instrument":"VIIRS","version":"2.0NRT","bright_ti4":334.66,"frp":2.88,"daynight":"N"},"geometry":{"type":"Point","coordinates":[-119.59336,37.59102]}},{"type":"Feature","properties":{"acq_date":"2026-09-20","acq_time":911,"confidence":"n","satellite":"N","instrument":"VIIRS","version":"2.0NRT","bright_ti4":295.31,"frp":2.99,"daynight":"N"},"geometry":{"type":"Point","coordinates":[-119.60706,37.59103]}},{"type":"Feature","properties":{"acq_date":"2026-09-20","acq_time":911,"confidence":"n","satellite":"N","instrument":"VIIRS","version":"2.0NRT","bright_ti4":309.88,"frp":4.47,"daynight":"N"},"geometry":{"type":"Point","coordinates":[-119.59828,37.59127]}},{"type":"Feature","properties":{"acq_date":"2026-09-20","acq_time":911,"confidence":"n","satellite":"N","instrument":"VIIRS","version":"2.0NRT","bright_ti4":323.94,"frp":4.47,"daynight":"N"},"geometry":{"type":"Point","coordinates":[-119.60291,37.59151]}},{"type":"Feature","properties":{"acq_date":"2026-09-20","acq_time":911,"confidence":"n","satellite":"N","instrument":"VIIRS","version":"2.0NRT","bright_ti4":319.91,"frp":3.83,"daynight":"N"},"geometry":{"type":"Point","coordinates":[-119.5907,37.59614]}},{"type":"Feature","properties":{"acq_date":"2026-09-20","acq_time":911,"confidence":"n","satellite":"N","instrument":"VIIRS","version":"2.0NRT","bright_ti4":333.99,"frp":3.83,"daynight":"N"},"geometry":{"type":"Point","coordinates":[-119.59666,37.59641]}},{"type":"Feature","properties":{"acq_date":"2026-09-20","acq_time":911,"confidence":"n","satellite":"N","instrument":"VIIRS","version":"2.0NRT","bright_ti4":303.87,"frp":3.91,"daynight":"N"},"geometry":{"type":"Point","coordinates":[-119.60127,37.59662]}},{"type":"Feature","properties":{"acq_date":"2026-09-20","acq_time":911,"confidence":"n","satellite":"N","instrument":"VIIRS","version":"2.0NRT","bright_ti4":329.6,"frp":3.91,"daynight":"N"},"geometry":{"type":"Point","coordinates":[-119.59189,37.5968]}},{"type":"Feature","properties":{"acq_date":"2026-09-20","acq_time":911,"confidence":"n","satellite":"N","instrument":"VIIRS","version":"2.0NRT","bright_ti4":302.33,"frp":2.69,"daynight":"N"},"geometry":{"type":"Point","coordinates":[-119.61166,37.59709]}},{"type":"Feature","properties":{"acq_date":"2026-09-20","acq_time":911,"confidence":"n","satellite":"N","instrument":"VIIRS","version":"2.0NRT","bright_ti4":330.77,"frp":3.67,"daynight":"N"},"geometry":{"type":"Point","coordinates":[-119.59758,37.5971]}},{"type":"Feature","properties":{"acq_date":"2026-09-20","acq_time":911,"confidence":"n","satellite":"N","instrument":"VIIRS","version":"2.0NRT","bright_ti4":300.19,"frp":3.67,"daynight":"N"},"geometry":{"type":"Point","coordinates":[-119.60235,37.59734]}},{"type":"Feature","properties":{"acq_date":"2026-09-20","acq_time":911,"confidence":"n","satellite":"N","instrument":"VIIRS","version":"2.0NRT","bright_ti4":300.12,"frp":3.63,"daynight":"N"},"geometry":{"type":"Point","coordinates":[-119.60746,37.5976]}},{"type":"Feature","properties":{"acq_date":"2026-09-20","acq_time":911,"confidence":"n","satellite":"N","instrument":"VIIRS","version":"2.0NRT","bright_ti4":304.43,"frp":3.63,"daynight":"N"},"geometry":{"type":"Point","coordinates":[-119.61292,37.59788]}},{"type":"Feature","properties":{"acq_date":"2026-09-20","acq_time":911,"confidence":"n","satellite":"N","instrument":"VIIRS","version":"2.0NRT","bright_ti4":326.83,"frp":3.83,"daynight":"N"},"geometry":{"type":"Point","coordinates":[-119.59455,37.60218]}},{"type":"Feature","properties":{"acq_date":"2026-09-20","acq_time":911,"confidence":"n","satellite":"N","instrument":"VIIRS","version":"2.0NRT","bright_ti4":298.43,"frp":3.91,"daynight":"N"},"geometry":{"type":"Point","coordinates":[-119.60037,37.60244]}},{"type":"Feature","properties":{"acq_date":"2026-09-20","acq_time":911,"confidence":"n","satellite":"N","instrument":"VIIRS","version":"2.0NRT","bright_ti4":309.49,"frp":3.91,"daynight":"N"},"geometry":{"type":"Point","coordinates":[-119.58994,37.60256]}},{"type":"Feature","properties":{"acq_date":"2026-09-20","acq_time":911,"confidence":"n","satellite":"N","instrument":"VIIRS","version":"2.0NRT","bright_ti4":334.97,"frp":3.91,"daynight":"N"},"geometry":{"type":"Point","coordinates":[-119.60634,37.60271]}},{"type":"Feature","properties":{"acq_date":"2026-09-20","acq_time":911,"confidence":"n","satellite":"N","instrument":"VIIRS","version":"2.0NRT","bright_ti4":318.19,"frp":3.67,"daynight":"N"},"geometry":{"type":"Point","coordinates":[-119.59574,37.60286]}},{"type":"Feature","properties":{"acq_date":"2026-09-20","acq_time":911,"confidence":"n","satellite":"N","instrument":"VIIRS","version":"2.0NRT","bright_ti4":319.89,"frp":2.69,"daynight":"N"},"geometry":{"type":"Point","coordinates":[-119.61237,37.60298]}},{"type":"Feature","properties":{"acq_date":"2026-09-20","acq_time":911,"confidence":"n","satellite":"N","instrument":"VIIRS","version":"2.0NRT","bright_ti4":301.11,"frp":3.67,"daynight":"N"},"geometry":{"type":"Point","coordinates":[-119.60174,37.60316]}},{"type":"Feature","properties":{"acq_date":"2026-09-20","acq_time":911,"confidence":"n","satellite":"N","instrument":"VIIRS","version":"2.0NRT","bright_ti4":302.33,"frp":2.69,"daynight":"N"},"geometry":{"type":"Point","coordinates":[-119.61921,37.60329]}},{"type":"Feature","properties":{"acq_date":"2026-09-20","acq_time":911,"confidence":"n","satellite":"N","instrument":"VIIRS","version":"2.0NRT","bright_ti4":349.97,"frp":3.63,"daynight":"N"},"geometry":{"type":"Point","coordinates":[-119.6077,37.60347]}},{"type":"Feature","properties":{"acq_date":"2026-09-20","acq_time":911,"confidence":"n","satellite":"N","instrument":"VIIRS","version":"2.0NRT","bright_ti4":313.66,"frp":3.63,"daynight":"N"},"geometry":{"type":"Point","coordinates":[-119.61396,37.6038]}},{"type":"Feature","properties":{"acq_date":"2026-09-20","acq_time":911,"confidence":"n","satellite":"N","instrument":"VIIRS","version":"2.0NRT","bright_ti4":298.91,"frp":2.98,"daynight":"N"},"geometry":{"type":"Point","coordinates":[-119.62105,37.60416]}},{"type":"Feature","properties":{"acq_date":"2026-09-20","acq_time":911,"confidence":"n","satellite":"N","instrument":"VIIRS","version":"2.0NRT","bright_ti4":300.48,"frp":3.16,"daynight":"N"},"geometry":{"type":"Point","coordinates":[-119.5881,37.60773]}},{"type":"Feature","properties":{"acq_date":"2026-09-20","acq_time":911,"confidence":"n","satellite":"N","instrument":"VIIRS","version":"2.0NRT","bright_ti4":329.76,"frp":3.16,"daynight":"N"},"geometry":{"type":"Point","coordinates":[-119.59364,37.60799]}},{"type":"Feature","properties":{"acq_date":"2026-09-20","acq_time":911,"confidence":"n","satellite":"N","instrument":"VIIRS","version":"2.0NRT","bright_ti4":342.41,"frp":6.07,"daynight":"N"},"geometry":{"type":"Point","coordinates":[-119.60565,37.60854]}},{"type":"Feature","properties":{"acq_date":"2026-09-20","acq_time":911,"confidence":"n","satellite":"N","instrument":"VIIRS","version":"2.0NRT","bright_ti4":330.34,"frp":4.3,"daynight":"N"},"geometry":{"type":"Point","coordinates":[-119.61235,37.60884]}},{"type":"Feature","properties":{"acq_date":"2026-09-20","acq_time":911,"confidence":"n","satellite":"N","instrument":"VIIRS","version":"2.0NRT","bright_ti4":297.59,"frp":4.3,"daynight":"N"},"geometry":{"type":"Point","coordinates":[-119.61992,37.60918]}},{"type":"Feature","properties":{"acq_date":"2026-09-20","acq_time":911,"confidence":"n","satellite":"N","instrument":"VIIRS","version":"2.0NRT","bright_ti4":339.68,"frp":6.07,"daynight":"N"},"geometry":{"type":"Point","coordinates":[-119.59937,37.61411]}},{"type":"Feature","properties":{"acq_date":"2026-09-20","acq_time":911,"confidence":"n","satellite":"N","instrument":"VIIRS","version":"2.0NRT","bright_ti4":327.58,"frp":6.07,"daynight":"N"},"geometry":{"type":"Point","coordinates":[-119.60537,37.61438]}},{"type":"Feature","properties":{"acq_date":"2026-09-20","acq_time":911,"confidence":"n","satellite":"N","instrument":"VIIRS","version":"2.0NRT","bright_ti4":319.74,"frp":4.3,"daynight":"N"},"geometry":{"type":"Point","coordinates":[-119.61202,37.61469]}},{"type":"Feature","properties":{"acq_date":"2026-09-20","acq_time":911,"confidence":"n","satellite":"N","instrument":"VIIRS","version":"2.0NRT","bright_ti4":334,"frp":4.3,"daynight":"N"},"geometry":{"type":"Point","coordinates":[-119.61949,37.61503]}},{"type":"Feature","properties":{"acq_date":"2026-09-20","acq_time":911,"confidence":"n","satellite":"N","instrument":"VIIRS","version":"2.0NRT","bright_ti4":297.03,"frp":7.3,"daynight":"N"},"geometry":{"type":"Point","coordinates":[-119.59433,37.61973]}},{"type":"Feature","properties":{"acq_date":"2026-09-20","acq_time":911,"confidence":"h","satellite":"N","instrument":"VIIRS","version":"2.0NRT","bright_ti4":367,"frp":33.22,"daynight":"N"},"geometry":{"type":"Point","coordinates":[-119.60046,37.62001]}},{"type":"Feature","properties":{"acq_date":"2026-09-20","acq_time":911,"confidence":"h","satellite":"N","instrument":"VIIRS","version":"2.0NRT","bright_ti4":367,"frp":33.22,"daynight":"N"},"geometry":{"type":"Point","coordinates":[-119.6062,37.62028]}},{"type":"Feature","properties":{"acq_date":"2026-09-20","acq_time":911,"confidence":"h","satellite":"N","instrument":"VIIRS","version":"2.0NRT","bright_ti4":367,"frp":16.44,"daynight":"N"},"geometry":{"type":"Point","coordinates":[-119.61185,37.62054]}},{"type":"Feature","properties":{"acq_date":"2026-09-20","acq_time":911,"confidence":"n","satellite":"N","instrument":"VIIRS","version":"2.0NRT","bright_ti4":309.82,"frp":16.44,"daynight":"N"},"geometry":{"type":"Point","coordinates":[-119.6184,37.62084]}},{"type":"Feature","properties":{"acq_date":"2026-09-20","acq_time":911,"confidence":"n","satellite":"N","instrument":"VIIRS","version":"2.0NRT","bright_ti4":304.61,"frp":7.3,"daynight":"N"},"geometry":{"type":"Point","coordinates":[-119.59518,37.62562]}},{"type":"Feature","properties":{"acq_date":"2026-09-20","acq_time":911,"confidence":"n","satellite":"N","instrument":"VIIRS","version":"2.0NRT","bright_ti4":357.18,"frp":33.22,"daynight":"N"},"geometry":{"type":"Point","coordinates":[-119.60107,37.6259]}},{"type":"Feature","properties":{"acq_date":"2026-09-20","acq_time":911,"confidence":"n","satellite":"N","instrument":"VIIRS","version":"2.0NRT","bright_ti4":357.18,"frp":33.22,"daynight":"N"},"geometry":{"type":"Point","coordinates":[-119.6065,37.62615]}},{"type":"Feature","properties":{"acq_date":"2026-09-20","acq_time":911,"confidence":"n","satellite":"N","instrument":"VIIRS","version":"2.0NRT","bright_ti4":356.98,"frp":16.44,"daynight":"N"},"geometry":{"type":"Point","coordinates":[-119.61154,37.62639]}},{"type":"Feature","properties":{"acq_date":"2026-09-20","acq_time":911,"confidence":"n","satellite":"N","instrument":"VIIRS","version":"2.0NRT","bright_ti4":300.55,"frp":16.44,"daynight":"N"},"geometry":{"type":"Point","coordinates":[-119.61674,37.62663]}},{"type":"Feature","properties":{"acq_date":"2026-09-20","acq_time":911,"confidence":"n","satellite":"N","instrument":"VIIRS","version":"2.0NRT","bright_ti4":343.38,"frp":6.85,"daynight":"N"},"geometry":{"type":"Point","coordinates":[-119.60126,37.63177]}},{"type":"Feature","properties":{"acq_date":"2026-09-20","acq_time":913,"confidence":"n","satellite":"N","instrument":"VIIRS","version":"2.0NRT","bright_ti4":340.51,"frp":9.68,"daynight":"N"},"geometry":{"type":"Point","coordinates":[-114.76145,32.71215]}},{"type":"Feature","properties":{"acq_date":"2026-09-20","acq_time":913,"confidence":"n","satellite":"N","instrument":"VIIRS","version":"2.0NRT","bright_ti4":340.38,"frp":6.69,"daynight":"N"},"geometry":{"type":"Point","coordinates":[-114.76077,32.71635]}},{"type":"Feature","properties":{"acq_date":"2026-09-20","acq_time":1051,"confidence":"n","satellite":"N","instrument":"VIIRS","version":"2.0NRT","bright_ti4":297.46,"frp":0.96,"daynight":"N"},"geometry":{"type":"Point","coordinates":[-117.33602,34.60662]}},{"type":"Feature","properties":{"acq_date":"2026-09-20","acq_time":1051,"confidence":"n","satellite":"N","instrument":"VIIRS","version":"2.0NRT","bright_ti4":297.25,"frp":0.9,"daynight":"N"},"geometry":{"type":"Point","coordinates":[-117.33705,34.61008]}},{"type":"Feature","properties":{"acq_date":"2026-09-20","acq_time":1051,"confidence":"n","satellite":"N","instrument":"VIIRS","version":"2.0NRT","bright_ti4":297.64,"frp":0.78,"daynight":"N"},"geometry":{"type":"Point","coordinates":[-119.62158,37.58158]}},{"type":"Feature","properties":{"acq_date":"2026-09-20","acq_time":1051,"confidence":"n","satellite":"N","instrument":"VIIRS","version":"2.0NRT","bright_ti4":296.19,"frp":2.23,"daynight":"N"},"geometry":{"type":"Point","coordinates":[-119.59652,37.58663]}},{"type":"Feature","properties":{"acq_date":"2026-09-20","acq_time":1051,"confidence":"n","satellite":"N","instrument":"VIIRS","version":"2.0NRT","bright_ti4":300.86,"frp":2,"daynight":"N"},"geometry":{"type":"Point","coordinates":[-119.60142,37.58795]}},{"type":"Feature","properties":{"acq_date":"2026-09-20","acq_time":1051,"confidence":"n","satellite":"N","instrument":"VIIRS","version":"2.0NRT","bright_ti4":307.34,"frp":4.48,"daynight":"N"},"geometry":{"type":"Point","coordinates":[-119.59283,37.59143]}},{"type":"Feature","properties":{"acq_date":"2026-09-20","acq_time":1051,"confidence":"n","satellite":"N","instrument":"VIIRS","version":"2.0NRT","bright_ti4":331.42,"frp":2.23,"daynight":"N"},"geometry":{"type":"Point","coordinates":[-119.59455,37.59201]}},{"type":"Feature","properties":{"acq_date":"2026-09-20","acq_time":1051,"confidence":"n","satellite":"N","instrument":"VIIRS","version":"2.0NRT","bright_ti4":327.31,"frp":4.48,"daynight":"N"},"geometry":{"type":"Point","coordinates":[-119.59744,37.59271]}},{"type":"Feature","properties":{"acq_date":"2026-09-20","acq_time":1051,"confidence":"n","satellite":"N","instrument":"VIIRS","version":"2.0NRT","bright_ti4":312.36,"frp":2,"daynight":"N"},"geometry":{"type":"Point","coordinates":[-119.59924,37.59327]}},{"type":"Feature","properties":{"acq_date":"2026-09-20","acq_time":1051,"confidence":"n","satellite":"N","instrument":"VIIRS","version":"2.0NRT","bright_ti4":309.05,"frp":3.39,"daynight":"N"},"geometry":{"type":"Point","coordinates":[-119.6022,37.59403]}},{"type":"Feature","properties":{"acq_date":"2026-09-20","acq_time":1051,"confidence":"n","satellite":"N","instrument":"VIIRS","version":"2.0NRT","bright_ti4":298.35,"frp":2,"daynight":"N"},"geometry":{"type":"Point","coordinates":[-119.60399,37.59456]}},{"type":"Feature","properties":{"acq_date":"2026-09-20","acq_time":1051,"confidence":"n","satellite":"N","instrument":"VIIRS","version":"2.0NRT","bright_ti4":308.1,"frp":3.99,"daynight":"N"},"geometry":{"type":"Point","coordinates":[-119.58888,37.59639]}},{"type":"Feature","properties":{"acq_date":"2026-09-20","acq_time":1051,"confidence":"n","satellite":"N","instrument":"VIIRS","version":"2.0NRT","bright_ti4":343.84,"frp":4.48,"daynight":"N"},"geometry":{"type":"Point","coordinates":[-119.59149,37.597]}},{"type":"Feature","properties":{"acq_date":"2026-09-20","acq_time":1051,"confidence":"n","satellite":"N","instrument":"VIIRS","version":"2.0NRT","bright_ti4":354.27,"frp":3.99,"daynight":"N"},"geometry":{"type":"Point","coordinates":[-119.59305,37.59752]}},{"type":"Feature","properties":{"acq_date":"2026-09-20","acq_time":1051,"confidence":"n","satellite":"N","instrument":"VIIRS","version":"2.0NRT","bright_ti4":343.95,"frp":4.48,"daynight":"N"},"geometry":{"type":"Point","coordinates":[-119.59567,37.59815]}},{"type":"Feature","properties":{"acq_date":"2026-09-20","acq_time":1051,"confidence":"n","satellite":"N","instrument":"VIIRS","version":"2.0NRT","bright_ti4":338.38,"frp":4.17,"daynight":"N"},"geometry":{"type":"Point","coordinates":[-119.59731,37.59867]}},{"type":"Feature","properties":{"acq_date":"2026-09-20","acq_time":1051,"confidence":"n","satellite":"N","instrument":"VIIRS","version":"2.0NRT","bright_ti4":321.4,"frp":3.39,"daynight":"N"},"geometry":{"type":"Point","coordinates":[-119.60005,37.59936]}},{"type":"Feature","properties":{"acq_date":"2026-09-20","acq_time":1051,"confidence":"n","satellite":"N","instrument":"VIIRS","version":"2.0NRT","bright_ti4":296.05,"frp":4.17,"daynight":"N"},"geometry":{"type":"Point","coordinates":[-119.60171,37.59985]}},{"type":"Feature","properties":{"acq_date":"2026-09-20","acq_time":1051,"confidence":"n","satellite":"N","instrument":"VIIRS","version":"2.0NRT","bright_ti4":296,"frp":3.39,"daynight":"N"},"geometry":{"type":"Point","coordinates":[-119.60429,37.60054]}},{"type":"Feature","properties":{"acq_date":"2026-09-20","acq_time":1051,"confidence":"n","satellite":"N","instrument":"VIIRS","version":"2.0NRT","bright_ti4":308.35,"frp":5.94,"daynight":"N"},"geometry":{"type":"Point","coordinates":[-119.60589,37.60098]}},{"type":"Feature","properties":{"acq_date":"2026-09-20","acq_time":1051,"confidence":"n","satellite":"N","instrument":"VIIRS","version":"2.0NRT","bright_ti4":319.85,"frp":2.78,"daynight":"N"},"geometry":{"type":"Point","coordinates":[-119.60831,37.60164]}},{"type":"Feature","properties":{"acq_date":"2026-09-20","acq_time":1051,"confidence":"n","satellite":"N","instrument":"VIIRS","version":"2.0NRT","bright_ti4":317.67,"frp":5.94,"daynight":"N"},"geometry":{"type":"Point","coordinates":[-119.60981,37.60204]}},{"type":"Feature","properties":{"acq_date":"2026-09-20","acq_time":1051,"confidence":"n","satellite":"N","instrument":"VIIRS","version":"2.0NRT","bright_ti4":309.15,"frp":1.72,"daynight":"N"},"geometry":{"type":"Point","coordinates":[-119.59037,37.60262]}},{"type":"Feature","properties":{"acq_date":"2026-09-20","acq_time":1051,"confidence":"n","satellite":"N","instrument":"VIIRS","version":"2.0NRT","bright_ti4":311.13,"frp":2.78,"daynight":"N"},"geometry":{"type":"Point","coordinates":[-119.61213,37.6027]}},{"type":"Feature","properties":{"acq_date":"2026-09-20","acq_time":1051,"confidence":"n","satellite":"N","instrument":"VIIRS","version":"2.0NRT","bright_ti4":306.02,"frp":4.77,"daynight":"N"},"geometry":{"type":"Point","coordinates":[-119.61356,37.60305]}},{"type":"Feature","properties":{"acq_date":"2026-09-20","acq_time":1051,"confidence":"n","satellite":"N","instrument":"VIIRS","version":"2.0NRT","bright_ti4":304.56,"frp":3.99,"daynight":"N"},"geometry":{"type":"Point","coordinates":[-119.59191,37.60313]}},{"type":"Feature","properties":{"acq_date":"2026-09-20","acq_time":1051,"confidence":"n","satellite":"N","instrument":"VIIRS","version":"2.0NRT","bright_ti4":306.19,"frp":3.16,"daynight":"N"},"geometry":{"type":"Point","coordinates":[-119.61565,37.60367]}},{"type":"Feature","properties":{"acq_date":"2026-09-20","acq_time":1051,"confidence":"n","satellite":"N","instrument":"VIIRS","version":"2.0NRT","bright_ti4":300.03,"frp":1.72,"daynight":"N"},"geometry":{"type":"Point","coordinates":[-119.59447,37.60375]}},{"type":"Feature","properties":{"acq_date":"2026-09-20","acq_time":1051,"confidence":"n","satellite":"N","instrument":"VIIRS","version":"2.0NRT","bright_ti4":299.99,"frp":4.77,"daynight":"N"},"geometry":{"type":"Point","coordinates":[-119.617,37.60398]}},{"type":"Feature","properties":{"acq_date":"2026-09-20","acq_time":1051,"confidence":"n","satellite":"N","instrument":"VIIRS","version":"2.0NRT","bright_ti4":310.02,"frp":4.17,"daynight":"N"},"geometry":{"type":"Point","coordinates":[-119.59601,37.60423]}},{"type":"Feature","properties":{"acq_date":"2026-09-20","acq_time":1051,"confidence":"n","satellite":"N","instrument":"VIIRS","version":"2.0NRT","bright_ti4":304.42,"frp":3.48,"daynight":"N"},"geometry":{"type":"Point","coordinates":[-119.59844,37.60484]}},{"type":"Feature","properties":{"acq_date":"2026-09-20","acq_time":1051,"confidence":"n","satellite":"N","instrument":"VIIRS","version":"2.0NRT","bright_ti4":297.85,"frp":1.01,"daynight":"N"},"geometry":{"type":"Point","coordinates":[-119.62042,37.60491]}},{"type":"Feature","properties":{"acq_date":"2026-09-20","acq_time":1051,"confidence":"n","satellite":"N","instrument":"VIIRS","version":"2.0NRT","bright_ti4":303.3,"frp":1.09,"daynight":"N"},"geometry":{"type":"Point","coordinates":[-119.62248,37.60555]}},{"type":"Feature","properties":{"acq_date":"2026-09-20","acq_time":1051,"confidence":"n","satellite":"N","instrument":"VIIRS","version":"2.0NRT","bright_ti4":299.99,"frp":1.01,"daynight":"N"},"geometry":{"type":"Point","coordinates":[-119.62383,37.60583]}},{"type":"Feature","properties":{"acq_date":"2026-09-20","acq_time":1051,"confidence":"n","satellite":"N","instrument":"VIIRS","version":"2.0NRT","bright_ti4":302.41,"frp":3.48,"daynight":"N"},"geometry":{"type":"Point","coordinates":[-119.60228,37.6059]}},{"type":"Feature","properties":{"acq_date":"2026-09-20","acq_time":1051,"confidence":"n","satellite":"N","instrument":"VIIRS","version":"2.0NRT","bright_ti4":329.91,"frp":5.94,"daynight":"N"},"geometry":{"type":"Point","coordinates":[-119.60373,37.60631]}},{"type":"Feature","properties":{"acq_date":"2026-09-20","acq_time":1051,"confidence":"n","satellite":"N","instrument":"VIIRS","version":"2.0NRT","bright_ti4":297.86,"frp":1.09,"daynight":"N"},"geometry":{"type":"Point","coordinates":[-119.62595,37.60651]}},{"type":"Feature","properties":{"acq_date":"2026-09-20","acq_time":1051,"confidence":"h","satellite":"N","instrument":"VIIRS","version":"2.0NRT","bright_ti4":367,"frp":9.26,"daynight":"N"},"geometry":{"type":"Point","coordinates":[-119.60611,37.60695]}},{"type":"Feature","properties":{"acq_date":"2026-09-20","acq_time":1051,"confidence":"h","satellite":"N","instrument":"VIIRS","version":"2.0NRT","bright_ti4":367,"frp":5.94,"daynight":"N"},"geometry":{"type":"Point","coordinates":[-119.60757,37.60734]}},{"type":"Feature","properties":{"acq_date":"2026-09-20","acq_time":1051,"confidence":"h","satellite":"N","instrument":"VIIRS","version":"2.0NRT","bright_ti4":367,"frp":9.26,"daynight":"N"},"geometry":{"type":"Point","coordinates":[-119.60988,37.60799]}},{"type":"Feature","properties":{"acq_date":"2026-09-20","acq_time":1051,"confidence":"n","satellite":"N","instrument":"VIIRS","version":"2.0NRT","bright_ti4":333.55,"frp":4.77,"daynight":"N"},"geometry":{"type":"Point","coordinates":[-119.6113,37.60835]}},{"type":"Feature","properties":{"acq_date":"2026-09-20","acq_time":1051,"confidence":"n","satellite":"N","instrument":"VIIRS","version":"2.0NRT","bright_ti4":317.4,"frp":1.77,"daynight":"N"},"geometry":{"type":"Point","coordinates":[-119.5897,37.60844]}},{"type":"Feature","properties":{"acq_date":"2026-09-20","acq_time":1051,"confidence":"n","satellite":"N","instrument":"VIIRS","version":"2.0NRT","bright_ti4":307.09,"frp":7.27,"daynight":"N"},"geometry":{"type":"Point","coordinates":[-119.61347,37.60899]}},{"type":"Feature","properties":{"acq_date":"2026-09-20","acq_time":1051,"confidence":"n","satellite":"N","instrument":"VIIRS","version":"2.0NRT","bright_ti4":317.63,"frp":1.72,"daynight":"N"},"geometry":{"type":"Point","coordinates":[-119.59235,37.60909]}},{"type":"Feature","properties":{"acq_date":"2026-09-20","acq_time":1051,"confidence":"n","satellite":"N","instrument":"VIIRS","version":"2.0NRT","bright_ti4":296.64,"frp":1.01,"daynight":"N"},"geometry":{"type":"Point","coordinates":[-119.62154,37.61111]}},{"type":"Feature","properties":{"acq_date":"2026-09-20","acq_time":1051,"confidence":"n","satellite":"N","instrument":"VIIRS","version":"2.0NRT","bright_ti4":301.95,"frp":8.55,"daynight":"N"},"geometry":{"type":"Point","coordinates":[-119.60184,37.61171]}},{"type":"Feature","properties":{"acq_date":"2026-09-20","acq_time":1051,"confidence":"n","satellite":"N","instrument":"VIIRS","version":"2.0NRT","bright_ti4":310.97,"frp":6.09,"daynight":"N"},"geometry":{"type":"Point","coordinates":[-119.62365,37.6118]}},{"type":"Feature","properties":{"acq_date":"2026-09-20","acq_time":1051,"confidence":"n","satellite":"N","instrument":"VIIRS","version":"2.0NRT","bright_ti4":306.26,"frp":2.06,"daynight":"N"},"geometry":{"type":"Point","coordinates":[-119.625,37.61205]}},{"type":"Feature","properties":{"acq_date":"2026-09-20","acq_time":1051,"confidence":"n","satellite":"N","instrument":"VIIRS","version":"2.0NRT","bright_ti4":336.44,"frp":9.26,"daynight":"N"},"geometry":{"type":"Point","coordinates":[-119.60419,37.61235]}},{"type":"Feature","properties":{"acq_date":"2026-09-20","acq_time":1051,"confidence":"n","satellite":"N","instrument":"VIIRS","version":"2.0NRT","bright_ti4":353.95,"frp":8.55,"daynight":"N"},"geometry":{"type":"Point","coordinates":[-119.6056,37.61272]}},{"type":"Feature","properties":{"acq_date":"2026-09-20","acq_time":1051,"confidence":"h","satellite":"N","instrument":"VIIRS","version":"2.0NRT","bright_ti4":367,"frp":9.26,"daynight":"N"},"geometry":{"type":"Point","coordinates":[-119.60791,37.61337]}},{"type":"Feature","properties":{"acq_date":"2026-09-20","acq_time":1051,"confidence":"n","satellite":"N","instrument":"VIIRS","version":"2.0NRT","bright_ti4":332.14,"frp":10.02,"daynight":"N"},"geometry":{"type":"Point","coordinates":[-119.60929,37.61372]}},{"type":"Feature","properties":{"acq_date":"2026-09-20","acq_time":1051,"confidence":"n","satellite":"N","instrument":"VIIRS","version":"2.0NRT","bright_ti4":311.63,"frp":7.27,"daynight":"N"},"geometry":{"type":"Point","coordinates":[-119.61147,37.61436]}},{"type":"Feature","properties":{"acq_date":"2026-09-20","acq_time":1051,"confidence":"n","satellite":"N","instrument":"VIIRS","version":"2.0NRT","bright_ti4":325.16,"frp":10.02,"daynight":"N"},"geometry":{"type":"Point","coordinates":[-119.61282,37.61467]}},{"type":"Feature","properties":{"acq_date":"2026-09-20","acq_time":1051,"confidence":"h","satellite":"N","instrument":"VIIRS","version":"2.0NRT","bright_ti4":367,"frp":7.27,"daynight":"N"},"geometry":{"type":"Point","coordinates":[-119.61496,37.61531]}},{"type":"Feature","properties":{"acq_date":"2026-09-20","acq_time":1051,"confidence":"h","satellite":"N","instrument":"VIIRS","version":"2.0NRT","bright_ti4":367,"frp":10,"daynight":"N"},"geometry":{"type":"Point","coordinates":[-119.61626,37.6156]}},{"type":"Feature","properties":{"acq_date":"2026-09-20","acq_time":1051,"confidence":"n","satellite":"N","instrument":"VIIRS","version":"2.0NRT","bright_ti4":349.24,"frp":6.09,"daynight":"N"},"geometry":{"type":"Point","coordinates":[-119.61842,37.61626]}},{"type":"Feature","properties":{"acq_date":"2026-09-20","acq_time":1051,"confidence":"n","satellite":"N","instrument":"VIIRS","version":"2.0NRT","bright_ti4":301.11,"frp":6.46,"daynight":"N"},"geometry":{"type":"Point","coordinates":[-119.59758,37.61646]}},{"type":"Feature","properties":{"acq_date":"2026-09-20","acq_time":1051,"confidence":"n","satellite":"N","instrument":"VIIRS","version":"2.0NRT","bright_ti4":347.83,"frp":10,"daynight":"N"},"geometry":{"type":"Point","coordinates":[-119.61977,37.61654]}},{"type":"Feature","properties":{"acq_date":"2026-09-20","acq_time":1051,"confidence":"n","satellite":"N","instrument":"VIIRS","version":"2.0NRT","bright_ti4":341.2,"frp":8.55,"daynight":"N"},"geometry":{"type":"Point","coordinates":[-119.59898,37.61685]}},{"type":"Feature","properties":{"acq_date":"2026-09-20","acq_time":1051,"confidence":"n","satellite":"N","instrument":"VIIRS","version":"2.0NRT","bright_ti4":331.06,"frp":6.09,"daynight":"N"},"geometry":{"type":"Point","coordinates":[-119.62199,37.61725]}},{"type":"Feature","properties":{"acq_date":"2026-09-20","acq_time":1051,"confidence":"h","satellite":"N","instrument":"VIIRS","version":"2.0NRT","bright_ti4":367,"frp":11.53,"daynight":"N"},"geometry":{"type":"Point","coordinates":[-119.60135,37.61749]}},{"type":"Feature","properties":{"acq_date":"2026-09-20","acq_time":1051,"confidence":"n","satellite":"N","instrument":"VIIRS","version":"2.0NRT","bright_ti4":299.05,"frp":4.46,"daynight":"N"},"geometry":{"type":"Point","coordinates":[-119.62339,37.61752]}},{"type":"Feature","properties":{"acq_date":"2026-09-20","acq_time":1051,"confidence":"h","satellite":"N","instrument":"VIIRS","version":"2.0NRT","bright_ti4":367,"frp":8.55,"daynight":"N"},"geometry":{"type":"Point","coordinates":[-119.60275,37.61787]}},{"type":"Feature","properties":{"acq_date":"2026-09-20","acq_time":1051,"confidence":"n","satellite":"N","instrument":"VIIRS","version":"2.0NRT","bright_ti4":346.13,"frp":11.53,"daynight":"N"},"geometry":{"type":"Point","coordinates":[-119.60511,37.61852]}},{"type":"Feature","properties":{"acq_date":"2026-09-20","acq_time":1051,"confidence":"n","satellite":"N","instrument":"VIIRS","version":"2.0NRT","bright_ti4":345.22,"frp":10.02,"daynight":"N"},"geometry":{"type":"Point","coordinates":[-119.6066,37.6189]}},{"type":"Feature","properties":{"acq_date":"2026-09-20","acq_time":1051,"confidence":"n","satellite":"N","instrument":"VIIRS","version":"2.0NRT","bright_ti4":345.75,"frp":26.41,"daynight":"N"},"geometry":{"type":"Point","coordinates":[-119.6091,37.61963]}},{"type":"Feature","properties":{"acq_date":"2026-09-20","acq_time":1051,"confidence":"h","satellite":"N","instrument":"VIIRS","version":"2.0NRT","bright_ti4":367,"frp":10.02,"daynight":"N"},"geometry":{"type":"Point","coordinates":[-119.61061,37.61998]}},{"type":"Feature","properties":{"acq_date":"2026-09-20","acq_time":1051,"confidence":"h","satellite":"N","instrument":"VIIRS","version":"2.0NRT","bright_ti4":367,"frp":26.41,"daynight":"N"},"geometry":{"type":"Point","coordinates":[-119.61301,37.6207]}},{"type":"Feature","properties":{"acq_date":"2026-09-20","acq_time":1051,"confidence":"n","satellite":"N","instrument":"VIIRS","version":"2.0NRT","bright_ti4":319.51,"frp":10,"daynight":"N"},"geometry":{"type":"Point","coordinates":[-119.61443,37.62101]}},{"type":"Feature","properties":{"acq_date":"2026-09-20","acq_time":1051,"confidence":"n","satellite":"N","instrument":"VIIRS","version":"2.0NRT","bright_ti4":304.47,"frp":11.53,"daynight":"N"},"geometry":{"type":"Point","coordinates":[-119.59835,37.62259]}},{"type":"Feature","properties":{"acq_date":"2026-09-20","acq_time":1051,"confidence":"h","satellite":"N","instrument":"VIIRS","version":"2.0NRT","bright_ti4":367,"frp":11.53,"daynight":"N"},"geometry":{"type":"Point","coordinates":[-119.6022,37.62365]}},{"type":"Feature","properties":{"acq_date":"2026-09-20","acq_time":1051,"confidence":"n","satellite":"N","instrument":"VIIRS","version":"2.0NRT","bright_ti4":352.58,"frp":26.41,"daynight":"N"},"geometry":{"type":"Point","coordinates":[-119.60632,37.62477]}},{"type":"Feature","properties":{"acq_date":"2026-09-20","acq_time":1051,"confidence":"h","satellite":"N","instrument":"VIIRS","version":"2.0NRT","bright_ti4":367,"frp":26.41,"daynight":"N"},"geometry":{"type":"Point","coordinates":[-119.61069,37.62598]}},{"type":"Feature","properties":{"acq_date":"2026-09-20","acq_time":1051,"confidence":"n","satellite":"N","instrument":"VIIRS","version":"2.0NRT","bright_ti4":297.92,"frp":21.25,"daynight":"N"},"geometry":{"type":"Point","coordinates":[-119.61517,37.62721]}},{"type":"Feature","properties":{"acq_date":"2026-09-20","acq_time":1051,"confidence":"h","satellite":"N","instrument":"VIIRS","version":"2.0NRT","bright_ti4":367,"frp":11.8,"daynight":"N"},"geometry":{"type":"Point","coordinates":[-119.59949,37.62882]}},{"type":"Feature","properties":{"acq_date":"2026-09-20","acq_time":1051,"confidence":"h","satellite":"N","instrument":"VIIRS","version":"2.0NRT","bright_ti4":367,"frp":10.12,"daynight":"N"},"geometry":{"type":"Point","coordinates":[-119.60359,37.62995]}},{"type":"Feature","properties":{"acq_date":"2026-09-20","acq_time":1051,"confidence":"n","satellite":"N","instrument":"VIIRS","version":"2.0NRT","bright_ti4":307.78,"frp":10.12,"daynight":"N"},"geometry":{"type":"Point","coordinates":[-119.60815,37.6312]}},{"type":"Feature","properties":{"acq_date":"2026-09-20","acq_time":1051,"confidence":"n","satellite":"N","instrument":"VIIRS","version":"2.0NRT","bright_ti4":304.23,"frp":0.91,"daynight":"N"},"geometry":{"type":"Point","coordinates":[-118.54782,40.18456]}}]}