{"type":"FeatureCollection","name":"FIRMS VIIRS CA (last 1 day)","crs":{"type":"name","properties":{"name":"EPSG:4326"}},"fetched_at_utc":"2026-10-04T18:02:52.287Z","source":{"url":"https://firms.modaps.eosdis.nasa.gov/api/area/csv/8c4af552cf654445dd280dfb3ad9337c/VIIRS_SNPP_NRT/-125,32,-113,43.5/1","dataset":"VIIRS_SNPP_NRT","bbox":"-125,32,-113,43.5","day_range":"1"},"features":[{"type":"Feature","properties":{"acq_date":"2026-10-04","acq_time":947,"confidence":"n","satellite":"N","instrument":"VIIRS","version":"2.0NRT","bright_ti4":319.47,"frp":1.9,"daynight":"N"},"geometry":{"type":"Point","coordinates":[-114.25467,40.8214]}},{"type":"Feature","properties":{"acq_date":"2026-10-04","acq_time":947,"confidence":"n","satellite":"N","instrument":"VIIRS","version":"2.0NRT","bright_ti4":315.57,"frp":1.56,"daynight":"N"},"geometry":{"type":"Point","coordinates":[-117.67854,41.53934]}},{"type":"Feature","properties":{"acq_date":"2026-10-04","acq_time":947,"confidence":"n","satellite":"N","instrument":"VIIRS","version":"2.0NRT","bright_ti4":296.51,"frp":0.43,"daynight":"N"},"geometry":{"type":"Point","coordinates":[-117.68362,41.54002]}},{"type":"Feature","properties":{"acq_date":"2026-10-04","acq_time":947,"confidence":"n","satellite":"N","instrument":"VIIRS","version":"2.0NRT","bright_ti4":299.31,"frp":6.74,"daynight":"N"},"geometry":{"type":"Point","coordinates":[-117.67286,41.54212]}},{"type":"Feature","properties":{"acq_date":"2026-10-04","acq_time":947,"confidence":"n","satellite":"N","instrument":"VIIRS","version":"2.0NRT","bright_ti4":348.28,"frp":6.74,"daynight":"N"},"geometry":{"type":"Point","coordinates":[-117.67804,41.54282]}},{"type":"Feature","properties":{"acq_date":"2026-10-04","acq_time":947,"confidence":"n","satellite":"N","instrument":"VIIRS","version":"2.0NRT","bright_ti4":342.19,"frp":7.05,"daynight":"N"},"geometry":{"type":"Point","coordinates":[-117.67609,41.5444]}},{"type":"Feature","properties":{"acq_date":"2026-10-04","acq_time":947,"confidence":"n","satellite":"N","instrument":"VIIRS","version":"2.0NRT","bright_ti4":297.04,"frp":7.05,"daynight":"N"},"geometry":{"type":"Point","coordinates":[-117.68127,41.54508]}},{"type":"Feature","properties":{"acq_date":"2026-10-04","acq_time":947,"confidence":"n","satellite":"N","instrument":"VIIRS","version":"2.0NRT","bright_ti4":329.55,"frp":6.74,"daynight":"N"},"geometry":{"type":"Point","coordinates":[-117.67742,41.54628]}},{"type":"Feature","properties":{"acq_date":"2026-10-04","acq_time":947,"confidence":"n","satellite":"N","instrument":"VIIRS","version":"2.0NRT","bright_ti4":315.31,"frp":1.53,"daynight":"N"},"geometry":{"type":"Point","coordinates":[-117.67001,41.54716]}},{"type":"Feature","properties":{"acq_date":"2026-10-04","acq_time":947,"confidence":"n","satellite":"N","instrument":"VIIRS","version":"2.0NRT","bright_ti4":296.62,"frp":0.77,"daynight":"N"},"geometry":{"type":"Point","coordinates":[-117.69128,41.56414]}},{"type":"Feature","properties":{"acq_date":"2026-10-04","acq_time":947,"confidence":"n","satellite":"N","instrument":"VIIRS","version":"2.0NRT","bright_ti4":298.13,"frp":0.51,"daynight":"N"},"geometry":{"type":"Point","coordinates":[-117.7018,41.56552]}},{"type":"Feature","properties":{"acq_date":"2026-10-04","acq_time":947,"confidence":"n","satellite":"N","instrument":"VIIRS","version":"2.0NRT","bright_ti4":298.92,"frp":0.75,"daynight":"N"},"geometry":{"type":"Point","coordinates":[-117.6958,41.56828]}},{"type":"Feature","properties":{"acq_date":"2026-10-04","acq_time":947,"confidence":"n","satellite":"N","instrument":"VIIRS","version":"2.0NRT","bright_ti4":296.72,"frp":0.5,"daynight":"N"},"geometry":{"type":"Point","coordinates":[-122.43177,41.60543]}},{"type":"Feature","properties":{"acq_date":"2026-10-04","acq_time":947,"confidence":"n","satellite":"N","instrument":"VIIRS","version":"2.0NRT","bright_ti4":299.68,"frp":1.03,"daynight":"N"},"geometry":{"type":"Point","coordinates":[-122.43694,41.60591]}},{"type":"Feature","properties":{"acq_date":"2026-10-04","acq_time":947,"confidence":"n","satellite":"N","instrument":"VIIRS","version":"2.0NRT","bright_ti4":296.46,"frp":0.5,"daynight":"N"},"geometry":{"type":"Point","coordinates":[-122.43108,41.60968]}},{"type":"Feature","properties":{"acq_date":"2026-10-04","acq_time":947,"confidence":"n","satellite":"N","instrument":"VIIRS","version":"2.0NRT","bright_ti4":299.08,"frp":1.03,"daynight":"N"},"geometry":{"type":"Point","coordinates":[-122.43628,41.61016]}},{"type":"Feature","properties":{"acq_date":"2026-10-04","acq_time":947,"confidence":"n","satellite":"N","instrument":"VIIRS","version":"2.0NRT","bright_ti4":300.4,"frp":1.19,"daynight":"N"},"geometry":{"type":"Point","coordinates":[-122.43559,41.61441]}},{"type":"Feature","properties":{"acq_date":"2026-10-04","acq_time":947,"confidence":"n","satellite":"N","instrument":"VIIRS","version":"2.0NRT","bright_ti4":298.18,"frp":1.26,"daynight":"N"},"geometry":{"type":"Point","coordinates":[-122.42968,41.61818]}},{"type":"Feature","properties":{"acq_date":"2026-10-04","acq_time":947,"confidence":"n","satellite":"N","instrument":"VIIRS","version":"2.0NRT","bright_ti4":305.33,"frp":1.19,"daynight":"N"},"geometry":{"type":"Point","coordinates":[-122.43491,41.61866]}},{"type":"Feature","properties":{"acq_date":"2026-10-04","acq_time":947,"confidence":"n","satellite":"N","instrument":"VIIRS","version":"2.0NRT","bright_ti4":300.83,"frp":1.19,"daynight":"N"},"geometry":{"type":"Point","coordinates":[-122.44019,41.61914]}},{"type":"Feature","properties":{"acq_date":"2026-10-04","acq_time":947,"confidence":"n","satellite":"N","instrument":"VIIRS","version":"2.0NRT","bright_ti4":319.98,"frp":1.51,"daynight":"N"},"geometry":{"type":"Point","coordinates":[-113.70779,42.22185]}},{"type":"Feature","properties":{"acq_date":"2026-10-04","acq_time":947,"confidence":"n","satellite":"N","instrument":"VIIRS","version":"2.0NRT","bright_ti4":311.38,"frp":1.51,"daynight":"N"},"geometry":{"type":"Point","coordinates":[-113.70676,42.22512]}},{"type":"Feature","properties":{"acq_date":"2026-10-04","acq_time":947,"confidence":"n","satellite":"N","instrument":"VIIRS","version":"2.0NRT","bright_ti4":298.16,"frp":1.82,"daynight":"N"},"geometry":{"type":"Point","coordinates":[-120.20699,42.38684]}},{"type":"Feature","properties":{"acq_date":"2026-10-04","acq_time":947,"confidence":"n","satellite":"N","instrument":"VIIRS","version":"2.0NRT","bright_ti4":301.1,"frp":1.47,"daynight":"N"},"geometry":{"type":"Point","coordinates":[-120.207,42.38781]}},{"type":"Feature","properties":{"acq_date":"2026-10-04","acq_time":947,"confidence":"n","satellite":"N","instrument":"VIIRS","version":"2.0NRT","bright_ti4":296.76,"frp":0.77,"daynight":"N"},"geometry":{"type":"Point","coordinates":[-120.20007,42.38999]}},{"type":"Feature","properties":{"acq_date":"2026-10-04","acq_time":947,"confidence":"n","satellite":"N","instrument":"VIIRS","version":"2.0NRT","bright_ti4":298.42,"frp":0.77,"daynight":"N"},"geometry":{"type":"Point","coordinates":[-120.20628,42.39068]}},{"type":"Feature","properties":{"acq_date":"2026-10-04","acq_time":947,"confidence":"n","satellite":"N","instrument":"VIIRS","version":"2.0NRT","bright_ti4":295.28,"frp":1.36,"daynight":"N"},"geometry":{"type":"Point","coordinates":[-120.20007,42.391]}},{"type":"Feature","properties":{"acq_date":"2026-10-04","acq_time":947,"confidence":"n","satellite":"N","instrument":"VIIRS","version":"2.0NRT","bright_ti4":310.53,"frp":1.15,"daynight":"N"},"geometry":{"type":"Point","coordinates":[-115.73298,43.1805]}},{"type":"Feature","properties":{"acq_date":"2026-10-04","acq_time":947,"confidence":"n","satellite":"N","instrument":"VIIRS","version":"2.0NRT","bright_ti4":299.09,"frp":1.05,"daynight":"N"},"geometry":{"type":"Point","coordinates":[-122.29688,43.31562]}},{"type":"Feature","properties":{"acq_date":"2026-10-04","acq_time":949,"confidence":"n","satellite":"N","instrument":"VIIRS","version":"2.0NRT","bright_ti4":304.93,"frp":0.66,"daynight":"N"},"geometry":{"type":"Point","coordinates":[-115.1717,32.27481]}},{"type":"Feature","properties":{"acq_date":"2026-10-04","acq_time":949,"confidence":"n","satellite":"N","instrument":"VIIRS","version":"2.0NRT","bright_ti4":312.72,"frp":0.79,"daynight":"N"},"geometry":{"type":"Point","coordinates":[-116.90146,32.41762]}},{"type":"Feature","properties":{"acq_date":"2026-10-04","acq_time":949,"confidence":"n","satellite":"N","instrument":"VIIRS","version":"2.0NRT","bright_ti4":328.73,"frp":2.83,"daynight":"N"},"geometry":{"type":"Point","coordinates":[-114.93581,32.5379]}},{"type":"Feature","properties":{"acq_date":"2026-10-04","acq_time":949,"confidence":"n","satellite":"N","instrument":"VIIRS","version":"2.0NRT","bright_ti4":309.67,"frp":1.09,"daynight":"N"},"geometry":{"type":"Point","coordinates":[-117.01105,32.59818]}},{"type":"Feature","properties":{"acq_date":"2026-10-04","acq_time":949,"confidence":"n","satellite":"N","instrument":"VIIRS","version":"2.0NRT","bright_ti4":339.4,"frp":5.76,"daynight":"N"},"geometry":{"type":"Point","coordinates":[-115.51825,32.7097]}},{"type":"Feature","properties":{"acq_date":"2026-10-04","acq_time":949,"confidence":"n","satellite":"N","instrument":"VIIRS","version":"2.0NRT","bright_ti4":315.52,"frp":2.41,"daynight":"N"},"geometry":{"type":"Point","coordinates":[-114.76083,32.71312]}},{"type":"Feature","properties":{"acq_date":"2026-10-04","acq_time":949,"confidence":"n","satellite":"N","instrument":"VIIRS","version":"2.0NRT","bright_ti4":319.12,"frp":1.9,"daynight":"N"},"geometry":{"type":"Point","coordinates":[-114.75875,32.71317]}},{"type":"Feature","properties":{"acq_date":"2026-10-04","acq_time":949,"confidence":"n","satellite":"N","instrument":"VIIRS","version":"2.0NRT","bright_ti4":313.56,"frp":0.41,"daynight":"N"},"geometry":{"type":"Point","coordinates":[-117.14577,32.85811]}},{"type":"Feature","properties":{"acq_date":"2026-10-04","acq_time":949,"confidence":"n","satellite":"N","instrument":"VIIRS","version":"2.0NRT","bright_ti4":314.19,"frp":1.4,"daynight":"N"},"geometry":{"type":"Point","coordinates":[-117.61678,33.49302]}},{"type":"Feature","properties":{"acq_date":"2026-10-04","acq_time":949,"confidence":"n","satellite":"N","instrument":"VIIRS","version":"2.0NRT","bright_ti4":317.35,"frp":1.32,"daynight":"N"},"geometry":{"type":"Point","coordinates":[-117.82119,33.61304]}},{"type":"Feature","properties":{"acq_date":"2026-10-04","acq_time":949,"confidence":"n","satellite":"N","instrument":"VIIRS","version":"2.0NRT","bright_ti4":311.77,"frp":1.42,"daynight":"N"},"geometry":{"type":"Point","coordinates":[-117.71075,33.71442]}},{"type":"Feature","properties":{"acq_date":"2026-10-04","acq_time":949,"confidence":"n","satellite":"N","instrument":"VIIRS","version":"2.0NRT","bright_ti4":311.06,"frp":1.66,"daynight":"N"},"geometry":{"type":"Point","coordinates":[-118.23782,33.77798]}},{"type":"Feature","properties":{"acq_date":"2026-10-04","acq_time":949,"confidence":"n","satellite":"N","instrument":"VIIRS","version":"2.0NRT","bright_ti4":312.29,"frp":0.65,"daynight":"N"},"geometry":{"type":"Point","coordinates":[-117.47673,33.79342]}},{"type":"Feature","properties":{"acq_date":"2026-10-04","acq_time":949,"confidence":"n","satellite":"N","instrument":"VIIRS","version":"2.0NRT","bright_ti4":313.1,"frp":2.44,"daynight":"N"},"geometry":{"type":"Point","coordinates":[-118.33155,33.85251]}},{"type":"Feature","properties":{"acq_date":"2026-10-04","acq_time":949,"confidence":"n","satellite":"N","instrument":"VIIRS","version":"2.0NRT","bright_ti4":307.35,"frp":0.66,"daynight":"N"},"geometry":{"type":"Point","coordinates":[-118.10494,34.03529]}},{"type":"Feature","properties":{"acq_date":"2026-10-04","acq_time":949,"confidence":"n","satellite":"N","instrument":"VIIRS","version":"2.0NRT","bright_ti4":309.48,"frp":0.48,"daynight":"N"},"geometry":{"type":"Point","coordinates":[-117.42793,34.14198]}},{"type":"Feature","properties":{"acq_date":"2026-10-04","acq_time":949,"confidence":"n","satellite":"N","instrument":"VIIRS","version":"2.0NRT","bright_ti4":313.86,"frp":1.48,"daynight":"N"},"geometry":{"type":"Point","coordinates":[-118.19123,34.15461]}},{"type":"Feature","properties":{"acq_date":"2026-10-04","acq_time":949,"confidence":"n","satellite":"N","instrument":"VIIRS","version":"2.0NRT","bright_ti4":308.24,"frp":0.39,"daynight":"N"},"geometry":{"type":"Point","coordinates":[-118.38245,34.24324]}},{"type":"Feature","properties":{"acq_date":"2026-10-04","acq_time":949,"confidence":"n","satellite":"N","instrument":"VIIRS","version":"2.0NRT","bright_ti4":307.02,"frp":1.17,"daynight":"N"},"geometry":{"type":"Point","coordinates":[-118.79569,34.28998]}},{"type":"Feature","properties":{"acq_date":"2026-10-04","acq_time":949,"confidence":"n","satellite":"N","instrument":"VIIRS","version":"2.0NRT","bright_ti4":317.43,"frp":1.24,"daynight":"N"},"geometry":{"type":"Point","coordinates":[-118.51791,34.33383]}},{"type":"Feature","properties":{"acq_date":"2026-10-04","acq_time":949,"confidence":"n","satellite":"N","instrument":"VIIRS","version":"2.0NRT","bright_ti4":304.76,"frp":1.25,"daynight":"N"},"geometry":{"type":"Point","coordinates":[-118.5221,34.33445]}},{"type":"Feature","properties":{"acq_date":"2026-10-04","acq_time":949,"confidence":"n","satellite":"N","instrument":"VIIRS","version":"2.0NRT","bright_ti4":306,"frp":1.08,"daynight":"N"},"geometry":{"type":"Point","coordinates":[-116.85186,34.35278]}},{"type":"Feature","properties":{"acq_date":"2026-10-04","acq_time":949,"confidence":"n","satellite":"N","instrument":"VIIRS","version":"2.0NRT","bright_ti4":313.56,"frp":2.14,"daynight":"N"},"geometry":{"type":"Point","coordinates":[-118.64319,34.43159]}},{"type":"Feature","properties":{"acq_date":"2026-10-04","acq_time":949,"confidence":"n","satellite":"N","instrument":"VIIRS","version":"2.0NRT","bright_ti4":300.89,"frp":0.43,"daynight":"N"},"geometry":{"type":"Point","coordinates":[-118.15034,34.56823]}},{"type":"Feature","properties":{"acq_date":"2026-10-04","acq_time":949,"confidence":"n","satellite":"N","instrument":"VIIRS","version":"2.0NRT","bright_ti4":312.09,"frp":0.92,"daynight":"N"},"geometry":{"type":"Point","coordinates":[-117.33757,34.60942]}},{"type":"Feature","properties":{"acq_date":"2026-10-04","acq_time":949,"confidence":"n","satellite":"N","instrument":"VIIRS","version":"2.0NRT","bright_ti4":316.98,"frp":1.91,"daynight":"N"},"geometry":{"type":"Point","coordinates":[-117.10143,34.6235]}},{"type":"Feature","properties":{"acq_date":"2026-10-04","acq_time":949,"confidence":"n","satellite":"N","instrument":"VIIRS","version":"2.0NRT","bright_ti4":310.08,"frp":1.07,"daynight":"N"},"geometry":{"type":"Point","coordinates":[-118.74937,34.82087]}},{"type":"Feature","properties":{"acq_date":"2026-10-04","acq_time":949,"confidence":"n","satellite":"N","instrument":"VIIRS","version":"2.0NRT","bright_ti4":295.52,"frp":0.47,"daynight":"N"},"geometry":{"type":"Point","coordinates":[-118.36845,35.12106]}},{"type":"Feature","properties":{"acq_date":"2026-10-04","acq_time":949,"confidence":"n","satellite":"N","instrument":"VIIRS","version":"2.0NRT","bright_ti4":310.39,"frp":1.03,"daynight":"N"},"geometry":{"type":"Point","coordinates":[-113.31187,35.51805]}},{"type":"Feature","properties":{"acq_date":"2026-10-04","acq_time":949,"confidence":"n","satellite":"N","instrument":"VIIRS","version":"2.0NRT","bright_ti4":311.14,"frp":0.62,"daynight":"N"},"geometry":{"type":"Point","coordinates":[-114.90997,36.35583]}},{"type":"Feature","properties":{"acq_date":"2026-10-04","acq_time":949,"confidence":"n","satellite":"N","instrument":"VIIRS","version":"2.0NRT","bright_ti4":313.02,"frp":0.57,"daynight":"N"},"geometry":{"type":"Point","coordinates":[-114.90908,36.35916]}},{"type":"Feature","properties":{"acq_date":"2026-10-04","acq_time":949,"confidence":"n","satellite":"N","instrument":"VIIRS","version":"2.0NRT","bright_ti4":306.03,"frp":0.62,"daynight":"N"},"geometry":{"type":"Point","coordinates":[-114.87486,36.38461]}},{"type":"Feature","properties":{"acq_date":"2026-10-04","acq_time":949,"confidence":"n","satellite":"N","instrument":"VIIRS","version":"2.0NRT","bright_ti4":319.05,"frp":1.56,"daynight":"N"},"geometry":{"type":"Point","coordinates":[-120.58122,36.69553]}},{"type":"Feature","properties":{"acq_date":"2026-10-04","acq_time":949,"confidence":"n","satellite":"N","instrument":"VIIRS","version":"2.0NRT","bright_ti4":313.28,"frp":1.14,"daynight":"N"},"geometry":{"type":"Point","coordinates":[-120.19625,37.02607]}},{"type":"Feature","properties":{"acq_date":"2026-10-04","acq_time":949,"confidence":"n","satellite":"N","instrument":"VIIRS","version":"2.0NRT","bright_ti4":308.83,"frp":0.47,"daynight":"N"},"geometry":{"type":"Point","coordinates":[-120.19506,37.02608]}},{"type":"Feature","properties":{"acq_date":"2026-10-04","acq_time":949,"confidence":"n","satellite":"N","instrument":"VIIRS","version":"2.0NRT","bright_ti4":304.06,"frp":0.74,"daynight":"N"},"geometry":{"type":"Point","coordinates":[-121.9332,37.45516]}},{"type":"Feature","properties":{"acq_date":"2026-10-04","acq_time":949,"confidence":"n","satellite":"N","instrument":"VIIRS","version":"2.0NRT","bright_ti4":318.35,"frp":2.19,"daynight":"N"},"geometry":{"type":"Point","coordinates":[-119.58971,37.59602]}},{"type":"Feature","properties":{"acq_date":"2026-10-04","acq_time":949,"confidence":"n","satellite":"N","instrument":"VIIRS","version":"2.0NRT","bright_ti4":309.06,"frp":2.19,"daynight":"N"},"geometry":{"type":"Point","coordinates":[-119.58373,37.59889]}},{"type":"Feature","properties":{"acq_date":"2026-10-04","acq_time":949,"confidence":"n","satellite":"N","instrument":"VIIRS","version":"2.0NRT","bright_ti4":334.66,"frp":7.78,"daynight":"N"},"geometry":{"type":"Point","coordinates":[-119.58284,37.60241]}},{"type":"Feature","properties":{"acq_date":"2026-10-04","acq_time":949,"confidence":"n","satellite":"N","instrument":"VIIRS","version":"2.0NRT","bright_ti4":300.36,"frp":7.78,"daynight":"N"},"geometry":{"type":"Point","coordinates":[-119.58791,37.60305]}},{"type":"Feature","properties":{"acq_date":"2026-10-04","acq_time":949,"confidence":"n","satellite":"N","instrument":"VIIRS","version":"2.0NRT","bright_ti4":329.21,"frp":5.95,"daynight":"N"},"geometry":{"type":"Point","coordinates":[-119.57703,37.6053]}},{"type":"Feature","properties":{"acq_date":"2026-10-04","acq_time":949,"confidence":"h","satellite":"N","instrument":"VIIRS","version":"2.0NRT","bright_ti4":367,"frp":7.78,"daynight":"N"},"geometry":{"type":"Point","coordinates":[-119.58206,37.60593]}},{"type":"Feature","properties":{"acq_date":"2026-10-04","acq_time":949,"confidence":"n","satellite":"N","instrument":"VIIRS","version":"2.0NRT","bright_ti4":328.47,"frp":7.78,"daynight":"N"},"geometry":{"type":"Point","coordinates":[-119.58716,37.60658]}},{"type":"Feature","properties":{"acq_date":"2026-10-04","acq_time":949,"confidence":"n","satellite":"N","instrument":"VIIRS","version":"2.0NRT","bright_ti4":299.98,"frp":0.81,"daynight":"N"},"geometry":{"type":"Point","coordinates":[-119.57634,37.60883]}},{"type":"Feature","properties":{"acq_date":"2026-10-04","acq_time":949,"confidence":"n","satellite":"N","instrument":"VIIRS","version":"2.0NRT","bright_ti4":338.45,"frp":5.07,"daynight":"N"},"geometry":{"type":"Point","coordinates":[-119.5814,37.60947]}},{"type":"Feature","properties":{"acq_date":"2026-10-04","acq_time":949,"confidence":"n","satellite":"N","instrument":"VIIRS","version":"2.0NRT","bright_ti4":336.08,"frp":5.07,"daynight":"N"},"geometry":{"type":"Point","coordinates":[-119.58652,37.61012]}},{"type":"Feature","properties":{"acq_date":"2026-10-04","acq_time":949,"confidence":"n","satellite":"N","instrument":"VIIRS","version":"2.0NRT","bright_ti4":317.24,"frp":1.49,"daynight":"N"},"geometry":{"type":"Point","coordinates":[-119.59158,37.61076]}},{"type":"Feature","properties":{"acq_date":"2026-10-04","acq_time":949,"confidence":"n","satellite":"N","instrument":"VIIRS","version":"2.0NRT","bright_ti4":317.04,"frp":1.49,"daynight":"N"},"geometry":{"type":"Point","coordinates":[-119.59097,37.61431]}},{"type":"Feature","properties":{"acq_date":"2026-10-04","acq_time":949,"confidence":"n","satellite":"N","instrument":"VIIRS","version":"2.0NRT","bright_ti4":302.79,"frp":1.49,"daynight":"N"},"geometry":{"type":"Point","coordinates":[-119.59608,37.61496]}},{"type":"Feature","properties":{"acq_date":"2026-10-04","acq_time":949,"confidence":"n","satellite":"N","instrument":"VIIRS","version":"2.0NRT","bright_ti4":316.92,"frp":2.63,"daynight":"N"},"geometry":{"type":"Point","coordinates":[-119.59381,37.62917]}},{"type":"Feature","properties":{"acq_date":"2026-10-04","acq_time":949,"confidence":"n","satellite":"N","instrument":"VIIRS","version":"2.0NRT","bright_ti4":329.52,"frp":2.91,"daynight":"N"},"geometry":{"type":"Point","coordinates":[-119.5779,37.63077]}},{"type":"Feature","properties":{"acq_date":"2026-10-04","acq_time":949,"confidence":"n","satellite":"N","instrument":"VIIRS","version":"2.0NRT","bright_ti4":316.79,"frp":2.91,"daynight":"N"},"geometry":{"type":"Point","coordinates":[-119.58302,37.63142]}},{"type":"Feature","properties":{"acq_date":"2026-10-04","acq_time":949,"confidence":"n","satellite":"N","instrument":"VIIRS","version":"2.0NRT","bright_ti4":331.51,"frp":3.38,"daynight":"N"},"geometry":{"type":"Point","coordinates":[-119.58811,37.63207]}},{"type":"Feature","properties":{"acq_date":"2026-10-04","acq_time":949,"confidence":"n","satellite":"N","instrument":"VIIRS","version":"2.0NRT","bright_ti4":341.15,"frp":3.38,"daynight":"N"},"geometry":{"type":"Point","coordinates":[-119.59321,37.63272]}},{"type":"Feature","properties":{"acq_date":"2026-10-04","acq_time":949,"confidence":"n","satellite":"N","instrument":"VIIRS","version":"2.0NRT","bright_ti4":304.09,"frp":0.97,"daynight":"N"},"geometry":{"type":"Point","coordinates":[-119.62398,37.63302]}},{"type":"Feature","properties":{"acq_date":"2026-10-04","acq_time":949,"confidence":"n","satellite":"N","instrument":"VIIRS","version":"2.0NRT","bright_ti4":296.27,"frp":0.83,"daynight":"N"},"geometry":{"type":"Point","coordinates":[-119.62926,37.63369]}},{"type":"Feature","properties":{"acq_date":"2026-10-04","acq_time":949,"confidence":"n","satellite":"N","instrument":"VIIRS","version":"2.0NRT","bright_ti4":324.53,"frp":2.91,"daynight":"N"},"geometry":{"type":"Point","coordinates":[-119.5772,37.6343]}},{"type":"Feature","properties":{"acq_date":"2026-10-04","acq_time":949,"confidence":"n","satellite":"N","instrument":"VIIRS","version":"2.0NRT","bright_ti4":322.12,"frp":3.38,"daynight":"N"},"geometry":{"type":"Point","coordinates":[-119.59264,37.63627]}},{"type":"Feature","properties":{"acq_date":"2026-10-04","acq_time":949,"confidence":"n","satellite":"N","instrument":"VIIRS","version":"2.0NRT","bright_ti4":297.13,"frp":0.5,"daynight":"N"},"geometry":{"type":"Point","coordinates":[-119.62319,37.63655]}},{"type":"Feature","properties":{"acq_date":"2026-10-04","acq_time":949,"confidence":"n","satellite":"N","instrument":"VIIRS","version":"2.0NRT","bright_ti4":305.6,"frp":2.26,"daynight":"N"},"geometry":{"type":"Point","coordinates":[-119.59768,37.63692]}},{"type":"Feature","properties":{"acq_date":"2026-10-04","acq_time":949,"confidence":"n","satellite":"N","instrument":"VIIRS","version":"2.0NRT","bright_ti4":297.37,"frp":0.5,"daynight":"N"},"geometry":{"type":"Point","coordinates":[-119.62247,37.64009]}},{"type":"Feature","properties":{"acq_date":"2026-10-04","acq_time":949,"confidence":"n","satellite":"N","instrument":"VIIRS","version":"2.0NRT","bright_ti4":309.53,"frp":2.63,"daynight":"N"},"geometry":{"type":"Point","coordinates":[-119.58086,37.64202]}},{"type":"Feature","properties":{"acq_date":"2026-10-04","acq_time":949,"confidence":"n","satellite":"N","instrument":"VIIRS","version":"2.0NRT","bright_ti4":303,"frp":1.08,"daynight":"N"},"geometry":{"type":"Point","coordinates":[-119.58607,37.64269]}},{"type":"Feature","properties":{"acq_date":"2026-10-04","acq_time":949,"confidence":"n","satellite":"N","instrument":"VIIRS","version":"2.0NRT","bright_ti4":307.62,"frp":1.63,"daynight":"N"},"geometry":{"type":"Point","coordinates":[-119.57473,37.64486]}},{"type":"Feature","properties":{"acq_date":"2026-10-04","acq_time":949,"confidence":"n","satellite":"N","instrument":"VIIRS","version":"2.0NRT","bright_ti4":314.88,"frp":1.63,"daynight":"N"},"geometry":{"type":"Point","coordinates":[-119.58003,37.64554]}},{"type":"Feature","properties":{"acq_date":"2026-10-04","acq_time":949,"confidence":"n","satellite":"N","instrument":"VIIRS","version":"2.0NRT","bright_ti4":302.17,"frp":1.2,"daynight":"N"},"geometry":{"type":"Point","coordinates":[-119.58524,37.64621]}},{"type":"Feature","properties":{"acq_date":"2026-10-04","acq_time":949,"confidence":"n","satellite":"N","instrument":"VIIRS","version":"2.0NRT","bright_ti4":296.39,"frp":1.33,"daynight":"N"},"geometry":{"type":"Point","coordinates":[-119.63131,37.64848]}},{"type":"Feature","properties":{"acq_date":"2026-10-04","acq_time":949,"confidence":"n","satellite":"N","instrument":"VIIRS","version":"2.0NRT","bright_ti4":308.91,"frp":1.73,"daynight":"N"},"geometry":{"type":"Point","coordinates":[-119.62557,37.65138]}},{"type":"Feature","properties":{"acq_date":"2026-10-04","acq_time":949,"confidence":"n","satellite":"N","instrument":"VIIRS","version":"2.0NRT","bright_ti4":307.9,"frp":1.17,"daynight":"N"},"geometry":{"type":"Point","coordinates":[-119.26424,39.6213]}},{"type":"Feature","properties":{"acq_date":"2026-10-04","acq_time":1128,"confidence":"n","satellite":"N","instrument":"VIIRS","version":"2.0NRT","bright_ti4":295.27,"frp":1.6,"daynight":"N"},"geometry":{"type":"Point","coordinates":[-122.43688,41.60785]}},{"type":"Feature","properties":{"acq_date":"2026-10-04","acq_time":1128,"confidence":"n","satellite":"N","instrument":"VIIRS","version":"2.0NRT","bright_ti4":295.14,"frp":1.53,"daynight":"N"},"geometry":{"type":"Point","coordinates":[-122.43626,41.61853]}}]}