{"type":"FeatureCollection","name":"FIRMS VIIRS CA (last 1 day)","crs":{"type":"name","properties":{"name":"EPSG:4326"}},"fetched_at_utc":"2026-09-05T16:39:53.379Z","source":{"url":"https://firms.modaps.eosdis.nasa.gov/api/area/csv/8c4af552cf654445dd280dfb3ad9337c/VIIRS_SNPP_NRT/-125,32,-113,43.5/1","dataset":"VIIRS_SNPP_NRT","bbox":"-125,32,-113,43.5","day_range":"1"},"features":[{"type":"Feature","properties":{"acq_date":"2026-09-05","acq_time":852,"confidence":"n","satellite":"N","instrument":"VIIRS","version":"2.0NRT","bright_ti4":310.38,"frp":1.6,"daynight":"N"},"geometry":{"type":"Point","coordinates":[-114.91326,36.35482]}},{"type":"Feature","properties":{"acq_date":"2026-09-05","acq_time":852,"confidence":"n","satellite":"N","instrument":"VIIRS","version":"2.0NRT","bright_ti4":296.71,"frp":1.45,"daynight":"N"},"geometry":{"type":"Point","coordinates":[-119.26359,39.6165]}},{"type":"Feature","properties":{"acq_date":"2026-09-05","acq_time":852,"confidence":"n","satellite":"N","instrument":"VIIRS","version":"2.0NRT","bright_ti4":311.3,"frp":1.79,"daynight":"N"},"geometry":{"type":"Point","coordinates":[-114.25632,40.82066]}},{"type":"Feature","properties":{"acq_date":"2026-09-05","acq_time":854,"confidence":"n","satellite":"N","instrument":"VIIRS","version":"2.0NRT","bright_ti4":301.24,"frp":0.25,"daynight":"N"},"geometry":{"type":"Point","coordinates":[-115.50937,32.55172]}},{"type":"Feature","properties":{"acq_date":"2026-09-05","acq_time":854,"confidence":"n","satellite":"N","instrument":"VIIRS","version":"2.0NRT","bright_ti4":325.54,"frp":1.65,"daynight":"N"},"geometry":{"type":"Point","coordinates":[-115.3453,32.62346]}},{"type":"Feature","properties":{"acq_date":"2026-09-05","acq_time":854,"confidence":"n","satellite":"N","instrument":"VIIRS","version":"2.0NRT","bright_ti4":307.51,"frp":1.65,"daynight":"N"},"geometry":{"type":"Point","coordinates":[-115.34995,32.62374]}},{"type":"Feature","properties":{"acq_date":"2026-09-05","acq_time":854,"confidence":"n","satellite":"N","instrument":"VIIRS","version":"2.0NRT","bright_ti4":300.5,"frp":0.6,"daynight":"N"},"geometry":{"type":"Point","coordinates":[-117.2924,34.09184]}},{"type":"Feature","properties":{"acq_date":"2026-09-05","acq_time":854,"confidence":"n","satellite":"N","instrument":"VIIRS","version":"2.0NRT","bright_ti4":303.93,"frp":1.67,"daynight":"N"},"geometry":{"type":"Point","coordinates":[-117.33674,34.60637]}},{"type":"Feature","properties":{"acq_date":"2026-09-05","acq_time":854,"confidence":"n","satellite":"N","instrument":"VIIRS","version":"2.0NRT","bright_ti4":306.65,"frp":2.21,"daynight":"N"},"geometry":{"type":"Point","coordinates":[-117.9619,34.77228]}},{"type":"Feature","properties":{"acq_date":"2026-09-05","acq_time":854,"confidence":"n","satellite":"N","instrument":"VIIRS","version":"2.0NRT","bright_ti4":296.85,"frp":1.76,"daynight":"N"},"geometry":{"type":"Point","coordinates":[-117.96307,34.77514]}},{"type":"Feature","properties":{"acq_date":"2026-09-05","acq_time":1032,"confidence":"n","satellite":"N","instrument":"VIIRS","version":"2.0NRT","bright_ti4":309.25,"frp":1.74,"daynight":"N"},"geometry":{"type":"Point","coordinates":[-119.26472,39.61879]}},{"type":"Feature","properties":{"acq_date":"2026-09-05","acq_time":1032,"confidence":"n","satellite":"N","instrument":"VIIRS","version":"2.0NRT","bright_ti4":296.53,"frp":0.71,"daynight":"N"},"geometry":{"type":"Point","coordinates":[-119.20642,40.79347]}},{"type":"Feature","properties":{"acq_date":"2026-09-05","acq_time":1032,"confidence":"n","satellite":"N","instrument":"VIIRS","version":"2.0NRT","bright_ti4":296.78,"frp":0.71,"daynight":"N"},"geometry":{"type":"Point","coordinates":[-119.20371,40.79472]}},{"type":"Feature","properties":{"acq_date":"2026-09-05","acq_time":1032,"confidence":"n","satellite":"N","instrument":"VIIRS","version":"2.0NRT","bright_ti4":313.86,"frp":1.19,"daynight":"N"},"geometry":{"type":"Point","coordinates":[-114.25379,40.82231]}},{"type":"Feature","properties":{"acq_date":"2026-09-05","acq_time":1032,"confidence":"n","satellite":"N","instrument":"VIIRS","version":"2.0NRT","bright_ti4":296.28,"frp":1.19,"daynight":"N"},"geometry":{"type":"Point","coordinates":[-114.25851,40.8236]}},{"type":"Feature","properties":{"acq_date":"2026-09-05","acq_time":1034,"confidence":"n","satellite":"N","instrument":"VIIRS","version":"2.0NRT","bright_ti4":305.3,"frp":1.65,"daynight":"N"},"geometry":{"type":"Point","coordinates":[-115.34959,32.62341]}},{"type":"Feature","properties":{"acq_date":"2026-09-05","acq_time":1034,"confidence":"n","satellite":"N","instrument":"VIIRS","version":"2.0NRT","bright_ti4":311.28,"frp":2.07,"daynight":"N"},"geometry":{"type":"Point","coordinates":[-115.34732,32.62929]}},{"type":"Feature","properties":{"acq_date":"2026-09-05","acq_time":1034,"confidence":"n","satellite":"N","instrument":"VIIRS","version":"2.0NRT","bright_ti4":297.1,"frp":0.17,"daynight":"N"},"geometry":{"type":"Point","coordinates":[-117.14679,32.8599]}},{"type":"Feature","properties":{"acq_date":"2026-09-05","acq_time":1034,"confidence":"n","satellite":"N","instrument":"VIIRS","version":"2.0NRT","bright_ti4":300.44,"frp":0.37,"daynight":"N"},"geometry":{"type":"Point","coordinates":[-117.6162,33.49273]}},{"type":"Feature","properties":{"acq_date":"2026-09-05","acq_time":1034,"confidence":"n","satellite":"N","instrument":"VIIRS","version":"2.0NRT","bright_ti4":307.13,"frp":0.46,"daynight":"N"},"geometry":{"type":"Point","coordinates":[-117.71047,33.71587]}},{"type":"Feature","properties":{"acq_date":"2026-09-05","acq_time":1034,"confidence":"n","satellite":"N","instrument":"VIIRS","version":"2.0NRT","bright_ti4":302.1,"frp":0.63,"daynight":"N"},"geometry":{"type":"Point","coordinates":[-117.47414,33.79481]}},{"type":"Feature","properties":{"acq_date":"2026-09-05","acq_time":1034,"confidence":"n","satellite":"N","instrument":"VIIRS","version":"2.0NRT","bright_ti4":301.3,"frp":0.29,"daynight":"N"},"geometry":{"type":"Point","coordinates":[-118.10501,34.03642]}},{"type":"Feature","properties":{"acq_date":"2026-09-05","acq_time":1034,"confidence":"n","satellite":"N","instrument":"VIIRS","version":"2.0NRT","bright_ti4":300.39,"frp":0.36,"daynight":"N"},"geometry":{"type":"Point","coordinates":[-117.42696,34.14259]}},{"type":"Feature","properties":{"acq_date":"2026-09-05","acq_time":1034,"confidence":"n","satellite":"N","instrument":"VIIRS","version":"2.0NRT","bright_ti4":315.92,"frp":0.71,"daynight":"N"},"geometry":{"type":"Point","coordinates":[-118.19315,34.15268]}},{"type":"Feature","properties":{"acq_date":"2026-09-05","acq_time":1034,"confidence":"n","satellite":"N","instrument":"VIIRS","version":"2.0NRT","bright_ti4":303.11,"frp":0.94,"daynight":"N"},"geometry":{"type":"Point","coordinates":[-118.51661,34.33315]}},{"type":"Feature","properties":{"acq_date":"2026-09-05","acq_time":1034,"confidence":"n","satellite":"N","instrument":"VIIRS","version":"2.0NRT","bright_ti4":302.17,"frp":0.81,"daynight":"N"},"geometry":{"type":"Point","coordinates":[-116.85286,34.35611]}},{"type":"Feature","properties":{"acq_date":"2026-09-05","acq_time":1034,"confidence":"n","satellite":"N","instrument":"VIIRS","version":"2.0NRT","bright_ti4":305,"frp":1.39,"daynight":"N"},"geometry":{"type":"Point","coordinates":[-117.3341,34.60801]}},{"type":"Feature","properties":{"acq_date":"2026-09-05","acq_time":1034,"confidence":"n","satellite":"N","instrument":"VIIRS","version":"2.0NRT","bright_ti4":310.47,"frp":1.84,"daynight":"N"},"geometry":{"type":"Point","coordinates":[-117.33766,34.60891]}},{"type":"Feature","properties":{"acq_date":"2026-09-05","acq_time":1034,"confidence":"n","satellite":"N","instrument":"VIIRS","version":"2.0NRT","bright_ti4":313.61,"frp":1.32,"daynight":"N"},"geometry":{"type":"Point","coordinates":[-117.10075,34.62042]}},{"type":"Feature","properties":{"acq_date":"2026-09-05","acq_time":1034,"confidence":"n","satellite":"N","instrument":"VIIRS","version":"2.0NRT","bright_ti4":305.87,"frp":1.31,"daynight":"N"},"geometry":{"type":"Point","coordinates":[-117.09903,34.62105]}},{"type":"Feature","properties":{"acq_date":"2026-09-05","acq_time":1034,"confidence":"n","satellite":"N","instrument":"VIIRS","version":"2.0NRT","bright_ti4":299.45,"frp":1.33,"daynight":"N"},"geometry":{"type":"Point","coordinates":[-117.1028,34.622]}},{"type":"Feature","properties":{"acq_date":"2026-09-05","acq_time":1034,"confidence":"n","satellite":"N","instrument":"VIIRS","version":"2.0NRT","bright_ti4":325.91,"frp":1.43,"daynight":"N"},"geometry":{"type":"Point","coordinates":[-117.95896,34.77087]}},{"type":"Feature","properties":{"acq_date":"2026-09-05","acq_time":1034,"confidence":"n","satellite":"N","instrument":"VIIRS","version":"2.0NRT","bright_ti4":301.39,"frp":1.43,"daynight":"N"},"geometry":{"type":"Point","coordinates":[-117.95715,34.77576]}},{"type":"Feature","properties":{"acq_date":"2026-09-05","acq_time":1034,"confidence":"n","satellite":"N","instrument":"VIIRS","version":"2.0NRT","bright_ti4":340.4,"frp":3.12,"daynight":"N"},"geometry":{"type":"Point","coordinates":[-121.42062,35.89753]}},{"type":"Feature","properties":{"acq_date":"2026-09-05","acq_time":1034,"confidence":"n","satellite":"N","instrument":"VIIRS","version":"2.0NRT","bright_ti4":324.02,"frp":3.12,"daynight":"N"},"geometry":{"type":"Point","coordinates":[-121.42454,35.89838]}},{"type":"Feature","properties":{"acq_date":"2026-09-05","acq_time":1034,"confidence":"n","satellite":"N","instrument":"VIIRS","version":"2.0NRT","bright_ti4":303.24,"frp":0.94,"daynight":"N"},"geometry":{"type":"Point","coordinates":[-121.42863,35.89926]}},{"type":"Feature","properties":{"acq_date":"2026-09-05","acq_time":1034,"confidence":"n","satellite":"N","instrument":"VIIRS","version":"2.0NRT","bright_ti4":321.4,"frp":3.12,"daynight":"N"},"geometry":{"type":"Point","coordinates":[-121.41882,35.90142]}},{"type":"Feature","properties":{"acq_date":"2026-09-05","acq_time":1034,"confidence":"n","satellite":"N","instrument":"VIIRS","version":"2.0NRT","bright_ti4":315.18,"frp":3.12,"daynight":"N"},"geometry":{"type":"Point","coordinates":[-121.423,35.90232]}},{"type":"Feature","properties":{"acq_date":"2026-09-05","acq_time":1034,"confidence":"n","satellite":"N","instrument":"VIIRS","version":"2.0NRT","bright_ti4":298.68,"frp":0.94,"daynight":"N"},"geometry":{"type":"Point","coordinates":[-121.42755,35.90331]}},{"type":"Feature","properties":{"acq_date":"2026-09-05","acq_time":1034,"confidence":"n","satellite":"N","instrument":"VIIRS","version":"2.0NRT","bright_ti4":306.65,"frp":1.17,"daynight":"N"},"geometry":{"type":"Point","coordinates":[-114.9133,36.3564]}},{"type":"Feature","properties":{"acq_date":"2026-09-05","acq_time":1034,"confidence":"n","satellite":"N","instrument":"VIIRS","version":"2.0NRT","bright_ti4":298.31,"frp":0.66,"daynight":"N"},"geometry":{"type":"Point","coordinates":[-121.929,37.45539]}},{"type":"Feature","properties":{"acq_date":"2026-09-05","acq_time":1034,"confidence":"n","satellite":"N","instrument":"VIIRS","version":"2.0NRT","bright_ti4":297.92,"frp":0.38,"daynight":"N"},"geometry":{"type":"Point","coordinates":[-121.18674,37.88506]}},{"type":"Feature","properties":{"acq_date":"2026-09-05","acq_time":1034,"confidence":"n","satellite":"N","instrument":"VIIRS","version":"2.0NRT","bright_ti4":299.03,"frp":1.55,"daynight":"N"},"geometry":{"type":"Point","coordinates":[-122.39737,37.94481]}},{"type":"Feature","properties":{"acq_date":"2026-09-05","acq_time":1034,"confidence":"n","satellite":"N","instrument":"VIIRS","version":"2.0NRT","bright_ti4":295.79,"frp":0.54,"daynight":"N"},"geometry":{"type":"Point","coordinates":[-122.74628,38.30063]}}]}