{"type":"FeatureCollection","name":"FIRMS VIIRS CA (last 1 day)","crs":{"type":"name","properties":{"name":"EPSG:4326"}},"fetched_at_utc":"2026-10-01T19:20:29.680Z","source":{"url":"https://firms.modaps.eosdis.nasa.gov/api/area/csv/8c4af552cf654445dd280dfb3ad9337c/VIIRS_SNPP_NRT/-125,32,-113,43.5/1","dataset":"VIIRS_SNPP_NRT","bbox":"-125,32,-113,43.5","day_range":"1"},"features":[{"type":"Feature","properties":{"acq_date":"2026-10-01","acq_time":905,"confidence":"n","satellite":"N","instrument":"VIIRS","version":"2.0NRT","bright_ti4":315.11,"frp":1.28,"daynight":"N"},"geometry":{"type":"Point","coordinates":[-116.76946,32.51048]}},{"type":"Feature","properties":{"acq_date":"2026-10-01","acq_time":905,"confidence":"n","satellite":"N","instrument":"VIIRS","version":"2.0NRT","bright_ti4":302.16,"frp":0.55,"daynight":"N"},"geometry":{"type":"Point","coordinates":[-117.618,33.49189]}},{"type":"Feature","properties":{"acq_date":"2026-10-01","acq_time":905,"confidence":"n","satellite":"N","instrument":"VIIRS","version":"2.0NRT","bright_ti4":305.88,"frp":0.61,"daynight":"N"},"geometry":{"type":"Point","coordinates":[-117.71165,33.71347]}},{"type":"Feature","properties":{"acq_date":"2026-10-01","acq_time":905,"confidence":"n","satellite":"N","instrument":"VIIRS","version":"2.0NRT","bright_ti4":299.41,"frp":0.51,"daynight":"N"},"geometry":{"type":"Point","coordinates":[-117.47427,33.79145]}},{"type":"Feature","properties":{"acq_date":"2026-10-01","acq_time":905,"confidence":"n","satellite":"N","instrument":"VIIRS","version":"2.0NRT","bright_ti4":300.8,"frp":0.65,"daynight":"N"},"geometry":{"type":"Point","coordinates":[-118.1972,34.15113]}},{"type":"Feature","properties":{"acq_date":"2026-10-01","acq_time":905,"confidence":"n","satellite":"N","instrument":"VIIRS","version":"2.0NRT","bright_ti4":299.66,"frp":0.74,"daynight":"N"},"geometry":{"type":"Point","coordinates":[-118.51884,34.33292]}},{"type":"Feature","properties":{"acq_date":"2026-10-01","acq_time":905,"confidence":"n","satellite":"N","instrument":"VIIRS","version":"2.0NRT","bright_ti4":300.87,"frp":0.76,"daynight":"N"},"geometry":{"type":"Point","coordinates":[-118.52151,34.33766]}},{"type":"Feature","properties":{"acq_date":"2026-10-01","acq_time":905,"confidence":"n","satellite":"N","instrument":"VIIRS","version":"2.0NRT","bright_ti4":299.49,"frp":0.5,"daynight":"N"},"geometry":{"type":"Point","coordinates":[-118.64477,34.43037]}},{"type":"Feature","properties":{"acq_date":"2026-10-01","acq_time":905,"confidence":"n","satellite":"N","instrument":"VIIRS","version":"2.0NRT","bright_ti4":313.42,"frp":1.76,"daynight":"N"},"geometry":{"type":"Point","coordinates":[-117.33691,34.60563]}},{"type":"Feature","properties":{"acq_date":"2026-10-01","acq_time":905,"confidence":"n","satellite":"N","instrument":"VIIRS","version":"2.0NRT","bright_ti4":304.51,"frp":0.97,"daynight":"N"},"geometry":{"type":"Point","coordinates":[-117.09996,34.62326]}},{"type":"Feature","properties":{"acq_date":"2026-10-01","acq_time":905,"confidence":"n","satellite":"N","instrument":"VIIRS","version":"2.0NRT","bright_ti4":295.24,"frp":1.01,"daynight":"N"},"geometry":{"type":"Point","coordinates":[-113.31664,35.51627]}},{"type":"Feature","properties":{"acq_date":"2026-10-01","acq_time":905,"confidence":"n","satellite":"N","instrument":"VIIRS","version":"2.0NRT","bright_ti4":305.99,"frp":1.41,"daynight":"N"},"geometry":{"type":"Point","coordinates":[-119.26337,39.62005]}},{"type":"Feature","properties":{"acq_date":"2026-10-01","acq_time":905,"confidence":"n","satellite":"N","instrument":"VIIRS","version":"2.0NRT","bright_ti4":299.83,"frp":1.51,"daynight":"N"},"geometry":{"type":"Point","coordinates":[-114.25581,40.82065]}},{"type":"Feature","properties":{"acq_date":"2026-10-01","acq_time":905,"confidence":"n","satellite":"N","instrument":"VIIRS","version":"2.0NRT","bright_ti4":300.51,"frp":1.21,"daynight":"N"},"geometry":{"type":"Point","coordinates":[-113.7056,42.21545]}},{"type":"Feature","properties":{"acq_date":"2026-10-01","acq_time":905,"confidence":"n","satellite":"N","instrument":"VIIRS","version":"2.0NRT","bright_ti4":302.16,"frp":2.33,"daynight":"N"},"geometry":{"type":"Point","coordinates":[-120.20477,42.38063]}},{"type":"Feature","properties":{"acq_date":"2026-10-01","acq_time":905,"confidence":"n","satellite":"N","instrument":"VIIRS","version":"2.0NRT","bright_ti4":302.17,"frp":2.05,"daynight":"N"},"geometry":{"type":"Point","coordinates":[-120.1979,42.38272]}},{"type":"Feature","properties":{"acq_date":"2026-10-01","acq_time":905,"confidence":"n","satellite":"N","instrument":"VIIRS","version":"2.0NRT","bright_ti4":307.43,"frp":3.53,"daynight":"N"},"geometry":{"type":"Point","coordinates":[-120.20476,42.38279]}},{"type":"Feature","properties":{"acq_date":"2026-10-01","acq_time":905,"confidence":"n","satellite":"N","instrument":"VIIRS","version":"2.0NRT","bright_ti4":297.73,"frp":1.59,"daynight":"N"},"geometry":{"type":"Point","coordinates":[-120.19038,42.38714]}},{"type":"Feature","properties":{"acq_date":"2026-10-01","acq_time":905,"confidence":"n","satellite":"N","instrument":"VIIRS","version":"2.0NRT","bright_ti4":301.59,"frp":2.33,"daynight":"N"},"geometry":{"type":"Point","coordinates":[-120.19733,42.38724]}},{"type":"Feature","properties":{"acq_date":"2026-10-01","acq_time":905,"confidence":"n","satellite":"N","instrument":"VIIRS","version":"2.0NRT","bright_ti4":310.62,"frp":2.33,"daynight":"N"},"geometry":{"type":"Point","coordinates":[-120.20435,42.38734]}},{"type":"Feature","properties":{"acq_date":"2026-10-01","acq_time":905,"confidence":"n","satellite":"N","instrument":"VIIRS","version":"2.0NRT","bright_ti4":301.24,"frp":2.14,"daynight":"N"},"geometry":{"type":"Point","coordinates":[-120.19038,42.38937]}},{"type":"Feature","properties":{"acq_date":"2026-10-01","acq_time":905,"confidence":"n","satellite":"N","instrument":"VIIRS","version":"2.0NRT","bright_ti4":306.07,"frp":2.92,"daynight":"N"},"geometry":{"type":"Point","coordinates":[-120.20448,42.3895]}},{"type":"Feature","properties":{"acq_date":"2026-10-01","acq_time":905,"confidence":"n","satellite":"N","instrument":"VIIRS","version":"2.0NRT","bright_ti4":302.43,"frp":2.78,"daynight":"N"},"geometry":{"type":"Point","coordinates":[-120.19014,42.39385]}},{"type":"Feature","properties":{"acq_date":"2026-10-01","acq_time":905,"confidence":"n","satellite":"N","instrument":"VIIRS","version":"2.0NRT","bright_ti4":295.3,"frp":2.05,"daynight":"N"},"geometry":{"type":"Point","coordinates":[-120.19736,42.39395]}},{"type":"Feature","properties":{"acq_date":"2026-10-01","acq_time":905,"confidence":"n","satellite":"N","instrument":"VIIRS","version":"2.0NRT","bright_ti4":300.42,"frp":2.14,"daynight":"N"},"geometry":{"type":"Point","coordinates":[-120.19019,42.39607]}},{"type":"Feature","properties":{"acq_date":"2026-10-01","acq_time":905,"confidence":"n","satellite":"N","instrument":"VIIRS","version":"2.0NRT","bright_ti4":297.13,"frp":2.14,"daynight":"N"},"geometry":{"type":"Point","coordinates":[-120.19752,42.39614]}},{"type":"Feature","properties":{"acq_date":"2026-10-01","acq_time":905,"confidence":"n","satellite":"N","instrument":"VIIRS","version":"2.0NRT","bright_ti4":306.64,"frp":2.78,"daynight":"N"},"geometry":{"type":"Point","coordinates":[-120.1901,42.40056]}},{"type":"Feature","properties":{"acq_date":"2026-10-01","acq_time":905,"confidence":"n","satellite":"N","instrument":"VIIRS","version":"2.0NRT","bright_ti4":301.58,"frp":2.05,"daynight":"N"},"geometry":{"type":"Point","coordinates":[-120.1974,42.40067]}},{"type":"Feature","properties":{"acq_date":"2026-10-01","acq_time":905,"confidence":"n","satellite":"N","instrument":"VIIRS","version":"2.0NRT","bright_ti4":306.99,"frp":1.82,"daynight":"N"},"geometry":{"type":"Point","coordinates":[-120.19019,42.40278]}},{"type":"Feature","properties":{"acq_date":"2026-10-01","acq_time":905,"confidence":"n","satellite":"N","instrument":"VIIRS","version":"2.0NRT","bright_ti4":300.71,"frp":1.82,"daynight":"N"},"geometry":{"type":"Point","coordinates":[-120.19738,42.40286]}},{"type":"Feature","properties":{"acq_date":"2026-10-01","acq_time":905,"confidence":"n","satellite":"N","instrument":"VIIRS","version":"2.0NRT","bright_ti4":295.27,"frp":2.22,"daynight":"N"},"geometry":{"type":"Point","coordinates":[-121.64176,42.91317]}},{"type":"Feature","properties":{"acq_date":"2026-10-01","acq_time":905,"confidence":"n","satellite":"N","instrument":"VIIRS","version":"2.0NRT","bright_ti4":310.19,"frp":5.01,"daynight":"N"},"geometry":{"type":"Point","coordinates":[-121.27031,43.04496]}},{"type":"Feature","properties":{"acq_date":"2026-10-01","acq_time":905,"confidence":"n","satellite":"N","instrument":"VIIRS","version":"2.0NRT","bright_ti4":301.79,"frp":0.34,"daynight":"N"},"geometry":{"type":"Point","coordinates":[-115.73386,43.17986]}},{"type":"Feature","properties":{"acq_date":"2026-10-01","acq_time":905,"confidence":"n","satellite":"N","instrument":"VIIRS","version":"2.0NRT","bright_ti4":298.87,"frp":0.33,"daynight":"N"},"geometry":{"type":"Point","coordinates":[-115.73457,43.18102]}},{"type":"Feature","properties":{"acq_date":"2026-10-01","acq_time":907,"confidence":"n","satellite":"N","instrument":"VIIRS","version":"2.0NRT","bright_ti4":299.38,"frp":0.38,"daynight":"N"},"geometry":{"type":"Point","coordinates":[-116.95247,32.44616]}},{"type":"Feature","properties":{"acq_date":"2026-10-01","acq_time":907,"confidence":"n","satellite":"N","instrument":"VIIRS","version":"2.0NRT","bright_ti4":354.85,"frp":11.9,"daynight":"N"},"geometry":{"type":"Point","coordinates":[-119.58548,37.59478]}},{"type":"Feature","properties":{"acq_date":"2026-10-01","acq_time":907,"confidence":"n","satellite":"N","instrument":"VIIRS","version":"2.0NRT","bright_ti4":307.94,"frp":3.66,"daynight":"N"},"geometry":{"type":"Point","coordinates":[-119.58026,37.5962]}},{"type":"Feature","properties":{"acq_date":"2026-10-01","acq_time":907,"confidence":"n","satellite":"N","instrument":"VIIRS","version":"2.0NRT","bright_ti4":343.73,"frp":3.66,"daynight":"N"},"geometry":{"type":"Point","coordinates":[-119.58688,37.5964]}},{"type":"Feature","properties":{"acq_date":"2026-10-01","acq_time":907,"confidence":"n","satellite":"N","instrument":"VIIRS","version":"2.0NRT","bright_ti4":299.01,"frp":3.66,"daynight":"N"},"geometry":{"type":"Point","coordinates":[-119.58479,37.6027]}},{"type":"Feature","properties":{"acq_date":"2026-10-01","acq_time":907,"confidence":"n","satellite":"N","instrument":"VIIRS","version":"2.0NRT","bright_ti4":301.46,"frp":1.56,"daynight":"N"},"geometry":{"type":"Point","coordinates":[-119.58949,37.60766]}},{"type":"Feature","properties":{"acq_date":"2026-10-01","acq_time":907,"confidence":"n","satellite":"N","instrument":"VIIRS","version":"2.0NRT","bright_ti4":303.08,"frp":1.64,"daynight":"N"},"geometry":{"type":"Point","coordinates":[-119.58459,37.60906]}},{"type":"Feature","properties":{"acq_date":"2026-10-01","acq_time":907,"confidence":"n","satellite":"N","instrument":"VIIRS","version":"2.0NRT","bright_ti4":300.72,"frp":2.51,"daynight":"N"},"geometry":{"type":"Point","coordinates":[-119.59151,37.60928]}},{"type":"Feature","properties":{"acq_date":"2026-10-01","acq_time":907,"confidence":"n","satellite":"N","instrument":"VIIRS","version":"2.0NRT","bright_ti4":297.37,"frp":1.56,"daynight":"N"},"geometry":{"type":"Point","coordinates":[-119.58981,37.61403]}},{"type":"Feature","properties":{"acq_date":"2026-10-01","acq_time":907,"confidence":"n","satellite":"N","instrument":"VIIRS","version":"2.0NRT","bright_ti4":297.95,"frp":1.77,"daynight":"N"},"geometry":{"type":"Point","coordinates":[-119.59682,37.6143]}},{"type":"Feature","properties":{"acq_date":"2026-10-01","acq_time":907,"confidence":"n","satellite":"N","instrument":"VIIRS","version":"2.0NRT","bright_ti4":296.9,"frp":1.21,"daynight":"N"},"geometry":{"type":"Point","coordinates":[-119.63107,37.62327]}},{"type":"Feature","properties":{"acq_date":"2026-10-01","acq_time":907,"confidence":"n","satellite":"N","instrument":"VIIRS","version":"2.0NRT","bright_ti4":310.39,"frp":3.08,"daynight":"N"},"geometry":{"type":"Point","coordinates":[-119.62634,37.62815]}},{"type":"Feature","properties":{"acq_date":"2026-10-01","acq_time":907,"confidence":"n","satellite":"N","instrument":"VIIRS","version":"2.0NRT","bright_ti4":301.87,"frp":1.07,"daynight":"N"},"geometry":{"type":"Point","coordinates":[-119.59438,37.62847]}},{"type":"Feature","properties":{"acq_date":"2026-10-01","acq_time":907,"confidence":"n","satellite":"N","instrument":"VIIRS","version":"2.0NRT","bright_ti4":310.37,"frp":1.21,"daynight":"N"},"geometry":{"type":"Point","coordinates":[-119.62846,37.62957]}},{"type":"Feature","properties":{"acq_date":"2026-10-01","acq_time":907,"confidence":"n","satellite":"N","instrument":"VIIRS","version":"2.0NRT","bright_ti4":313.19,"frp":2.14,"daynight":"N"},"geometry":{"type":"Point","coordinates":[-119.58857,37.63465]}},{"type":"Feature","properties":{"acq_date":"2026-10-01","acq_time":907,"confidence":"n","satellite":"N","instrument":"VIIRS","version":"2.0NRT","bright_ti4":318.42,"frp":3.84,"daynight":"N"},"geometry":{"type":"Point","coordinates":[-119.59526,37.63487]}},{"type":"Feature","properties":{"acq_date":"2026-10-01","acq_time":907,"confidence":"n","satellite":"N","instrument":"VIIRS","version":"2.0NRT","bright_ti4":298.47,"frp":8.19,"daynight":"N"},"geometry":{"type":"Point","coordinates":[-119.61915,37.63565]}},{"type":"Feature","properties":{"acq_date":"2026-10-01","acq_time":907,"confidence":"n","satellite":"N","instrument":"VIIRS","version":"2.0NRT","bright_ti4":349.52,"frp":8.19,"daynight":"N"},"geometry":{"type":"Point","coordinates":[-119.62643,37.63589]}},{"type":"Feature","properties":{"acq_date":"2026-10-01","acq_time":907,"confidence":"n","satellite":"N","instrument":"VIIRS","version":"2.0NRT","bright_ti4":296.35,"frp":1.59,"daynight":"N"},"geometry":{"type":"Point","coordinates":[-119.60753,37.64164]}},{"type":"Feature","properties":{"acq_date":"2026-10-01","acq_time":907,"confidence":"n","satellite":"N","instrument":"VIIRS","version":"2.0NRT","bright_ti4":301.38,"frp":1.59,"daynight":"N"},"geometry":{"type":"Point","coordinates":[-119.61318,37.64183]}},{"type":"Feature","properties":{"acq_date":"2026-10-01","acq_time":907,"confidence":"n","satellite":"N","instrument":"VIIRS","version":"2.0NRT","bright_ti4":302.21,"frp":8.19,"daynight":"N"},"geometry":{"type":"Point","coordinates":[-119.61911,37.64202]}},{"type":"Feature","properties":{"acq_date":"2026-10-01","acq_time":907,"confidence":"h","satellite":"N","instrument":"VIIRS","version":"2.0NRT","bright_ti4":367,"frp":8.19,"daynight":"N"},"geometry":{"type":"Point","coordinates":[-119.62593,37.64225]}},{"type":"Feature","properties":{"acq_date":"2026-10-01","acq_time":907,"confidence":"n","satellite":"N","instrument":"VIIRS","version":"2.0NRT","bright_ti4":310.58,"frp":21.97,"daynight":"N"},"geometry":{"type":"Point","coordinates":[-119.63338,37.64249]}},{"type":"Feature","properties":{"acq_date":"2026-10-01","acq_time":907,"confidence":"n","satellite":"N","instrument":"VIIRS","version":"2.0NRT","bright_ti4":342.08,"frp":5.24,"daynight":"N"},"geometry":{"type":"Point","coordinates":[-119.62595,37.64864]}},{"type":"Feature","properties":{"acq_date":"2026-10-01","acq_time":907,"confidence":"n","satellite":"N","instrument":"VIIRS","version":"2.0NRT","bright_ti4":309.25,"frp":7.22,"daynight":"N"},"geometry":{"type":"Point","coordinates":[-119.63274,37.64886]}},{"type":"Feature","properties":{"acq_date":"2026-10-01","acq_time":907,"confidence":"n","satellite":"N","instrument":"VIIRS","version":"2.0NRT","bright_ti4":310.24,"frp":5.24,"daynight":"N"},"geometry":{"type":"Point","coordinates":[-119.62646,37.65503]}},{"type":"Feature","properties":{"acq_date":"2026-10-01","acq_time":1043,"confidence":"n","satellite":"N","instrument":"VIIRS","version":"2.0NRT","bright_ti4":302.48,"frp":2.25,"daynight":"N"},"geometry":{"type":"Point","coordinates":[-114.25655,40.82478]}},{"type":"Feature","properties":{"acq_date":"2026-10-01","acq_time":1043,"confidence":"n","satellite":"N","instrument":"VIIRS","version":"2.0NRT","bright_ti4":298.52,"frp":1.25,"daynight":"N"},"geometry":{"type":"Point","coordinates":[-113.70652,42.2119]}},{"type":"Feature","properties":{"acq_date":"2026-10-01","acq_time":1043,"confidence":"n","satellite":"N","instrument":"VIIRS","version":"2.0NRT","bright_ti4":314.19,"frp":1.73,"daynight":"N"},"geometry":{"type":"Point","coordinates":[-113.70569,42.2142]}},{"type":"Feature","properties":{"acq_date":"2026-10-01","acq_time":1043,"confidence":"n","satellite":"N","instrument":"VIIRS","version":"2.0NRT","bright_ti4":302.4,"frp":1.25,"daynight":"N"},"geometry":{"type":"Point","coordinates":[-113.70323,42.21744]}},{"type":"Feature","properties":{"acq_date":"2026-10-01","acq_time":1043,"confidence":"n","satellite":"N","instrument":"VIIRS","version":"2.0NRT","bright_ti4":297.4,"frp":0.57,"daynight":"N"},"geometry":{"type":"Point","coordinates":[-120.20248,42.37856]}},{"type":"Feature","properties":{"acq_date":"2026-10-01","acq_time":1043,"confidence":"n","satellite":"N","instrument":"VIIRS","version":"2.0NRT","bright_ti4":310.88,"frp":2.24,"daynight":"N"},"geometry":{"type":"Point","coordinates":[-120.20023,42.38254]}},{"type":"Feature","properties":{"acq_date":"2026-10-01","acq_time":1043,"confidence":"n","satellite":"N","instrument":"VIIRS","version":"2.0NRT","bright_ti4":312.68,"frp":1.9,"daynight":"N"},"geometry":{"type":"Point","coordinates":[-120.20077,42.3828]}},{"type":"Feature","properties":{"acq_date":"2026-10-01","acq_time":1043,"confidence":"n","satellite":"N","instrument":"VIIRS","version":"2.0NRT","bright_ti4":300.93,"frp":1.52,"daynight":"N"},"geometry":{"type":"Point","coordinates":[-120.19254,42.38534]}},{"type":"Feature","properties":{"acq_date":"2026-10-01","acq_time":1043,"confidence":"n","satellite":"N","instrument":"VIIRS","version":"2.0NRT","bright_ti4":303.74,"frp":1.9,"daynight":"N"},"geometry":{"type":"Point","coordinates":[-120.19306,42.38564]}},{"type":"Feature","properties":{"acq_date":"2026-10-01","acq_time":1043,"confidence":"n","satellite":"N","instrument":"VIIRS","version":"2.0NRT","bright_ti4":313.72,"frp":2.24,"daynight":"N"},"geometry":{"type":"Point","coordinates":[-120.19842,42.38676]}},{"type":"Feature","properties":{"acq_date":"2026-10-01","acq_time":1043,"confidence":"n","satellite":"N","instrument":"VIIRS","version":"2.0NRT","bright_ti4":314.56,"frp":1.9,"daynight":"N"},"geometry":{"type":"Point","coordinates":[-120.19894,42.38702]}},{"type":"Feature","properties":{"acq_date":"2026-10-01","acq_time":1043,"confidence":"n","satellite":"N","instrument":"VIIRS","version":"2.0NRT","bright_ti4":305.97,"frp":2.24,"daynight":"N"},"geometry":{"type":"Point","coordinates":[-120.20422,42.38815]}},{"type":"Feature","properties":{"acq_date":"2026-10-01","acq_time":1043,"confidence":"n","satellite":"N","instrument":"VIIRS","version":"2.0NRT","bright_ti4":301.08,"frp":2.67,"daynight":"N"},"geometry":{"type":"Point","coordinates":[-120.20473,42.38838]}},{"type":"Feature","properties":{"acq_date":"2026-10-01","acq_time":1043,"confidence":"n","satellite":"N","instrument":"VIIRS","version":"2.0NRT","bright_ti4":309.17,"frp":1.44,"daynight":"N"},"geometry":{"type":"Point","coordinates":[-120.19073,42.38956]}},{"type":"Feature","properties":{"acq_date":"2026-10-01","acq_time":1043,"confidence":"n","satellite":"N","instrument":"VIIRS","version":"2.0NRT","bright_ti4":299.24,"frp":1.82,"daynight":"N"},"geometry":{"type":"Point","coordinates":[-120.20222,42.39233]}},{"type":"Feature","properties":{"acq_date":"2026-10-01","acq_time":1043,"confidence":"n","satellite":"N","instrument":"VIIRS","version":"2.0NRT","bright_ti4":296.79,"frp":1.44,"daynight":"N"},"geometry":{"type":"Point","coordinates":[-120.18297,42.39235]}},{"type":"Feature","properties":{"acq_date":"2026-10-01","acq_time":1043,"confidence":"n","satellite":"N","instrument":"VIIRS","version":"2.0NRT","bright_ti4":306.06,"frp":1.44,"daynight":"N"},"geometry":{"type":"Point","coordinates":[-120.18882,42.39376]}},{"type":"Feature","properties":{"acq_date":"2026-10-01","acq_time":1043,"confidence":"n","satellite":"N","instrument":"VIIRS","version":"2.0NRT","bright_ti4":306.95,"frp":1.82,"daynight":"N"},"geometry":{"type":"Point","coordinates":[-120.19449,42.39513]}},{"type":"Feature","properties":{"acq_date":"2026-10-01","acq_time":1043,"confidence":"n","satellite":"N","instrument":"VIIRS","version":"2.0NRT","bright_ti4":296.15,"frp":1.15,"daynight":"N"},"geometry":{"type":"Point","coordinates":[-120.18108,42.39656]}},{"type":"Feature","properties":{"acq_date":"2026-10-01","acq_time":1043,"confidence":"n","satellite":"N","instrument":"VIIRS","version":"2.0NRT","bright_ti4":297.9,"frp":1.15,"daynight":"N"},"geometry":{"type":"Point","coordinates":[-120.18689,42.39795]}},{"type":"Feature","properties":{"acq_date":"2026-10-01","acq_time":1043,"confidence":"n","satellite":"N","instrument":"VIIRS","version":"2.0NRT","bright_ti4":310.88,"frp":3.03,"daynight":"N"},"geometry":{"type":"Point","coordinates":[-120.19254,42.39931]}},{"type":"Feature","properties":{"acq_date":"2026-10-01","acq_time":1043,"confidence":"n","satellite":"N","instrument":"VIIRS","version":"2.0NRT","bright_ti4":301.15,"frp":1.15,"daynight":"N"},"geometry":{"type":"Point","coordinates":[-120.18497,42.40215]}},{"type":"Feature","properties":{"acq_date":"2026-10-01","acq_time":1043,"confidence":"n","satellite":"N","instrument":"VIIRS","version":"2.0NRT","bright_ti4":321.7,"frp":3.03,"daynight":"N"},"geometry":{"type":"Point","coordinates":[-120.19061,42.4035]}},{"type":"Feature","properties":{"acq_date":"2026-10-01","acq_time":1043,"confidence":"n","satellite":"N","instrument":"VIIRS","version":"2.0NRT","bright_ti4":300.28,"frp":1.07,"daynight":"N"},"geometry":{"type":"Point","coordinates":[-120.18867,42.40769]}},{"type":"Feature","properties":{"acq_date":"2026-10-01","acq_time":1043,"confidence":"n","satellite":"N","instrument":"VIIRS","version":"2.0NRT","bright_ti4":299.03,"frp":1.58,"daynight":"N"},"geometry":{"type":"Point","coordinates":[-121.72319,42.6183]}},{"type":"Feature","properties":{"acq_date":"2026-10-01","acq_time":1043,"confidence":"n","satellite":"N","instrument":"VIIRS","version":"2.0NRT","bright_ti4":310.28,"frp":1.51,"daynight":"N"},"geometry":{"type":"Point","coordinates":[-121.6372,42.91197]}},{"type":"Feature","properties":{"acq_date":"2026-10-01","acq_time":1043,"confidence":"n","satellite":"N","instrument":"VIIRS","version":"2.0NRT","bright_ti4":300.23,"frp":1.51,"daynight":"N"},"geometry":{"type":"Point","coordinates":[-121.64162,42.91296]}},{"type":"Feature","properties":{"acq_date":"2026-10-01","acq_time":1043,"confidence":"n","satellite":"N","instrument":"VIIRS","version":"2.0NRT","bright_ti4":312.11,"frp":1.38,"daynight":"N"},"geometry":{"type":"Point","coordinates":[-121.63561,42.91589]}},{"type":"Feature","properties":{"acq_date":"2026-10-01","acq_time":1043,"confidence":"n","satellite":"N","instrument":"VIIRS","version":"2.0NRT","bright_ti4":298.63,"frp":1.38,"daynight":"N"},"geometry":{"type":"Point","coordinates":[-121.64024,42.91691]}},{"type":"Feature","properties":{"acq_date":"2026-10-01","acq_time":1043,"confidence":"n","satellite":"N","instrument":"VIIRS","version":"2.0NRT","bright_ti4":295.17,"frp":0.94,"daynight":"N"},"geometry":{"type":"Point","coordinates":[-121.27465,43.03225]}},{"type":"Feature","properties":{"acq_date":"2026-10-01","acq_time":1043,"confidence":"n","satellite":"N","instrument":"VIIRS","version":"2.0NRT","bright_ti4":300.5,"frp":0.94,"daynight":"N"},"geometry":{"type":"Point","coordinates":[-121.27267,43.03613]}},{"type":"Feature","properties":{"acq_date":"2026-10-01","acq_time":1043,"confidence":"n","satellite":"N","instrument":"VIIRS","version":"2.0NRT","bright_ti4":296.62,"frp":0.94,"daynight":"N"},"geometry":{"type":"Point","coordinates":[-121.27745,43.03721]}},{"type":"Feature","properties":{"acq_date":"2026-10-01","acq_time":1043,"confidence":"n","satellite":"N","instrument":"VIIRS","version":"2.0NRT","bright_ti4":312.54,"frp":1.76,"daynight":"N"},"geometry":{"type":"Point","coordinates":[-121.27074,43.04004]}},{"type":"Feature","properties":{"acq_date":"2026-10-01","acq_time":1043,"confidence":"n","satellite":"N","instrument":"VIIRS","version":"2.0NRT","bright_ti4":305.21,"frp":1.76,"daynight":"N"},"geometry":{"type":"Point","coordinates":[-121.27554,43.04111]}},{"type":"Feature","properties":{"acq_date":"2026-10-01","acq_time":1043,"confidence":"n","satellite":"N","instrument":"VIIRS","version":"2.0NRT","bright_ti4":326.18,"frp":1.76,"daynight":"N"},"geometry":{"type":"Point","coordinates":[-121.26884,43.04395]}},{"type":"Feature","properties":{"acq_date":"2026-10-01","acq_time":1043,"confidence":"n","satellite":"N","instrument":"VIIRS","version":"2.0NRT","bright_ti4":298.48,"frp":1.76,"daynight":"N"},"geometry":{"type":"Point","coordinates":[-121.27366,43.04503]}},{"type":"Feature","properties":{"acq_date":"2026-10-01","acq_time":1043,"confidence":"n","satellite":"N","instrument":"VIIRS","version":"2.0NRT","bright_ti4":301.44,"frp":1,"daynight":"N"},"geometry":{"type":"Point","coordinates":[-121.26699,43.04786]}},{"type":"Feature","properties":{"acq_date":"2026-10-01","acq_time":1043,"confidence":"n","satellite":"N","instrument":"VIIRS","version":"2.0NRT","bright_ti4":299.99,"frp":0.57,"daynight":"N"},"geometry":{"type":"Point","coordinates":[-115.73275,43.17874]}},{"type":"Feature","properties":{"acq_date":"2026-10-01","acq_time":1045,"confidence":"n","satellite":"N","instrument":"VIIRS","version":"2.0NRT","bright_ti4":304.15,"frp":0.68,"daynight":"N"},"geometry":{"type":"Point","coordinates":[-118.19199,34.1535]}},{"type":"Feature","properties":{"acq_date":"2026-10-01","acq_time":1045,"confidence":"n","satellite":"N","instrument":"VIIRS","version":"2.0NRT","bright_ti4":302.86,"frp":1.34,"daynight":"N"},"geometry":{"type":"Point","coordinates":[-118.51997,34.33681]}},{"type":"Feature","properties":{"acq_date":"2026-10-01","acq_time":1045,"confidence":"n","satellite":"N","instrument":"VIIRS","version":"2.0NRT","bright_ti4":317.12,"frp":2.36,"daynight":"N"},"geometry":{"type":"Point","coordinates":[-117.33493,34.60735]}},{"type":"Feature","properties":{"acq_date":"2026-10-01","acq_time":1045,"confidence":"n","satellite":"N","instrument":"VIIRS","version":"2.0NRT","bright_ti4":308.67,"frp":1.99,"daynight":"N"},"geometry":{"type":"Point","coordinates":[-117.09977,34.62002]}},{"type":"Feature","properties":{"acq_date":"2026-10-01","acq_time":1045,"confidence":"n","satellite":"N","instrument":"VIIRS","version":"2.0NRT","bright_ti4":299.39,"frp":1.44,"daynight":"N"},"geometry":{"type":"Point","coordinates":[-117.09834,34.62422]}},{"type":"Feature","properties":{"acq_date":"2026-10-01","acq_time":1045,"confidence":"n","satellite":"N","instrument":"VIIRS","version":"2.0NRT","bright_ti4":297.58,"frp":0.9,"daynight":"N"},"geometry":{"type":"Point","coordinates":[-120.73384,37.18152]}},{"type":"Feature","properties":{"acq_date":"2026-10-01","acq_time":1045,"confidence":"n","satellite":"N","instrument":"VIIRS","version":"2.0NRT","bright_ti4":297.87,"frp":0.45,"daynight":"N"},"geometry":{"type":"Point","coordinates":[-121.93142,37.45266]}},{"type":"Feature","properties":{"acq_date":"2026-10-01","acq_time":1045,"confidence":"n","satellite":"N","instrument":"VIIRS","version":"2.0NRT","bright_ti4":300.49,"frp":2.92,"daynight":"N"},"geometry":{"type":"Point","coordinates":[-119.58681,37.59229]}},{"type":"Feature","properties":{"acq_date":"2026-10-01","acq_time":1045,"confidence":"n","satellite":"N","instrument":"VIIRS","version":"2.0NRT","bright_ti4":310.09,"frp":2.92,"daynight":"N"},"geometry":{"type":"Point","coordinates":[-119.58213,37.5965]}},{"type":"Feature","properties":{"acq_date":"2026-10-01","acq_time":1045,"confidence":"h","satellite":"N","instrument":"VIIRS","version":"2.0NRT","bright_ti4":367,"frp":2.92,"daynight":"N"},"geometry":{"type":"Point","coordinates":[-119.58581,37.59744]}},{"type":"Feature","properties":{"acq_date":"2026-10-01","acq_time":1045,"confidence":"n","satellite":"N","instrument":"VIIRS","version":"2.0NRT","bright_ti4":305.82,"frp":1.14,"daynight":"N"},"geometry":{"type":"Point","coordinates":[-119.58811,37.60345]}},{"type":"Feature","properties":{"acq_date":"2026-10-01","acq_time":1045,"confidence":"n","satellite":"N","instrument":"VIIRS","version":"2.0NRT","bright_ti4":297.66,"frp":1.14,"daynight":"N"},"geometry":{"type":"Point","coordinates":[-119.58608,37.60833]}},{"type":"Feature","properties":{"acq_date":"2026-10-01","acq_time":1045,"confidence":"n","satellite":"N","instrument":"VIIRS","version":"2.0NRT","bright_ti4":324.91,"frp":1.14,"daynight":"N"},"geometry":{"type":"Point","coordinates":[-119.58949,37.60921]}},{"type":"Feature","properties":{"acq_date":"2026-10-01","acq_time":1045,"confidence":"n","satellite":"N","instrument":"VIIRS","version":"2.0NRT","bright_ti4":308.14,"frp":0.66,"daynight":"N"},"geometry":{"type":"Point","coordinates":[-119.58727,37.61405]}},{"type":"Feature","properties":{"acq_date":"2026-10-01","acq_time":1045,"confidence":"n","satellite":"N","instrument":"VIIRS","version":"2.0NRT","bright_ti4":295.24,"frp":0.87,"daynight":"N"},"geometry":{"type":"Point","coordinates":[-119.59721,37.61659]}},{"type":"Feature","properties":{"acq_date":"2026-10-01","acq_time":1045,"confidence":"n","satellite":"N","instrument":"VIIRS","version":"2.0NRT","bright_ti4":296.12,"frp":0.65,"daynight":"N"},"geometry":{"type":"Point","coordinates":[-119.62746,37.61892]}},{"type":"Feature","properties":{"acq_date":"2026-10-01","acq_time":1045,"confidence":"n","satellite":"N","instrument":"VIIRS","version":"2.0NRT","bright_ti4":298.31,"frp":1.7,"daynight":"N"},"geometry":{"type":"Point","coordinates":[-119.62638,37.62403]}},{"type":"Feature","properties":{"acq_date":"2026-10-01","acq_time":1045,"confidence":"n","satellite":"N","instrument":"VIIRS","version":"2.0NRT","bright_ti4":339.41,"frp":4.02,"daynight":"N"},"geometry":{"type":"Point","coordinates":[-119.62955,37.62484]}},{"type":"Feature","properties":{"acq_date":"2026-10-01","acq_time":1045,"confidence":"n","satellite":"N","instrument":"VIIRS","version":"2.0NRT","bright_ti4":297.7,"frp":1.7,"daynight":"N"},"geometry":{"type":"Point","coordinates":[-119.62545,37.62919]}},{"type":"Feature","properties":{"acq_date":"2026-10-01","acq_time":1045,"confidence":"n","satellite":"N","instrument":"VIIRS","version":"2.0NRT","bright_ti4":346.67,"frp":4.02,"daynight":"N"},"geometry":{"type":"Point","coordinates":[-119.62854,37.62998]}},{"type":"Feature","properties":{"acq_date":"2026-10-01","acq_time":1045,"confidence":"h","satellite":"N","instrument":"VIIRS","version":"2.0NRT","bright_ti4":367,"frp":7.38,"daynight":"N"},"geometry":{"type":"Point","coordinates":[-119.59295,37.63172]}},{"type":"Feature","properties":{"acq_date":"2026-10-01","acq_time":1045,"confidence":"n","satellite":"N","instrument":"VIIRS","version":"2.0NRT","bright_ti4":317.12,"frp":5.75,"daynight":"N"},"geometry":{"type":"Point","coordinates":[-119.59633,37.63258]}},{"type":"Feature","properties":{"acq_date":"2026-10-01","acq_time":1045,"confidence":"n","satellite":"N","instrument":"VIIRS","version":"2.0NRT","bright_ti4":331.91,"frp":5.12,"daynight":"N"},"geometry":{"type":"Point","coordinates":[-119.62407,37.63423]}},{"type":"Feature","properties":{"acq_date":"2026-10-01","acq_time":1045,"confidence":"n","satellite":"N","instrument":"VIIRS","version":"2.0NRT","bright_ti4":353.77,"frp":10.69,"daynight":"N"},"geometry":{"type":"Point","coordinates":[-119.62728,37.63505]}},{"type":"Feature","properties":{"acq_date":"2026-10-01","acq_time":1045,"confidence":"n","satellite":"N","instrument":"VIIRS","version":"2.0NRT","bright_ti4":331.55,"frp":5.12,"daynight":"N"},"geometry":{"type":"Point","coordinates":[-119.62227,37.63917]}},{"type":"Feature","properties":{"acq_date":"2026-10-01","acq_time":1045,"confidence":"n","satellite":"N","instrument":"VIIRS","version":"2.0NRT","bright_ti4":356.23,"frp":10.69,"daynight":"N"},"geometry":{"type":"Point","coordinates":[-119.62563,37.64003]}},{"type":"Feature","properties":{"acq_date":"2026-10-01","acq_time":1045,"confidence":"h","satellite":"N","instrument":"VIIRS","version":"2.0NRT","bright_ti4":367,"frp":10.69,"daynight":"N"},"geometry":{"type":"Point","coordinates":[-119.62893,37.64086]}},{"type":"Feature","properties":{"acq_date":"2026-10-01","acq_time":1045,"confidence":"n","satellite":"N","instrument":"VIIRS","version":"2.0NRT","bright_ti4":297.42,"frp":0.71,"daynight":"N"},"geometry":{"type":"Point","coordinates":[-119.60876,37.64114]}},{"type":"Feature","properties":{"acq_date":"2026-10-01","acq_time":1045,"confidence":"n","satellite":"N","instrument":"VIIRS","version":"2.0NRT","bright_ti4":303.07,"frp":0.71,"daynight":"N"},"geometry":{"type":"Point","coordinates":[-119.61263,37.64212]}},{"type":"Feature","properties":{"acq_date":"2026-10-01","acq_time":1045,"confidence":"n","satellite":"N","instrument":"VIIRS","version":"2.0NRT","bright_ti4":305.88,"frp":3.5,"daynight":"N"},"geometry":{"type":"Point","coordinates":[-119.62013,37.64402]}},{"type":"Feature","properties":{"acq_date":"2026-10-01","acq_time":1045,"confidence":"n","satellite":"N","instrument":"VIIRS","version":"2.0NRT","bright_ti4":296.67,"frp":0.69,"daynight":"N"},"geometry":{"type":"Point","coordinates":[-119.60777,37.64477]}},{"type":"Feature","properties":{"acq_date":"2026-10-01","acq_time":1045,"confidence":"n","satellite":"N","instrument":"VIIRS","version":"2.0NRT","bright_ti4":347.82,"frp":4.58,"daynight":"N"},"geometry":{"type":"Point","coordinates":[-119.62365,37.64491]}},{"type":"Feature","properties":{"acq_date":"2026-10-01","acq_time":1045,"confidence":"n","satellite":"N","instrument":"VIIRS","version":"2.0NRT","bright_ti4":306.14,"frp":0.69,"daynight":"N"},"geometry":{"type":"Point","coordinates":[-119.61157,37.64576]}},{"type":"Feature","properties":{"acq_date":"2026-10-01","acq_time":1045,"confidence":"h","satellite":"N","instrument":"VIIRS","version":"2.0NRT","bright_ti4":367,"frp":4.58,"daynight":"N"},"geometry":{"type":"Point","coordinates":[-119.62704,37.64577]}},{"type":"Feature","properties":{"acq_date":"2026-10-01","acq_time":1045,"confidence":"n","satellite":"N","instrument":"VIIRS","version":"2.0NRT","bright_ti4":345.39,"frp":4.21,"daynight":"N"},"geometry":{"type":"Point","coordinates":[-119.63048,37.64665]}},{"type":"Feature","properties":{"acq_date":"2026-10-01","acq_time":1045,"confidence":"n","satellite":"N","instrument":"VIIRS","version":"2.0NRT","bright_ti4":297.15,"frp":0.71,"daynight":"N"},"geometry":{"type":"Point","coordinates":[-119.60999,37.64685]}},{"type":"Feature","properties":{"acq_date":"2026-10-01","acq_time":1045,"confidence":"n","satellite":"N","instrument":"VIIRS","version":"2.0NRT","bright_ti4":320.76,"frp":2.6,"daynight":"N"},"geometry":{"type":"Point","coordinates":[-119.62273,37.64866]}},{"type":"Feature","properties":{"acq_date":"2026-10-01","acq_time":1045,"confidence":"n","satellite":"N","instrument":"VIIRS","version":"2.0NRT","bright_ti4":337.37,"frp":2.6,"daynight":"N"},"geometry":{"type":"Point","coordinates":[-119.62612,37.64955]}},{"type":"Feature","properties":{"acq_date":"2026-10-01","acq_time":1045,"confidence":"n","satellite":"N","instrument":"VIIRS","version":"2.0NRT","bright_ti4":298.66,"frp":4.58,"daynight":"N"},"geometry":{"type":"Point","coordinates":[-119.62134,37.64972]}},{"type":"Feature","properties":{"acq_date":"2026-10-01","acq_time":1045,"confidence":"n","satellite":"N","instrument":"VIIRS","version":"2.0NRT","bright_ti4":344.32,"frp":3.09,"daynight":"N"},"geometry":{"type":"Point","coordinates":[-119.62952,37.65043]}},{"type":"Feature","properties":{"acq_date":"2026-10-01","acq_time":1045,"confidence":"n","satellite":"N","instrument":"VIIRS","version":"2.0NRT","bright_ti4":331.08,"frp":4.58,"daynight":"N"},"geometry":{"type":"Point","coordinates":[-119.62479,37.6506]}},{"type":"Feature","properties":{"acq_date":"2026-10-01","acq_time":1045,"confidence":"n","satellite":"N","instrument":"VIIRS","version":"2.0NRT","bright_ti4":336.41,"frp":4.21,"daynight":"N"},"geometry":{"type":"Point","coordinates":[-119.62821,37.65146]}},{"type":"Feature","properties":{"acq_date":"2026-10-01","acq_time":1045,"confidence":"n","satellite":"N","instrument":"VIIRS","version":"2.0NRT","bright_ti4":297.25,"frp":4.21,"daynight":"N"},"geometry":{"type":"Point","coordinates":[-119.63168,37.65234]}},{"type":"Feature","properties":{"acq_date":"2026-10-01","acq_time":1045,"confidence":"n","satellite":"N","instrument":"VIIRS","version":"2.0NRT","bright_ti4":301.9,"frp":2.6,"daynight":"N"},"geometry":{"type":"Point","coordinates":[-119.62383,37.65435]}},{"type":"Feature","properties":{"acq_date":"2026-10-01","acq_time":1045,"confidence":"n","satellite":"N","instrument":"VIIRS","version":"2.0NRT","bright_ti4":313.56,"frp":3.09,"daynight":"N"},"geometry":{"type":"Point","coordinates":[-119.62725,37.65524]}},{"type":"Feature","properties":{"acq_date":"2026-10-01","acq_time":1045,"confidence":"n","satellite":"N","instrument":"VIIRS","version":"2.0NRT","bright_ti4":295.59,"frp":0.48,"daynight":"N"},"geometry":{"type":"Point","coordinates":[-119.62241,37.65538]}},{"type":"Feature","properties":{"acq_date":"2026-10-01","acq_time":1045,"confidence":"n","satellite":"N","instrument":"VIIRS","version":"2.0NRT","bright_ti4":315.04,"frp":3.09,"daynight":"N"},"geometry":{"type":"Point","coordinates":[-119.63075,37.65614]}},{"type":"Feature","properties":{"acq_date":"2026-10-01","acq_time":1045,"confidence":"n","satellite":"N","instrument":"VIIRS","version":"2.0NRT","bright_ti4":310.16,"frp":0.92,"daynight":"N"},"geometry":{"type":"Point","coordinates":[-119.6259,37.65627]}},{"type":"Feature","properties":{"acq_date":"2026-10-01","acq_time":1045,"confidence":"n","satellite":"N","instrument":"VIIRS","version":"2.0NRT","bright_ti4":317.48,"frp":0.92,"daynight":"N"},"geometry":{"type":"Point","coordinates":[-119.62941,37.65715]}},{"type":"Feature","properties":{"acq_date":"2026-10-01","acq_time":1045,"confidence":"n","satellite":"N","instrument":"VIIRS","version":"2.0NRT","bright_ti4":302.27,"frp":0.11,"daynight":"N"},"geometry":{"type":"Point","coordinates":[-119.44147,38.04887]}},{"type":"Feature","properties":{"acq_date":"2026-10-01","acq_time":1045,"confidence":"n","satellite":"N","instrument":"VIIRS","version":"2.0NRT","bright_ti4":298.98,"frp":0.74,"daynight":"N"},"geometry":{"type":"Point","coordinates":[-121.25394,38.17498]}},{"type":"Feature","properties":{"acq_date":"2026-10-01","acq_time":1045,"confidence":"n","satellite":"N","instrument":"VIIRS","version":"2.0NRT","bright_ti4":298,"frp":1.52,"daynight":"N"},"geometry":{"type":"Point","coordinates":[-119.2617,39.61718]}},{"type":"Feature","properties":{"acq_date":"2026-10-01","acq_time":1045,"confidence":"n","satellite":"N","instrument":"VIIRS","version":"2.0NRT","bright_ti4":299.66,"frp":0.55,"daynight":"N"},"geometry":{"type":"Point","coordinates":[-122.3225,40.738]}}]}