{"type":"FeatureCollection","name":"FIRMS VIIRS CA (last 1 day)","crs":{"type":"name","properties":{"name":"EPSG:4326"}},"fetched_at_utc":"2026-08-31T19:52:59.998Z","source":{"url":"https://firms.modaps.eosdis.nasa.gov/api/area/csv/8c4af552cf654445dd280dfb3ad9337c/VIIRS_SNPP_NRT/-125,32,-113,43.5/1","dataset":"VIIRS_SNPP_NRT","bbox":"-125,32,-113,43.5","day_range":"1"},"features":[{"type":"Feature","properties":{"acq_date":"2026-08-31","acq_time":845,"confidence":"n","satellite":"N","instrument":"VIIRS","version":"2.0NRT","bright_ti4":306.13,"frp":1.29,"daynight":"N"},"geometry":{"type":"Point","coordinates":[-117.33861,34.60955]}},{"type":"Feature","properties":{"acq_date":"2026-08-31","acq_time":845,"confidence":"n","satellite":"N","instrument":"VIIRS","version":"2.0NRT","bright_ti4":313.66,"frp":2.05,"daynight":"N"},"geometry":{"type":"Point","coordinates":[-113.15641,36.2767]}},{"type":"Feature","properties":{"acq_date":"2026-08-31","acq_time":845,"confidence":"n","satellite":"N","instrument":"VIIRS","version":"2.0NRT","bright_ti4":303.64,"frp":0.75,"daynight":"N"},"geometry":{"type":"Point","coordinates":[-113.1561,36.28242]}},{"type":"Feature","properties":{"acq_date":"2026-08-31","acq_time":845,"confidence":"n","satellite":"N","instrument":"VIIRS","version":"2.0NRT","bright_ti4":296.35,"frp":0.75,"daynight":"N"},"geometry":{"type":"Point","coordinates":[-113.16041,36.28265]}},{"type":"Feature","properties":{"acq_date":"2026-08-31","acq_time":845,"confidence":"n","satellite":"N","instrument":"VIIRS","version":"2.0NRT","bright_ti4":304.63,"frp":1.73,"daynight":"N"},"geometry":{"type":"Point","coordinates":[-114.90958,36.35845]}},{"type":"Feature","properties":{"acq_date":"2026-08-31","acq_time":845,"confidence":"n","satellite":"N","instrument":"VIIRS","version":"2.0NRT","bright_ti4":305.24,"frp":1.54,"daynight":"N"},"geometry":{"type":"Point","coordinates":[-114.25492,40.82019]}},{"type":"Feature","properties":{"acq_date":"2026-08-31","acq_time":848,"confidence":"n","satellite":"N","instrument":"VIIRS","version":"2.0NRT","bright_ti4":311.43,"frp":1.65,"daynight":"N"},"geometry":{"type":"Point","coordinates":[-116.94753,32.40554]}},{"type":"Feature","properties":{"acq_date":"2026-08-31","acq_time":848,"confidence":"n","satellite":"N","instrument":"VIIRS","version":"2.0NRT","bright_ti4":312.5,"frp":2.03,"daynight":"N"},"geometry":{"type":"Point","coordinates":[-116.78838,32.49633]}},{"type":"Feature","properties":{"acq_date":"2026-08-31","acq_time":848,"confidence":"n","satellite":"N","instrument":"VIIRS","version":"2.0NRT","bright_ti4":329.3,"frp":4.15,"daynight":"N"},"geometry":{"type":"Point","coordinates":[-116.32192,32.49658]}},{"type":"Feature","properties":{"acq_date":"2026-08-31","acq_time":848,"confidence":"n","satellite":"N","instrument":"VIIRS","version":"2.0NRT","bright_ti4":305.62,"frp":2.03,"daynight":"N"},"geometry":{"type":"Point","coordinates":[-116.79655,32.49666]}},{"type":"Feature","properties":{"acq_date":"2026-08-31","acq_time":848,"confidence":"n","satellite":"N","instrument":"VIIRS","version":"2.0NRT","bright_ti4":328.54,"frp":3.28,"daynight":"N"},"geometry":{"type":"Point","coordinates":[-116.3204,32.50096]}},{"type":"Feature","properties":{"acq_date":"2026-08-31","acq_time":848,"confidence":"n","satellite":"N","instrument":"VIIRS","version":"2.0NRT","bright_ti4":299.44,"frp":0.73,"daynight":"N"},"geometry":{"type":"Point","coordinates":[-116.32147,32.50317]}},{"type":"Feature","properties":{"acq_date":"2026-08-31","acq_time":1026,"confidence":"n","satellite":"N","instrument":"VIIRS","version":"2.0NRT","bright_ti4":297.16,"frp":0.91,"daynight":"N"},"geometry":{"type":"Point","coordinates":[-113.31358,35.51714]}},{"type":"Feature","properties":{"acq_date":"2026-08-31","acq_time":1026,"confidence":"n","satellite":"N","instrument":"VIIRS","version":"2.0NRT","bright_ti4":299.52,"frp":0.65,"daynight":"N"},"geometry":{"type":"Point","coordinates":[-113.15928,36.27566]}},{"type":"Feature","properties":{"acq_date":"2026-08-31","acq_time":1026,"confidence":"n","satellite":"N","instrument":"VIIRS","version":"2.0NRT","bright_ti4":300.28,"frp":1.47,"daynight":"N"},"geometry":{"type":"Point","coordinates":[-113.15633,36.28102]}},{"type":"Feature","properties":{"acq_date":"2026-08-31","acq_time":1026,"confidence":"n","satellite":"N","instrument":"VIIRS","version":"2.0NRT","bright_ti4":306.61,"frp":0.68,"daynight":"N"},"geometry":{"type":"Point","coordinates":[-114.91105,36.35472]}},{"type":"Feature","properties":{"acq_date":"2026-08-31","acq_time":1026,"confidence":"n","satellite":"N","instrument":"VIIRS","version":"2.0NRT","bright_ti4":306.52,"frp":1.34,"daynight":"N"},"geometry":{"type":"Point","coordinates":[-114.91325,36.35524]}},{"type":"Feature","properties":{"acq_date":"2026-08-31","acq_time":1026,"confidence":"n","satellite":"N","instrument":"VIIRS","version":"2.0NRT","bright_ti4":295.95,"frp":0.28,"daynight":"N"},"geometry":{"type":"Point","coordinates":[-121.89906,37.21291]}},{"type":"Feature","properties":{"acq_date":"2026-08-31","acq_time":1026,"confidence":"n","satellite":"N","instrument":"VIIRS","version":"2.0NRT","bright_ti4":303.46,"frp":0.73,"daynight":"N"},"geometry":{"type":"Point","coordinates":[-121.18633,37.88147]}},{"type":"Feature","properties":{"acq_date":"2026-08-31","acq_time":1026,"confidence":"n","satellite":"N","instrument":"VIIRS","version":"2.0NRT","bright_ti4":300.64,"frp":0.48,"daynight":"N"},"geometry":{"type":"Point","coordinates":[-121.93671,38.00439]}},{"type":"Feature","properties":{"acq_date":"2026-08-31","acq_time":1026,"confidence":"n","satellite":"N","instrument":"VIIRS","version":"2.0NRT","bright_ti4":303.19,"frp":1.71,"daynight":"N"},"geometry":{"type":"Point","coordinates":[-122.11365,38.01589]}},{"type":"Feature","properties":{"acq_date":"2026-08-31","acq_time":1026,"confidence":"n","satellite":"N","instrument":"VIIRS","version":"2.0NRT","bright_ti4":298.42,"frp":0.44,"daynight":"N"},"geometry":{"type":"Point","coordinates":[-122.74747,38.30176]}},{"type":"Feature","properties":{"acq_date":"2026-08-31","acq_time":1026,"confidence":"n","satellite":"N","instrument":"VIIRS","version":"2.0NRT","bright_ti4":297.06,"frp":0.42,"daynight":"N"},"geometry":{"type":"Point","coordinates":[-121.83536,38.31443]}},{"type":"Feature","properties":{"acq_date":"2026-08-31","acq_time":1026,"confidence":"n","satellite":"N","instrument":"VIIRS","version":"2.0NRT","bright_ti4":298.69,"frp":0.42,"daynight":"N"},"geometry":{"type":"Point","coordinates":[-121.63001,39.08892]}},{"type":"Feature","properties":{"acq_date":"2026-08-31","acq_time":1026,"confidence":"n","satellite":"N","instrument":"VIIRS","version":"2.0NRT","bright_ti4":296.14,"frp":1.06,"daynight":"N"},"geometry":{"type":"Point","coordinates":[-119.26413,39.61827]}},{"type":"Feature","properties":{"acq_date":"2026-08-31","acq_time":1026,"confidence":"n","satellite":"N","instrument":"VIIRS","version":"2.0NRT","bright_ti4":308.43,"frp":2.79,"daynight":"N"},"geometry":{"type":"Point","coordinates":[-114.25838,40.82381]}},{"type":"Feature","properties":{"acq_date":"2026-08-31","acq_time":1026,"confidence":"n","satellite":"N","instrument":"VIIRS","version":"2.0NRT","bright_ti4":306.54,"frp":2.74,"daynight":"N"},"geometry":{"type":"Point","coordinates":[-117.69708,41.58456]}},{"type":"Feature","properties":{"acq_date":"2026-08-31","acq_time":1026,"confidence":"n","satellite":"N","instrument":"VIIRS","version":"2.0NRT","bright_ti4":295.92,"frp":0.21,"daynight":"N"},"geometry":{"type":"Point","coordinates":[-122.77599,42.38492]}},{"type":"Feature","properties":{"acq_date":"2026-08-31","acq_time":1026,"confidence":"n","satellite":"N","instrument":"VIIRS","version":"2.0NRT","bright_ti4":295.95,"frp":0.99,"daynight":"N"},"geometry":{"type":"Point","coordinates":[-121.67194,42.41926]}},{"type":"Feature","properties":{"acq_date":"2026-08-31","acq_time":1026,"confidence":"n","satellite":"N","instrument":"VIIRS","version":"2.0NRT","bright_ti4":297.94,"frp":0.85,"daynight":"N"},"geometry":{"type":"Point","coordinates":[-121.6706,42.42257]}},{"type":"Feature","properties":{"acq_date":"2026-08-31","acq_time":1026,"confidence":"n","satellite":"N","instrument":"VIIRS","version":"2.0NRT","bright_ti4":307.03,"frp":0.91,"daynight":"N"},"geometry":{"type":"Point","coordinates":[-115.66621,43.14544]}},{"type":"Feature","properties":{"acq_date":"2026-08-31","acq_time":1026,"confidence":"n","satellite":"N","instrument":"VIIRS","version":"2.0NRT","bright_ti4":299.94,"frp":0.85,"daynight":"N"},"geometry":{"type":"Point","coordinates":[-115.7327,43.1773]}},{"type":"Feature","properties":{"acq_date":"2026-08-31","acq_time":1026,"confidence":"n","satellite":"N","instrument":"VIIRS","version":"2.0NRT","bright_ti4":308.13,"frp":1.17,"daynight":"N"},"geometry":{"type":"Point","coordinates":[-123.529,43.41607]}},{"type":"Feature","properties":{"acq_date":"2026-08-31","acq_time":1028,"confidence":"n","satellite":"N","instrument":"VIIRS","version":"2.0NRT","bright_ti4":302.62,"frp":0.96,"daynight":"N"},"geometry":{"type":"Point","coordinates":[-116.79069,32.49479]}},{"type":"Feature","properties":{"acq_date":"2026-08-31","acq_time":1028,"confidence":"n","satellite":"N","instrument":"VIIRS","version":"2.0NRT","bright_ti4":317.38,"frp":2.01,"daynight":"N"},"geometry":{"type":"Point","coordinates":[-116.79153,32.49518]}},{"type":"Feature","properties":{"acq_date":"2026-08-31","acq_time":1028,"confidence":"n","satellite":"N","instrument":"VIIRS","version":"2.0NRT","bright_ti4":312.3,"frp":0.96,"daynight":"N"},"geometry":{"type":"Point","coordinates":[-116.79397,32.49559]}},{"type":"Feature","properties":{"acq_date":"2026-08-31","acq_time":1028,"confidence":"n","satellite":"N","instrument":"VIIRS","version":"2.0NRT","bright_ti4":307.11,"frp":0.96,"daynight":"N"},"geometry":{"type":"Point","coordinates":[-116.7889,32.49986]}},{"type":"Feature","properties":{"acq_date":"2026-08-31","acq_time":1028,"confidence":"n","satellite":"N","instrument":"VIIRS","version":"2.0NRT","bright_ti4":317.8,"frp":2.01,"daynight":"N"},"geometry":{"type":"Point","coordinates":[-116.78979,32.50025]}},{"type":"Feature","properties":{"acq_date":"2026-08-31","acq_time":1028,"confidence":"n","satellite":"N","instrument":"VIIRS","version":"2.0NRT","bright_ti4":312.76,"frp":0.96,"daynight":"N"},"geometry":{"type":"Point","coordinates":[-116.79234,32.50071]}},{"type":"Feature","properties":{"acq_date":"2026-08-31","acq_time":1028,"confidence":"n","satellite":"N","instrument":"VIIRS","version":"2.0NRT","bright_ti4":303.77,"frp":2.18,"daynight":"N"},"geometry":{"type":"Point","coordinates":[-118.24377,33.81913]}},{"type":"Feature","properties":{"acq_date":"2026-08-31","acq_time":1028,"confidence":"n","satellite":"N","instrument":"VIIRS","version":"2.0NRT","bright_ti4":308.18,"frp":0.86,"daynight":"N"},"geometry":{"type":"Point","coordinates":[-118.19316,34.15382]}},{"type":"Feature","properties":{"acq_date":"2026-08-31","acq_time":1028,"confidence":"n","satellite":"N","instrument":"VIIRS","version":"2.0NRT","bright_ti4":308.46,"frp":0.67,"daynight":"N"},"geometry":{"type":"Point","coordinates":[-118.51697,34.33323]}},{"type":"Feature","properties":{"acq_date":"2026-08-31","acq_time":1028,"confidence":"n","satellite":"N","instrument":"VIIRS","version":"2.0NRT","bright_ti4":303.75,"frp":1.1,"daynight":"N"},"geometry":{"type":"Point","coordinates":[-117.55958,34.42834]}},{"type":"Feature","properties":{"acq_date":"2026-08-31","acq_time":1028,"confidence":"n","satellite":"N","instrument":"VIIRS","version":"2.0NRT","bright_ti4":308.8,"frp":1.66,"daynight":"N"},"geometry":{"type":"Point","coordinates":[-118.643,34.43005]}},{"type":"Feature","properties":{"acq_date":"2026-08-31","acq_time":1028,"confidence":"n","satellite":"N","instrument":"VIIRS","version":"2.0NRT","bright_ti4":306.99,"frp":2.95,"daynight":"N"},"geometry":{"type":"Point","coordinates":[-117.33759,34.60716]}},{"type":"Feature","properties":{"acq_date":"2026-08-31","acq_time":1028,"confidence":"n","satellite":"N","instrument":"VIIRS","version":"2.0NRT","bright_ti4":302.11,"frp":1.56,"daynight":"N"},"geometry":{"type":"Point","coordinates":[-117.0985,34.6193]}},{"type":"Feature","properties":{"acq_date":"2026-08-31","acq_time":1028,"confidence":"n","satellite":"N","instrument":"VIIRS","version":"2.0NRT","bright_ti4":296.06,"frp":1.13,"daynight":"N"},"geometry":{"type":"Point","coordinates":[-118.36822,35.12186]}},{"type":"Feature","properties":{"acq_date":"2026-08-31","acq_time":1028,"confidence":"n","satellite":"N","instrument":"VIIRS","version":"2.0NRT","bright_ti4":308.26,"frp":1.6,"daynight":"N"},"geometry":{"type":"Point","coordinates":[-121.33492,35.86447]}},{"type":"Feature","properties":{"acq_date":"2026-08-31","acq_time":1028,"confidence":"n","satellite":"N","instrument":"VIIRS","version":"2.0NRT","bright_ti4":304.7,"frp":1.56,"daynight":"N"},"geometry":{"type":"Point","coordinates":[-121.32763,35.86694]}},{"type":"Feature","properties":{"acq_date":"2026-08-31","acq_time":1028,"confidence":"n","satellite":"N","instrument":"VIIRS","version":"2.0NRT","bright_ti4":315.71,"frp":1.56,"daynight":"N"},"geometry":{"type":"Point","coordinates":[-121.33328,35.86809]}},{"type":"Feature","properties":{"acq_date":"2026-08-31","acq_time":1028,"confidence":"n","satellite":"N","instrument":"VIIRS","version":"2.0NRT","bright_ti4":314.03,"frp":3.16,"daynight":"N"},"geometry":{"type":"Point","coordinates":[-121.33888,35.86923]}},{"type":"Feature","properties":{"acq_date":"2026-08-31","acq_time":1028,"confidence":"n","satellite":"N","instrument":"VIIRS","version":"2.0NRT","bright_ti4":332.56,"frp":5.19,"daynight":"N"},"geometry":{"type":"Point","coordinates":[-121.37415,35.87245]}},{"type":"Feature","properties":{"acq_date":"2026-08-31","acq_time":1028,"confidence":"n","satellite":"N","instrument":"VIIRS","version":"2.0NRT","bright_ti4":322.97,"frp":3.16,"daynight":"N"},"geometry":{"type":"Point","coordinates":[-121.33729,35.87286]}},{"type":"Feature","properties":{"acq_date":"2026-08-31","acq_time":1028,"confidence":"n","satellite":"N","instrument":"VIIRS","version":"2.0NRT","bright_ti4":319.77,"frp":5.19,"daynight":"N"},"geometry":{"type":"Point","coordinates":[-121.37936,35.8735]}},{"type":"Feature","properties":{"acq_date":"2026-08-31","acq_time":1028,"confidence":"n","satellite":"N","instrument":"VIIRS","version":"2.0NRT","bright_ti4":335.76,"frp":4.69,"daynight":"N"},"geometry":{"type":"Point","coordinates":[-121.38454,35.87455]}},{"type":"Feature","properties":{"acq_date":"2026-08-31","acq_time":1028,"confidence":"n","satellite":"N","instrument":"VIIRS","version":"2.0NRT","bright_ti4":313.41,"frp":4.69,"daynight":"N"},"geometry":{"type":"Point","coordinates":[-121.38988,35.87564]}},{"type":"Feature","properties":{"acq_date":"2026-08-31","acq_time":1028,"confidence":"n","satellite":"N","instrument":"VIIRS","version":"2.0NRT","bright_ti4":328.45,"frp":3.44,"daynight":"N"},"geometry":{"type":"Point","coordinates":[-121.37328,35.87622]}},{"type":"Feature","properties":{"acq_date":"2026-08-31","acq_time":1028,"confidence":"n","satellite":"N","instrument":"VIIRS","version":"2.0NRT","bright_ti4":305.59,"frp":1.01,"daynight":"N"},"geometry":{"type":"Point","coordinates":[-121.33581,35.87652]}},{"type":"Feature","properties":{"acq_date":"2026-08-31","acq_time":1028,"confidence":"n","satellite":"N","instrument":"VIIRS","version":"2.0NRT","bright_ti4":330.81,"frp":3.44,"daynight":"N"},"geometry":{"type":"Point","coordinates":[-121.37836,35.87725]}},{"type":"Feature","properties":{"acq_date":"2026-08-31","acq_time":1028,"confidence":"n","satellite":"N","instrument":"VIIRS","version":"2.0NRT","bright_ti4":303.22,"frp":2.1,"daynight":"N"},"geometry":{"type":"Point","coordinates":[-121.38353,35.8783]}},{"type":"Feature","properties":{"acq_date":"2026-08-31","acq_time":1028,"confidence":"n","satellite":"N","instrument":"VIIRS","version":"2.0NRT","bright_ti4":316.15,"frp":2.39,"daynight":"N"},"geometry":{"type":"Point","coordinates":[-121.41749,35.88124]}},{"type":"Feature","properties":{"acq_date":"2026-08-31","acq_time":1028,"confidence":"n","satellite":"N","instrument":"VIIRS","version":"2.0NRT","bright_ti4":304.78,"frp":2.39,"daynight":"N"},"geometry":{"type":"Point","coordinates":[-121.42259,35.88227]}},{"type":"Feature","properties":{"acq_date":"2026-08-31","acq_time":1028,"confidence":"n","satellite":"N","instrument":"VIIRS","version":"2.0NRT","bright_ti4":327.41,"frp":4.56,"daynight":"N"},"geometry":{"type":"Point","coordinates":[-121.41122,35.88391]}},{"type":"Feature","properties":{"acq_date":"2026-08-31","acq_time":1028,"confidence":"n","satellite":"N","instrument":"VIIRS","version":"2.0NRT","bright_ti4":300.91,"frp":1.56,"daynight":"N"},"geometry":{"type":"Point","coordinates":[-121.39394,35.88435]}},{"type":"Feature","properties":{"acq_date":"2026-08-31","acq_time":1028,"confidence":"n","satellite":"N","instrument":"VIIRS","version":"2.0NRT","bright_ti4":347.08,"frp":7.88,"daynight":"N"},"geometry":{"type":"Point","coordinates":[-121.41635,35.88494]}},{"type":"Feature","properties":{"acq_date":"2026-08-31","acq_time":1028,"confidence":"n","satellite":"N","instrument":"VIIRS","version":"2.0NRT","bright_ti4":322.43,"frp":7.88,"daynight":"N"},"geometry":{"type":"Point","coordinates":[-121.42146,35.88598]}},{"type":"Feature","properties":{"acq_date":"2026-08-31","acq_time":1028,"confidence":"n","satellite":"N","instrument":"VIIRS","version":"2.0NRT","bright_ti4":309.09,"frp":4.56,"daynight":"N"},"geometry":{"type":"Point","coordinates":[-121.40472,35.88654]}},{"type":"Feature","properties":{"acq_date":"2026-08-31","acq_time":1028,"confidence":"n","satellite":"N","instrument":"VIIRS","version":"2.0NRT","bright_ti4":345.7,"frp":4.56,"daynight":"N"},"geometry":{"type":"Point","coordinates":[-121.40997,35.8876]}},{"type":"Feature","properties":{"acq_date":"2026-08-31","acq_time":1028,"confidence":"n","satellite":"N","instrument":"VIIRS","version":"2.0NRT","bright_ti4":330.3,"frp":7.88,"daynight":"N"},"geometry":{"type":"Point","coordinates":[-121.41508,35.88863]}},{"type":"Feature","properties":{"acq_date":"2026-08-31","acq_time":1028,"confidence":"n","satellite":"N","instrument":"VIIRS","version":"2.0NRT","bright_ti4":333.46,"frp":3.84,"daynight":"N"},"geometry":{"type":"Point","coordinates":[-121.40336,35.89019]}},{"type":"Feature","properties":{"acq_date":"2026-08-31","acq_time":1028,"confidence":"n","satellite":"N","instrument":"VIIRS","version":"2.0NRT","bright_ti4":311.9,"frp":3.84,"daynight":"N"},"geometry":{"type":"Point","coordinates":[-121.40693,35.89486]}},{"type":"Feature","properties":{"acq_date":"2026-08-31","acq_time":1028,"confidence":"n","satellite":"N","instrument":"VIIRS","version":"2.0NRT","bright_ti4":321.49,"frp":4.06,"daynight":"N"},"geometry":{"type":"Point","coordinates":[-121.33055,35.89522]}},{"type":"Feature","properties":{"acq_date":"2026-08-31","acq_time":1028,"confidence":"n","satellite":"N","instrument":"VIIRS","version":"2.0NRT","bright_ti4":308.25,"frp":2.38,"daynight":"N"},"geometry":{"type":"Point","coordinates":[-121.32932,35.89893]}},{"type":"Feature","properties":{"acq_date":"2026-08-31","acq_time":1028,"confidence":"n","satellite":"N","instrument":"VIIRS","version":"2.0NRT","bright_ti4":308.14,"frp":2.47,"daynight":"N"},"geometry":{"type":"Point","coordinates":[-121.37154,35.89955]}},{"type":"Feature","properties":{"acq_date":"2026-08-31","acq_time":1028,"confidence":"n","satellite":"N","instrument":"VIIRS","version":"2.0NRT","bright_ti4":306.05,"frp":1.95,"daynight":"N"},"geometry":{"type":"Point","coordinates":[-121.37649,35.90054]}},{"type":"Feature","properties":{"acq_date":"2026-08-31","acq_time":1028,"confidence":"n","satellite":"N","instrument":"VIIRS","version":"2.0NRT","bright_ti4":298.46,"frp":1.13,"daynight":"N"},"geometry":{"type":"Point","coordinates":[-121.33264,35.90751]}},{"type":"Feature","properties":{"acq_date":"2026-08-31","acq_time":1028,"confidence":"n","satellite":"N","instrument":"VIIRS","version":"2.0NRT","bright_ti4":301.78,"frp":1.21,"daynight":"N"},"geometry":{"type":"Point","coordinates":[-121.3288,35.91859]}},{"type":"Feature","properties":{"acq_date":"2026-08-31","acq_time":1028,"confidence":"n","satellite":"N","instrument":"VIIRS","version":"2.0NRT","bright_ti4":297.66,"frp":1.31,"daynight":"N"},"geometry":{"type":"Point","coordinates":[-121.32207,35.92119]}},{"type":"Feature","properties":{"acq_date":"2026-08-31","acq_time":1028,"confidence":"n","satellite":"N","instrument":"VIIRS","version":"2.0NRT","bright_ti4":298.36,"frp":1.31,"daynight":"N"},"geometry":{"type":"Point","coordinates":[-121.32753,35.92228]}},{"type":"Feature","properties":{"acq_date":"2026-08-31","acq_time":1028,"confidence":"n","satellite":"N","instrument":"VIIRS","version":"2.0NRT","bright_ti4":305.2,"frp":2.47,"daynight":"N"},"geometry":{"type":"Point","coordinates":[-121.31474,35.92762]}},{"type":"Feature","properties":{"acq_date":"2026-08-31","acq_time":1028,"confidence":"n","satellite":"N","instrument":"VIIRS","version":"2.0NRT","bright_ti4":304.65,"frp":3.29,"daynight":"N"},"geometry":{"type":"Point","coordinates":[-121.31987,35.92865]}},{"type":"Feature","properties":{"acq_date":"2026-08-31","acq_time":1028,"confidence":"n","satellite":"N","instrument":"VIIRS","version":"2.0NRT","bright_ti4":299.95,"frp":0.76,"daynight":"N"},"geometry":{"type":"Point","coordinates":[-121.38979,35.93474]}},{"type":"Feature","properties":{"acq_date":"2026-08-31","acq_time":1028,"confidence":"n","satellite":"N","instrument":"VIIRS","version":"2.0NRT","bright_ti4":298.98,"frp":1.84,"daynight":"N"},"geometry":{"type":"Point","coordinates":[-121.33463,35.93555]}},{"type":"Feature","properties":{"acq_date":"2026-08-31","acq_time":1028,"confidence":"n","satellite":"N","instrument":"VIIRS","version":"2.0NRT","bright_ti4":305.3,"frp":1.72,"daynight":"N"},"geometry":{"type":"Point","coordinates":[-121.32163,35.94086]}},{"type":"Feature","properties":{"acq_date":"2026-08-31","acq_time":1028,"confidence":"n","satellite":"N","instrument":"VIIRS","version":"2.0NRT","bright_ti4":314.93,"frp":1.73,"daynight":"N"},"geometry":{"type":"Point","coordinates":[-121.33763,35.94406]}},{"type":"Feature","properties":{"acq_date":"2026-08-31","acq_time":1028,"confidence":"n","satellite":"N","instrument":"VIIRS","version":"2.0NRT","bright_ti4":308.07,"frp":1.62,"daynight":"N"},"geometry":{"type":"Point","coordinates":[-121.32002,35.9445]}},{"type":"Feature","properties":{"acq_date":"2026-08-31","acq_time":1028,"confidence":"n","satellite":"N","instrument":"VIIRS","version":"2.0NRT","bright_ti4":306.44,"frp":1.73,"daynight":"N"},"geometry":{"type":"Point","coordinates":[-121.34341,35.94521]}},{"type":"Feature","properties":{"acq_date":"2026-08-31","acq_time":1028,"confidence":"n","satellite":"N","instrument":"VIIRS","version":"2.0NRT","bright_ti4":315.01,"frp":4.03,"daynight":"N"},"geometry":{"type":"Point","coordinates":[-121.31793,35.94707]}},{"type":"Feature","properties":{"acq_date":"2026-08-31","acq_time":1028,"confidence":"n","satellite":"N","instrument":"VIIRS","version":"2.0NRT","bright_ti4":308.04,"frp":1.62,"daynight":"N"},"geometry":{"type":"Point","coordinates":[-121.3185,35.94815]}},{"type":"Feature","properties":{"acq_date":"2026-08-31","acq_time":1028,"confidence":"n","satellite":"N","instrument":"VIIRS","version":"2.0NRT","bright_ti4":298.67,"frp":1.2,"daynight":"N"},"geometry":{"type":"Point","coordinates":[-121.32416,35.94927]}},{"type":"Feature","properties":{"acq_date":"2026-08-31","acq_time":1028,"confidence":"n","satellite":"N","instrument":"VIIRS","version":"2.0NRT","bright_ti4":301.42,"frp":2.43,"daynight":"N"},"geometry":{"type":"Point","coordinates":[-121.32913,35.94936]}},{"type":"Feature","properties":{"acq_date":"2026-08-31","acq_time":1028,"confidence":"n","satellite":"N","instrument":"VIIRS","version":"2.0NRT","bright_ti4":299.79,"frp":1.2,"daynight":"N"},"geometry":{"type":"Point","coordinates":[-121.3298,35.95039]}},{"type":"Feature","properties":{"acq_date":"2026-08-31","acq_time":1028,"confidence":"n","satellite":"N","instrument":"VIIRS","version":"2.0NRT","bright_ti4":298.86,"frp":1.03,"daynight":"N"},"geometry":{"type":"Point","coordinates":[-121.39071,35.95067]}},{"type":"Feature","properties":{"acq_date":"2026-08-31","acq_time":1028,"confidence":"n","satellite":"N","instrument":"VIIRS","version":"2.0NRT","bright_ti4":311.27,"frp":1.81,"daynight":"N"},"geometry":{"type":"Point","coordinates":[-121.39642,35.95181]}},{"type":"Feature","properties":{"acq_date":"2026-08-31","acq_time":1028,"confidence":"n","satellite":"N","instrument":"VIIRS","version":"2.0NRT","bright_ti4":308.87,"frp":1.55,"daynight":"N"},"geometry":{"type":"Point","coordinates":[-121.32227,35.95191]}},{"type":"Feature","properties":{"acq_date":"2026-08-31","acq_time":1028,"confidence":"n","satellite":"N","instrument":"VIIRS","version":"2.0NRT","bright_ti4":317.21,"frp":1.81,"daynight":"N"},"geometry":{"type":"Point","coordinates":[-121.40213,35.95295]}},{"type":"Feature","properties":{"acq_date":"2026-08-31","acq_time":1028,"confidence":"n","satellite":"N","instrument":"VIIRS","version":"2.0NRT","bright_ti4":309.53,"frp":1.42,"daynight":"N"},"geometry":{"type":"Point","coordinates":[-121.32285,35.95296]}},{"type":"Feature","properties":{"acq_date":"2026-08-31","acq_time":1028,"confidence":"n","satellite":"N","instrument":"VIIRS","version":"2.0NRT","bright_ti4":304.63,"frp":1.03,"daynight":"N"},"geometry":{"type":"Point","coordinates":[-121.38342,35.95316]}},{"type":"Feature","properties":{"acq_date":"2026-08-31","acq_time":1028,"confidence":"n","satellite":"N","instrument":"VIIRS","version":"2.0NRT","bright_ti4":315.59,"frp":5.76,"daynight":"N"},"geometry":{"type":"Point","coordinates":[-121.44685,35.95399]}},{"type":"Feature","properties":{"acq_date":"2026-08-31","acq_time":1028,"confidence":"n","satellite":"N","instrument":"VIIRS","version":"2.0NRT","bright_ti4":305.65,"frp":1.39,"daynight":"N"},"geometry":{"type":"Point","coordinates":[-121.40788,35.95409]}},{"type":"Feature","properties":{"acq_date":"2026-08-31","acq_time":1028,"confidence":"n","satellite":"N","instrument":"VIIRS","version":"2.0NRT","bright_ti4":301.51,"frp":1.03,"daynight":"N"},"geometry":{"type":"Point","coordinates":[-121.38929,35.95432]}},{"type":"Feature","properties":{"acq_date":"2026-08-31","acq_time":1028,"confidence":"n","satellite":"N","instrument":"VIIRS","version":"2.0NRT","bright_ti4":300.83,"frp":1.39,"daynight":"N"},"geometry":{"type":"Point","coordinates":[-121.4137,35.95524]}},{"type":"Feature","properties":{"acq_date":"2026-08-31","acq_time":1028,"confidence":"n","satellite":"N","instrument":"VIIRS","version":"2.0NRT","bright_ti4":312.24,"frp":1.81,"daynight":"N"},"geometry":{"type":"Point","coordinates":[-121.39513,35.95548]}},{"type":"Feature","properties":{"acq_date":"2026-08-31","acq_time":1028,"confidence":"n","satellite":"N","instrument":"VIIRS","version":"2.0NRT","bright_ti4":306.98,"frp":1.55,"daynight":"N"},"geometry":{"type":"Point","coordinates":[-121.32096,35.9556]}},{"type":"Feature","properties":{"acq_date":"2026-08-31","acq_time":1028,"confidence":"n","satellite":"N","instrument":"VIIRS","version":"2.0NRT","bright_ti4":299.81,"frp":0.89,"daynight":"N"},"geometry":{"type":"Point","coordinates":[-121.37681,35.95579]}},{"type":"Feature","properties":{"acq_date":"2026-08-31","acq_time":1028,"confidence":"n","satellite":"N","instrument":"VIIRS","version":"2.0NRT","bright_ti4":302.97,"frp":1.79,"daynight":"N"},"geometry":{"type":"Point","coordinates":[-121.38163,35.95615]}},{"type":"Feature","properties":{"acq_date":"2026-08-31","acq_time":1028,"confidence":"n","satellite":"N","instrument":"VIIRS","version":"2.0NRT","bright_ti4":302.03,"frp":1.04,"daynight":"N"},"geometry":{"type":"Point","coordinates":[-121.41949,35.95639]}},{"type":"Feature","properties":{"acq_date":"2026-08-31","acq_time":1028,"confidence":"n","satellite":"N","instrument":"VIIRS","version":"2.0NRT","bright_ti4":311.85,"frp":1.81,"daynight":"N"},"geometry":{"type":"Point","coordinates":[-121.40097,35.95664]}},{"type":"Feature","properties":{"acq_date":"2026-08-31","acq_time":1028,"confidence":"n","satellite":"N","instrument":"VIIRS","version":"2.0NRT","bright_ti4":300.07,"frp":1.42,"daynight":"N"},"geometry":{"type":"Point","coordinates":[-121.32156,35.95666]}},{"type":"Feature","properties":{"acq_date":"2026-08-31","acq_time":1028,"confidence":"n","satellite":"N","instrument":"VIIRS","version":"2.0NRT","bright_ti4":346.3,"frp":5.76,"daynight":"N"},"geometry":{"type":"Point","coordinates":[-121.44122,35.95679]}},{"type":"Feature","properties":{"acq_date":"2026-08-31","acq_time":1028,"confidence":"n","satellite":"N","instrument":"VIIRS","version":"2.0NRT","bright_ti4":307.03,"frp":2.8,"daynight":"N"},"geometry":{"type":"Point","coordinates":[-121.32684,35.9568]}},{"type":"Feature","properties":{"acq_date":"2026-08-31","acq_time":1028,"confidence":"n","satellite":"N","instrument":"VIIRS","version":"2.0NRT","bright_ti4":305.29,"frp":2.28,"daynight":"N"},"geometry":{"type":"Point","coordinates":[-121.38249,35.95691]}},{"type":"Feature","properties":{"acq_date":"2026-08-31","acq_time":1028,"confidence":"n","satellite":"N","instrument":"VIIRS","version":"2.0NRT","bright_ti4":310.8,"frp":1.99,"daynight":"N"},"geometry":{"type":"Point","coordinates":[-121.38749,35.95736]}},{"type":"Feature","properties":{"acq_date":"2026-08-31","acq_time":1028,"confidence":"n","satellite":"N","instrument":"VIIRS","version":"2.0NRT","bright_ti4":301.01,"frp":1.04,"daynight":"N"},"geometry":{"type":"Point","coordinates":[-121.42506,35.95749]}},{"type":"Feature","properties":{"acq_date":"2026-08-31","acq_time":1028,"confidence":"n","satellite":"N","instrument":"VIIRS","version":"2.0NRT","bright_ti4":310.31,"frp":1.42,"daynight":"N"},"geometry":{"type":"Point","coordinates":[-121.32748,35.95783]}},{"type":"Feature","properties":{"acq_date":"2026-08-31","acq_time":1028,"confidence":"n","satellite":"N","instrument":"VIIRS","version":"2.0NRT","bright_ti4":325.04,"frp":2.8,"daynight":"N"},"geometry":{"type":"Point","coordinates":[-121.33261,35.95798]}},{"type":"Feature","properties":{"acq_date":"2026-08-31","acq_time":1028,"confidence":"n","satellite":"N","instrument":"VIIRS","version":"2.0NRT","bright_ti4":312.61,"frp":2.28,"daynight":"N"},"geometry":{"type":"Point","coordinates":[-121.38832,35.95807]}},{"type":"Feature","properties":{"acq_date":"2026-08-31","acq_time":1028,"confidence":"n","satellite":"N","instrument":"VIIRS","version":"2.0NRT","bright_ti4":311.98,"frp":1.99,"daynight":"N"},"geometry":{"type":"Point","coordinates":[-121.3933,35.95855]}},{"type":"Feature","properties":{"acq_date":"2026-08-31","acq_time":1028,"confidence":"n","satellite":"N","instrument":"VIIRS","version":"2.0NRT","bright_ti4":297.75,"frp":1.24,"daynight":"N"},"geometry":{"type":"Point","coordinates":[-121.43042,35.95856]}},{"type":"Feature","properties":{"acq_date":"2026-08-31","acq_time":1028,"confidence":"n","satellite":"N","instrument":"VIIRS","version":"2.0NRT","bright_ti4":330.96,"frp":2.9,"daynight":"N"},"geometry":{"type":"Point","coordinates":[-121.33324,35.95897]}},{"type":"Feature","properties":{"acq_date":"2026-08-31","acq_time":1028,"confidence":"n","satellite":"N","instrument":"VIIRS","version":"2.0NRT","bright_ti4":319.86,"frp":3.91,"daynight":"N"},"geometry":{"type":"Point","coordinates":[-121.33836,35.95915]}},{"type":"Feature","properties":{"acq_date":"2026-08-31","acq_time":1028,"confidence":"n","satellite":"N","instrument":"VIIRS","version":"2.0NRT","bright_ti4":300.94,"frp":2.48,"daynight":"N"},"geometry":{"type":"Point","coordinates":[-121.39413,35.95922]}},{"type":"Feature","properties":{"acq_date":"2026-08-31","acq_time":1028,"confidence":"n","satellite":"N","instrument":"VIIRS","version":"2.0NRT","bright_ti4":322,"frp":1.79,"daynight":"N"},"geometry":{"type":"Point","coordinates":[-121.38106,35.95999]}},{"type":"Feature","properties":{"acq_date":"2026-08-31","acq_time":1028,"confidence":"n","satellite":"N","instrument":"VIIRS","version":"2.0NRT","bright_ti4":305.31,"frp":2.9,"daynight":"N"},"geometry":{"type":"Point","coordinates":[-121.339,35.96011]}},{"type":"Feature","properties":{"acq_date":"2026-08-31","acq_time":1028,"confidence":"n","satellite":"N","instrument":"VIIRS","version":"2.0NRT","bright_ti4":316.76,"frp":13.05,"daynight":"N"},"geometry":{"type":"Point","coordinates":[-121.44082,35.96063]}},{"type":"Feature","properties":{"acq_date":"2026-08-31","acq_time":1028,"confidence":"n","satellite":"N","instrument":"VIIRS","version":"2.0NRT","bright_ti4":325.22,"frp":2.28,"daynight":"N"},"geometry":{"type":"Point","coordinates":[-121.38189,35.96072]}},{"type":"Feature","properties":{"acq_date":"2026-08-31","acq_time":1028,"confidence":"n","satellite":"N","instrument":"VIIRS","version":"2.0NRT","bright_ti4":305.16,"frp":1.99,"daynight":"N"},"geometry":{"type":"Point","coordinates":[-121.38671,35.96114]}},{"type":"Feature","properties":{"acq_date":"2026-08-31","acq_time":1028,"confidence":"n","satellite":"N","instrument":"VIIRS","version":"2.0NRT","bright_ti4":350.48,"frp":13.05,"daynight":"N"},"geometry":{"type":"Point","coordinates":[-121.44594,35.96165]}},{"type":"Feature","properties":{"acq_date":"2026-08-31","acq_time":1028,"confidence":"n","satellite":"N","instrument":"VIIRS","version":"2.0NRT","bright_ti4":302.58,"frp":1.24,"daynight":"N"},"geometry":{"type":"Point","coordinates":[-121.42971,35.96234]}},{"type":"Feature","properties":{"acq_date":"2026-08-31","acq_time":1028,"confidence":"n","satellite":"N","instrument":"VIIRS","version":"2.0NRT","bright_ti4":313.47,"frp":1.24,"daynight":"N"},"geometry":{"type":"Point","coordinates":[-121.4351,35.96341]}},{"type":"Feature","properties":{"acq_date":"2026-08-31","acq_time":1028,"confidence":"n","satellite":"N","instrument":"VIIRS","version":"2.0NRT","bright_ti4":320.73,"frp":13.05,"daynight":"N"},"geometry":{"type":"Point","coordinates":[-121.4403,35.96445]}},{"type":"Feature","properties":{"acq_date":"2026-08-31","acq_time":1028,"confidence":"n","satellite":"N","instrument":"VIIRS","version":"2.0NRT","bright_ti4":350.57,"frp":13.05,"daynight":"N"},"geometry":{"type":"Point","coordinates":[-121.44549,35.96548]}},{"type":"Feature","properties":{"acq_date":"2026-08-31","acq_time":1028,"confidence":"n","satellite":"N","instrument":"VIIRS","version":"2.0NRT","bright_ti4":297.68,"frp":9.47,"daynight":"N"},"geometry":{"type":"Point","coordinates":[-121.45084,35.96655]}},{"type":"Feature","properties":{"acq_date":"2026-08-31","acq_time":1028,"confidence":"n","satellite":"N","instrument":"VIIRS","version":"2.0NRT","bright_ti4":304.66,"frp":5.85,"daynight":"N"},"geometry":{"type":"Point","coordinates":[-121.43329,35.96672]}},{"type":"Feature","properties":{"acq_date":"2026-08-31","acq_time":1028,"confidence":"n","satellite":"N","instrument":"VIIRS","version":"2.0NRT","bright_ti4":307.02,"frp":1.65,"daynight":"N"},"geometry":{"type":"Point","coordinates":[-121.43417,35.96715]}},{"type":"Feature","properties":{"acq_date":"2026-08-31","acq_time":1028,"confidence":"n","satellite":"N","instrument":"VIIRS","version":"2.0NRT","bright_ti4":346.69,"frp":5.85,"daynight":"N"},"geometry":{"type":"Point","coordinates":[-121.43873,35.96782]}},{"type":"Feature","properties":{"acq_date":"2026-08-31","acq_time":1028,"confidence":"n","satellite":"N","instrument":"VIIRS","version":"2.0NRT","bright_ti4":352.15,"frp":29.06,"daynight":"N"},"geometry":{"type":"Point","coordinates":[-121.43961,35.96823]}},{"type":"Feature","properties":{"acq_date":"2026-08-31","acq_time":1028,"confidence":"n","satellite":"N","instrument":"VIIRS","version":"2.0NRT","bright_ti4":332.21,"frp":37.63,"daynight":"N"},"geometry":{"type":"Point","coordinates":[-121.4441,35.96892]}},{"type":"Feature","properties":{"acq_date":"2026-08-31","acq_time":1028,"confidence":"n","satellite":"N","instrument":"VIIRS","version":"2.0NRT","bright_ti4":338.55,"frp":29.06,"daynight":"N"},"geometry":{"type":"Point","coordinates":[-121.44497,35.9693]}},{"type":"Feature","properties":{"acq_date":"2026-08-31","acq_time":1028,"confidence":"n","satellite":"N","instrument":"VIIRS","version":"2.0NRT","bright_ti4":328.99,"frp":37.63,"daynight":"N"},"geometry":{"type":"Point","coordinates":[-121.44945,35.97]}},{"type":"Feature","properties":{"acq_date":"2026-08-31","acq_time":1028,"confidence":"n","satellite":"N","instrument":"VIIRS","version":"2.0NRT","bright_ti4":300.34,"frp":8.85,"daynight":"N"},"geometry":{"type":"Point","coordinates":[-121.45031,35.97036]}},{"type":"Feature","properties":{"acq_date":"2026-08-31","acq_time":1028,"confidence":"n","satellite":"N","instrument":"VIIRS","version":"2.0NRT","bright_ti4":298.34,"frp":29.06,"daynight":"N"},"geometry":{"type":"Point","coordinates":[-121.43863,35.97195]}},{"type":"Feature","properties":{"acq_date":"2026-08-31","acq_time":1028,"confidence":"n","satellite":"N","instrument":"VIIRS","version":"2.0NRT","bright_ti4":343.44,"frp":37.63,"daynight":"N"},"geometry":{"type":"Point","coordinates":[-121.4431,35.97264]}},{"type":"Feature","properties":{"acq_date":"2026-08-31","acq_time":1028,"confidence":"n","satellite":"N","instrument":"VIIRS","version":"2.0NRT","bright_ti4":325.6,"frp":29.06,"daynight":"N"},"geometry":{"type":"Point","coordinates":[-121.44393,35.97301]}},{"type":"Feature","properties":{"acq_date":"2026-08-31","acq_time":1028,"confidence":"n","satellite":"N","instrument":"VIIRS","version":"2.0NRT","bright_ti4":309.13,"frp":2.26,"daynight":"N"},"geometry":{"type":"Point","coordinates":[-121.6279,36.2328]}},{"type":"Feature","properties":{"acq_date":"2026-08-31","acq_time":1028,"confidence":"n","satellite":"N","instrument":"VIIRS","version":"2.0NRT","bright_ti4":305.76,"frp":1.86,"daynight":"N"},"geometry":{"type":"Point","coordinates":[-121.62576,36.23357]}},{"type":"Feature","properties":{"acq_date":"2026-08-31","acq_time":1028,"confidence":"n","satellite":"N","instrument":"VIIRS","version":"2.0NRT","bright_ti4":314.75,"frp":1.06,"daynight":"N"},"geometry":{"type":"Point","coordinates":[-121.63321,36.23384]}},{"type":"Feature","properties":{"acq_date":"2026-08-31","acq_time":1028,"confidence":"n","satellite":"N","instrument":"VIIRS","version":"2.0NRT","bright_ti4":324.57,"frp":1.86,"daynight":"N"},"geometry":{"type":"Point","coordinates":[-121.63089,36.23459]}},{"type":"Feature","properties":{"acq_date":"2026-08-31","acq_time":1028,"confidence":"n","satellite":"N","instrument":"VIIRS","version":"2.0NRT","bright_ti4":303.06,"frp":1.06,"daynight":"N"},"geometry":{"type":"Point","coordinates":[-121.63191,36.23746]}},{"type":"Feature","properties":{"acq_date":"2026-08-31","acq_time":1028,"confidence":"n","satellite":"N","instrument":"VIIRS","version":"2.0NRT","bright_ti4":306.85,"frp":1.74,"daynight":"N"},"geometry":{"type":"Point","coordinates":[-121.78062,36.2838]}},{"type":"Feature","properties":{"acq_date":"2026-08-31","acq_time":1028,"confidence":"n","satellite":"N","instrument":"VIIRS","version":"2.0NRT","bright_ti4":327.06,"frp":1.96,"daynight":"N"},"geometry":{"type":"Point","coordinates":[-121.77972,36.28746]}},{"type":"Feature","properties":{"acq_date":"2026-08-31","acq_time":1028,"confidence":"n","satellite":"N","instrument":"VIIRS","version":"2.0NRT","bright_ti4":305.52,"frp":1.33,"daynight":"N"},"geometry":{"type":"Point","coordinates":[-121.76785,36.28896]}},{"type":"Feature","properties":{"acq_date":"2026-08-31","acq_time":1028,"confidence":"n","satellite":"N","instrument":"VIIRS","version":"2.0NRT","bright_ti4":308.17,"frp":1.33,"daynight":"N"},"geometry":{"type":"Point","coordinates":[-121.7732,36.29001]}},{"type":"Feature","properties":{"acq_date":"2026-08-31","acq_time":1028,"confidence":"n","satellite":"N","instrument":"VIIRS","version":"2.0NRT","bright_ti4":296.74,"frp":1.96,"daynight":"N"},"geometry":{"type":"Point","coordinates":[-121.77838,36.29104]}},{"type":"Feature","properties":{"acq_date":"2026-08-31","acq_time":1028,"confidence":"n","satellite":"N","instrument":"VIIRS","version":"2.0NRT","bright_ti4":304.64,"frp":1.47,"daynight":"N"},"geometry":{"type":"Point","coordinates":[-121.68721,36.2961]}}]}