{"type":"FeatureCollection","name":"FIRMS VIIRS CA (last 1 day)","crs":{"type":"name","properties":{"name":"EPSG:4326"}},"fetched_at_utc":"2026-07-24T15:26:55.815Z","source":{"url":"https://firms.modaps.eosdis.nasa.gov/api/area/csv/8c4af552cf654445dd280dfb3ad9337c/VIIRS_SNPP_NRT/-125,32,-113,43.5/1","dataset":"VIIRS_SNPP_NRT","bbox":"-125,32,-113,43.5","day_range":"1"},"features":[{"type":"Feature","properties":{"acq_date":"2026-07-24","acq_time":856,"confidence":"n","satellite":"N","instrument":"VIIRS","version":"2.0NRT","bright_ti4":307.74,"frp":1.55,"daynight":"N"},"geometry":{"type":"Point","coordinates":[-116.05763,42.56875]}},{"type":"Feature","properties":{"acq_date":"2026-07-24","acq_time":856,"confidence":"n","satellite":"N","instrument":"VIIRS","version":"2.0NRT","bright_ti4":307.65,"frp":2.42,"daynight":"N"},"geometry":{"type":"Point","coordinates":[-116.06296,42.56892]}},{"type":"Feature","properties":{"acq_date":"2026-07-24","acq_time":856,"confidence":"n","satellite":"N","instrument":"VIIRS","version":"2.0NRT","bright_ti4":313.82,"frp":1.73,"daynight":"N"},"geometry":{"type":"Point","coordinates":[-116.05654,42.57083]}},{"type":"Feature","properties":{"acq_date":"2026-07-24","acq_time":856,"confidence":"n","satellite":"N","instrument":"VIIRS","version":"2.0NRT","bright_ti4":309.63,"frp":1.73,"daynight":"N"},"geometry":{"type":"Point","coordinates":[-116.06183,42.57103]}},{"type":"Feature","properties":{"acq_date":"2026-07-24","acq_time":856,"confidence":"n","satellite":"N","instrument":"VIIRS","version":"2.0NRT","bright_ti4":316.53,"frp":1.7,"daynight":"N"},"geometry":{"type":"Point","coordinates":[-116.05675,42.57462]}},{"type":"Feature","properties":{"acq_date":"2026-07-24","acq_time":856,"confidence":"n","satellite":"N","instrument":"VIIRS","version":"2.0NRT","bright_ti4":309.06,"frp":1.35,"daynight":"N"},"geometry":{"type":"Point","coordinates":[-116.05577,42.57669]}},{"type":"Feature","properties":{"acq_date":"2026-07-24","acq_time":856,"confidence":"n","satellite":"N","instrument":"VIIRS","version":"2.0NRT","bright_ti4":301.06,"frp":0.76,"daynight":"N"},"geometry":{"type":"Point","coordinates":[-116.07768,42.59298]}},{"type":"Feature","properties":{"acq_date":"2026-07-24","acq_time":856,"confidence":"n","satellite":"N","instrument":"VIIRS","version":"2.0NRT","bright_ti4":319.98,"frp":2.16,"daynight":"N"},"geometry":{"type":"Point","coordinates":[-116.03458,42.60334]}},{"type":"Feature","properties":{"acq_date":"2026-07-24","acq_time":856,"confidence":"n","satellite":"N","instrument":"VIIRS","version":"2.0NRT","bright_ti4":325.93,"frp":3.43,"daynight":"N"},"geometry":{"type":"Point","coordinates":[-116.03477,42.60923]}},{"type":"Feature","properties":{"acq_date":"2026-07-24","acq_time":856,"confidence":"n","satellite":"N","instrument":"VIIRS","version":"2.0NRT","bright_ti4":303.78,"frp":2.51,"daynight":"N"},"geometry":{"type":"Point","coordinates":[-116.04023,42.60942]}},{"type":"Feature","properties":{"acq_date":"2026-07-24","acq_time":856,"confidence":"n","satellite":"N","instrument":"VIIRS","version":"2.0NRT","bright_ti4":308.25,"frp":2.51,"daynight":"N"},"geometry":{"type":"Point","coordinates":[-116.04553,42.6096]}},{"type":"Feature","properties":{"acq_date":"2026-07-24","acq_time":856,"confidence":"n","satellite":"N","instrument":"VIIRS","version":"2.0NRT","bright_ti4":327.68,"frp":3.64,"daynight":"N"},"geometry":{"type":"Point","coordinates":[-116.05074,42.60977]}},{"type":"Feature","properties":{"acq_date":"2026-07-24","acq_time":856,"confidence":"n","satellite":"N","instrument":"VIIRS","version":"2.0NRT","bright_ti4":320.48,"frp":2.51,"daynight":"N"},"geometry":{"type":"Point","coordinates":[-116.04008,42.6153]}},{"type":"Feature","properties":{"acq_date":"2026-07-24","acq_time":856,"confidence":"n","satellite":"N","instrument":"VIIRS","version":"2.0NRT","bright_ti4":322.19,"frp":3.64,"daynight":"N"},"geometry":{"type":"Point","coordinates":[-116.05036,42.61565]}},{"type":"Feature","properties":{"acq_date":"2026-07-24","acq_time":856,"confidence":"n","satellite":"N","instrument":"VIIRS","version":"2.0NRT","bright_ti4":300.19,"frp":0.93,"daynight":"N"},"geometry":{"type":"Point","coordinates":[-116.06118,42.61602]}},{"type":"Feature","properties":{"acq_date":"2026-07-24","acq_time":856,"confidence":"n","satellite":"N","instrument":"VIIRS","version":"2.0NRT","bright_ti4":299.59,"frp":0.93,"daynight":"N"},"geometry":{"type":"Point","coordinates":[-116.06654,42.61619]}},{"type":"Feature","properties":{"acq_date":"2026-07-24","acq_time":856,"confidence":"n","satellite":"N","instrument":"VIIRS","version":"2.0NRT","bright_ti4":299.97,"frp":1.7,"daynight":"N"},"geometry":{"type":"Point","coordinates":[-117.40201,42.61883]}},{"type":"Feature","properties":{"acq_date":"2026-07-24","acq_time":856,"confidence":"n","satellite":"N","instrument":"VIIRS","version":"2.0NRT","bright_ti4":320.73,"frp":1.7,"daynight":"N"},"geometry":{"type":"Point","coordinates":[-117.40901,42.61901]}},{"type":"Feature","properties":{"acq_date":"2026-07-24","acq_time":856,"confidence":"n","satellite":"N","instrument":"VIIRS","version":"2.0NRT","bright_ti4":305.58,"frp":0.81,"daynight":"N"},"geometry":{"type":"Point","coordinates":[-116.05532,42.62171]}},{"type":"Feature","properties":{"acq_date":"2026-07-24","acq_time":856,"confidence":"n","satellite":"N","instrument":"VIIRS","version":"2.0NRT","bright_ti4":305.63,"frp":1.41,"daynight":"N"},"geometry":{"type":"Point","coordinates":[-117.40416,42.62181]}},{"type":"Feature","properties":{"acq_date":"2026-07-24","acq_time":856,"confidence":"n","satellite":"N","instrument":"VIIRS","version":"2.0NRT","bright_ti4":313.77,"frp":2.74,"daynight":"N"},"geometry":{"type":"Point","coordinates":[-117.4112,42.62195]}},{"type":"Feature","properties":{"acq_date":"2026-07-24","acq_time":856,"confidence":"n","satellite":"N","instrument":"VIIRS","version":"2.0NRT","bright_ti4":347.75,"frp":6.69,"daynight":"N"},"geometry":{"type":"Point","coordinates":[-117.3023,42.66347]}},{"type":"Feature","properties":{"acq_date":"2026-07-24","acq_time":856,"confidence":"n","satellite":"N","instrument":"VIIRS","version":"2.0NRT","bright_ti4":314.4,"frp":6.69,"daynight":"N"},"geometry":{"type":"Point","coordinates":[-117.30876,42.66362]}},{"type":"Feature","properties":{"acq_date":"2026-07-24","acq_time":856,"confidence":"n","satellite":"N","instrument":"VIIRS","version":"2.0NRT","bright_ti4":303.43,"frp":2.09,"daynight":"N"},"geometry":{"type":"Point","coordinates":[-117.38885,42.66545]}},{"type":"Feature","properties":{"acq_date":"2026-07-24","acq_time":856,"confidence":"n","satellite":"N","instrument":"VIIRS","version":"2.0NRT","bright_ti4":302.43,"frp":2.47,"daynight":"N"},"geometry":{"type":"Point","coordinates":[-117.39583,42.66561]}},{"type":"Feature","properties":{"acq_date":"2026-07-24","acq_time":856,"confidence":"n","satellite":"N","instrument":"VIIRS","version":"2.0NRT","bright_ti4":353.43,"frp":27.92,"daynight":"N"},"geometry":{"type":"Point","coordinates":[-117.30225,42.66972]}},{"type":"Feature","properties":{"acq_date":"2026-07-24","acq_time":856,"confidence":"h","satellite":"N","instrument":"VIIRS","version":"2.0NRT","bright_ti4":367,"frp":27.92,"daynight":"N"},"geometry":{"type":"Point","coordinates":[-117.30887,42.66988]}},{"type":"Feature","properties":{"acq_date":"2026-07-24","acq_time":856,"confidence":"n","satellite":"N","instrument":"VIIRS","version":"2.0NRT","bright_ti4":305.47,"frp":23.24,"daynight":"N"},"geometry":{"type":"Point","coordinates":[-117.31538,42.67004]}},{"type":"Feature","properties":{"acq_date":"2026-07-24","acq_time":856,"confidence":"n","satellite":"N","instrument":"VIIRS","version":"2.0NRT","bright_ti4":302.09,"frp":23.24,"daynight":"N"},"geometry":{"type":"Point","coordinates":[-117.32187,42.67019]}},{"type":"Feature","properties":{"acq_date":"2026-07-24","acq_time":856,"confidence":"n","satellite":"N","instrument":"VIIRS","version":"2.0NRT","bright_ti4":306.17,"frp":43.04,"daynight":"N"},"geometry":{"type":"Point","coordinates":[-117.37514,42.67142]}},{"type":"Feature","properties":{"acq_date":"2026-07-24","acq_time":856,"confidence":"n","satellite":"N","instrument":"VIIRS","version":"2.0NRT","bright_ti4":315.53,"frp":45.07,"daynight":"N"},"geometry":{"type":"Point","coordinates":[-117.38171,42.67157]}},{"type":"Feature","properties":{"acq_date":"2026-07-24","acq_time":856,"confidence":"n","satellite":"N","instrument":"VIIRS","version":"2.0NRT","bright_ti4":306.17,"frp":45.07,"daynight":"N"},"geometry":{"type":"Point","coordinates":[-117.38844,42.67173]}},{"type":"Feature","properties":{"acq_date":"2026-07-24","acq_time":856,"confidence":"n","satellite":"N","instrument":"VIIRS","version":"2.0NRT","bright_ti4":340.74,"frp":27.92,"daynight":"N"},"geometry":{"type":"Point","coordinates":[-117.30878,42.67614]}},{"type":"Feature","properties":{"acq_date":"2026-07-24","acq_time":856,"confidence":"h","satellite":"N","instrument":"VIIRS","version":"2.0NRT","bright_ti4":367,"frp":23.24,"daynight":"N"},"geometry":{"type":"Point","coordinates":[-117.31538,42.6763]}},{"type":"Feature","properties":{"acq_date":"2026-07-24","acq_time":856,"confidence":"n","satellite":"N","instrument":"VIIRS","version":"2.0NRT","bright_ti4":322.19,"frp":23.24,"daynight":"N"},"geometry":{"type":"Point","coordinates":[-117.32187,42.67645]}},{"type":"Feature","properties":{"acq_date":"2026-07-24","acq_time":856,"confidence":"n","satellite":"N","instrument":"VIIRS","version":"2.0NRT","bright_ti4":302.56,"frp":5.26,"daynight":"N"},"geometry":{"type":"Point","coordinates":[-117.32822,42.6766]}},{"type":"Feature","properties":{"acq_date":"2026-07-24","acq_time":856,"confidence":"n","satellite":"N","instrument":"VIIRS","version":"2.0NRT","bright_ti4":323.7,"frp":9.39,"daynight":"N"},"geometry":{"type":"Point","coordinates":[-117.36175,42.67738]}},{"type":"Feature","properties":{"acq_date":"2026-07-24","acq_time":856,"confidence":"h","satellite":"N","instrument":"VIIRS","version":"2.0NRT","bright_ti4":367,"frp":43.04,"daynight":"N"},"geometry":{"type":"Point","coordinates":[-117.36856,42.67755]}},{"type":"Feature","properties":{"acq_date":"2026-07-24","acq_time":856,"confidence":"n","satellite":"N","instrument":"VIIRS","version":"2.0NRT","bright_ti4":342.21,"frp":43.04,"daynight":"N"},"geometry":{"type":"Point","coordinates":[-117.37498,42.67769]}},{"type":"Feature","properties":{"acq_date":"2026-07-24","acq_time":856,"confidence":"n","satellite":"N","instrument":"VIIRS","version":"2.0NRT","bright_ti4":354.19,"frp":45.07,"daynight":"N"},"geometry":{"type":"Point","coordinates":[-117.38132,42.67784]}},{"type":"Feature","properties":{"acq_date":"2026-07-24","acq_time":856,"confidence":"n","satellite":"N","instrument":"VIIRS","version":"2.0NRT","bright_ti4":327.11,"frp":45.07,"daynight":"N"},"geometry":{"type":"Point","coordinates":[-117.388,42.678]}},{"type":"Feature","properties":{"acq_date":"2026-07-24","acq_time":856,"confidence":"n","satellite":"N","instrument":"VIIRS","version":"2.0NRT","bright_ti4":351.71,"frp":39.74,"daynight":"N"},"geometry":{"type":"Point","coordinates":[-117.30853,42.68239]}},{"type":"Feature","properties":{"acq_date":"2026-07-24","acq_time":856,"confidence":"n","satellite":"N","instrument":"VIIRS","version":"2.0NRT","bright_ti4":353.85,"frp":59.76,"daynight":"N"},"geometry":{"type":"Point","coordinates":[-117.31522,42.68255]}},{"type":"Feature","properties":{"acq_date":"2026-07-24","acq_time":856,"confidence":"h","satellite":"N","instrument":"VIIRS","version":"2.0NRT","bright_ti4":367,"frp":59.76,"daynight":"N"},"geometry":{"type":"Point","coordinates":[-117.32179,42.6827]}},{"type":"Feature","properties":{"acq_date":"2026-07-24","acq_time":856,"confidence":"h","satellite":"N","instrument":"VIIRS","version":"2.0NRT","bright_ti4":367,"frp":18.27,"daynight":"N"},"geometry":{"type":"Point","coordinates":[-117.32819,42.68286]}},{"type":"Feature","properties":{"acq_date":"2026-07-24","acq_time":856,"confidence":"n","satellite":"N","instrument":"VIIRS","version":"2.0NRT","bright_ti4":322.44,"frp":18.27,"daynight":"N"},"geometry":{"type":"Point","coordinates":[-117.33465,42.68301]}},{"type":"Feature","properties":{"acq_date":"2026-07-24","acq_time":856,"confidence":"n","satellite":"N","instrument":"VIIRS","version":"2.0NRT","bright_ti4":302.73,"frp":17.03,"daynight":"N"},"geometry":{"type":"Point","coordinates":[-117.3413,42.68317]}},{"type":"Feature","properties":{"acq_date":"2026-07-24","acq_time":856,"confidence":"n","satellite":"N","instrument":"VIIRS","version":"2.0NRT","bright_ti4":307.94,"frp":4.83,"daynight":"N"},"geometry":{"type":"Point","coordinates":[-117.3549,42.68349]}},{"type":"Feature","properties":{"acq_date":"2026-07-24","acq_time":856,"confidence":"n","satellite":"N","instrument":"VIIRS","version":"2.0NRT","bright_ti4":320.68,"frp":4.83,"daynight":"N"},"geometry":{"type":"Point","coordinates":[-117.36178,42.68366]}},{"type":"Feature","properties":{"acq_date":"2026-07-24","acq_time":856,"confidence":"n","satellite":"N","instrument":"VIIRS","version":"2.0NRT","bright_ti4":312.48,"frp":59.76,"daynight":"N"},"geometry":{"type":"Point","coordinates":[-117.32157,42.68896]}},{"type":"Feature","properties":{"acq_date":"2026-07-24","acq_time":856,"confidence":"n","satellite":"N","instrument":"VIIRS","version":"2.0NRT","bright_ti4":348.98,"frp":18.27,"daynight":"N"},"geometry":{"type":"Point","coordinates":[-117.32814,42.68912]}},{"type":"Feature","properties":{"acq_date":"2026-07-24","acq_time":856,"confidence":"n","satellite":"N","instrument":"VIIRS","version":"2.0NRT","bright_ti4":354.66,"frp":18.27,"daynight":"N"},"geometry":{"type":"Point","coordinates":[-117.3346,42.68928]}},{"type":"Feature","properties":{"acq_date":"2026-07-24","acq_time":856,"confidence":"h","satellite":"N","instrument":"VIIRS","version":"2.0NRT","bright_ti4":367,"frp":17.03,"daynight":"N"},"geometry":{"type":"Point","coordinates":[-117.34122,42.68944]}},{"type":"Feature","properties":{"acq_date":"2026-07-24","acq_time":856,"confidence":"h","satellite":"N","instrument":"VIIRS","version":"2.0NRT","bright_ti4":367,"frp":17.03,"daynight":"N"},"geometry":{"type":"Point","coordinates":[-117.34799,42.6896]}},{"type":"Feature","properties":{"acq_date":"2026-07-24","acq_time":856,"confidence":"n","satellite":"N","instrument":"VIIRS","version":"2.0NRT","bright_ti4":340.3,"frp":4.83,"daynight":"N"},"geometry":{"type":"Point","coordinates":[-117.35485,42.68977]}},{"type":"Feature","properties":{"acq_date":"2026-07-24","acq_time":856,"confidence":"n","satellite":"N","instrument":"VIIRS","version":"2.0NRT","bright_ti4":299.13,"frp":4.83,"daynight":"N"},"geometry":{"type":"Point","coordinates":[-117.36165,42.68993]}},{"type":"Feature","properties":{"acq_date":"2026-07-24","acq_time":856,"confidence":"n","satellite":"N","instrument":"VIIRS","version":"2.0NRT","bright_ti4":334.3,"frp":6.17,"daynight":"N"},"geometry":{"type":"Point","coordinates":[-117.34779,42.69587]}},{"type":"Feature","properties":{"acq_date":"2026-07-24","acq_time":856,"confidence":"n","satellite":"N","instrument":"VIIRS","version":"2.0NRT","bright_ti4":324.74,"frp":5.38,"daynight":"N"},"geometry":{"type":"Point","coordinates":[-117.35456,42.69603]}},{"type":"Feature","properties":{"acq_date":"2026-07-24","acq_time":856,"confidence":"n","satellite":"N","instrument":"VIIRS","version":"2.0NRT","bright_ti4":302,"frp":1.53,"daynight":"N"},"geometry":{"type":"Point","coordinates":[-118.48132,42.99468]}},{"type":"Feature","properties":{"acq_date":"2026-07-24","acq_time":856,"confidence":"n","satellite":"N","instrument":"VIIRS","version":"2.0NRT","bright_ti4":305.74,"frp":2.04,"daynight":"N"},"geometry":{"type":"Point","coordinates":[-118.48153,43.0013]}},{"type":"Feature","properties":{"acq_date":"2026-07-24","acq_time":856,"confidence":"n","satellite":"N","instrument":"VIIRS","version":"2.0NRT","bright_ti4":324.94,"frp":3.4,"daynight":"N"},"geometry":{"type":"Point","coordinates":[-118.88276,43.13063]}},{"type":"Feature","properties":{"acq_date":"2026-07-24","acq_time":856,"confidence":"n","satellite":"N","instrument":"VIIRS","version":"2.0NRT","bright_ti4":295.39,"frp":3.4,"daynight":"N"},"geometry":{"type":"Point","coordinates":[-118.89084,43.13067]}},{"type":"Feature","properties":{"acq_date":"2026-07-24","acq_time":856,"confidence":"n","satellite":"N","instrument":"VIIRS","version":"2.0NRT","bright_ti4":330.52,"frp":14.12,"daynight":"N"},"geometry":{"type":"Point","coordinates":[-118.88428,43.13521]}},{"type":"Feature","properties":{"acq_date":"2026-07-24","acq_time":856,"confidence":"n","satellite":"N","instrument":"VIIRS","version":"2.0NRT","bright_ti4":330.1,"frp":16.8,"daynight":"N"},"geometry":{"type":"Point","coordinates":[-118.89242,43.13529]}},{"type":"Feature","properties":{"acq_date":"2026-07-24","acq_time":856,"confidence":"n","satellite":"N","instrument":"VIIRS","version":"2.0NRT","bright_ti4":297.96,"frp":3.4,"daynight":"N"},"geometry":{"type":"Point","coordinates":[-118.88248,43.13737]}},{"type":"Feature","properties":{"acq_date":"2026-07-24","acq_time":856,"confidence":"n","satellite":"N","instrument":"VIIRS","version":"2.0NRT","bright_ti4":344.09,"frp":3.4,"daynight":"N"},"geometry":{"type":"Point","coordinates":[-118.89063,43.13741]}},{"type":"Feature","properties":{"acq_date":"2026-07-24","acq_time":856,"confidence":"h","satellite":"N","instrument":"VIIRS","version":"2.0NRT","bright_ti4":367,"frp":16.8,"daynight":"N"},"geometry":{"type":"Point","coordinates":[-118.89228,43.14202]}},{"type":"Feature","properties":{"acq_date":"2026-07-24","acq_time":856,"confidence":"h","satellite":"N","instrument":"VIIRS","version":"2.0NRT","bright_ti4":367,"frp":13.82,"daynight":"N"},"geometry":{"type":"Point","coordinates":[-118.8905,43.14415]}},{"type":"Feature","properties":{"acq_date":"2026-07-24","acq_time":856,"confidence":"n","satellite":"N","instrument":"VIIRS","version":"2.0NRT","bright_ti4":317.12,"frp":12.59,"daynight":"N"},"geometry":{"type":"Point","coordinates":[-118.89857,43.14419]}},{"type":"Feature","properties":{"acq_date":"2026-07-24","acq_time":856,"confidence":"n","satellite":"N","instrument":"VIIRS","version":"2.0NRT","bright_ti4":303.31,"frp":0.77,"daynight":"N"},"geometry":{"type":"Point","coordinates":[-115.67017,43.14668]}},{"type":"Feature","properties":{"acq_date":"2026-07-24","acq_time":856,"confidence":"n","satellite":"N","instrument":"VIIRS","version":"2.0NRT","bright_ti4":295.66,"frp":1.7,"daynight":"N"},"geometry":{"type":"Point","coordinates":[-118.87593,43.15533]}},{"type":"Feature","properties":{"acq_date":"2026-07-24","acq_time":856,"confidence":"n","satellite":"N","instrument":"VIIRS","version":"2.0NRT","bright_ti4":306.5,"frp":1.7,"daynight":"N"},"geometry":{"type":"Point","coordinates":[-118.88398,43.15541]}},{"type":"Feature","properties":{"acq_date":"2026-07-24","acq_time":856,"confidence":"n","satellite":"N","instrument":"VIIRS","version":"2.0NRT","bright_ti4":336.75,"frp":10.83,"daynight":"N"},"geometry":{"type":"Point","coordinates":[-118.89201,43.1555]}},{"type":"Feature","properties":{"acq_date":"2026-07-24","acq_time":856,"confidence":"n","satellite":"N","instrument":"VIIRS","version":"2.0NRT","bright_ti4":356,"frp":10.83,"daynight":"N"},"geometry":{"type":"Point","coordinates":[-118.90005,43.15558]}},{"type":"Feature","properties":{"acq_date":"2026-07-24","acq_time":856,"confidence":"n","satellite":"N","instrument":"VIIRS","version":"2.0NRT","bright_ti4":329.64,"frp":11.23,"daynight":"N"},"geometry":{"type":"Point","coordinates":[-118.90807,43.15566]}},{"type":"Feature","properties":{"acq_date":"2026-07-24","acq_time":856,"confidence":"n","satellite":"N","instrument":"VIIRS","version":"2.0NRT","bright_ti4":303.24,"frp":1.42,"daynight":"N"},"geometry":{"type":"Point","coordinates":[-118.87403,43.15754]}},{"type":"Feature","properties":{"acq_date":"2026-07-24","acq_time":856,"confidence":"n","satellite":"N","instrument":"VIIRS","version":"2.0NRT","bright_ti4":299.89,"frp":4.61,"daynight":"N"},"geometry":{"type":"Point","coordinates":[-118.8821,43.15758]}},{"type":"Feature","properties":{"acq_date":"2026-07-24","acq_time":856,"confidence":"n","satellite":"N","instrument":"VIIRS","version":"2.0NRT","bright_ti4":321.56,"frp":4.61,"daynight":"N"},"geometry":{"type":"Point","coordinates":[-118.89015,43.15763]}},{"type":"Feature","properties":{"acq_date":"2026-07-24","acq_time":856,"confidence":"h","satellite":"N","instrument":"VIIRS","version":"2.0NRT","bright_ti4":367,"frp":7.01,"daynight":"N"},"geometry":{"type":"Point","coordinates":[-118.89821,43.15767]}},{"type":"Feature","properties":{"acq_date":"2026-07-24","acq_time":856,"confidence":"n","satellite":"N","instrument":"VIIRS","version":"2.0NRT","bright_ti4":339.71,"frp":7.01,"daynight":"N"},"geometry":{"type":"Point","coordinates":[-118.90627,43.15771]}},{"type":"Feature","properties":{"acq_date":"2026-07-24","acq_time":856,"confidence":"n","satellite":"N","instrument":"VIIRS","version":"2.0NRT","bright_ti4":310.23,"frp":2.84,"daynight":"N"},"geometry":{"type":"Point","coordinates":[-118.91426,43.15776]}},{"type":"Feature","properties":{"acq_date":"2026-07-24","acq_time":856,"confidence":"n","satellite":"N","instrument":"VIIRS","version":"2.0NRT","bright_ti4":295.36,"frp":2.84,"daynight":"N"},"geometry":{"type":"Point","coordinates":[-118.92221,43.15779]}},{"type":"Feature","properties":{"acq_date":"2026-07-24","acq_time":856,"confidence":"n","satellite":"N","instrument":"VIIRS","version":"2.0NRT","bright_ti4":302.95,"frp":1.19,"daynight":"N"},"geometry":{"type":"Point","coordinates":[-118.86774,43.16198]}},{"type":"Feature","properties":{"acq_date":"2026-07-24","acq_time":856,"confidence":"n","satellite":"N","instrument":"VIIRS","version":"2.0NRT","bright_ti4":306.56,"frp":3.21,"daynight":"N"},"geometry":{"type":"Point","coordinates":[-118.89993,43.16232]}},{"type":"Feature","properties":{"acq_date":"2026-07-24","acq_time":856,"confidence":"n","satellite":"N","instrument":"VIIRS","version":"2.0NRT","bright_ti4":324.29,"frp":3.36,"daynight":"N"},"geometry":{"type":"Point","coordinates":[-118.90797,43.16241]}},{"type":"Feature","properties":{"acq_date":"2026-07-24","acq_time":856,"confidence":"n","satellite":"N","instrument":"VIIRS","version":"2.0NRT","bright_ti4":304.09,"frp":3.36,"daynight":"N"},"geometry":{"type":"Point","coordinates":[-118.91602,43.16249]}},{"type":"Feature","properties":{"acq_date":"2026-07-24","acq_time":856,"confidence":"n","satellite":"N","instrument":"VIIRS","version":"2.0NRT","bright_ti4":315.24,"frp":3.31,"daynight":"N"},"geometry":{"type":"Point","coordinates":[-118.92407,43.16257]}},{"type":"Feature","properties":{"acq_date":"2026-07-24","acq_time":856,"confidence":"n","satellite":"N","instrument":"VIIRS","version":"2.0NRT","bright_ti4":296.69,"frp":1.42,"daynight":"N"},"geometry":{"type":"Point","coordinates":[-118.86581,43.16423]}},{"type":"Feature","properties":{"acq_date":"2026-07-24","acq_time":856,"confidence":"n","satellite":"N","instrument":"VIIRS","version":"2.0NRT","bright_ti4":300.3,"frp":7.01,"daynight":"N"},"geometry":{"type":"Point","coordinates":[-118.89803,43.16441]}},{"type":"Feature","properties":{"acq_date":"2026-07-24","acq_time":856,"confidence":"n","satellite":"N","instrument":"VIIRS","version":"2.0NRT","bright_ti4":302.71,"frp":7.01,"daynight":"N"},"geometry":{"type":"Point","coordinates":[-118.90612,43.16446]}},{"type":"Feature","properties":{"acq_date":"2026-07-24","acq_time":856,"confidence":"n","satellite":"N","instrument":"VIIRS","version":"2.0NRT","bright_ti4":299.69,"frp":2.84,"daynight":"N"},"geometry":{"type":"Point","coordinates":[-118.91418,43.1645]}},{"type":"Feature","properties":{"acq_date":"2026-07-24","acq_time":856,"confidence":"n","satellite":"N","instrument":"VIIRS","version":"2.0NRT","bright_ti4":308.66,"frp":2.84,"daynight":"N"},"geometry":{"type":"Point","coordinates":[-118.92226,43.16454]}},{"type":"Feature","properties":{"acq_date":"2026-07-24","acq_time":856,"confidence":"n","satellite":"N","instrument":"VIIRS","version":"2.0NRT","bright_ti4":299.2,"frp":2.29,"daynight":"N"},"geometry":{"type":"Point","coordinates":[-118.87566,43.1688]}},{"type":"Feature","properties":{"acq_date":"2026-07-24","acq_time":856,"confidence":"n","satellite":"N","instrument":"VIIRS","version":"2.0NRT","bright_ti4":304.86,"frp":3.21,"daynight":"N"},"geometry":{"type":"Point","coordinates":[-118.8998,43.16906]}},{"type":"Feature","properties":{"acq_date":"2026-07-24","acq_time":856,"confidence":"n","satellite":"N","instrument":"VIIRS","version":"2.0NRT","bright_ti4":296.2,"frp":3.36,"daynight":"N"},"geometry":{"type":"Point","coordinates":[-118.90784,43.16915]}},{"type":"Feature","properties":{"acq_date":"2026-07-24","acq_time":856,"confidence":"n","satellite":"N","instrument":"VIIRS","version":"2.0NRT","bright_ti4":297.96,"frp":0.82,"daynight":"N"},"geometry":{"type":"Point","coordinates":[-118.8737,43.17101]}},{"type":"Feature","properties":{"acq_date":"2026-07-24","acq_time":856,"confidence":"n","satellite":"N","instrument":"VIIRS","version":"2.0NRT","bright_ti4":295.37,"frp":2.4,"daynight":"N"},"geometry":{"type":"Point","coordinates":[-118.88177,43.17106]}},{"type":"Feature","properties":{"acq_date":"2026-07-24","acq_time":856,"confidence":"n","satellite":"N","instrument":"VIIRS","version":"2.0NRT","bright_ti4":301.82,"frp":1.78,"daynight":"N"},"geometry":{"type":"Point","coordinates":[-118.89787,43.17115]}},{"type":"Feature","properties":{"acq_date":"2026-07-24","acq_time":856,"confidence":"n","satellite":"N","instrument":"VIIRS","version":"2.0NRT","bright_ti4":296.89,"frp":1.78,"daynight":"N"},"geometry":{"type":"Point","coordinates":[-118.90594,43.1712]}},{"type":"Feature","properties":{"acq_date":"2026-07-24","acq_time":856,"confidence":"n","satellite":"N","instrument":"VIIRS","version":"2.0NRT","bright_ti4":296.8,"frp":2.35,"daynight":"N"},"geometry":{"type":"Point","coordinates":[-118.88145,43.18453]}},{"type":"Feature","properties":{"acq_date":"2026-07-24","acq_time":856,"confidence":"n","satellite":"N","instrument":"VIIRS","version":"2.0NRT","bright_ti4":326.82,"frp":2.35,"daynight":"N"},"geometry":{"type":"Point","coordinates":[-118.88934,43.19132]}},{"type":"Feature","properties":{"acq_date":"2026-07-24","acq_time":856,"confidence":"n","satellite":"N","instrument":"VIIRS","version":"2.0NRT","bright_ti4":297.47,"frp":4.41,"daynight":"N"},"geometry":{"type":"Point","coordinates":[-118.89741,43.19138]}},{"type":"Feature","properties":{"acq_date":"2026-07-24","acq_time":856,"confidence":"n","satellite":"N","instrument":"VIIRS","version":"2.0NRT","bright_ti4":295.5,"frp":1.96,"daynight":"N"},"geometry":{"type":"Point","coordinates":[-118.92165,43.19154]}},{"type":"Feature","properties":{"acq_date":"2026-07-24","acq_time":856,"confidence":"n","satellite":"N","instrument":"VIIRS","version":"2.0NRT","bright_ti4":310.19,"frp":3.93,"daynight":"N"},"geometry":{"type":"Point","coordinates":[-118.93776,43.19164]}},{"type":"Feature","properties":{"acq_date":"2026-07-24","acq_time":856,"confidence":"n","satellite":"N","instrument":"VIIRS","version":"2.0NRT","bright_ti4":316.24,"frp":3.82,"daynight":"N"},"geometry":{"type":"Point","coordinates":[-118.94561,43.1917]}},{"type":"Feature","properties":{"acq_date":"2026-07-24","acq_time":856,"confidence":"n","satellite":"N","instrument":"VIIRS","version":"2.0NRT","bright_ti4":296.05,"frp":3.01,"daynight":"N"},"geometry":{"type":"Point","coordinates":[-118.88917,43.19806]}},{"type":"Feature","properties":{"acq_date":"2026-07-24","acq_time":856,"confidence":"n","satellite":"N","instrument":"VIIRS","version":"2.0NRT","bright_ti4":296.21,"frp":2.67,"daynight":"N"},"geometry":{"type":"Point","coordinates":[-118.92149,43.19829]}},{"type":"Feature","properties":{"acq_date":"2026-07-24","acq_time":856,"confidence":"n","satellite":"N","instrument":"VIIRS","version":"2.0NRT","bright_ti4":297.73,"frp":2.23,"daynight":"N"},"geometry":{"type":"Point","coordinates":[-118.93757,43.1984]}},{"type":"Feature","properties":{"acq_date":"2026-07-24","acq_time":856,"confidence":"n","satellite":"N","instrument":"VIIRS","version":"2.0NRT","bright_ti4":330.78,"frp":3.01,"daynight":"N"},"geometry":{"type":"Point","coordinates":[-118.88903,43.2048]}},{"type":"Feature","properties":{"acq_date":"2026-07-24","acq_time":856,"confidence":"n","satellite":"N","instrument":"VIIRS","version":"2.0NRT","bright_ti4":321.79,"frp":2.57,"daynight":"N"},"geometry":{"type":"Point","coordinates":[-118.88889,43.21154]}},{"type":"Feature","properties":{"acq_date":"2026-07-24","acq_time":856,"confidence":"n","satellite":"N","instrument":"VIIRS","version":"2.0NRT","bright_ti4":298.51,"frp":2.57,"daynight":"N"},"geometry":{"type":"Point","coordinates":[-118.88873,43.21828]}},{"type":"Feature","properties":{"acq_date":"2026-07-24","acq_time":856,"confidence":"n","satellite":"N","instrument":"VIIRS","version":"2.0NRT","bright_ti4":303.77,"frp":6.2,"daynight":"N"},"geometry":{"type":"Point","coordinates":[-118.90488,43.21841]}},{"type":"Feature","properties":{"acq_date":"2026-07-24","acq_time":856,"confidence":"n","satellite":"N","instrument":"VIIRS","version":"2.0NRT","bright_ti4":319.99,"frp":4.88,"daynight":"N"},"geometry":{"type":"Point","coordinates":[-118.91293,43.21847]}},{"type":"Feature","properties":{"acq_date":"2026-07-24","acq_time":856,"confidence":"n","satellite":"N","instrument":"VIIRS","version":"2.0NRT","bright_ti4":310.87,"frp":3.68,"daynight":"N"},"geometry":{"type":"Point","coordinates":[-118.89242,43.2334]}},{"type":"Feature","properties":{"acq_date":"2026-07-24","acq_time":856,"confidence":"n","satellite":"N","instrument":"VIIRS","version":"2.0NRT","bright_ti4":316.05,"frp":2.46,"daynight":"N"},"geometry":{"type":"Point","coordinates":[-118.89626,43.23857]}},{"type":"Feature","properties":{"acq_date":"2026-07-24","acq_time":856,"confidence":"n","satellite":"N","instrument":"VIIRS","version":"2.0NRT","bright_ti4":301.03,"frp":0.97,"daynight":"N"},"geometry":{"type":"Point","coordinates":[-117.82527,43.33439]}},{"type":"Feature","properties":{"acq_date":"2026-07-24","acq_time":858,"confidence":"n","satellite":"N","instrument":"VIIRS","version":"2.0NRT","bright_ti4":300.65,"frp":0.5,"daynight":"N"},"geometry":{"type":"Point","coordinates":[-117.71136,33.71632]}},{"type":"Feature","properties":{"acq_date":"2026-07-24","acq_time":858,"confidence":"n","satellite":"N","instrument":"VIIRS","version":"2.0NRT","bright_ti4":305.55,"frp":1.51,"daynight":"N"},"geometry":{"type":"Point","coordinates":[-118.33363,33.8517]}},{"type":"Feature","properties":{"acq_date":"2026-07-24","acq_time":858,"confidence":"n","satellite":"N","instrument":"VIIRS","version":"2.0NRT","bright_ti4":304.96,"frp":0.27,"daynight":"N"},"geometry":{"type":"Point","coordinates":[-118.52087,34.33594]}},{"type":"Feature","properties":{"acq_date":"2026-07-24","acq_time":858,"confidence":"n","satellite":"N","instrument":"VIIRS","version":"2.0NRT","bright_ti4":312.23,"frp":1.79,"daynight":"N"},"geometry":{"type":"Point","coordinates":[-117.33828,34.60707]}},{"type":"Feature","properties":{"acq_date":"2026-07-24","acq_time":858,"confidence":"n","satellite":"N","instrument":"VIIRS","version":"2.0NRT","bright_ti4":311.17,"frp":1.31,"daynight":"N"},"geometry":{"type":"Point","coordinates":[-117.33922,34.60947]}},{"type":"Feature","properties":{"acq_date":"2026-07-24","acq_time":858,"confidence":"n","satellite":"N","instrument":"VIIRS","version":"2.0NRT","bright_ti4":310.02,"frp":3.69,"daynight":"N"},"geometry":{"type":"Point","coordinates":[-114.08902,35.14268]}},{"type":"Feature","properties":{"acq_date":"2026-07-24","acq_time":858,"confidence":"n","satellite":"N","instrument":"VIIRS","version":"2.0NRT","bright_ti4":310.77,"frp":3.42,"daynight":"N"},"geometry":{"type":"Point","coordinates":[-114.08854,35.14305]}},{"type":"Feature","properties":{"acq_date":"2026-07-24","acq_time":858,"confidence":"n","satellite":"N","instrument":"VIIRS","version":"2.0NRT","bright_ti4":303.04,"frp":0.89,"daynight":"N"},"geometry":{"type":"Point","coordinates":[-119.71524,36.41052]}},{"type":"Feature","properties":{"acq_date":"2026-07-24","acq_time":858,"confidence":"n","satellite":"N","instrument":"VIIRS","version":"2.0NRT","bright_ti4":307.3,"frp":1.14,"daynight":"N"},"geometry":{"type":"Point","coordinates":[-119.70654,36.68513]}},{"type":"Feature","properties":{"acq_date":"2026-07-24","acq_time":858,"confidence":"n","satellite":"N","instrument":"VIIRS","version":"2.0NRT","bright_ti4":309.73,"frp":1.16,"daynight":"N"},"geometry":{"type":"Point","coordinates":[-119.70982,36.68607]}},{"type":"Feature","properties":{"acq_date":"2026-07-24","acq_time":858,"confidence":"n","satellite":"N","instrument":"VIIRS","version":"2.0NRT","bright_ti4":307.14,"frp":3.73,"daynight":"N"},"geometry":{"type":"Point","coordinates":[-118.35747,36.9563]}},{"type":"Feature","properties":{"acq_date":"2026-07-24","acq_time":858,"confidence":"n","satellite":"N","instrument":"VIIRS","version":"2.0NRT","bright_ti4":311.3,"frp":2.56,"daynight":"N"},"geometry":{"type":"Point","coordinates":[-118.36134,36.95645]}},{"type":"Feature","properties":{"acq_date":"2026-07-24","acq_time":858,"confidence":"n","satellite":"N","instrument":"VIIRS","version":"2.0NRT","bright_ti4":303.45,"frp":1.87,"daynight":"N"},"geometry":{"type":"Point","coordinates":[-118.35742,36.95843]}},{"type":"Feature","properties":{"acq_date":"2026-07-24","acq_time":858,"confidence":"n","satellite":"N","instrument":"VIIRS","version":"2.0NRT","bright_ti4":310.08,"frp":1.87,"daynight":"N"},"geometry":{"type":"Point","coordinates":[-118.36129,36.95856]}},{"type":"Feature","properties":{"acq_date":"2026-07-24","acq_time":858,"confidence":"n","satellite":"N","instrument":"VIIRS","version":"2.0NRT","bright_ti4":301.17,"frp":2.56,"daynight":"N"},"geometry":{"type":"Point","coordinates":[-118.36042,36.96279]}},{"type":"Feature","properties":{"acq_date":"2026-07-24","acq_time":858,"confidence":"n","satellite":"N","instrument":"VIIRS","version":"2.0NRT","bright_ti4":304.07,"frp":1.87,"daynight":"N"},"geometry":{"type":"Point","coordinates":[-118.35953,36.96488]}},{"type":"Feature","properties":{"acq_date":"2026-07-24","acq_time":858,"confidence":"n","satellite":"N","instrument":"VIIRS","version":"2.0NRT","bright_ti4":299.59,"frp":3.27,"daynight":"N"},"geometry":{"type":"Point","coordinates":[-118.36312,36.965]}},{"type":"Feature","properties":{"acq_date":"2026-07-24","acq_time":858,"confidence":"n","satellite":"N","instrument":"VIIRS","version":"2.0NRT","bright_ti4":298.55,"frp":0.92,"daynight":"N"},"geometry":{"type":"Point","coordinates":[-118.3633,36.97139]}},{"type":"Feature","properties":{"acq_date":"2026-07-24","acq_time":858,"confidence":"n","satellite":"N","instrument":"VIIRS","version":"2.0NRT","bright_ti4":306.48,"frp":2.28,"daynight":"N"},"geometry":{"type":"Point","coordinates":[-120.37857,37.5165]}},{"type":"Feature","properties":{"acq_date":"2026-07-24","acq_time":858,"confidence":"n","satellite":"N","instrument":"VIIRS","version":"2.0NRT","bright_ti4":304.84,"frp":2.91,"daynight":"N"},"geometry":{"type":"Point","coordinates":[-120.38705,37.51662]}},{"type":"Feature","properties":{"acq_date":"2026-07-24","acq_time":858,"confidence":"n","satellite":"N","instrument":"VIIRS","version":"2.0NRT","bright_ti4":335.44,"frp":4.45,"daynight":"N"},"geometry":{"type":"Point","coordinates":[-120.38216,37.51969]}},{"type":"Feature","properties":{"acq_date":"2026-07-24","acq_time":858,"confidence":"n","satellite":"N","instrument":"VIIRS","version":"2.0NRT","bright_ti4":317.57,"frp":5.04,"daynight":"N"},"geometry":{"type":"Point","coordinates":[-120.39059,37.51986]}},{"type":"Feature","properties":{"acq_date":"2026-07-24","acq_time":858,"confidence":"n","satellite":"N","instrument":"VIIRS","version":"2.0NRT","bright_ti4":305.34,"frp":2.5,"daynight":"N"},"geometry":{"type":"Point","coordinates":[-120.42434,37.5205]}},{"type":"Feature","properties":{"acq_date":"2026-07-24","acq_time":858,"confidence":"n","satellite":"N","instrument":"VIIRS","version":"2.0NRT","bright_ti4":318.19,"frp":2.5,"daynight":"N"},"geometry":{"type":"Point","coordinates":[-120.43282,37.52066]}},{"type":"Feature","properties":{"acq_date":"2026-07-24","acq_time":858,"confidence":"n","satellite":"N","instrument":"VIIRS","version":"2.0NRT","bright_ti4":314.09,"frp":4.45,"daynight":"N"},"geometry":{"type":"Point","coordinates":[-120.37817,37.52355]}},{"type":"Feature","properties":{"acq_date":"2026-07-24","acq_time":858,"confidence":"n","satellite":"N","instrument":"VIIRS","version":"2.0NRT","bright_ti4":327.26,"frp":4.81,"daynight":"N"},"geometry":{"type":"Point","coordinates":[-120.38667,37.52367]}},{"type":"Feature","properties":{"acq_date":"2026-07-24","acq_time":858,"confidence":"n","satellite":"N","instrument":"VIIRS","version":"2.0NRT","bright_ti4":313.66,"frp":4.81,"daynight":"N"},"geometry":{"type":"Point","coordinates":[-120.3951,37.52379]}},{"type":"Feature","properties":{"acq_date":"2026-07-24","acq_time":858,"confidence":"n","satellite":"N","instrument":"VIIRS","version":"2.0NRT","bright_ti4":308.06,"frp":4.24,"daynight":"N"},"geometry":{"type":"Point","coordinates":[-120.42046,37.52415]}},{"type":"Feature","properties":{"acq_date":"2026-07-24","acq_time":858,"confidence":"n","satellite":"N","instrument":"VIIRS","version":"2.0NRT","bright_ti4":333.98,"frp":4.24,"daynight":"N"},"geometry":{"type":"Point","coordinates":[-120.42902,37.52427]}},{"type":"Feature","properties":{"acq_date":"2026-07-24","acq_time":858,"confidence":"n","satellite":"N","instrument":"VIIRS","version":"2.0NRT","bright_ti4":306.97,"frp":5.83,"daynight":"N"},"geometry":{"type":"Point","coordinates":[-120.43742,37.52438]}},{"type":"Feature","properties":{"acq_date":"2026-07-24","acq_time":858,"confidence":"n","satellite":"N","instrument":"VIIRS","version":"2.0NRT","bright_ti4":306.86,"frp":4.45,"daynight":"N"},"geometry":{"type":"Point","coordinates":[-120.38165,37.52673]}},{"type":"Feature","properties":{"acq_date":"2026-07-24","acq_time":858,"confidence":"n","satellite":"N","instrument":"VIIRS","version":"2.0NRT","bright_ti4":302.1,"frp":5.04,"daynight":"N"},"geometry":{"type":"Point","coordinates":[-120.39014,37.5269]}},{"type":"Feature","properties":{"acq_date":"2026-07-24","acq_time":858,"confidence":"n","satellite":"N","instrument":"VIIRS","version":"2.0NRT","bright_ti4":307.62,"frp":2.5,"daynight":"N"},"geometry":{"type":"Point","coordinates":[-120.42398,37.52756]}},{"type":"Feature","properties":{"acq_date":"2026-07-24","acq_time":858,"confidence":"n","satellite":"N","instrument":"VIIRS","version":"2.0NRT","bright_ti4":324.45,"frp":2.5,"daynight":"N"},"geometry":{"type":"Point","coordinates":[-120.43249,37.52773]}},{"type":"Feature","properties":{"acq_date":"2026-07-24","acq_time":900,"confidence":"n","satellite":"N","instrument":"VIIRS","version":"2.0NRT","bright_ti4":333.31,"frp":2.09,"daynight":"N"},"geometry":{"type":"Point","coordinates":[-115.29515,32.45845]}},{"type":"Feature","properties":{"acq_date":"2026-07-24","acq_time":900,"confidence":"n","satellite":"N","instrument":"VIIRS","version":"2.0NRT","bright_ti4":303.9,"frp":0.3,"daynight":"N"},"geometry":{"type":"Point","coordinates":[-116.84579,32.51538]}},{"type":"Feature","properties":{"acq_date":"2026-07-24","acq_time":1036,"confidence":"n","satellite":"N","instrument":"VIIRS","version":"2.0NRT","bright_ti4":302.4,"frp":0.93,"daynight":"N"},"geometry":{"type":"Point","coordinates":[-115.67028,43.14802]}},{"type":"Feature","properties":{"acq_date":"2026-07-24","acq_time":1036,"confidence":"n","satellite":"N","instrument":"VIIRS","version":"2.0NRT","bright_ti4":300.64,"frp":1.6,"daynight":"N"},"geometry":{"type":"Point","coordinates":[-117.82192,43.33476]}},{"type":"Feature","properties":{"acq_date":"2026-07-24","acq_time":1036,"confidence":"n","satellite":"N","instrument":"VIIRS","version":"2.0NRT","bright_ti4":316.27,"frp":2.28,"daynight":"N"},"geometry":{"type":"Point","coordinates":[-117.82759,43.33617]}},{"type":"Feature","properties":{"acq_date":"2026-07-24","acq_time":1038,"confidence":"n","satellite":"N","instrument":"VIIRS","version":"2.0NRT","bright_ti4":301.73,"frp":2.17,"daynight":"N"},"geometry":{"type":"Point","coordinates":[-118.36275,36.95399]}},{"type":"Feature","properties":{"acq_date":"2026-07-24","acq_time":1038,"confidence":"n","satellite":"N","instrument":"VIIRS","version":"2.0NRT","bright_ti4":303.65,"frp":0.98,"daynight":"N"},"geometry":{"type":"Point","coordinates":[-118.3574,36.95444]}},{"type":"Feature","properties":{"acq_date":"2026-07-24","acq_time":1038,"confidence":"n","satellite":"N","instrument":"VIIRS","version":"2.0NRT","bright_ti4":302.99,"frp":0.98,"daynight":"N"},"geometry":{"type":"Point","coordinates":[-118.3633,36.95598]}},{"type":"Feature","properties":{"acq_date":"2026-07-24","acq_time":1038,"confidence":"n","satellite":"N","instrument":"VIIRS","version":"2.0NRT","bright_ti4":304.41,"frp":2.59,"daynight":"N"},"geometry":{"type":"Point","coordinates":[-118.37154,36.96166]}},{"type":"Feature","properties":{"acq_date":"2026-07-24","acq_time":1038,"confidence":"n","satellite":"N","instrument":"VIIRS","version":"2.0NRT","bright_ti4":300.07,"frp":0.93,"daynight":"N"},"geometry":{"type":"Point","coordinates":[-118.36148,36.96645]}},{"type":"Feature","properties":{"acq_date":"2026-07-24","acq_time":1038,"confidence":"n","satellite":"N","instrument":"VIIRS","version":"2.0NRT","bright_ti4":309.05,"frp":1.02,"daynight":"N"},"geometry":{"type":"Point","coordinates":[-121.9337,37.4536]}},{"type":"Feature","properties":{"acq_date":"2026-07-24","acq_time":1038,"confidence":"n","satellite":"N","instrument":"VIIRS","version":"2.0NRT","bright_ti4":323.33,"frp":3.59,"daynight":"N"},"geometry":{"type":"Point","coordinates":[-120.38102,37.5189]}},{"type":"Feature","properties":{"acq_date":"2026-07-24","acq_time":1038,"confidence":"n","satellite":"N","instrument":"VIIRS","version":"2.0NRT","bright_ti4":317.05,"frp":1.73,"daynight":"N"},"geometry":{"type":"Point","coordinates":[-120.38663,37.52023]}},{"type":"Feature","properties":{"acq_date":"2026-07-24","acq_time":1038,"confidence":"n","satellite":"N","instrument":"VIIRS","version":"2.0NRT","bright_ti4":308.7,"frp":1.73,"daynight":"N"},"geometry":{"type":"Point","coordinates":[-120.39227,37.52156]}},{"type":"Feature","properties":{"acq_date":"2026-07-24","acq_time":1038,"confidence":"n","satellite":"N","instrument":"VIIRS","version":"2.0NRT","bright_ti4":322.44,"frp":3.59,"daynight":"N"},"geometry":{"type":"Point","coordinates":[-120.37941,37.52334]}},{"type":"Feature","properties":{"acq_date":"2026-07-24","acq_time":1038,"confidence":"n","satellite":"N","instrument":"VIIRS","version":"2.0NRT","bright_ti4":346.36,"frp":18.07,"daynight":"N"},"geometry":{"type":"Point","coordinates":[-120.42208,37.5238]}},{"type":"Feature","properties":{"acq_date":"2026-07-24","acq_time":1038,"confidence":"n","satellite":"N","instrument":"VIIRS","version":"2.0NRT","bright_ti4":311.38,"frp":1.73,"daynight":"N"},"geometry":{"type":"Point","coordinates":[-120.38505,37.52467]}},{"type":"Feature","properties":{"acq_date":"2026-07-24","acq_time":1038,"confidence":"n","satellite":"N","instrument":"VIIRS","version":"2.0NRT","bright_ti4":356.5,"frp":18.07,"daynight":"N"},"geometry":{"type":"Point","coordinates":[-120.42768,37.52512]}},{"type":"Feature","properties":{"acq_date":"2026-07-24","acq_time":1038,"confidence":"n","satellite":"N","instrument":"VIIRS","version":"2.0NRT","bright_ti4":303.4,"frp":1.73,"daynight":"N"},"geometry":{"type":"Point","coordinates":[-120.3907,37.526]}},{"type":"Feature","properties":{"acq_date":"2026-07-24","acq_time":1038,"confidence":"n","satellite":"N","instrument":"VIIRS","version":"2.0NRT","bright_ti4":329.94,"frp":14.69,"daynight":"N"},"geometry":{"type":"Point","coordinates":[-120.4333,37.52645]}},{"type":"Feature","properties":{"acq_date":"2026-07-24","acq_time":1038,"confidence":"n","satellite":"N","instrument":"VIIRS","version":"2.0NRT","bright_ti4":336.73,"frp":15.04,"daynight":"N"},"geometry":{"type":"Point","coordinates":[-120.42607,37.52954]}},{"type":"Feature","properties":{"acq_date":"2026-07-24","acq_time":1038,"confidence":"n","satellite":"N","instrument":"VIIRS","version":"2.0NRT","bright_ti4":338.14,"frp":16.09,"daynight":"N"},"geometry":{"type":"Point","coordinates":[-120.4317,37.53088]}},{"type":"Feature","properties":{"acq_date":"2026-07-24","acq_time":1038,"confidence":"n","satellite":"N","instrument":"VIIRS","version":"2.0NRT","bright_ti4":301.88,"frp":0.51,"daynight":"N"},"geometry":{"type":"Point","coordinates":[-121.18593,37.88219]}},{"type":"Feature","properties":{"acq_date":"2026-07-24","acq_time":1038,"confidence":"n","satellite":"N","instrument":"VIIRS","version":"2.0NRT","bright_ti4":302.66,"frp":1.11,"daynight":"N"},"geometry":{"type":"Point","coordinates":[-122.39793,37.9504]}},{"type":"Feature","properties":{"acq_date":"2026-07-24","acq_time":1038,"confidence":"n","satellite":"N","instrument":"VIIRS","version":"2.0NRT","bright_ti4":304.21,"frp":1.6,"daynight":"N"},"geometry":{"type":"Point","coordinates":[-122.11152,38.01584]}},{"type":"Feature","properties":{"acq_date":"2026-07-24","acq_time":1038,"confidence":"n","satellite":"N","instrument":"VIIRS","version":"2.0NRT","bright_ti4":302.85,"frp":1.54,"daynight":"N"},"geometry":{"type":"Point","coordinates":[-122.11612,38.01686]}},{"type":"Feature","properties":{"acq_date":"2026-07-24","acq_time":1038,"confidence":"n","satellite":"N","instrument":"VIIRS","version":"2.0NRT","bright_ti4":297.57,"frp":0.45,"daynight":"N"},"geometry":{"type":"Point","coordinates":[-121.3896,38.12114]}},{"type":"Feature","properties":{"acq_date":"2026-07-24","acq_time":1038,"confidence":"n","satellite":"N","instrument":"VIIRS","version":"2.0NRT","bright_ti4":310.72,"frp":0.45,"daynight":"N"},"geometry":{"type":"Point","coordinates":[-121.39302,38.12639]}},{"type":"Feature","properties":{"acq_date":"2026-07-24","acq_time":1038,"confidence":"n","satellite":"N","instrument":"VIIRS","version":"2.0NRT","bright_ti4":296.66,"frp":1.33,"daynight":"N"},"geometry":{"type":"Point","coordinates":[-124.30415,40.65014]}},{"type":"Feature","properties":{"acq_date":"2026-07-24","acq_time":1038,"confidence":"n","satellite":"N","instrument":"VIIRS","version":"2.0NRT","bright_ti4":328.01,"frp":3.58,"daynight":"N"},"geometry":{"type":"Point","coordinates":[-124.30936,40.65115]}},{"type":"Feature","properties":{"acq_date":"2026-07-24","acq_time":1038,"confidence":"n","satellite":"N","instrument":"VIIRS","version":"2.0NRT","bright_ti4":302.2,"frp":0.69,"daynight":"N"},"geometry":{"type":"Point","coordinates":[-122.7765,42.38332]}},{"type":"Feature","properties":{"acq_date":"2026-07-24","acq_time":1038,"confidence":"n","satellite":"N","instrument":"VIIRS","version":"2.0NRT","bright_ti4":306.52,"frp":1.92,"daynight":"N"},"geometry":{"type":"Point","coordinates":[-116.05172,42.57164]}},{"type":"Feature","properties":{"acq_date":"2026-07-24","acq_time":1038,"confidence":"n","satellite":"N","instrument":"VIIRS","version":"2.0NRT","bright_ti4":322.67,"frp":3.32,"daynight":"N"},"geometry":{"type":"Point","coordinates":[-116.05663,42.61054]}},{"type":"Feature","properties":{"acq_date":"2026-07-24","acq_time":1038,"confidence":"n","satellite":"N","instrument":"VIIRS","version":"2.0NRT","bright_ti4":299.27,"frp":3.01,"daynight":"N"},"geometry":{"type":"Point","coordinates":[-116.0211,42.61189]}},{"type":"Feature","properties":{"acq_date":"2026-07-24","acq_time":1038,"confidence":"n","satellite":"N","instrument":"VIIRS","version":"2.0NRT","bright_ti4":301.71,"frp":2.52,"daynight":"N"},"geometry":{"type":"Point","coordinates":[-116.04635,42.61319]}},{"type":"Feature","properties":{"acq_date":"2026-07-24","acq_time":1038,"confidence":"n","satellite":"N","instrument":"VIIRS","version":"2.0NRT","bright_ti4":317.31,"frp":3.01,"daynight":"N"},"geometry":{"type":"Point","coordinates":[-116.02852,42.61385]}},{"type":"Feature","properties":{"acq_date":"2026-07-24","acq_time":1038,"confidence":"n","satellite":"N","instrument":"VIIRS","version":"2.0NRT","bright_ti4":315.17,"frp":3.32,"daynight":"N"},"geometry":{"type":"Point","coordinates":[-116.05419,42.61526]}},{"type":"Feature","properties":{"acq_date":"2026-07-24","acq_time":1038,"confidence":"n","satellite":"N","instrument":"VIIRS","version":"2.0NRT","bright_ti4":303.7,"frp":3.26,"daynight":"N"},"geometry":{"type":"Point","coordinates":[-116.03602,42.61583]}},{"type":"Feature","properties":{"acq_date":"2026-07-24","acq_time":1038,"confidence":"n","satellite":"N","instrument":"VIIRS","version":"2.0NRT","bright_ti4":309.87,"frp":3.32,"daynight":"N"},"geometry":{"type":"Point","coordinates":[-116.06169,42.61723]}},{"type":"Feature","properties":{"acq_date":"2026-07-24","acq_time":1038,"confidence":"n","satellite":"N","instrument":"VIIRS","version":"2.0NRT","bright_ti4":303.91,"frp":3.26,"daynight":"N"},"geometry":{"type":"Point","coordinates":[-116.04391,42.61791]}},{"type":"Feature","properties":{"acq_date":"2026-07-24","acq_time":1038,"confidence":"n","satellite":"N","instrument":"VIIRS","version":"2.0NRT","bright_ti4":339.18,"frp":3.01,"daynight":"N"},"geometry":{"type":"Point","coordinates":[-116.02576,42.61849]}},{"type":"Feature","properties":{"acq_date":"2026-07-24","acq_time":1038,"confidence":"n","satellite":"N","instrument":"VIIRS","version":"2.0NRT","bright_ti4":339.58,"frp":8.75,"daynight":"N"},"geometry":{"type":"Point","coordinates":[-116.02744,42.61861]}},{"type":"Feature","properties":{"acq_date":"2026-07-24","acq_time":1038,"confidence":"n","satellite":"N","instrument":"VIIRS","version":"2.0NRT","bright_ti4":315.07,"frp":2.17,"daynight":"N"},"geometry":{"type":"Point","coordinates":[-116.05922,42.62195]}},{"type":"Feature","properties":{"acq_date":"2026-07-24","acq_time":1038,"confidence":"n","satellite":"N","instrument":"VIIRS","version":"2.0NRT","bright_ti4":310.15,"frp":2.62,"daynight":"N"},"geometry":{"type":"Point","coordinates":[-116.06666,42.62391]}},{"type":"Feature","properties":{"acq_date":"2026-07-24","acq_time":1038,"confidence":"n","satellite":"N","instrument":"VIIRS","version":"2.0NRT","bright_ti4":300.76,"frp":2.4,"daynight":"N"},"geometry":{"type":"Point","coordinates":[-116.05069,42.62489]}},{"type":"Feature","properties":{"acq_date":"2026-07-24","acq_time":1038,"confidence":"n","satellite":"N","instrument":"VIIRS","version":"2.0NRT","bright_ti4":303.78,"frp":2.17,"daynight":"N"},"geometry":{"type":"Point","coordinates":[-116.05656,42.62661]}},{"type":"Feature","properties":{"acq_date":"2026-07-24","acq_time":1038,"confidence":"n","satellite":"N","instrument":"VIIRS","version":"2.0NRT","bright_ti4":323.37,"frp":2.63,"daynight":"N"},"geometry":{"type":"Point","coordinates":[-116.03859,42.62724]}},{"type":"Feature","properties":{"acq_date":"2026-07-24","acq_time":1038,"confidence":"n","satellite":"N","instrument":"VIIRS","version":"2.0NRT","bright_ti4":321.81,"frp":2.4,"daynight":"N"},"geometry":{"type":"Point","coordinates":[-116.0403,42.62746]}},{"type":"Feature","properties":{"acq_date":"2026-07-24","acq_time":1038,"confidence":"n","satellite":"N","instrument":"VIIRS","version":"2.0NRT","bright_ti4":314.5,"frp":3.81,"daynight":"N"},"geometry":{"type":"Point","coordinates":[-116.04618,42.62923]}},{"type":"Feature","properties":{"acq_date":"2026-07-24","acq_time":1038,"confidence":"n","satellite":"N","instrument":"VIIRS","version":"2.0NRT","bright_ti4":317.14,"frp":2.4,"daynight":"N"},"geometry":{"type":"Point","coordinates":[-116.04784,42.62949]}},{"type":"Feature","properties":{"acq_date":"2026-07-24","acq_time":1038,"confidence":"n","satellite":"N","instrument":"VIIRS","version":"2.0NRT","bright_ti4":308.22,"frp":2.63,"daynight":"N"},"geometry":{"type":"Point","coordinates":[-116.03572,42.63185]}},{"type":"Feature","properties":{"acq_date":"2026-07-24","acq_time":1038,"confidence":"n","satellite":"N","instrument":"VIIRS","version":"2.0NRT","bright_ti4":303.65,"frp":0.95,"daynight":"N"},"geometry":{"type":"Point","coordinates":[-116.03747,42.63207]}},{"type":"Feature","properties":{"acq_date":"2026-07-24","acq_time":1038,"confidence":"n","satellite":"N","instrument":"VIIRS","version":"2.0NRT","bright_ti4":330.95,"frp":3.92,"daynight":"N"},"geometry":{"type":"Point","coordinates":[-117.30251,42.66663]}},{"type":"Feature","properties":{"acq_date":"2026-07-24","acq_time":1038,"confidence":"n","satellite":"N","instrument":"VIIRS","version":"2.0NRT","bright_ti4":327.27,"frp":3.92,"daynight":"N"},"geometry":{"type":"Point","coordinates":[-117.30033,42.67109]}},{"type":"Feature","properties":{"acq_date":"2026-07-24","acq_time":1038,"confidence":"n","satellite":"N","instrument":"VIIRS","version":"2.0NRT","bright_ti4":308.59,"frp":4.87,"daynight":"N"},"geometry":{"type":"Point","coordinates":[-117.30667,42.6727]}},{"type":"Feature","properties":{"acq_date":"2026-07-24","acq_time":1038,"confidence":"n","satellite":"N","instrument":"VIIRS","version":"2.0NRT","bright_ti4":299.41,"frp":2.34,"daynight":"N"},"geometry":{"type":"Point","coordinates":[-117.37683,42.67549]}},{"type":"Feature","properties":{"acq_date":"2026-07-24","acq_time":1038,"confidence":"n","satellite":"N","instrument":"VIIRS","version":"2.0NRT","bright_ti4":309.77,"frp":2.34,"daynight":"N"},"geometry":{"type":"Point","coordinates":[-117.38329,42.67712]}},{"type":"Feature","properties":{"acq_date":"2026-07-24","acq_time":1038,"confidence":"n","satellite":"N","instrument":"VIIRS","version":"2.0NRT","bright_ti4":304.15,"frp":4.64,"daynight":"N"},"geometry":{"type":"Point","coordinates":[-117.30453,42.67718]}},{"type":"Feature","properties":{"acq_date":"2026-07-24","acq_time":1038,"confidence":"n","satellite":"N","instrument":"VIIRS","version":"2.0NRT","bright_ti4":313.61,"frp":2.71,"daynight":"N"},"geometry":{"type":"Point","coordinates":[-117.36816,42.67829]}},{"type":"Feature","properties":{"acq_date":"2026-07-24","acq_time":1038,"confidence":"n","satellite":"N","instrument":"VIIRS","version":"2.0NRT","bright_ti4":339.17,"frp":4.64,"daynight":"N"},"geometry":{"type":"Point","coordinates":[-117.31089,42.67879]}},{"type":"Feature","properties":{"acq_date":"2026-07-24","acq_time":1038,"confidence":"n","satellite":"N","instrument":"VIIRS","version":"2.0NRT","bright_ti4":312.22,"frp":2.34,"daynight":"N"},"geometry":{"type":"Point","coordinates":[-117.3746,42.67993]}},{"type":"Feature","properties":{"acq_date":"2026-07-24","acq_time":1038,"confidence":"n","satellite":"N","instrument":"VIIRS","version":"2.0NRT","bright_ti4":306.24,"frp":4.47,"daynight":"N"},"geometry":{"type":"Point","coordinates":[-117.31728,42.68041]}},{"type":"Feature","properties":{"acq_date":"2026-07-24","acq_time":1038,"confidence":"n","satellite":"N","instrument":"VIIRS","version":"2.0NRT","bright_ti4":306.92,"frp":2.86,"daynight":"N"},"geometry":{"type":"Point","coordinates":[-117.35974,42.68116]}},{"type":"Feature","properties":{"acq_date":"2026-07-24","acq_time":1038,"confidence":"n","satellite":"N","instrument":"VIIRS","version":"2.0NRT","bright_ti4":321.85,"frp":2.34,"daynight":"N"},"geometry":{"type":"Point","coordinates":[-117.38109,42.68157]}},{"type":"Feature","properties":{"acq_date":"2026-07-24","acq_time":1038,"confidence":"n","satellite":"N","instrument":"VIIRS","version":"2.0NRT","bright_ti4":299.2,"frp":4.47,"daynight":"N"},"geometry":{"type":"Point","coordinates":[-117.32373,42.68204]}},{"type":"Feature","properties":{"acq_date":"2026-07-24","acq_time":1038,"confidence":"n","satellite":"N","instrument":"VIIRS","version":"2.0NRT","bright_ti4":332.58,"frp":2.86,"daynight":"N"},"geometry":{"type":"Point","coordinates":[-117.366,42.68274]}},{"type":"Feature","properties":{"acq_date":"2026-07-24","acq_time":1038,"confidence":"n","satellite":"N","instrument":"VIIRS","version":"2.0NRT","bright_ti4":338.81,"frp":5.21,"daynight":"N"},"geometry":{"type":"Point","coordinates":[-117.37236,42.68436]}},{"type":"Feature","properties":{"acq_date":"2026-07-24","acq_time":1038,"confidence":"n","satellite":"N","instrument":"VIIRS","version":"2.0NRT","bright_ti4":351.38,"frp":4.47,"daynight":"N"},"geometry":{"type":"Point","coordinates":[-117.31518,42.68489]}},{"type":"Feature","properties":{"acq_date":"2026-07-24","acq_time":1038,"confidence":"n","satellite":"N","instrument":"VIIRS","version":"2.0NRT","bright_ti4":314.15,"frp":2.86,"daynight":"N"},"geometry":{"type":"Point","coordinates":[-117.35758,42.68561]}},{"type":"Feature","properties":{"acq_date":"2026-07-24","acq_time":1038,"confidence":"n","satellite":"N","instrument":"VIIRS","version":"2.0NRT","bright_ti4":320.48,"frp":5.21,"daynight":"N"},"geometry":{"type":"Point","coordinates":[-117.37877,42.68598]}},{"type":"Feature","properties":{"acq_date":"2026-07-24","acq_time":1038,"confidence":"n","satellite":"N","instrument":"VIIRS","version":"2.0NRT","bright_ti4":313.76,"frp":4.47,"daynight":"N"},"geometry":{"type":"Point","coordinates":[-117.32155,42.6865]}},{"type":"Feature","properties":{"acq_date":"2026-07-24","acq_time":1038,"confidence":"n","satellite":"N","instrument":"VIIRS","version":"2.0NRT","bright_ti4":310.89,"frp":2.86,"daynight":"N"},"geometry":{"type":"Point","coordinates":[-117.36385,42.6872]}},{"type":"Feature","properties":{"acq_date":"2026-07-24","acq_time":1038,"confidence":"n","satellite":"N","instrument":"VIIRS","version":"2.0NRT","bright_ti4":306.77,"frp":5.23,"daynight":"N"},"geometry":{"type":"Point","coordinates":[-117.32795,42.68813]}},{"type":"Feature","properties":{"acq_date":"2026-07-24","acq_time":1038,"confidence":"n","satellite":"N","instrument":"VIIRS","version":"2.0NRT","bright_ti4":339.73,"frp":5.23,"daynight":"N"},"geometry":{"type":"Point","coordinates":[-117.3344,42.68976]}},{"type":"Feature","properties":{"acq_date":"2026-07-24","acq_time":1038,"confidence":"n","satellite":"N","instrument":"VIIRS","version":"2.0NRT","bright_ti4":337.32,"frp":4.9,"daynight":"N"},"geometry":{"type":"Point","coordinates":[-117.34078,42.69137]}},{"type":"Feature","properties":{"acq_date":"2026-07-24","acq_time":1038,"confidence":"n","satellite":"N","instrument":"VIIRS","version":"2.0NRT","bright_ti4":312.2,"frp":4.9,"daynight":"N"},"geometry":{"type":"Point","coordinates":[-117.34709,42.69297]}},{"type":"Feature","properties":{"acq_date":"2026-07-24","acq_time":1038,"confidence":"n","satellite":"N","instrument":"VIIRS","version":"2.0NRT","bright_ti4":323.97,"frp":3.15,"daynight":"N"},"geometry":{"type":"Point","coordinates":[-117.3322,42.69421]}},{"type":"Feature","properties":{"acq_date":"2026-07-24","acq_time":1038,"confidence":"n","satellite":"N","instrument":"VIIRS","version":"2.0NRT","bright_ti4":316.48,"frp":3.73,"daynight":"N"},"geometry":{"type":"Point","coordinates":[-117.35337,42.69456]}},{"type":"Feature","properties":{"acq_date":"2026-07-24","acq_time":1038,"confidence":"n","satellite":"N","instrument":"VIIRS","version":"2.0NRT","bright_ti4":340.19,"frp":6.84,"daynight":"N"},"geometry":{"type":"Point","coordinates":[-117.34496,42.69743]}},{"type":"Feature","properties":{"acq_date":"2026-07-24","acq_time":1038,"confidence":"n","satellite":"N","instrument":"VIIRS","version":"2.0NRT","bright_ti4":302.75,"frp":1.07,"daynight":"N"},"geometry":{"type":"Point","coordinates":[-118.47595,42.99493]}},{"type":"Feature","properties":{"acq_date":"2026-07-24","acq_time":1038,"confidence":"n","satellite":"N","instrument":"VIIRS","version":"2.0NRT","bright_ti4":301.42,"frp":1.07,"daynight":"N"},"geometry":{"type":"Point","coordinates":[-118.4742,42.99919]}},{"type":"Feature","properties":{"acq_date":"2026-07-24","acq_time":1038,"confidence":"n","satellite":"N","instrument":"VIIRS","version":"2.0NRT","bright_ti4":295.09,"frp":1.15,"daynight":"N"},"geometry":{"type":"Point","coordinates":[-118.47235,43.00342]}},{"type":"Feature","properties":{"acq_date":"2026-07-24","acq_time":1038,"confidence":"n","satellite":"N","instrument":"VIIRS","version":"2.0NRT","bright_ti4":305.88,"frp":1.11,"daynight":"N"},"geometry":{"type":"Point","coordinates":[-118.47762,43.00468]}},{"type":"Feature","properties":{"acq_date":"2026-07-24","acq_time":1038,"confidence":"n","satellite":"N","instrument":"VIIRS","version":"2.0NRT","bright_ti4":324.88,"frp":3.65,"daynight":"N"},"geometry":{"type":"Point","coordinates":[-122.56888,43.11147]}},{"type":"Feature","properties":{"acq_date":"2026-07-24","acq_time":1038,"confidence":"n","satellite":"N","instrument":"VIIRS","version":"2.0NRT","bright_ti4":327.89,"frp":3.65,"daynight":"N"},"geometry":{"type":"Point","coordinates":[-122.55642,43.1128]}},{"type":"Feature","properties":{"acq_date":"2026-07-24","acq_time":1038,"confidence":"n","satellite":"N","instrument":"VIIRS","version":"2.0NRT","bright_ti4":332.02,"frp":3.65,"daynight":"N"},"geometry":{"type":"Point","coordinates":[-122.56235,43.11399]}},{"type":"Feature","properties":{"acq_date":"2026-07-24","acq_time":1038,"confidence":"n","satellite":"N","instrument":"VIIRS","version":"2.0NRT","bright_ti4":308.14,"frp":6.91,"daynight":"N"},"geometry":{"type":"Point","coordinates":[-122.54366,43.11407]}},{"type":"Feature","properties":{"acq_date":"2026-07-24","acq_time":1038,"confidence":"n","satellite":"N","instrument":"VIIRS","version":"2.0NRT","bright_ti4":342.44,"frp":4.45,"daynight":"N"},"geometry":{"type":"Point","coordinates":[-122.56792,43.1151]}},{"type":"Feature","properties":{"acq_date":"2026-07-24","acq_time":1038,"confidence":"n","satellite":"N","instrument":"VIIRS","version":"2.0NRT","bright_ti4":328.92,"frp":6.91,"daynight":"N"},"geometry":{"type":"Point","coordinates":[-122.5497,43.11528]}},{"type":"Feature","properties":{"acq_date":"2026-07-24","acq_time":1038,"confidence":"n","satellite":"N","instrument":"VIIRS","version":"2.0NRT","bright_ti4":328.8,"frp":3.65,"daynight":"N"},"geometry":{"type":"Point","coordinates":[-122.55569,43.11649]}},{"type":"Feature","properties":{"acq_date":"2026-07-24","acq_time":1038,"confidence":"n","satellite":"N","instrument":"VIIRS","version":"2.0NRT","bright_ti4":332.15,"frp":3.65,"daynight":"N"},"geometry":{"type":"Point","coordinates":[-122.56148,43.11765]}},{"type":"Feature","properties":{"acq_date":"2026-07-24","acq_time":1038,"confidence":"n","satellite":"N","instrument":"VIIRS","version":"2.0NRT","bright_ti4":317.92,"frp":4.45,"daynight":"N"},"geometry":{"type":"Point","coordinates":[-122.56679,43.11871]}},{"type":"Feature","properties":{"acq_date":"2026-07-24","acq_time":1038,"confidence":"n","satellite":"N","instrument":"VIIRS","version":"2.0NRT","bright_ti4":342.51,"frp":3.36,"daynight":"N"},"geometry":{"type":"Point","coordinates":[-122.57061,43.12331]}},{"type":"Feature","properties":{"acq_date":"2026-07-24","acq_time":1038,"confidence":"n","satellite":"N","instrument":"VIIRS","version":"2.0NRT","bright_ti4":299.45,"frp":1.68,"daynight":"N"},"geometry":{"type":"Point","coordinates":[-122.57575,43.12434]}},{"type":"Feature","properties":{"acq_date":"2026-07-24","acq_time":1038,"confidence":"n","satellite":"N","instrument":"VIIRS","version":"2.0NRT","bright_ti4":304.27,"frp":3.36,"daynight":"N"},"geometry":{"type":"Point","coordinates":[-122.56929,43.12687]}},{"type":"Feature","properties":{"acq_date":"2026-07-24","acq_time":1038,"confidence":"n","satellite":"N","instrument":"VIIRS","version":"2.0NRT","bright_ti4":309.62,"frp":7.65,"daynight":"N"},"geometry":{"type":"Point","coordinates":[-118.89062,43.15018]}},{"type":"Feature","properties":{"acq_date":"2026-07-24","acq_time":1038,"confidence":"n","satellite":"N","instrument":"VIIRS","version":"2.0NRT","bright_ti4":344.51,"frp":7.65,"daynight":"N"},"geometry":{"type":"Point","coordinates":[-118.8888,43.15431]}},{"type":"Feature","properties":{"acq_date":"2026-07-24","acq_time":1038,"confidence":"h","satellite":"N","instrument":"VIIRS","version":"2.0NRT","bright_ti4":367,"frp":25.84,"daynight":"N"},"geometry":{"type":"Point","coordinates":[-118.89411,43.15558]}},{"type":"Feature","properties":{"acq_date":"2026-07-24","acq_time":1038,"confidence":"n","satellite":"N","instrument":"VIIRS","version":"2.0NRT","bright_ti4":355.69,"frp":25.84,"daynight":"N"},"geometry":{"type":"Point","coordinates":[-118.89944,43.15684]}},{"type":"Feature","properties":{"acq_date":"2026-07-24","acq_time":1038,"confidence":"n","satellite":"N","instrument":"VIIRS","version":"2.0NRT","bright_ti4":331.43,"frp":3.09,"daynight":"N"},"geometry":{"type":"Point","coordinates":[-118.88165,43.15718]}},{"type":"Feature","properties":{"acq_date":"2026-07-24","acq_time":1038,"confidence":"n","satellite":"N","instrument":"VIIRS","version":"2.0NRT","bright_ti4":343.94,"frp":11.76,"daynight":"N"},"geometry":{"type":"Point","coordinates":[-118.90477,43.1581]}},{"type":"Feature","properties":{"acq_date":"2026-07-24","acq_time":1038,"confidence":"n","satellite":"N","instrument":"VIIRS","version":"2.0NRT","bright_ti4":321.25,"frp":3.09,"daynight":"N"},"geometry":{"type":"Point","coordinates":[-118.88697,43.15844]}},{"type":"Feature","properties":{"acq_date":"2026-07-24","acq_time":1038,"confidence":"n","satellite":"N","instrument":"VIIRS","version":"2.0NRT","bright_ti4":306.41,"frp":1.31,"daynight":"N"},"geometry":{"type":"Point","coordinates":[-118.89228,43.15971]}},{"type":"Feature","properties":{"acq_date":"2026-07-24","acq_time":1038,"confidence":"n","satellite":"N","instrument":"VIIRS","version":"2.0NRT","bright_ti4":347.79,"frp":4.76,"daynight":"N"},"geometry":{"type":"Point","coordinates":[-118.91541,43.16063]}},{"type":"Feature","properties":{"acq_date":"2026-07-24","acq_time":1038,"confidence":"n","satellite":"N","instrument":"VIIRS","version":"2.0NRT","bright_ti4":300.33,"frp":1.31,"daynight":"N"},"geometry":{"type":"Point","coordinates":[-118.89762,43.16097]}},{"type":"Feature","properties":{"acq_date":"2026-07-24","acq_time":1038,"confidence":"n","satellite":"N","instrument":"VIIRS","version":"2.0NRT","bright_ti4":303.03,"frp":4.76,"daynight":"N"},"geometry":{"type":"Point","coordinates":[-118.92071,43.1619]}},{"type":"Feature","properties":{"acq_date":"2026-07-24","acq_time":1038,"confidence":"n","satellite":"N","instrument":"VIIRS","version":"2.0NRT","bright_ti4":315.77,"frp":1.75,"daynight":"N"},"geometry":{"type":"Point","coordinates":[-118.90292,43.16223]}},{"type":"Feature","properties":{"acq_date":"2026-07-24","acq_time":1038,"confidence":"n","satellite":"N","instrument":"VIIRS","version":"2.0NRT","bright_ti4":305.82,"frp":1.75,"daynight":"N"},"geometry":{"type":"Point","coordinates":[-118.90825,43.16349]}},{"type":"Feature","properties":{"acq_date":"2026-07-24","acq_time":1038,"confidence":"n","satellite":"N","instrument":"VIIRS","version":"2.0NRT","bright_ti4":299.17,"frp":1.22,"daynight":"N"},"geometry":{"type":"Point","coordinates":[-118.91357,43.16475]}},{"type":"Feature","properties":{"acq_date":"2026-07-24","acq_time":1038,"confidence":"n","satellite":"N","instrument":"VIIRS","version":"2.0NRT","bright_ti4":299.66,"frp":1.31,"daynight":"N"},"geometry":{"type":"Point","coordinates":[-118.8958,43.1651]}},{"type":"Feature","properties":{"acq_date":"2026-07-24","acq_time":1038,"confidence":"n","satellite":"N","instrument":"VIIRS","version":"2.0NRT","bright_ti4":296.79,"frp":1.75,"daynight":"N"},"geometry":{"type":"Point","coordinates":[-118.90643,43.16762]}},{"type":"Feature","properties":{"acq_date":"2026-07-24","acq_time":1038,"confidence":"n","satellite":"N","instrument":"VIIRS","version":"2.0NRT","bright_ti4":311.39,"frp":1.35,"daynight":"N"},"geometry":{"type":"Point","coordinates":[-118.87081,43.16831]}},{"type":"Feature","properties":{"acq_date":"2026-07-24","acq_time":1038,"confidence":"n","satellite":"N","instrument":"VIIRS","version":"2.0NRT","bright_ti4":302.39,"frp":1.87,"daynight":"N"},"geometry":{"type":"Point","coordinates":[-118.89397,43.16923]}},{"type":"Feature","properties":{"acq_date":"2026-07-24","acq_time":1038,"confidence":"n","satellite":"N","instrument":"VIIRS","version":"2.0NRT","bright_ti4":295.8,"frp":2.05,"daynight":"N"},"geometry":{"type":"Point","coordinates":[-118.89928,43.17049]}},{"type":"Feature","properties":{"acq_date":"2026-07-24","acq_time":1038,"confidence":"n","satellite":"N","instrument":"VIIRS","version":"2.0NRT","bright_ti4":295.36,"frp":0.81,"daynight":"N"},"geometry":{"type":"Point","coordinates":[-118.91687,43.18376]}},{"type":"Feature","properties":{"acq_date":"2026-07-24","acq_time":1038,"confidence":"n","satellite":"N","instrument":"VIIRS","version":"2.0NRT","bright_ti4":304.44,"frp":1.17,"daynight":"N"},"geometry":{"type":"Point","coordinates":[-118.94344,43.19003]}},{"type":"Feature","properties":{"acq_date":"2026-07-24","acq_time":1038,"confidence":"n","satellite":"N","instrument":"VIIRS","version":"2.0NRT","bright_ti4":302.97,"frp":1.13,"daynight":"N"},"geometry":{"type":"Point","coordinates":[-118.91853,43.19326]}},{"type":"Feature","properties":{"acq_date":"2026-07-24","acq_time":1038,"confidence":"n","satellite":"N","instrument":"VIIRS","version":"2.0NRT","bright_ti4":321.34,"frp":1.17,"daynight":"N"},"geometry":{"type":"Point","coordinates":[-118.94161,43.19415]}},{"type":"Feature","properties":{"acq_date":"2026-07-24","acq_time":1038,"confidence":"n","satellite":"N","instrument":"VIIRS","version":"2.0NRT","bright_ti4":301,"frp":1.13,"daynight":"N"},"geometry":{"type":"Point","coordinates":[-118.91671,43.19738]}},{"type":"Feature","properties":{"acq_date":"2026-07-24","acq_time":1038,"confidence":"n","satellite":"N","instrument":"VIIRS","version":"2.0NRT","bright_ti4":344.15,"frp":8.48,"daynight":"N"},"geometry":{"type":"Point","coordinates":[-118.9398,43.19827]}},{"type":"Feature","properties":{"acq_date":"2026-07-24","acq_time":1038,"confidence":"n","satellite":"N","instrument":"VIIRS","version":"2.0NRT","bright_ti4":337.04,"frp":8.48,"daynight":"N"},"geometry":{"type":"Point","coordinates":[-118.93263,43.20112]}},{"type":"Feature","properties":{"acq_date":"2026-07-24","acq_time":1038,"confidence":"n","satellite":"N","instrument":"VIIRS","version":"2.0NRT","bright_ti4":298.63,"frp":1,"daynight":"N"},"geometry":{"type":"Point","coordinates":[-118.91488,43.2015]}},{"type":"Feature","properties":{"acq_date":"2026-07-24","acq_time":1038,"confidence":"n","satellite":"N","instrument":"VIIRS","version":"2.0NRT","bright_ti4":338.38,"frp":8.48,"daynight":"N"},"geometry":{"type":"Point","coordinates":[-118.93797,43.20238]}},{"type":"Feature","properties":{"acq_date":"2026-07-24","acq_time":1038,"confidence":"n","satellite":"N","instrument":"VIIRS","version":"2.0NRT","bright_ti4":307.68,"frp":0.93,"daynight":"N"},"geometry":{"type":"Point","coordinates":[-118.93082,43.20525]}},{"type":"Feature","properties":{"acq_date":"2026-07-24","acq_time":1038,"confidence":"n","satellite":"N","instrument":"VIIRS","version":"2.0NRT","bright_ti4":302.62,"frp":1,"daynight":"N"},"geometry":{"type":"Point","coordinates":[-118.91306,43.20562]}},{"type":"Feature","properties":{"acq_date":"2026-07-24","acq_time":1038,"confidence":"n","satellite":"N","instrument":"VIIRS","version":"2.0NRT","bright_ti4":315.73,"frp":2.16,"daynight":"N"},"geometry":{"type":"Point","coordinates":[-118.90757,43.21798]}},{"type":"Feature","properties":{"acq_date":"2026-07-24","acq_time":1038,"confidence":"n","satellite":"N","instrument":"VIIRS","version":"2.0NRT","bright_ti4":306.02,"frp":1.39,"daynight":"N"},"geometry":{"type":"Point","coordinates":[-118.88979,43.21837]}},{"type":"Feature","properties":{"acq_date":"2026-07-24","acq_time":1038,"confidence":"n","satellite":"N","instrument":"VIIRS","version":"2.0NRT","bright_ti4":309.9,"frp":3.29,"daynight":"N"},"geometry":{"type":"Point","coordinates":[-118.89328,43.22374]}},{"type":"Feature","properties":{"acq_date":"2026-07-24","acq_time":1038,"confidence":"n","satellite":"N","instrument":"VIIRS","version":"2.0NRT","bright_ti4":302.03,"frp":0.63,"daynight":"N"},"geometry":{"type":"Point","coordinates":[-118.91644,43.22461]}},{"type":"Feature","properties":{"acq_date":"2026-07-24","acq_time":1038,"confidence":"n","satellite":"N","instrument":"VIIRS","version":"2.0NRT","bright_ti4":314.1,"frp":3.29,"daynight":"N"},"geometry":{"type":"Point","coordinates":[-118.88612,43.22662]}},{"type":"Feature","properties":{"acq_date":"2026-07-24","acq_time":1038,"confidence":"n","satellite":"N","instrument":"VIIRS","version":"2.0NRT","bright_ti4":323.58,"frp":38.55,"daynight":"N"},"geometry":{"type":"Point","coordinates":[-118.90925,43.22747]}},{"type":"Feature","properties":{"acq_date":"2026-07-24","acq_time":1038,"confidence":"n","satellite":"N","instrument":"VIIRS","version":"2.0NRT","bright_ti4":337.84,"frp":3.29,"daynight":"N"},"geometry":{"type":"Point","coordinates":[-118.89146,43.22786]}},{"type":"Feature","properties":{"acq_date":"2026-07-24","acq_time":1038,"confidence":"h","satellite":"N","instrument":"VIIRS","version":"2.0NRT","bright_ti4":367,"frp":38.55,"daynight":"N"},"geometry":{"type":"Point","coordinates":[-118.91463,43.22873]}},{"type":"Feature","properties":{"acq_date":"2026-07-24","acq_time":1038,"confidence":"n","satellite":"N","instrument":"VIIRS","version":"2.0NRT","bright_ti4":300.65,"frp":3.09,"daynight":"N"},"geometry":{"type":"Point","coordinates":[-118.92007,43.23]}},{"type":"Feature","properties":{"acq_date":"2026-07-24","acq_time":1038,"confidence":"n","satellite":"N","instrument":"VIIRS","version":"2.0NRT","bright_ti4":334.06,"frp":20.83,"daynight":"N"},"geometry":{"type":"Point","coordinates":[-118.90209,43.23035]}},{"type":"Feature","properties":{"acq_date":"2026-07-24","acq_time":1038,"confidence":"n","satellite":"N","instrument":"VIIRS","version":"2.0NRT","bright_ti4":334.06,"frp":38.55,"daynight":"N"},"geometry":{"type":"Point","coordinates":[-118.90742,43.23159]}},{"type":"Feature","properties":{"acq_date":"2026-07-24","acq_time":1038,"confidence":"n","satellite":"N","instrument":"VIIRS","version":"2.0NRT","bright_ti4":322.09,"frp":3.22,"daynight":"N"},"geometry":{"type":"Point","coordinates":[-118.88962,43.23199]}},{"type":"Feature","properties":{"acq_date":"2026-07-24","acq_time":1038,"confidence":"n","satellite":"N","instrument":"VIIRS","version":"2.0NRT","bright_ti4":336.07,"frp":38.55,"daynight":"N"},"geometry":{"type":"Point","coordinates":[-118.91275,43.23284]}},{"type":"Feature","properties":{"acq_date":"2026-07-24","acq_time":1038,"confidence":"n","satellite":"N","instrument":"VIIRS","version":"2.0NRT","bright_ti4":308.84,"frp":53.58,"daynight":"N"},"geometry":{"type":"Point","coordinates":[-118.89494,43.23323]}},{"type":"Feature","properties":{"acq_date":"2026-07-24","acq_time":1038,"confidence":"h","satellite":"N","instrument":"VIIRS","version":"2.0NRT","bright_ti4":367,"frp":53.58,"daynight":"N"},"geometry":{"type":"Point","coordinates":[-118.90028,43.23447]}},{"type":"Feature","properties":{"acq_date":"2026-07-24","acq_time":1038,"confidence":"n","satellite":"N","instrument":"VIIRS","version":"2.0NRT","bright_ti4":297.32,"frp":4.38,"daynight":"N"},"geometry":{"type":"Point","coordinates":[-118.88739,43.23447]}},{"type":"Feature","properties":{"acq_date":"2026-07-24","acq_time":1038,"confidence":"n","satellite":"N","instrument":"VIIRS","version":"2.0NRT","bright_ti4":345.38,"frp":28.3,"daynight":"N"},"geometry":{"type":"Point","coordinates":[-118.9056,43.23571]}},{"type":"Feature","properties":{"acq_date":"2026-07-24","acq_time":1038,"confidence":"n","satellite":"N","instrument":"VIIRS","version":"2.0NRT","bright_ti4":321.73,"frp":4.38,"daynight":"N"},"geometry":{"type":"Point","coordinates":[-118.89272,43.23575]}},{"type":"Feature","properties":{"acq_date":"2026-07-24","acq_time":1038,"confidence":"n","satellite":"N","instrument":"VIIRS","version":"2.0NRT","bright_ti4":345.68,"frp":22.19,"daynight":"N"},"geometry":{"type":"Point","coordinates":[-118.89803,43.23702]}},{"type":"Feature","properties":{"acq_date":"2026-07-24","acq_time":1038,"confidence":"n","satellite":"N","instrument":"VIIRS","version":"2.0NRT","bright_ti4":341.29,"frp":53.58,"daynight":"N"},"geometry":{"type":"Point","coordinates":[-118.89313,43.23736]}},{"type":"Feature","properties":{"acq_date":"2026-07-24","acq_time":1038,"confidence":"n","satellite":"N","instrument":"VIIRS","version":"2.0NRT","bright_ti4":315.89,"frp":22.19,"daynight":"N"},"geometry":{"type":"Point","coordinates":[-118.90334,43.23829]}},{"type":"Feature","properties":{"acq_date":"2026-07-24","acq_time":1038,"confidence":"n","satellite":"N","instrument":"VIIRS","version":"2.0NRT","bright_ti4":339.86,"frp":53.58,"daynight":"N"},"geometry":{"type":"Point","coordinates":[-118.89846,43.23859]}},{"type":"Feature","properties":{"acq_date":"2026-07-24","acq_time":1038,"confidence":"n","satellite":"N","instrument":"VIIRS","version":"2.0NRT","bright_ti4":331.74,"frp":22.19,"daynight":"N"},"geometry":{"type":"Point","coordinates":[-118.89622,43.24114]}},{"type":"Feature","properties":{"acq_date":"2026-07-24","acq_time":1041,"confidence":"n","satellite":"N","instrument":"VIIRS","version":"2.0NRT","bright_ti4":301.19,"frp":0.8,"daynight":"N"},"geometry":{"type":"Point","coordinates":[-117.47502,33.79289]}},{"type":"Feature","properties":{"acq_date":"2026-07-24","acq_time":1041,"confidence":"n","satellite":"N","instrument":"VIIRS","version":"2.0NRT","bright_ti4":302.77,"frp":1.1,"daynight":"N"},"geometry":{"type":"Point","coordinates":[-118.2397,33.81328]}},{"type":"Feature","properties":{"acq_date":"2026-07-24","acq_time":1041,"confidence":"n","satellite":"N","instrument":"VIIRS","version":"2.0NRT","bright_ti4":303.24,"frp":1.73,"daynight":"N"},"geometry":{"type":"Point","coordinates":[-118.2463,33.82097]}},{"type":"Feature","properties":{"acq_date":"2026-07-24","acq_time":1041,"confidence":"n","satellite":"N","instrument":"VIIRS","version":"2.0NRT","bright_ti4":301.1,"frp":0.94,"daynight":"N"},"geometry":{"type":"Point","coordinates":[-118.33542,33.85186]}},{"type":"Feature","properties":{"acq_date":"2026-07-24","acq_time":1041,"confidence":"n","satellite":"N","instrument":"VIIRS","version":"2.0NRT","bright_ti4":302.59,"frp":1.28,"daynight":"N"},"geometry":{"type":"Point","coordinates":[-118.33237,33.85562]}},{"type":"Feature","properties":{"acq_date":"2026-07-24","acq_time":1041,"confidence":"n","satellite":"N","instrument":"VIIRS","version":"2.0NRT","bright_ti4":308.69,"frp":0.74,"daynight":"N"},"geometry":{"type":"Point","coordinates":[-118.1932,34.15294]}},{"type":"Feature","properties":{"acq_date":"2026-07-24","acq_time":1041,"confidence":"n","satellite":"N","instrument":"VIIRS","version":"2.0NRT","bright_ti4":307.38,"frp":0.44,"daynight":"N"},"geometry":{"type":"Point","coordinates":[-118.52079,34.33278]}},{"type":"Feature","properties":{"acq_date":"2026-07-24","acq_time":1041,"confidence":"n","satellite":"N","instrument":"VIIRS","version":"2.0NRT","bright_ti4":306.4,"frp":1.03,"daynight":"N"},"geometry":{"type":"Point","coordinates":[-118.52129,34.33756]}},{"type":"Feature","properties":{"acq_date":"2026-07-24","acq_time":1041,"confidence":"n","satellite":"N","instrument":"VIIRS","version":"2.0NRT","bright_ti4":303.29,"frp":0.44,"daynight":"N"},"geometry":{"type":"Point","coordinates":[-118.51884,34.33805]}},{"type":"Feature","properties":{"acq_date":"2026-07-24","acq_time":1041,"confidence":"n","satellite":"N","instrument":"VIIRS","version":"2.0NRT","bright_ti4":304.39,"frp":1,"daynight":"N"},"geometry":{"type":"Point","coordinates":[-116.85638,34.35317]}},{"type":"Feature","properties":{"acq_date":"2026-07-24","acq_time":1041,"confidence":"n","satellite":"N","instrument":"VIIRS","version":"2.0NRT","bright_ti4":301.05,"frp":0.6,"daynight":"N"},"geometry":{"type":"Point","coordinates":[-118.64442,34.42816]}},{"type":"Feature","properties":{"acq_date":"2026-07-24","acq_time":1041,"confidence":"n","satellite":"N","instrument":"VIIRS","version":"2.0NRT","bright_ti4":301.99,"frp":0.37,"daynight":"N"},"geometry":{"type":"Point","coordinates":[-117.29662,34.55422]}},{"type":"Feature","properties":{"acq_date":"2026-07-24","acq_time":1041,"confidence":"n","satellite":"N","instrument":"VIIRS","version":"2.0NRT","bright_ti4":308.59,"frp":1.47,"daynight":"N"},"geometry":{"type":"Point","coordinates":[-117.33543,34.60899]}},{"type":"Feature","properties":{"acq_date":"2026-07-24","acq_time":1041,"confidence":"n","satellite":"N","instrument":"VIIRS","version":"2.0NRT","bright_ti4":303.43,"frp":1.56,"daynight":"N"},"geometry":{"type":"Point","coordinates":[-117.33977,34.61017]}},{"type":"Feature","properties":{"acq_date":"2026-07-24","acq_time":1041,"confidence":"n","satellite":"N","instrument":"VIIRS","version":"2.0NRT","bright_ti4":304.08,"frp":1.09,"daynight":"N"},"geometry":{"type":"Point","coordinates":[-117.10226,34.61917]}},{"type":"Feature","properties":{"acq_date":"2026-07-24","acq_time":1041,"confidence":"n","satellite":"N","instrument":"VIIRS","version":"2.0NRT","bright_ti4":304.74,"frp":1.98,"daynight":"N"},"geometry":{"type":"Point","coordinates":[-117.10094,34.61946]}},{"type":"Feature","properties":{"acq_date":"2026-07-24","acq_time":1041,"confidence":"n","satellite":"N","instrument":"VIIRS","version":"2.0NRT","bright_ti4":306.74,"frp":1.09,"daynight":"N"},"geometry":{"type":"Point","coordinates":[-117.10088,34.625]}}]}