{"type":"FeatureCollection","name":"FIRMS VIIRS CA (last 1 day)","crs":{"type":"name","properties":{"name":"EPSG:4326"}},"fetched_at_utc":"2026-09-16T18:01:02.297Z","source":{"url":"https://firms.modaps.eosdis.nasa.gov/api/area/csv/8c4af552cf654445dd280dfb3ad9337c/VIIRS_SNPP_NRT/-125,32,-113,43.5/1","dataset":"VIIRS_SNPP_NRT","bbox":"-125,32,-113,43.5","day_range":"1"},"features":[{"type":"Feature","properties":{"acq_date":"2026-09-16","acq_time":845,"confidence":"n","satellite":"N","instrument":"VIIRS","version":"2.0NRT","bright_ti4":305.49,"frp":1.72,"daynight":"N"},"geometry":{"type":"Point","coordinates":[-117.33846,34.60913]}},{"type":"Feature","properties":{"acq_date":"2026-09-16","acq_time":845,"confidence":"n","satellite":"N","instrument":"VIIRS","version":"2.0NRT","bright_ti4":310.77,"frp":1.61,"daynight":"N"},"geometry":{"type":"Point","coordinates":[-114.912,36.35658]}},{"type":"Feature","properties":{"acq_date":"2026-09-16","acq_time":845,"confidence":"n","satellite":"N","instrument":"VIIRS","version":"2.0NRT","bright_ti4":306.7,"frp":1.48,"daynight":"N"},"geometry":{"type":"Point","coordinates":[-114.9124,36.35988]}},{"type":"Feature","properties":{"acq_date":"2026-09-16","acq_time":845,"confidence":"n","satellite":"N","instrument":"VIIRS","version":"2.0NRT","bright_ti4":297.23,"frp":1.22,"daynight":"N"},"geometry":{"type":"Point","coordinates":[-114.25455,40.82311]}},{"type":"Feature","properties":{"acq_date":"2026-09-16","acq_time":1026,"confidence":"n","satellite":"N","instrument":"VIIRS","version":"2.0NRT","bright_ti4":298.56,"frp":0.7,"daynight":"N"},"geometry":{"type":"Point","coordinates":[-121.38445,38.20831]}},{"type":"Feature","properties":{"acq_date":"2026-09-16","acq_time":1026,"confidence":"n","satellite":"N","instrument":"VIIRS","version":"2.0NRT","bright_ti4":296.07,"frp":0.46,"daynight":"N"},"geometry":{"type":"Point","coordinates":[-121.83598,38.31517]}},{"type":"Feature","properties":{"acq_date":"2026-09-16","acq_time":1026,"confidence":"n","satellite":"N","instrument":"VIIRS","version":"2.0NRT","bright_ti4":299.12,"frp":0.51,"daynight":"N"},"geometry":{"type":"Point","coordinates":[-121.62872,39.35719]}},{"type":"Feature","properties":{"acq_date":"2026-09-16","acq_time":1026,"confidence":"n","satellite":"N","instrument":"VIIRS","version":"2.0NRT","bright_ti4":303.38,"frp":0.92,"daynight":"N"},"geometry":{"type":"Point","coordinates":[-119.26096,39.61791]}},{"type":"Feature","properties":{"acq_date":"2026-09-16","acq_time":1026,"confidence":"n","satellite":"N","instrument":"VIIRS","version":"2.0NRT","bright_ti4":305.54,"frp":0.86,"daynight":"N"},"geometry":{"type":"Point","coordinates":[-122.32478,40.73747]}},{"type":"Feature","properties":{"acq_date":"2026-09-16","acq_time":1026,"confidence":"n","satellite":"N","instrument":"VIIRS","version":"2.0NRT","bright_ti4":298.41,"frp":3.09,"daynight":"N"},"geometry":{"type":"Point","coordinates":[-114.25416,40.81947]}},{"type":"Feature","properties":{"acq_date":"2026-09-16","acq_time":1026,"confidence":"n","satellite":"N","instrument":"VIIRS","version":"2.0NRT","bright_ti4":309.1,"frp":2.46,"daynight":"N"},"geometry":{"type":"Point","coordinates":[-114.25891,40.82383]}},{"type":"Feature","properties":{"acq_date":"2026-09-16","acq_time":1026,"confidence":"n","satellite":"N","instrument":"VIIRS","version":"2.0NRT","bright_ti4":296.74,"frp":1.08,"daynight":"N"},"geometry":{"type":"Point","coordinates":[-115.7356,43.17999]}},{"type":"Feature","properties":{"acq_date":"2026-09-16","acq_time":1028,"confidence":"n","satellite":"N","instrument":"VIIRS","version":"2.0NRT","bright_ti4":301.54,"frp":0.82,"daynight":"N"},"geometry":{"type":"Point","coordinates":[-117.82472,33.61235]}},{"type":"Feature","properties":{"acq_date":"2026-09-16","acq_time":1028,"confidence":"n","satellite":"N","instrument":"VIIRS","version":"2.0NRT","bright_ti4":300.62,"frp":1.51,"daynight":"N"},"geometry":{"type":"Point","coordinates":[-116.85495,34.35286]}},{"type":"Feature","properties":{"acq_date":"2026-09-16","acq_time":1028,"confidence":"n","satellite":"N","instrument":"VIIRS","version":"2.0NRT","bright_ti4":301.14,"frp":1.06,"daynight":"N"},"geometry":{"type":"Point","coordinates":[-116.85516,34.35345]}},{"type":"Feature","properties":{"acq_date":"2026-09-16","acq_time":1028,"confidence":"n","satellite":"N","instrument":"VIIRS","version":"2.0NRT","bright_ti4":314.13,"frp":2.77,"daynight":"N"},"geometry":{"type":"Point","coordinates":[-117.33816,34.60833]}},{"type":"Feature","properties":{"acq_date":"2026-09-16","acq_time":1028,"confidence":"n","satellite":"N","instrument":"VIIRS","version":"2.0NRT","bright_ti4":302.41,"frp":1.27,"daynight":"N"},"geometry":{"type":"Point","coordinates":[-117.09951,34.62009]}},{"type":"Feature","properties":{"acq_date":"2026-09-16","acq_time":1028,"confidence":"n","satellite":"N","instrument":"VIIRS","version":"2.0NRT","bright_ti4":304.69,"frp":1.83,"daynight":"N"},"geometry":{"type":"Point","coordinates":[-117.10031,34.62269]}},{"type":"Feature","properties":{"acq_date":"2026-09-16","acq_time":1028,"confidence":"n","satellite":"N","instrument":"VIIRS","version":"2.0NRT","bright_ti4":319.13,"frp":1.71,"daynight":"N"},"geometry":{"type":"Point","coordinates":[-119.04877,36.05807]}},{"type":"Feature","properties":{"acq_date":"2026-09-16","acq_time":1028,"confidence":"n","satellite":"N","instrument":"VIIRS","version":"2.0NRT","bright_ti4":313.47,"frp":1.71,"daynight":"N"},"geometry":{"type":"Point","coordinates":[-119.04739,36.0622]}},{"type":"Feature","properties":{"acq_date":"2026-09-16","acq_time":1028,"confidence":"n","satellite":"N","instrument":"VIIRS","version":"2.0NRT","bright_ti4":298.61,"frp":0.58,"daynight":"N"},"geometry":{"type":"Point","coordinates":[-119.68782,36.17472]}},{"type":"Feature","properties":{"acq_date":"2026-09-16","acq_time":1028,"confidence":"n","satellite":"N","instrument":"VIIRS","version":"2.0NRT","bright_ti4":311.53,"frp":1.06,"daynight":"N"},"geometry":{"type":"Point","coordinates":[-114.91206,36.3568]}},{"type":"Feature","properties":{"acq_date":"2026-09-16","acq_time":1028,"confidence":"n","satellite":"N","instrument":"VIIRS","version":"2.0NRT","bright_ti4":298.27,"frp":0.74,"daynight":"N"},"geometry":{"type":"Point","coordinates":[-120.13125,37.03668]}},{"type":"Feature","properties":{"acq_date":"2026-09-16","acq_time":1028,"confidence":"n","satellite":"N","instrument":"VIIRS","version":"2.0NRT","bright_ti4":295.77,"frp":0.36,"daynight":"N"},"geometry":{"type":"Point","coordinates":[-121.90127,37.21339]}},{"type":"Feature","properties":{"acq_date":"2026-09-16","acq_time":1028,"confidence":"n","satellite":"N","instrument":"VIIRS","version":"2.0NRT","bright_ti4":297.96,"frp":0.88,"daynight":"N"},"geometry":{"type":"Point","coordinates":[-120.53268,37.44987]}},{"type":"Feature","properties":{"acq_date":"2026-09-16","acq_time":1028,"confidence":"n","satellite":"N","instrument":"VIIRS","version":"2.0NRT","bright_ti4":300.77,"frp":0.38,"daynight":"N"},"geometry":{"type":"Point","coordinates":[-121.93082,37.45444]}},{"type":"Feature","properties":{"acq_date":"2026-09-16","acq_time":1028,"confidence":"n","satellite":"N","instrument":"VIIRS","version":"2.0NRT","bright_ti4":333.1,"frp":8.96,"daynight":"N"},"geometry":{"type":"Point","coordinates":[-119.60997,37.56791]}},{"type":"Feature","properties":{"acq_date":"2026-09-16","acq_time":1028,"confidence":"n","satellite":"N","instrument":"VIIRS","version":"2.0NRT","bright_ti4":334.74,"frp":8.96,"daynight":"N"},"geometry":{"type":"Point","coordinates":[-119.61607,37.5692]}},{"type":"Feature","properties":{"acq_date":"2026-09-16","acq_time":1028,"confidence":"n","satellite":"N","instrument":"VIIRS","version":"2.0NRT","bright_ti4":352.94,"frp":37.89,"daynight":"N"},"geometry":{"type":"Point","coordinates":[-119.60898,37.57186]}},{"type":"Feature","properties":{"acq_date":"2026-09-16","acq_time":1028,"confidence":"n","satellite":"N","instrument":"VIIRS","version":"2.0NRT","bright_ti4":351.23,"frp":37.89,"daynight":"N"},"geometry":{"type":"Point","coordinates":[-119.6153,37.57321]}},{"type":"Feature","properties":{"acq_date":"2026-09-16","acq_time":1028,"confidence":"n","satellite":"N","instrument":"VIIRS","version":"2.0NRT","bright_ti4":312.3,"frp":8.7,"daynight":"N"},"geometry":{"type":"Point","coordinates":[-119.60184,37.5745]}},{"type":"Feature","properties":{"acq_date":"2026-09-16","acq_time":1028,"confidence":"n","satellite":"N","instrument":"VIIRS","version":"2.0NRT","bright_ti4":350.94,"frp":37.89,"daynight":"N"},"geometry":{"type":"Point","coordinates":[-119.60818,37.57586]}},{"type":"Feature","properties":{"acq_date":"2026-09-16","acq_time":1028,"confidence":"n","satellite":"N","instrument":"VIIRS","version":"2.0NRT","bright_ti4":342.69,"frp":37.89,"daynight":"N"},"geometry":{"type":"Point","coordinates":[-119.61449,37.5772]}},{"type":"Feature","properties":{"acq_date":"2026-09-16","acq_time":1028,"confidence":"n","satellite":"N","instrument":"VIIRS","version":"2.0NRT","bright_ti4":317.01,"frp":11.29,"daynight":"N"},"geometry":{"type":"Point","coordinates":[-119.601,37.5785]}},{"type":"Feature","properties":{"acq_date":"2026-09-16","acq_time":1028,"confidence":"n","satellite":"N","instrument":"VIIRS","version":"2.0NRT","bright_ti4":356.36,"frp":51.5,"daynight":"N"},"geometry":{"type":"Point","coordinates":[-119.60741,37.57986]}},{"type":"Feature","properties":{"acq_date":"2026-09-16","acq_time":1028,"confidence":"n","satellite":"N","instrument":"VIIRS","version":"2.0NRT","bright_ti4":344.68,"frp":51.5,"daynight":"N"},"geometry":{"type":"Point","coordinates":[-119.61365,37.58118]}},{"type":"Feature","properties":{"acq_date":"2026-09-16","acq_time":1028,"confidence":"n","satellite":"N","instrument":"VIIRS","version":"2.0NRT","bright_ti4":330.3,"frp":70.51,"daynight":"N"},"geometry":{"type":"Point","coordinates":[-119.61999,37.58253]}},{"type":"Feature","properties":{"acq_date":"2026-09-16","acq_time":1028,"confidence":"n","satellite":"N","instrument":"VIIRS","version":"2.0NRT","bright_ti4":355.29,"frp":51.5,"daynight":"N"},"geometry":{"type":"Point","coordinates":[-119.60653,37.58384]}},{"type":"Feature","properties":{"acq_date":"2026-09-16","acq_time":1028,"confidence":"n","satellite":"N","instrument":"VIIRS","version":"2.0NRT","bright_ti4":350.77,"frp":51.5,"daynight":"N"},"geometry":{"type":"Point","coordinates":[-119.61276,37.58516]}},{"type":"Feature","properties":{"acq_date":"2026-09-16","acq_time":1028,"confidence":"n","satellite":"N","instrument":"VIIRS","version":"2.0NRT","bright_ti4":327.18,"frp":70.51,"daynight":"N"},"geometry":{"type":"Point","coordinates":[-119.61903,37.5865]}},{"type":"Feature","properties":{"acq_date":"2026-09-16","acq_time":1028,"confidence":"n","satellite":"N","instrument":"VIIRS","version":"2.0NRT","bright_ti4":335.7,"frp":59.85,"daynight":"N"},"geometry":{"type":"Point","coordinates":[-119.60559,37.58781]}},{"type":"Feature","properties":{"acq_date":"2026-09-16","acq_time":1028,"confidence":"n","satellite":"N","instrument":"VIIRS","version":"2.0NRT","bright_ti4":349.83,"frp":59.85,"daynight":"N"},"geometry":{"type":"Point","coordinates":[-119.61179,37.58912]}},{"type":"Feature","properties":{"acq_date":"2026-09-16","acq_time":1028,"confidence":"n","satellite":"N","instrument":"VIIRS","version":"2.0NRT","bright_ti4":335.38,"frp":100.6,"daynight":"N"},"geometry":{"type":"Point","coordinates":[-119.61806,37.59045]}},{"type":"Feature","properties":{"acq_date":"2026-09-16","acq_time":1028,"confidence":"n","satellite":"N","instrument":"VIIRS","version":"2.0NRT","bright_ti4":323.21,"frp":59.85,"daynight":"N"},"geometry":{"type":"Point","coordinates":[-119.60444,37.59172]}},{"type":"Feature","properties":{"acq_date":"2026-09-16","acq_time":1028,"confidence":"n","satellite":"N","instrument":"VIIRS","version":"2.0NRT","bright_ti4":321.56,"frp":100.6,"daynight":"N"},"geometry":{"type":"Point","coordinates":[-119.62426,37.59177]}},{"type":"Feature","properties":{"acq_date":"2026-09-16","acq_time":1028,"confidence":"n","satellite":"N","instrument":"VIIRS","version":"2.0NRT","bright_ti4":325.69,"frp":59.85,"daynight":"N"},"geometry":{"type":"Point","coordinates":[-119.61076,37.59306]}},{"type":"Feature","properties":{"acq_date":"2026-09-16","acq_time":1028,"confidence":"h","satellite":"N","instrument":"VIIRS","version":"2.0NRT","bright_ti4":367,"frp":100.6,"daynight":"N"},"geometry":{"type":"Point","coordinates":[-119.61707,37.5944]}},{"type":"Feature","properties":{"acq_date":"2026-09-16","acq_time":1028,"confidence":"n","satellite":"N","instrument":"VIIRS","version":"2.0NRT","bright_ti4":345.63,"frp":100.6,"daynight":"N"},"geometry":{"type":"Point","coordinates":[-119.62309,37.59567]}},{"type":"Feature","properties":{"acq_date":"2026-09-16","acq_time":1028,"confidence":"n","satellite":"N","instrument":"VIIRS","version":"2.0NRT","bright_ti4":300.2,"frp":1.68,"daynight":"N"},"geometry":{"type":"Point","coordinates":[-119.62865,37.59686]}},{"type":"Feature","properties":{"acq_date":"2026-09-16","acq_time":1028,"confidence":"n","satellite":"N","instrument":"VIIRS","version":"2.0NRT","bright_ti4":326.66,"frp":63.88,"daynight":"N"},"geometry":{"type":"Point","coordinates":[-119.60948,37.59696]}},{"type":"Feature","properties":{"acq_date":"2026-09-16","acq_time":1028,"confidence":"h","satellite":"N","instrument":"VIIRS","version":"2.0NRT","bright_ti4":367,"frp":75.11,"daynight":"N"},"geometry":{"type":"Point","coordinates":[-119.61556,37.59824]}},{"type":"Feature","properties":{"acq_date":"2026-09-16","acq_time":1028,"confidence":"n","satellite":"N","instrument":"VIIRS","version":"2.0NRT","bright_ti4":349.02,"frp":75.11,"daynight":"N"},"geometry":{"type":"Point","coordinates":[-119.62135,37.59948]}},{"type":"Feature","properties":{"acq_date":"2026-09-16","acq_time":1028,"confidence":"n","satellite":"N","instrument":"VIIRS","version":"2.0NRT","bright_ti4":300.71,"frp":1.81,"daynight":"N"},"geometry":{"type":"Point","coordinates":[-119.6269,37.60065]}},{"type":"Feature","properties":{"acq_date":"2026-09-16","acq_time":1028,"confidence":"n","satellite":"N","instrument":"VIIRS","version":"2.0NRT","bright_ti4":306.36,"frp":63.88,"daynight":"N"},"geometry":{"type":"Point","coordinates":[-119.60802,37.60081]}},{"type":"Feature","properties":{"acq_date":"2026-09-16","acq_time":1028,"confidence":"n","satellite":"N","instrument":"VIIRS","version":"2.0NRT","bright_ti4":312.21,"frp":75.11,"daynight":"N"},"geometry":{"type":"Point","coordinates":[-119.61395,37.60206]}},{"type":"Feature","properties":{"acq_date":"2026-09-16","acq_time":1028,"confidence":"n","satellite":"N","instrument":"VIIRS","version":"2.0NRT","bright_ti4":345.4,"frp":75.11,"daynight":"N"},"geometry":{"type":"Point","coordinates":[-119.61959,37.60326]}},{"type":"Feature","properties":{"acq_date":"2026-09-16","acq_time":1028,"confidence":"n","satellite":"N","instrument":"VIIRS","version":"2.0NRT","bright_ti4":332.89,"frp":6.38,"daynight":"N"},"geometry":{"type":"Point","coordinates":[-119.61814,37.60711]}},{"type":"Feature","properties":{"acq_date":"2026-09-16","acq_time":1028,"confidence":"n","satellite":"N","instrument":"VIIRS","version":"2.0NRT","bright_ti4":310.95,"frp":2.77,"daynight":"N"},"geometry":{"type":"Point","coordinates":[-119.62376,37.6083]}},{"type":"Feature","properties":{"acq_date":"2026-09-16","acq_time":1028,"confidence":"n","satellite":"N","instrument":"VIIRS","version":"2.0NRT","bright_ti4":318.28,"frp":2.77,"daynight":"N"},"geometry":{"type":"Point","coordinates":[-119.62241,37.61219]}},{"type":"Feature","properties":{"acq_date":"2026-09-16","acq_time":1028,"confidence":"n","satellite":"N","instrument":"VIIRS","version":"2.0NRT","bright_ti4":297.79,"frp":0.49,"daynight":"N"},"geometry":{"type":"Point","coordinates":[-121.65269,37.7641]}},{"type":"Feature","properties":{"acq_date":"2026-09-16","acq_time":1028,"confidence":"n","satellite":"N","instrument":"VIIRS","version":"2.0NRT","bright_ti4":313.98,"frp":1.49,"daynight":"N"},"geometry":{"type":"Point","coordinates":[-121.2299,37.85118]}},{"type":"Feature","properties":{"acq_date":"2026-09-16","acq_time":1028,"confidence":"n","satellite":"N","instrument":"VIIRS","version":"2.0NRT","bright_ti4":306.85,"frp":1.09,"daynight":"N"},"geometry":{"type":"Point","coordinates":[-121.23084,37.85238]}},{"type":"Feature","properties":{"acq_date":"2026-09-16","acq_time":1028,"confidence":"n","satellite":"N","instrument":"VIIRS","version":"2.0NRT","bright_ti4":304.43,"frp":0.97,"daynight":"N"},"geometry":{"type":"Point","coordinates":[-121.18519,37.88451]}},{"type":"Feature","properties":{"acq_date":"2026-09-16","acq_time":1028,"confidence":"n","satellite":"N","instrument":"VIIRS","version":"2.0NRT","bright_ti4":303.71,"frp":0.34,"daynight":"N"},"geometry":{"type":"Point","coordinates":[-121.93225,38.0043]}}]}