{"type":"FeatureCollection","name":"FIRMS VIIRS CA (last 1 day)","crs":{"type":"name","properties":{"name":"EPSG:4326"}},"fetched_at_utc":"2026-09-30T18:57:13.499Z","source":{"url":"https://firms.modaps.eosdis.nasa.gov/api/area/csv/8c4af552cf654445dd280dfb3ad9337c/VIIRS_SNPP_NRT/-125,32,-113,43.5/1","dataset":"VIIRS_SNPP_NRT","bbox":"-125,32,-113,43.5","day_range":"1"},"features":[{"type":"Feature","properties":{"acq_date":"2026-09-30","acq_time":922,"confidence":"n","satellite":"N","instrument":"VIIRS","version":"2.0NRT","bright_ti4":312.46,"frp":2.47,"daynight":"N"},"geometry":{"type":"Point","coordinates":[-113.69968,42.21087]}},{"type":"Feature","properties":{"acq_date":"2026-09-30","acq_time":922,"confidence":"n","satellite":"N","instrument":"VIIRS","version":"2.0NRT","bright_ti4":316.6,"frp":2.47,"daynight":"N"},"geometry":{"type":"Point","coordinates":[-113.70643,42.21161]}},{"type":"Feature","properties":{"acq_date":"2026-09-30","acq_time":922,"confidence":"n","satellite":"N","instrument":"VIIRS","version":"2.0NRT","bright_ti4":296.18,"frp":1.01,"daynight":"N"},"geometry":{"type":"Point","coordinates":[-113.69193,42.21775]}},{"type":"Feature","properties":{"acq_date":"2026-09-30","acq_time":922,"confidence":"n","satellite":"N","instrument":"VIIRS","version":"2.0NRT","bright_ti4":308.07,"frp":1.31,"daynight":"N"},"geometry":{"type":"Point","coordinates":[-113.67921,42.2202]}},{"type":"Feature","properties":{"acq_date":"2026-09-30","acq_time":922,"confidence":"n","satellite":"N","instrument":"VIIRS","version":"2.0NRT","bright_ti4":338.09,"frp":6.83,"daynight":"N"},"geometry":{"type":"Point","coordinates":[-113.68519,42.22087]}},{"type":"Feature","properties":{"acq_date":"2026-09-30","acq_time":922,"confidence":"n","satellite":"N","instrument":"VIIRS","version":"2.0NRT","bright_ti4":301.78,"frp":1.31,"daynight":"N"},"geometry":{"type":"Point","coordinates":[-113.67898,42.22405]}},{"type":"Feature","properties":{"acq_date":"2026-09-30","acq_time":922,"confidence":"n","satellite":"N","instrument":"VIIRS","version":"2.0NRT","bright_ti4":306.44,"frp":1.86,"daynight":"N"},"geometry":{"type":"Point","coordinates":[-121.27007,43.02849]}},{"type":"Feature","properties":{"acq_date":"2026-09-30","acq_time":922,"confidence":"n","satellite":"N","instrument":"VIIRS","version":"2.0NRT","bright_ti4":314.97,"frp":1.86,"daynight":"N"},"geometry":{"type":"Point","coordinates":[-121.27502,43.02871]}},{"type":"Feature","properties":{"acq_date":"2026-09-30","acq_time":922,"confidence":"n","satellite":"N","instrument":"VIIRS","version":"2.0NRT","bright_ti4":299.61,"frp":2.02,"daynight":"N"},"geometry":{"type":"Point","coordinates":[-121.28005,43.02893]}},{"type":"Feature","properties":{"acq_date":"2026-09-30","acq_time":922,"confidence":"n","satellite":"N","instrument":"VIIRS","version":"2.0NRT","bright_ti4":320.47,"frp":3.59,"daynight":"N"},"geometry":{"type":"Point","coordinates":[-121.26929,43.03123]}},{"type":"Feature","properties":{"acq_date":"2026-09-30","acq_time":922,"confidence":"n","satellite":"N","instrument":"VIIRS","version":"2.0NRT","bright_ti4":333.78,"frp":4.51,"daynight":"N"},"geometry":{"type":"Point","coordinates":[-121.27428,43.03143]}},{"type":"Feature","properties":{"acq_date":"2026-09-30","acq_time":922,"confidence":"n","satellite":"N","instrument":"VIIRS","version":"2.0NRT","bright_ti4":321.54,"frp":4.51,"daynight":"N"},"geometry":{"type":"Point","coordinates":[-121.27935,43.03162]}},{"type":"Feature","properties":{"acq_date":"2026-09-30","acq_time":922,"confidence":"n","satellite":"N","instrument":"VIIRS","version":"2.0NRT","bright_ti4":321.12,"frp":3.49,"daynight":"N"},"geometry":{"type":"Point","coordinates":[-121.26965,43.03691]}},{"type":"Feature","properties":{"acq_date":"2026-09-30","acq_time":922,"confidence":"n","satellite":"N","instrument":"VIIRS","version":"2.0NRT","bright_ti4":336.58,"frp":4.28,"daynight":"N"},"geometry":{"type":"Point","coordinates":[-121.27472,43.03711]}},{"type":"Feature","properties":{"acq_date":"2026-09-30","acq_time":922,"confidence":"n","satellite":"N","instrument":"VIIRS","version":"2.0NRT","bright_ti4":317,"frp":4.28,"daynight":"N"},"geometry":{"type":"Point","coordinates":[-121.27979,43.0373]}},{"type":"Feature","properties":{"acq_date":"2026-09-30","acq_time":922,"confidence":"n","satellite":"N","instrument":"VIIRS","version":"2.0NRT","bright_ti4":303.87,"frp":0.94,"daynight":"N"},"geometry":{"type":"Point","coordinates":[-115.73445,43.17922]}},{"type":"Feature","properties":{"acq_date":"2026-09-30","acq_time":922,"confidence":"n","satellite":"N","instrument":"VIIRS","version":"2.0NRT","bright_ti4":302.91,"frp":1.18,"daynight":"N"},"geometry":{"type":"Point","coordinates":[-115.7347,43.18092]}},{"type":"Feature","properties":{"acq_date":"2026-09-30","acq_time":924,"confidence":"n","satellite":"N","instrument":"VIIRS","version":"2.0NRT","bright_ti4":306.34,"frp":1.44,"daynight":"N"},"geometry":{"type":"Point","coordinates":[-114.91347,36.35822]}},{"type":"Feature","properties":{"acq_date":"2026-09-30","acq_time":924,"confidence":"n","satellite":"N","instrument":"VIIRS","version":"2.0NRT","bright_ti4":302.74,"frp":0.9,"daynight":"N"},"geometry":{"type":"Point","coordinates":[-121.93259,37.45284]}},{"type":"Feature","properties":{"acq_date":"2026-09-30","acq_time":924,"confidence":"n","satellite":"N","instrument":"VIIRS","version":"2.0NRT","bright_ti4":341.87,"frp":10.2,"daynight":"N"},"geometry":{"type":"Point","coordinates":[-119.58446,37.59681]}},{"type":"Feature","properties":{"acq_date":"2026-09-30","acq_time":924,"confidence":"n","satellite":"N","instrument":"VIIRS","version":"2.0NRT","bright_ti4":312.38,"frp":2.07,"daynight":"N"},"geometry":{"type":"Point","coordinates":[-119.58923,37.61202]}},{"type":"Feature","properties":{"acq_date":"2026-09-30","acq_time":924,"confidence":"n","satellite":"N","instrument":"VIIRS","version":"2.0NRT","bright_ti4":299.66,"frp":1.6,"daynight":"N"},"geometry":{"type":"Point","coordinates":[-119.59637,37.61255]}},{"type":"Feature","properties":{"acq_date":"2026-09-30","acq_time":924,"confidence":"n","satellite":"N","instrument":"VIIRS","version":"2.0NRT","bright_ti4":326.38,"frp":5.24,"daynight":"N"},"geometry":{"type":"Point","coordinates":[-119.62802,37.61983]}},{"type":"Feature","properties":{"acq_date":"2026-09-30","acq_time":924,"confidence":"n","satellite":"N","instrument":"VIIRS","version":"2.0NRT","bright_ti4":318.98,"frp":2.99,"daynight":"N"},"geometry":{"type":"Point","coordinates":[-119.62645,37.62468]}},{"type":"Feature","properties":{"acq_date":"2026-09-30","acq_time":924,"confidence":"n","satellite":"N","instrument":"VIIRS","version":"2.0NRT","bright_ti4":309.85,"frp":2.99,"daynight":"N"},"geometry":{"type":"Point","coordinates":[-119.62476,37.62953]}},{"type":"Feature","properties":{"acq_date":"2026-09-30","acq_time":924,"confidence":"n","satellite":"N","instrument":"VIIRS","version":"2.0NRT","bright_ti4":295.52,"frp":1.04,"daynight":"N"},"geometry":{"type":"Point","coordinates":[-119.58942,37.63185]}},{"type":"Feature","properties":{"acq_date":"2026-09-30","acq_time":924,"confidence":"n","satellite":"N","instrument":"VIIRS","version":"2.0NRT","bright_ti4":328.38,"frp":3.99,"daynight":"N"},"geometry":{"type":"Point","coordinates":[-119.59664,37.63239]}},{"type":"Feature","properties":{"acq_date":"2026-09-30","acq_time":924,"confidence":"n","satellite":"N","instrument":"VIIRS","version":"2.0NRT","bright_ti4":346.06,"frp":26.88,"daynight":"N"},"geometry":{"type":"Point","coordinates":[-119.62373,37.63441]}},{"type":"Feature","properties":{"acq_date":"2026-09-30","acq_time":924,"confidence":"n","satellite":"N","instrument":"VIIRS","version":"2.0NRT","bright_ti4":353.18,"frp":26.88,"daynight":"N"},"geometry":{"type":"Point","coordinates":[-119.62302,37.63933]}},{"type":"Feature","properties":{"acq_date":"2026-09-30","acq_time":924,"confidence":"n","satellite":"N","instrument":"VIIRS","version":"2.0NRT","bright_ti4":316.41,"frp":26.88,"daynight":"N"},"geometry":{"type":"Point","coordinates":[-119.63064,37.6399]}},{"type":"Feature","properties":{"acq_date":"2026-09-30","acq_time":924,"confidence":"n","satellite":"N","instrument":"VIIRS","version":"2.0NRT","bright_ti4":315.6,"frp":3.13,"daynight":"N"},"geometry":{"type":"Point","coordinates":[-119.60931,37.64326]}},{"type":"Feature","properties":{"acq_date":"2026-09-30","acq_time":924,"confidence":"n","satellite":"N","instrument":"VIIRS","version":"2.0NRT","bright_ti4":298.32,"frp":3.13,"daynight":"N"},"geometry":{"type":"Point","coordinates":[-119.61578,37.64375]}},{"type":"Feature","properties":{"acq_date":"2026-09-30","acq_time":924,"confidence":"n","satellite":"N","instrument":"VIIRS","version":"2.0NRT","bright_ti4":350.43,"frp":25.68,"daynight":"N"},"geometry":{"type":"Point","coordinates":[-119.62254,37.64426]}},{"type":"Feature","properties":{"acq_date":"2026-09-30","acq_time":924,"confidence":"n","satellite":"N","instrument":"VIIRS","version":"2.0NRT","bright_ti4":306.09,"frp":25.68,"daynight":"N"},"geometry":{"type":"Point","coordinates":[-119.62984,37.64481]}},{"type":"Feature","properties":{"acq_date":"2026-09-30","acq_time":924,"confidence":"n","satellite":"N","instrument":"VIIRS","version":"2.0NRT","bright_ti4":302.35,"frp":3.13,"daynight":"N"},"geometry":{"type":"Point","coordinates":[-119.61563,37.6487]}},{"type":"Feature","properties":{"acq_date":"2026-09-30","acq_time":924,"confidence":"n","satellite":"N","instrument":"VIIRS","version":"2.0NRT","bright_ti4":339.02,"frp":25.68,"daynight":"N"},"geometry":{"type":"Point","coordinates":[-119.62224,37.6492]}},{"type":"Feature","properties":{"acq_date":"2026-09-30","acq_time":924,"confidence":"n","satellite":"N","instrument":"VIIRS","version":"2.0NRT","bright_ti4":332.5,"frp":25.68,"daynight":"N"},"geometry":{"type":"Point","coordinates":[-119.62946,37.64975]}},{"type":"Feature","properties":{"acq_date":"2026-09-30","acq_time":924,"confidence":"n","satellite":"N","instrument":"VIIRS","version":"2.0NRT","bright_ti4":304.93,"frp":2.08,"daynight":"N"},"geometry":{"type":"Point","coordinates":[-119.61555,37.65366]}},{"type":"Feature","properties":{"acq_date":"2026-09-30","acq_time":924,"confidence":"n","satellite":"N","instrument":"VIIRS","version":"2.0NRT","bright_ti4":339.76,"frp":7.85,"daynight":"N"},"geometry":{"type":"Point","coordinates":[-119.62206,37.65415]}},{"type":"Feature","properties":{"acq_date":"2026-09-30","acq_time":924,"confidence":"n","satellite":"N","instrument":"VIIRS","version":"2.0NRT","bright_ti4":330.94,"frp":7.85,"daynight":"N"},"geometry":{"type":"Point","coordinates":[-119.6292,37.6547]}},{"type":"Feature","properties":{"acq_date":"2026-09-30","acq_time":924,"confidence":"n","satellite":"N","instrument":"VIIRS","version":"2.0NRT","bright_ti4":332.57,"frp":7.85,"daynight":"N"},"geometry":{"type":"Point","coordinates":[-119.62202,37.65911]}},{"type":"Feature","properties":{"acq_date":"2026-09-30","acq_time":924,"confidence":"n","satellite":"N","instrument":"VIIRS","version":"2.0NRT","bright_ti4":301.78,"frp":0.56,"daynight":"N"},"geometry":{"type":"Point","coordinates":[-121.1862,37.88342]}},{"type":"Feature","properties":{"acq_date":"2026-09-30","acq_time":924,"confidence":"n","satellite":"N","instrument":"VIIRS","version":"2.0NRT","bright_ti4":296.29,"frp":1.23,"daynight":"N"},"geometry":{"type":"Point","coordinates":[-119.26361,39.61762]}},{"type":"Feature","properties":{"acq_date":"2026-09-30","acq_time":924,"confidence":"n","satellite":"N","instrument":"VIIRS","version":"2.0NRT","bright_ti4":305.78,"frp":0.97,"daynight":"N"},"geometry":{"type":"Point","coordinates":[-114.25778,40.82199]}},{"type":"Feature","properties":{"acq_date":"2026-09-30","acq_time":926,"confidence":"n","satellite":"N","instrument":"VIIRS","version":"2.0NRT","bright_ti4":302.51,"frp":1.06,"daynight":"N"},"geometry":{"type":"Point","coordinates":[-117.82132,33.61227]}},{"type":"Feature","properties":{"acq_date":"2026-09-30","acq_time":926,"confidence":"n","satellite":"N","instrument":"VIIRS","version":"2.0NRT","bright_ti4":303.34,"frp":0.65,"daynight":"N"},"geometry":{"type":"Point","coordinates":[-117.70885,33.71626]}},{"type":"Feature","properties":{"acq_date":"2026-09-30","acq_time":926,"confidence":"n","satellite":"N","instrument":"VIIRS","version":"2.0NRT","bright_ti4":305.8,"frp":0.83,"daynight":"N"},"geometry":{"type":"Point","coordinates":[-118.23751,33.7776]}},{"type":"Feature","properties":{"acq_date":"2026-09-30","acq_time":926,"confidence":"n","satellite":"N","instrument":"VIIRS","version":"2.0NRT","bright_ti4":309.32,"frp":1.09,"daynight":"N"},"geometry":{"type":"Point","coordinates":[-117.47473,33.79443]}},{"type":"Feature","properties":{"acq_date":"2026-09-30","acq_time":926,"confidence":"n","satellite":"N","instrument":"VIIRS","version":"2.0NRT","bright_ti4":305.79,"frp":0.98,"daynight":"N"},"geometry":{"type":"Point","coordinates":[-118.33069,33.85285]}},{"type":"Feature","properties":{"acq_date":"2026-09-30","acq_time":926,"confidence":"n","satellite":"N","instrument":"VIIRS","version":"2.0NRT","bright_ti4":308.12,"frp":1.8,"daynight":"N"},"geometry":{"type":"Point","coordinates":[-118.333,33.85346]}},{"type":"Feature","properties":{"acq_date":"2026-09-30","acq_time":926,"confidence":"n","satellite":"N","instrument":"VIIRS","version":"2.0NRT","bright_ti4":297.4,"frp":0.27,"daynight":"N"},"geometry":{"type":"Point","coordinates":[-116.99781,33.87609]}},{"type":"Feature","properties":{"acq_date":"2026-09-30","acq_time":926,"confidence":"n","satellite":"N","instrument":"VIIRS","version":"2.0NRT","bright_ti4":299.28,"frp":0.36,"daynight":"N"},"geometry":{"type":"Point","coordinates":[-117.12351,33.95463]}},{"type":"Feature","properties":{"acq_date":"2026-09-30","acq_time":926,"confidence":"n","satellite":"N","instrument":"VIIRS","version":"2.0NRT","bright_ti4":301.34,"frp":0.15,"daynight":"N"},"geometry":{"type":"Point","coordinates":[-118.10408,34.03453]}},{"type":"Feature","properties":{"acq_date":"2026-09-30","acq_time":926,"confidence":"n","satellite":"N","instrument":"VIIRS","version":"2.0NRT","bright_ti4":308.9,"frp":1.19,"daynight":"N"},"geometry":{"type":"Point","coordinates":[-117.50164,34.07846]}},{"type":"Feature","properties":{"acq_date":"2026-09-30","acq_time":926,"confidence":"n","satellite":"N","instrument":"VIIRS","version":"2.0NRT","bright_ti4":299.35,"frp":0.37,"daynight":"N"},"geometry":{"type":"Point","coordinates":[-117.42785,34.1437]}},{"type":"Feature","properties":{"acq_date":"2026-09-30","acq_time":926,"confidence":"n","satellite":"N","instrument":"VIIRS","version":"2.0NRT","bright_ti4":308.77,"frp":0.94,"daynight":"N"},"geometry":{"type":"Point","coordinates":[-118.19387,34.15424]}},{"type":"Feature","properties":{"acq_date":"2026-09-30","acq_time":926,"confidence":"n","satellite":"N","instrument":"VIIRS","version":"2.0NRT","bright_ti4":308.67,"frp":0.53,"daynight":"N"},"geometry":{"type":"Point","coordinates":[-118.19212,34.15467]}},{"type":"Feature","properties":{"acq_date":"2026-09-30","acq_time":926,"confidence":"n","satellite":"N","instrument":"VIIRS","version":"2.0NRT","bright_ti4":297.84,"frp":0.9,"daynight":"N"},"geometry":{"type":"Point","coordinates":[-118.644,34.43137]}},{"type":"Feature","properties":{"acq_date":"2026-09-30","acq_time":926,"confidence":"n","satellite":"N","instrument":"VIIRS","version":"2.0NRT","bright_ti4":321.39,"frp":1.75,"daynight":"N"},"geometry":{"type":"Point","coordinates":[-117.33556,34.60739]}},{"type":"Feature","properties":{"acq_date":"2026-09-30","acq_time":926,"confidence":"n","satellite":"N","instrument":"VIIRS","version":"2.0NRT","bright_ti4":316.59,"frp":2.5,"daynight":"N"},"geometry":{"type":"Point","coordinates":[-117.33861,34.60814]}},{"type":"Feature","properties":{"acq_date":"2026-09-30","acq_time":926,"confidence":"n","satellite":"N","instrument":"VIIRS","version":"2.0NRT","bright_ti4":309.69,"frp":1.31,"daynight":"N"},"geometry":{"type":"Point","coordinates":[-117.09986,34.62162]}},{"type":"Feature","properties":{"acq_date":"2026-09-30","acq_time":926,"confidence":"n","satellite":"N","instrument":"VIIRS","version":"2.0NRT","bright_ti4":300.83,"frp":1.16,"daynight":"N"},"geometry":{"type":"Point","coordinates":[-118.75121,34.81878]}},{"type":"Feature","properties":{"acq_date":"2026-09-30","acq_time":1102,"confidence":"n","satellite":"N","instrument":"VIIRS","version":"2.0NRT","bright_ti4":306.11,"frp":4.11,"daynight":"N"},"geometry":{"type":"Point","coordinates":[-113.68616,42.218]}},{"type":"Feature","properties":{"acq_date":"2026-09-30","acq_time":1102,"confidence":"n","satellite":"N","instrument":"VIIRS","version":"2.0NRT","bright_ti4":312.67,"frp":4.74,"daynight":"N"},"geometry":{"type":"Point","coordinates":[-113.67495,42.22063]}},{"type":"Feature","properties":{"acq_date":"2026-09-30","acq_time":1102,"confidence":"n","satellite":"N","instrument":"VIIRS","version":"2.0NRT","bright_ti4":323.7,"frp":4.11,"daynight":"N"},"geometry":{"type":"Point","coordinates":[-113.67799,42.22322]}},{"type":"Feature","properties":{"acq_date":"2026-09-30","acq_time":1102,"confidence":"n","satellite":"N","instrument":"VIIRS","version":"2.0NRT","bright_ti4":303.91,"frp":5.89,"daynight":"N"},"geometry":{"type":"Point","coordinates":[-113.68425,42.22395]}},{"type":"Feature","properties":{"acq_date":"2026-09-30","acq_time":1104,"confidence":"n","satellite":"N","instrument":"VIIRS","version":"2.0NRT","bright_ti4":298.59,"frp":0.73,"daynight":"N"},"geometry":{"type":"Point","coordinates":[-119.58648,37.59404]}},{"type":"Feature","properties":{"acq_date":"2026-09-30","acq_time":1104,"confidence":"n","satellite":"N","instrument":"VIIRS","version":"2.0NRT","bright_ti4":298.59,"frp":2.62,"daynight":"N"},"geometry":{"type":"Point","coordinates":[-119.58866,37.60865]}},{"type":"Feature","properties":{"acq_date":"2026-09-30","acq_time":1104,"confidence":"n","satellite":"N","instrument":"VIIRS","version":"2.0NRT","bright_ti4":299.24,"frp":2.01,"daynight":"N"},"geometry":{"type":"Point","coordinates":[-119.62489,37.61969]}},{"type":"Feature","properties":{"acq_date":"2026-09-30","acq_time":1104,"confidence":"n","satellite":"N","instrument":"VIIRS","version":"2.0NRT","bright_ti4":304.21,"frp":2.31,"daynight":"N"},"geometry":{"type":"Point","coordinates":[-119.6303,37.62133]}},{"type":"Feature","properties":{"acq_date":"2026-09-30","acq_time":1104,"confidence":"n","satellite":"N","instrument":"VIIRS","version":"2.0NRT","bright_ti4":301.6,"frp":2.75,"daynight":"N"},"geometry":{"type":"Point","coordinates":[-119.62918,37.62794]}},{"type":"Feature","properties":{"acq_date":"2026-09-30","acq_time":1104,"confidence":"n","satellite":"N","instrument":"VIIRS","version":"2.0NRT","bright_ti4":315.86,"frp":1.32,"daynight":"N"},"geometry":{"type":"Point","coordinates":[-119.59396,37.63115]}},{"type":"Feature","properties":{"acq_date":"2026-09-30","acq_time":1104,"confidence":"n","satellite":"N","instrument":"VIIRS","version":"2.0NRT","bright_ti4":317.76,"frp":4.47,"daynight":"N"},"geometry":{"type":"Point","coordinates":[-119.62251,37.63286]}},{"type":"Feature","properties":{"acq_date":"2026-09-30","acq_time":1104,"confidence":"n","satellite":"N","instrument":"VIIRS","version":"2.0NRT","bright_ti4":305.89,"frp":2.75,"daynight":"N"},"geometry":{"type":"Point","coordinates":[-119.62778,37.63446]}},{"type":"Feature","properties":{"acq_date":"2026-09-30","acq_time":1104,"confidence":"n","satellite":"N","instrument":"VIIRS","version":"2.0NRT","bright_ti4":348.11,"frp":13.5,"daynight":"N"},"geometry":{"type":"Point","coordinates":[-119.6198,37.63898]}},{"type":"Feature","properties":{"acq_date":"2026-09-30","acq_time":1104,"confidence":"h","satellite":"N","instrument":"VIIRS","version":"2.0NRT","bright_ti4":367,"frp":24.48,"daynight":"N"},"geometry":{"type":"Point","coordinates":[-119.62559,37.64073]}},{"type":"Feature","properties":{"acq_date":"2026-09-30","acq_time":1104,"confidence":"n","satellite":"N","instrument":"VIIRS","version":"2.0NRT","bright_ti4":297.35,"frp":24.48,"daynight":"N"},"geometry":{"type":"Point","coordinates":[-119.63113,37.64241]}},{"type":"Feature","properties":{"acq_date":"2026-09-30","acq_time":1104,"confidence":"n","satellite":"N","instrument":"VIIRS","version":"2.0NRT","bright_ti4":319.96,"frp":13.5,"daynight":"N"},"geometry":{"type":"Point","coordinates":[-119.60933,37.64276]}},{"type":"Feature","properties":{"acq_date":"2026-09-30","acq_time":1104,"confidence":"n","satellite":"N","instrument":"VIIRS","version":"2.0NRT","bright_ti4":318.48,"frp":13.5,"daynight":"N"},"geometry":{"type":"Point","coordinates":[-119.61615,37.64482]}},{"type":"Feature","properties":{"acq_date":"2026-09-30","acq_time":1104,"confidence":"h","satellite":"N","instrument":"VIIRS","version":"2.0NRT","bright_ti4":367,"frp":24.48,"daynight":"N"},"geometry":{"type":"Point","coordinates":[-119.62258,37.64677]}},{"type":"Feature","properties":{"acq_date":"2026-09-30","acq_time":1104,"confidence":"n","satellite":"N","instrument":"VIIRS","version":"2.0NRT","bright_ti4":340.12,"frp":24.48,"daynight":"N"},"geometry":{"type":"Point","coordinates":[-119.62828,37.64849]}},{"type":"Feature","properties":{"acq_date":"2026-09-30","acq_time":1104,"confidence":"n","satellite":"N","instrument":"VIIRS","version":"2.0NRT","bright_ti4":306.04,"frp":4.18,"daynight":"N"},"geometry":{"type":"Point","coordinates":[-119.61873,37.65255]}},{"type":"Feature","properties":{"acq_date":"2026-09-30","acq_time":1104,"confidence":"n","satellite":"N","instrument":"VIIRS","version":"2.0NRT","bright_ti4":350.84,"frp":4.18,"daynight":"N"},"geometry":{"type":"Point","coordinates":[-119.62478,37.65438]}},{"type":"Feature","properties":{"acq_date":"2026-09-30","acq_time":1104,"confidence":"n","satellite":"N","instrument":"VIIRS","version":"2.0NRT","bright_ti4":308.15,"frp":7.14,"daynight":"N"},"geometry":{"type":"Point","coordinates":[-119.63065,37.65615]}},{"type":"Feature","properties":{"acq_date":"2026-09-30","acq_time":1104,"confidence":"n","satellite":"N","instrument":"VIIRS","version":"2.0NRT","bright_ti4":338.1,"frp":4.06,"daynight":"N"},"geometry":{"type":"Point","coordinates":[-119.62411,37.65638]}},{"type":"Feature","properties":{"acq_date":"2026-09-30","acq_time":1104,"confidence":"n","satellite":"N","instrument":"VIIRS","version":"2.0NRT","bright_ti4":302.48,"frp":4.06,"daynight":"N"},"geometry":{"type":"Point","coordinates":[-119.63013,37.65824]}},{"type":"Feature","properties":{"acq_date":"2026-09-30","acq_time":1104,"confidence":"n","satellite":"N","instrument":"VIIRS","version":"2.0NRT","bright_ti4":298.43,"frp":4.18,"daynight":"N"},"geometry":{"type":"Point","coordinates":[-119.62087,37.66014]}},{"type":"Feature","properties":{"acq_date":"2026-09-30","acq_time":1104,"confidence":"n","satellite":"N","instrument":"VIIRS","version":"2.0NRT","bright_ti4":301.74,"frp":0.48,"daynight":"N"},"geometry":{"type":"Point","coordinates":[-121.32614,38.10261]}},{"type":"Feature","properties":{"acq_date":"2026-09-30","acq_time":1104,"confidence":"n","satellite":"N","instrument":"VIIRS","version":"2.0NRT","bright_ti4":296.16,"frp":1.37,"daynight":"N"},"geometry":{"type":"Point","coordinates":[-119.2648,39.6199]}},{"type":"Feature","properties":{"acq_date":"2026-09-30","acq_time":1104,"confidence":"n","satellite":"N","instrument":"VIIRS","version":"2.0NRT","bright_ti4":295.97,"frp":0.91,"daynight":"N"},"geometry":{"type":"Point","coordinates":[-119.26439,39.62043]}},{"type":"Feature","properties":{"acq_date":"2026-09-30","acq_time":1104,"confidence":"n","satellite":"N","instrument":"VIIRS","version":"2.0NRT","bright_ti4":329.62,"frp":2.43,"daynight":"N"},"geometry":{"type":"Point","coordinates":[-120.18464,40.14247]}},{"type":"Feature","properties":{"acq_date":"2026-09-30","acq_time":1104,"confidence":"n","satellite":"N","instrument":"VIIRS","version":"2.0NRT","bright_ti4":295.93,"frp":0.87,"daynight":"N"},"geometry":{"type":"Point","coordinates":[-121.27014,43.02847]}},{"type":"Feature","properties":{"acq_date":"2026-09-30","acq_time":1104,"confidence":"n","satellite":"N","instrument":"VIIRS","version":"2.0NRT","bright_ti4":314.51,"frp":1.77,"daynight":"N"},"geometry":{"type":"Point","coordinates":[-121.27411,43.02954]}},{"type":"Feature","properties":{"acq_date":"2026-09-30","acq_time":1104,"confidence":"n","satellite":"N","instrument":"VIIRS","version":"2.0NRT","bright_ti4":317.03,"frp":2.59,"daynight":"N"},"geometry":{"type":"Point","coordinates":[-121.27126,43.03052]}},{"type":"Feature","properties":{"acq_date":"2026-09-30","acq_time":1104,"confidence":"n","satellite":"N","instrument":"VIIRS","version":"2.0NRT","bright_ti4":314.9,"frp":1.77,"daynight":"N"},"geometry":{"type":"Point","coordinates":[-121.27803,43.03061]}},{"type":"Feature","properties":{"acq_date":"2026-09-30","acq_time":1104,"confidence":"n","satellite":"N","instrument":"VIIRS","version":"2.0NRT","bright_ti4":321.08,"frp":2.69,"daynight":"N"},"geometry":{"type":"Point","coordinates":[-121.27518,43.0316]}},{"type":"Feature","properties":{"acq_date":"2026-09-30","acq_time":1104,"confidence":"n","satellite":"N","instrument":"VIIRS","version":"2.0NRT","bright_ti4":315.69,"frp":2.69,"daynight":"N"},"geometry":{"type":"Point","coordinates":[-121.27908,43.03268]}},{"type":"Feature","properties":{"acq_date":"2026-09-30","acq_time":1104,"confidence":"n","satellite":"N","instrument":"VIIRS","version":"2.0NRT","bright_ti4":307.07,"frp":1.86,"daynight":"N"},"geometry":{"type":"Point","coordinates":[-121.26811,43.03521]}},{"type":"Feature","properties":{"acq_date":"2026-09-30","acq_time":1104,"confidence":"n","satellite":"N","instrument":"VIIRS","version":"2.0NRT","bright_ti4":324.44,"frp":2.86,"daynight":"N"},"geometry":{"type":"Point","coordinates":[-121.27204,43.03629]}},{"type":"Feature","properties":{"acq_date":"2026-09-30","acq_time":1104,"confidence":"n","satellite":"N","instrument":"VIIRS","version":"2.0NRT","bright_ti4":325.13,"frp":2.86,"daynight":"N"},"geometry":{"type":"Point","coordinates":[-121.27594,43.03737]}}]}