{"type":"FeatureCollection","name":"FIRMS VIIRS CA (last 1 day)","crs":{"type":"name","properties":{"name":"EPSG:4326"}},"fetched_at_utc":"2026-10-06T19:21:11.894Z","source":{"url":"https://firms.modaps.eosdis.nasa.gov/api/area/csv/8c4af552cf654445dd280dfb3ad9337c/VIIRS_SNPP_NRT/-125,32,-113,43.5/1","dataset":"VIIRS_SNPP_NRT","bbox":"-125,32,-113,43.5","day_range":"1"},"features":[{"type":"Feature","properties":{"acq_date":"2026-10-06","acq_time":909,"confidence":"n","satellite":"N","instrument":"VIIRS","version":"2.0NRT","bright_ti4":301.91,"frp":1.21,"daynight":"N"},"geometry":{"type":"Point","coordinates":[-122.60095,40.76228]}},{"type":"Feature","properties":{"acq_date":"2026-10-06","acq_time":909,"confidence":"n","satellite":"N","instrument":"VIIRS","version":"2.0NRT","bright_ti4":303.93,"frp":0.86,"daynight":"N"},"geometry":{"type":"Point","coordinates":[-117.68066,41.54094]}},{"type":"Feature","properties":{"acq_date":"2026-10-06","acq_time":909,"confidence":"n","satellite":"N","instrument":"VIIRS","version":"2.0NRT","bright_ti4":298.07,"frp":0.86,"daynight":"N"},"geometry":{"type":"Point","coordinates":[-117.68573,41.5412]}},{"type":"Feature","properties":{"acq_date":"2026-10-06","acq_time":909,"confidence":"n","satellite":"N","instrument":"VIIRS","version":"2.0NRT","bright_ti4":298.98,"frp":2.07,"daynight":"N"},"geometry":{"type":"Point","coordinates":[-117.67944,41.54136]}},{"type":"Feature","properties":{"acq_date":"2026-10-06","acq_time":909,"confidence":"n","satellite":"N","instrument":"VIIRS","version":"2.0NRT","bright_ti4":316.8,"frp":3.39,"daynight":"N"},"geometry":{"type":"Point","coordinates":[-117.68445,41.54159]}},{"type":"Feature","properties":{"acq_date":"2026-10-06","acq_time":909,"confidence":"n","satellite":"N","instrument":"VIIRS","version":"2.0NRT","bright_ti4":313.4,"frp":2.07,"daynight":"N"},"geometry":{"type":"Point","coordinates":[-117.68106,41.54692]}},{"type":"Feature","properties":{"acq_date":"2026-10-06","acq_time":909,"confidence":"n","satellite":"N","instrument":"VIIRS","version":"2.0NRT","bright_ti4":328.51,"frp":3.39,"daynight":"N"},"geometry":{"type":"Point","coordinates":[-117.6862,41.54716]}},{"type":"Feature","properties":{"acq_date":"2026-10-06","acq_time":909,"confidence":"n","satellite":"N","instrument":"VIIRS","version":"2.0NRT","bright_ti4":297.88,"frp":1.63,"daynight":"N"},"geometry":{"type":"Point","coordinates":[-122.91859,42.79157]}},{"type":"Feature","properties":{"acq_date":"2026-10-06","acq_time":909,"confidence":"n","satellite":"N","instrument":"VIIRS","version":"2.0NRT","bright_ti4":298.23,"frp":1.12,"daynight":"N"},"geometry":{"type":"Point","coordinates":[-122.91956,42.79477]}},{"type":"Feature","properties":{"acq_date":"2026-10-06","acq_time":911,"confidence":"n","satellite":"N","instrument":"VIIRS","version":"2.0NRT","bright_ti4":308.53,"frp":1.21,"daynight":"N"},"geometry":{"type":"Point","coordinates":[-118.33199,33.85432]}},{"type":"Feature","properties":{"acq_date":"2026-10-06","acq_time":911,"confidence":"n","satellite":"N","instrument":"VIIRS","version":"2.0NRT","bright_ti4":304.38,"frp":0.43,"daynight":"N"},"geometry":{"type":"Point","coordinates":[-118.80411,34.29076]}},{"type":"Feature","properties":{"acq_date":"2026-10-06","acq_time":911,"confidence":"n","satellite":"N","instrument":"VIIRS","version":"2.0NRT","bright_ti4":312.77,"frp":1.41,"daynight":"N"},"geometry":{"type":"Point","coordinates":[-118.52128,34.33348]}},{"type":"Feature","properties":{"acq_date":"2026-10-06","acq_time":911,"confidence":"n","satellite":"N","instrument":"VIIRS","version":"2.0NRT","bright_ti4":310.63,"frp":0.97,"daynight":"N"},"geometry":{"type":"Point","coordinates":[-118.52043,34.33694]}},{"type":"Feature","properties":{"acq_date":"2026-10-06","acq_time":911,"confidence":"n","satellite":"N","instrument":"VIIRS","version":"2.0NRT","bright_ti4":302.59,"frp":0.94,"daynight":"N"},"geometry":{"type":"Point","coordinates":[-118.64696,34.42874]}},{"type":"Feature","properties":{"acq_date":"2026-10-06","acq_time":911,"confidence":"n","satellite":"N","instrument":"VIIRS","version":"2.0NRT","bright_ti4":310.8,"frp":2.03,"daynight":"N"},"geometry":{"type":"Point","coordinates":[-117.33593,34.60836]}},{"type":"Feature","properties":{"acq_date":"2026-10-06","acq_time":911,"confidence":"n","satellite":"N","instrument":"VIIRS","version":"2.0NRT","bright_ti4":302.82,"frp":1.12,"daynight":"N"},"geometry":{"type":"Point","coordinates":[-117.10231,34.62047]}},{"type":"Feature","properties":{"acq_date":"2026-10-06","acq_time":911,"confidence":"n","satellite":"N","instrument":"VIIRS","version":"2.0NRT","bright_ti4":303.68,"frp":0.77,"daynight":"N"},"geometry":{"type":"Point","coordinates":[-118.75001,34.81732]}},{"type":"Feature","properties":{"acq_date":"2026-10-06","acq_time":911,"confidence":"n","satellite":"N","instrument":"VIIRS","version":"2.0NRT","bright_ti4":314.43,"frp":2.09,"daynight":"N"},"geometry":{"type":"Point","coordinates":[-113.31386,35.51663]}},{"type":"Feature","properties":{"acq_date":"2026-10-06","acq_time":911,"confidence":"n","satellite":"N","instrument":"VIIRS","version":"2.0NRT","bright_ti4":317.77,"frp":2.91,"daynight":"N"},"geometry":{"type":"Point","coordinates":[-114.90919,36.35758]}},{"type":"Feature","properties":{"acq_date":"2026-10-06","acq_time":911,"confidence":"n","satellite":"N","instrument":"VIIRS","version":"2.0NRT","bright_ti4":303.52,"frp":1.41,"daynight":"N"},"geometry":{"type":"Point","coordinates":[-113.20828,36.35976]}},{"type":"Feature","properties":{"acq_date":"2026-10-06","acq_time":911,"confidence":"n","satellite":"N","instrument":"VIIRS","version":"2.0NRT","bright_ti4":303.92,"frp":0.82,"daynight":"N"},"geometry":{"type":"Point","coordinates":[-114.87833,36.38175]}},{"type":"Feature","properties":{"acq_date":"2026-10-06","acq_time":911,"confidence":"n","satellite":"N","instrument":"VIIRS","version":"2.0NRT","bright_ti4":302.23,"frp":0.69,"daynight":"N"},"geometry":{"type":"Point","coordinates":[-114.87599,36.38384]}},{"type":"Feature","properties":{"acq_date":"2026-10-06","acq_time":911,"confidence":"n","satellite":"N","instrument":"VIIRS","version":"2.0NRT","bright_ti4":296.75,"frp":1.24,"daynight":"N"},"geometry":{"type":"Point","coordinates":[-119.5826,37.60755]}},{"type":"Feature","properties":{"acq_date":"2026-10-06","acq_time":911,"confidence":"n","satellite":"N","instrument":"VIIRS","version":"2.0NRT","bright_ti4":333.29,"frp":6.64,"daynight":"N"},"geometry":{"type":"Point","coordinates":[-119.58939,37.62553]}},{"type":"Feature","properties":{"acq_date":"2026-10-06","acq_time":911,"confidence":"n","satellite":"N","instrument":"VIIRS","version":"2.0NRT","bright_ti4":337.41,"frp":6.64,"daynight":"N"},"geometry":{"type":"Point","coordinates":[-119.58489,37.6312]}},{"type":"Feature","properties":{"acq_date":"2026-10-06","acq_time":911,"confidence":"h","satellite":"N","instrument":"VIIRS","version":"2.0NRT","bright_ti4":367,"frp":6.64,"daynight":"N"},"geometry":{"type":"Point","coordinates":[-119.59046,37.63146]}},{"type":"Feature","properties":{"acq_date":"2026-10-06","acq_time":911,"confidence":"n","satellite":"N","instrument":"VIIRS","version":"2.0NRT","bright_ti4":300.41,"frp":7.8,"daynight":"N"},"geometry":{"type":"Point","coordinates":[-119.59605,37.63173]}},{"type":"Feature","properties":{"acq_date":"2026-10-06","acq_time":911,"confidence":"n","satellite":"N","instrument":"VIIRS","version":"2.0NRT","bright_ti4":297.59,"frp":0.56,"daynight":"N"},"geometry":{"type":"Point","coordinates":[-119.5963,37.63763]}},{"type":"Feature","properties":{"acq_date":"2026-10-06","acq_time":911,"confidence":"n","satellite":"N","instrument":"VIIRS","version":"2.0NRT","bright_ti4":301.57,"frp":1.08,"daynight":"N"},"geometry":{"type":"Point","coordinates":[-119.26174,39.62027]}},{"type":"Feature","properties":{"acq_date":"2026-10-06","acq_time":911,"confidence":"n","satellite":"N","instrument":"VIIRS","version":"2.0NRT","bright_ti4":297.11,"frp":1.25,"daynight":"N"},"geometry":{"type":"Point","coordinates":[-119.26147,39.62188]}},{"type":"Feature","properties":{"acq_date":"2026-10-06","acq_time":911,"confidence":"n","satellite":"N","instrument":"VIIRS","version":"2.0NRT","bright_ti4":303.72,"frp":1.25,"daynight":"N"},"geometry":{"type":"Point","coordinates":[-122.60543,40.00665]}},{"type":"Feature","properties":{"acq_date":"2026-10-06","acq_time":911,"confidence":"n","satellite":"N","instrument":"VIIRS","version":"2.0NRT","bright_ti4":304.17,"frp":3.19,"daynight":"N"},"geometry":{"type":"Point","coordinates":[-122.61289,40.00672]}},{"type":"Feature","properties":{"acq_date":"2026-10-06","acq_time":911,"confidence":"n","satellite":"N","instrument":"VIIRS","version":"2.0NRT","bright_ti4":305.28,"frp":1.44,"daynight":"N"},"geometry":{"type":"Point","coordinates":[-122.60726,40.00711]}},{"type":"Feature","properties":{"acq_date":"2026-10-06","acq_time":911,"confidence":"n","satellite":"N","instrument":"VIIRS","version":"2.0NRT","bright_ti4":301.44,"frp":1.44,"daynight":"N"},"geometry":{"type":"Point","coordinates":[-122.61475,40.00722]}},{"type":"Feature","properties":{"acq_date":"2026-10-06","acq_time":911,"confidence":"n","satellite":"N","instrument":"VIIRS","version":"2.0NRT","bright_ti4":302.59,"frp":1.25,"daynight":"N"},"geometry":{"type":"Point","coordinates":[-122.60435,40.01356]}},{"type":"Feature","properties":{"acq_date":"2026-10-06","acq_time":913,"confidence":"n","satellite":"N","instrument":"VIIRS","version":"2.0NRT","bright_ti4":301.05,"frp":0.25,"daynight":"N"},"geometry":{"type":"Point","coordinates":[-117.14602,32.8564]}},{"type":"Feature","properties":{"acq_date":"2026-10-06","acq_time":913,"confidence":"n","satellite":"N","instrument":"VIIRS","version":"2.0NRT","bright_ti4":303.81,"frp":0.43,"daynight":"N"},"geometry":{"type":"Point","coordinates":[-117.71222,33.71315]}},{"type":"Feature","properties":{"acq_date":"2026-10-06","acq_time":913,"confidence":"n","satellite":"N","instrument":"VIIRS","version":"2.0NRT","bright_ti4":306.02,"frp":0.56,"daynight":"N"},"geometry":{"type":"Point","coordinates":[-117.71139,33.71823]}},{"type":"Feature","properties":{"acq_date":"2026-10-06","acq_time":1049,"confidence":"n","satellite":"N","instrument":"VIIRS","version":"2.0NRT","bright_ti4":295.29,"frp":1.57,"daynight":"N"},"geometry":{"type":"Point","coordinates":[-114.26158,40.82297]}},{"type":"Feature","properties":{"acq_date":"2026-10-06","acq_time":1051,"confidence":"n","satellite":"N","instrument":"VIIRS","version":"2.0NRT","bright_ti4":299.17,"frp":1.12,"daynight":"N"},"geometry":{"type":"Point","coordinates":[-117.33794,34.60507]}},{"type":"Feature","properties":{"acq_date":"2026-10-06","acq_time":1051,"confidence":"n","satellite":"N","instrument":"VIIRS","version":"2.0NRT","bright_ti4":311.9,"frp":2.16,"daynight":"N"},"geometry":{"type":"Point","coordinates":[-117.33649,34.60639]}},{"type":"Feature","properties":{"acq_date":"2026-10-06","acq_time":1051,"confidence":"n","satellite":"N","instrument":"VIIRS","version":"2.0NRT","bright_ti4":305.48,"frp":1.77,"daynight":"N"},"geometry":{"type":"Point","coordinates":[-117.33576,34.61155]}},{"type":"Feature","properties":{"acq_date":"2026-10-06","acq_time":1051,"confidence":"n","satellite":"N","instrument":"VIIRS","version":"2.0NRT","bright_ti4":301.35,"frp":1.57,"daynight":"N"},"geometry":{"type":"Point","coordinates":[-117.09769,34.62242]}},{"type":"Feature","properties":{"acq_date":"2026-10-06","acq_time":1051,"confidence":"n","satellite":"N","instrument":"VIIRS","version":"2.0NRT","bright_ti4":299.42,"frp":0.69,"daynight":"N"},"geometry":{"type":"Point","coordinates":[-114.90875,36.35981]}},{"type":"Feature","properties":{"acq_date":"2026-10-06","acq_time":1051,"confidence":"n","satellite":"N","instrument":"VIIRS","version":"2.0NRT","bright_ti4":299.69,"frp":0.45,"daynight":"N"},"geometry":{"type":"Point","coordinates":[-120.14009,37.03461]}},{"type":"Feature","properties":{"acq_date":"2026-10-06","acq_time":1051,"confidence":"n","satellite":"N","instrument":"VIIRS","version":"2.0NRT","bright_ti4":306.37,"frp":1.13,"daynight":"N"},"geometry":{"type":"Point","coordinates":[-119.58044,37.60794]}},{"type":"Feature","properties":{"acq_date":"2026-10-06","acq_time":1051,"confidence":"n","satellite":"N","instrument":"VIIRS","version":"2.0NRT","bright_ti4":296.44,"frp":1.13,"daynight":"N"},"geometry":{"type":"Point","coordinates":[-119.58448,37.60905]}},{"type":"Feature","properties":{"acq_date":"2026-10-06","acq_time":1051,"confidence":"n","satellite":"N","instrument":"VIIRS","version":"2.0NRT","bright_ti4":333.82,"frp":6.93,"daynight":"N"},"geometry":{"type":"Point","coordinates":[-119.58798,37.62769]}},{"type":"Feature","properties":{"acq_date":"2026-10-06","acq_time":1051,"confidence":"h","satellite":"N","instrument":"VIIRS","version":"2.0NRT","bright_ti4":367,"frp":8.92,"daynight":"N"},"geometry":{"type":"Point","coordinates":[-119.5918,37.62873]}},{"type":"Feature","properties":{"acq_date":"2026-10-06","acq_time":1051,"confidence":"n","satellite":"N","instrument":"VIIRS","version":"2.0NRT","bright_ti4":314.73,"frp":8.92,"daynight":"N"},"geometry":{"type":"Point","coordinates":[-119.5957,37.6298]}},{"type":"Feature","properties":{"acq_date":"2026-10-06","acq_time":1051,"confidence":"n","satellite":"N","instrument":"VIIRS","version":"2.0NRT","bright_ti4":300.41,"frp":1.3,"daynight":"N"},"geometry":{"type":"Point","coordinates":[-119.57689,37.63057]}},{"type":"Feature","properties":{"acq_date":"2026-10-06","acq_time":1051,"confidence":"n","satellite":"N","instrument":"VIIRS","version":"2.0NRT","bright_ti4":305.22,"frp":1.96,"daynight":"N"},"geometry":{"type":"Point","coordinates":[-119.58078,37.63163]}},{"type":"Feature","properties":{"acq_date":"2026-10-06","acq_time":1051,"confidence":"n","satellite":"N","instrument":"VIIRS","version":"2.0NRT","bright_ti4":325.91,"frp":1.96,"daynight":"N"},"geometry":{"type":"Point","coordinates":[-119.58479,37.63272]}},{"type":"Feature","properties":{"acq_date":"2026-10-06","acq_time":1051,"confidence":"n","satellite":"N","instrument":"VIIRS","version":"2.0NRT","bright_ti4":300.3,"frp":1.63,"daynight":"N"},"geometry":{"type":"Point","coordinates":[-119.58877,37.6338]}},{"type":"Feature","properties":{"acq_date":"2026-10-06","acq_time":1051,"confidence":"n","satellite":"N","instrument":"VIIRS","version":"2.0NRT","bright_ti4":302.18,"frp":0.27,"daynight":"N"},"geometry":{"type":"Point","coordinates":[-121.18314,37.88441]}},{"type":"Feature","properties":{"acq_date":"2026-10-06","acq_time":1051,"confidence":"n","satellite":"N","instrument":"VIIRS","version":"2.0NRT","bright_ti4":304.38,"frp":1.23,"daynight":"N"},"geometry":{"type":"Point","coordinates":[-121.46712,38.59841]}},{"type":"Feature","properties":{"acq_date":"2026-10-06","acq_time":1051,"confidence":"n","satellite":"N","instrument":"VIIRS","version":"2.0NRT","bright_ti4":305.71,"frp":0.79,"daynight":"N"},"geometry":{"type":"Point","coordinates":[-119.26353,39.62038]}},{"type":"Feature","properties":{"acq_date":"2026-10-06","acq_time":1051,"confidence":"n","satellite":"N","instrument":"VIIRS","version":"2.0NRT","bright_ti4":299.93,"frp":0.37,"daynight":"N"},"geometry":{"type":"Point","coordinates":[-119.26065,39.62094]}},{"type":"Feature","properties":{"acq_date":"2026-10-06","acq_time":1051,"confidence":"n","satellite":"N","instrument":"VIIRS","version":"2.0NRT","bright_ti4":300.28,"frp":0.69,"daynight":"N"},"geometry":{"type":"Point","coordinates":[-122.60606,40.00336]}},{"type":"Feature","properties":{"acq_date":"2026-10-06","acq_time":1051,"confidence":"n","satellite":"N","instrument":"VIIRS","version":"2.0NRT","bright_ti4":301.89,"frp":1.29,"daynight":"N"},"geometry":{"type":"Point","coordinates":[-122.61191,40.00474]}},{"type":"Feature","properties":{"acq_date":"2026-10-06","acq_time":1051,"confidence":"n","satellite":"N","instrument":"VIIRS","version":"2.0NRT","bright_ti4":304.09,"frp":0.69,"daynight":"N"},"geometry":{"type":"Point","coordinates":[-122.60451,40.00771]}},{"type":"Feature","properties":{"acq_date":"2026-10-06","acq_time":1051,"confidence":"n","satellite":"N","instrument":"VIIRS","version":"2.0NRT","bright_ti4":304.88,"frp":1.29,"daynight":"N"},"geometry":{"type":"Point","coordinates":[-122.61028,40.00907]}},{"type":"Feature","properties":{"acq_date":"2026-10-06","acq_time":1051,"confidence":"n","satellite":"N","instrument":"VIIRS","version":"2.0NRT","bright_ti4":302.93,"frp":1.03,"daynight":"N"},"geometry":{"type":"Point","coordinates":[-122.60252,40.01047]}},{"type":"Feature","properties":{"acq_date":"2026-10-06","acq_time":1051,"confidence":"n","satellite":"N","instrument":"VIIRS","version":"2.0NRT","bright_ti4":307.11,"frp":1.03,"daynight":"N"},"geometry":{"type":"Point","coordinates":[-122.60823,40.01184]}},{"type":"Feature","properties":{"acq_date":"2026-10-06","acq_time":1051,"confidence":"n","satellite":"N","instrument":"VIIRS","version":"2.0NRT","bright_ti4":303.84,"frp":1.52,"daynight":"N"},"geometry":{"type":"Point","coordinates":[-122.60296,40.01207]}},{"type":"Feature","properties":{"acq_date":"2026-10-06","acq_time":1051,"confidence":"n","satellite":"N","instrument":"VIIRS","version":"2.0NRT","bright_ti4":304.7,"frp":0.42,"daynight":"N"},"geometry":{"type":"Point","coordinates":[-122.32261,40.73563]}},{"type":"Feature","properties":{"acq_date":"2026-10-06","acq_time":1051,"confidence":"n","satellite":"N","instrument":"VIIRS","version":"2.0NRT","bright_ti4":305.44,"frp":0.83,"daynight":"N"},"geometry":{"type":"Point","coordinates":[-122.60162,40.76369]}},{"type":"Feature","properties":{"acq_date":"2026-10-06","acq_time":1051,"confidence":"n","satellite":"N","instrument":"VIIRS","version":"2.0NRT","bright_ti4":300.77,"frp":0.75,"daynight":"N"},"geometry":{"type":"Point","coordinates":[-122.59604,40.76701]}},{"type":"Feature","properties":{"acq_date":"2026-10-06","acq_time":1051,"confidence":"n","satellite":"N","instrument":"VIIRS","version":"2.0NRT","bright_ti4":301.43,"frp":0.83,"daynight":"N"},"geometry":{"type":"Point","coordinates":[-122.60086,40.76814]}},{"type":"Feature","properties":{"acq_date":"2026-10-06","acq_time":1051,"confidence":"n","satellite":"N","instrument":"VIIRS","version":"2.0NRT","bright_ti4":305.33,"frp":1.84,"daynight":"N"},"geometry":{"type":"Point","coordinates":[-115.20121,40.99068]}},{"type":"Feature","properties":{"acq_date":"2026-10-06","acq_time":1051,"confidence":"n","satellite":"N","instrument":"VIIRS","version":"2.0NRT","bright_ti4":317.99,"frp":1.84,"daynight":"N"},"geometry":{"type":"Point","coordinates":[-115.19819,40.99653]}},{"type":"Feature","properties":{"acq_date":"2026-10-06","acq_time":1051,"confidence":"n","satellite":"N","instrument":"VIIRS","version":"2.0NRT","bright_ti4":299.13,"frp":0.44,"daynight":"N"},"geometry":{"type":"Point","coordinates":[-123.49223,41.44333]}},{"type":"Feature","properties":{"acq_date":"2026-10-06","acq_time":1051,"confidence":"n","satellite":"N","instrument":"VIIRS","version":"2.0NRT","bright_ti4":303.14,"frp":1.7,"daynight":"N"},"geometry":{"type":"Point","coordinates":[-117.68179,41.54364]}},{"type":"Feature","properties":{"acq_date":"2026-10-06","acq_time":1051,"confidence":"n","satellite":"N","instrument":"VIIRS","version":"2.0NRT","bright_ti4":297.94,"frp":1.35,"daynight":"N"},"geometry":{"type":"Point","coordinates":[-117.68031,41.54403]}},{"type":"Feature","properties":{"acq_date":"2026-10-06","acq_time":1051,"confidence":"n","satellite":"N","instrument":"VIIRS","version":"2.0NRT","bright_ti4":320.83,"frp":3.07,"daynight":"N"},"geometry":{"type":"Point","coordinates":[-117.68555,41.54469]}},{"type":"Feature","properties":{"acq_date":"2026-10-06","acq_time":1051,"confidence":"n","satellite":"N","instrument":"VIIRS","version":"2.0NRT","bright_ti4":316.93,"frp":1.35,"daynight":"N"},"geometry":{"type":"Point","coordinates":[-117.68407,41.5451]}},{"type":"Feature","properties":{"acq_date":"2026-10-06","acq_time":1051,"confidence":"n","satellite":"N","instrument":"VIIRS","version":"2.0NRT","bright_ti4":297.05,"frp":1.86,"daynight":"N"},"geometry":{"type":"Point","coordinates":[-117.68794,41.5462]}},{"type":"Feature","properties":{"acq_date":"2026-10-06","acq_time":1051,"confidence":"n","satellite":"N","instrument":"VIIRS","version":"2.0NRT","bright_ti4":309.53,"frp":0.91,"daynight":"N"},"geometry":{"type":"Point","coordinates":[-122.91251,42.79301]}},{"type":"Feature","properties":{"acq_date":"2026-10-06","acq_time":1051,"confidence":"n","satellite":"N","instrument":"VIIRS","version":"2.0NRT","bright_ti4":317.75,"frp":2.18,"daynight":"N"},"geometry":{"type":"Point","coordinates":[-122.91752,42.79415]}},{"type":"Feature","properties":{"acq_date":"2026-10-06","acq_time":1051,"confidence":"n","satellite":"N","instrument":"VIIRS","version":"2.0NRT","bright_ti4":319.03,"frp":2.18,"daynight":"N"},"geometry":{"type":"Point","coordinates":[-122.92229,42.79524]}}]}