{"type":"FeatureCollection","name":"FIRMS VIIRS CA (last 1 day)","crs":{"type":"name","properties":{"name":"EPSG:4326"}},"fetched_at_utc":"2026-08-25T14:49:56.437Z","source":{"url":"https://firms.modaps.eosdis.nasa.gov/api/area/csv/8c4af552cf654445dd280dfb3ad9337c/VIIRS_SNPP_NRT/-125,32,-113,43.5/1","dataset":"VIIRS_SNPP_NRT","bbox":"-125,32,-113,43.5","day_range":"1"},"features":[{"type":"Feature","properties":{"acq_date":"2026-08-25","acq_time":856,"confidence":"n","satellite":"N","instrument":"VIIRS","version":"2.0NRT","bright_ti4":298.4,"frp":0.63,"daynight":"N"},"geometry":{"type":"Point","coordinates":[-113.88285,42.97404]}},{"type":"Feature","properties":{"acq_date":"2026-08-25","acq_time":856,"confidence":"n","satellite":"N","instrument":"VIIRS","version":"2.0NRT","bright_ti4":299.36,"frp":1.33,"daynight":"N"},"geometry":{"type":"Point","coordinates":[-113.82596,42.97936]}},{"type":"Feature","properties":{"acq_date":"2026-08-25","acq_time":856,"confidence":"n","satellite":"N","instrument":"VIIRS","version":"2.0NRT","bright_ti4":300.71,"frp":0.63,"daynight":"N"},"geometry":{"type":"Point","coordinates":[-113.88664,42.97957]}},{"type":"Feature","properties":{"acq_date":"2026-08-25","acq_time":856,"confidence":"n","satellite":"N","instrument":"VIIRS","version":"2.0NRT","bright_ti4":311.05,"frp":1.84,"daynight":"N"},"geometry":{"type":"Point","coordinates":[-113.83052,42.97958]}},{"type":"Feature","properties":{"acq_date":"2026-08-25","acq_time":856,"confidence":"n","satellite":"N","instrument":"VIIRS","version":"2.0NRT","bright_ti4":309.03,"frp":1.43,"daynight":"N"},"geometry":{"type":"Point","coordinates":[-113.82367,42.9815]}},{"type":"Feature","properties":{"acq_date":"2026-08-25","acq_time":856,"confidence":"n","satellite":"N","instrument":"VIIRS","version":"2.0NRT","bright_ti4":328.23,"frp":2.21,"daynight":"N"},"geometry":{"type":"Point","coordinates":[-113.82823,42.98175]}},{"type":"Feature","properties":{"acq_date":"2026-08-25","acq_time":856,"confidence":"n","satellite":"N","instrument":"VIIRS","version":"2.0NRT","bright_ti4":311.12,"frp":1.33,"daynight":"N"},"geometry":{"type":"Point","coordinates":[-113.82092,42.98442]}},{"type":"Feature","properties":{"acq_date":"2026-08-25","acq_time":856,"confidence":"n","satellite":"N","instrument":"VIIRS","version":"2.0NRT","bright_ti4":328.53,"frp":1.33,"daynight":"N"},"geometry":{"type":"Point","coordinates":[-113.82546,42.98465]}},{"type":"Feature","properties":{"acq_date":"2026-08-25","acq_time":856,"confidence":"n","satellite":"N","instrument":"VIIRS","version":"2.0NRT","bright_ti4":303.31,"frp":1.84,"daynight":"N"},"geometry":{"type":"Point","coordinates":[-113.82999,42.98487]}},{"type":"Feature","properties":{"acq_date":"2026-08-25","acq_time":856,"confidence":"n","satellite":"N","instrument":"VIIRS","version":"2.0NRT","bright_ti4":314.88,"frp":1.43,"daynight":"N"},"geometry":{"type":"Point","coordinates":[-113.81876,42.98655]}},{"type":"Feature","properties":{"acq_date":"2026-08-25","acq_time":856,"confidence":"n","satellite":"N","instrument":"VIIRS","version":"2.0NRT","bright_ti4":314.06,"frp":1.43,"daynight":"N"},"geometry":{"type":"Point","coordinates":[-113.82323,42.98679]}},{"type":"Feature","properties":{"acq_date":"2026-08-25","acq_time":856,"confidence":"n","satellite":"N","instrument":"VIIRS","version":"2.0NRT","bright_ti4":299.46,"frp":2.21,"daynight":"N"},"geometry":{"type":"Point","coordinates":[-113.82774,42.98704]}},{"type":"Feature","properties":{"acq_date":"2026-08-25","acq_time":856,"confidence":"n","satellite":"N","instrument":"VIIRS","version":"2.0NRT","bright_ti4":301.26,"frp":1.07,"daynight":"N"},"geometry":{"type":"Point","coordinates":[-113.81161,42.98928]}},{"type":"Feature","properties":{"acq_date":"2026-08-25","acq_time":856,"confidence":"n","satellite":"N","instrument":"VIIRS","version":"2.0NRT","bright_ti4":299.11,"frp":1.07,"daynight":"N"},"geometry":{"type":"Point","coordinates":[-113.81602,42.9895]}},{"type":"Feature","properties":{"acq_date":"2026-08-25","acq_time":856,"confidence":"n","satellite":"N","instrument":"VIIRS","version":"2.0NRT","bright_ti4":309.66,"frp":2.41,"daynight":"N"},"geometry":{"type":"Point","coordinates":[-113.82048,42.98972]}},{"type":"Feature","properties":{"acq_date":"2026-08-25","acq_time":856,"confidence":"n","satellite":"N","instrument":"VIIRS","version":"2.0NRT","bright_ti4":302.72,"frp":0.9,"daynight":"N"},"geometry":{"type":"Point","coordinates":[-113.80949,42.99136]}},{"type":"Feature","properties":{"acq_date":"2026-08-25","acq_time":856,"confidence":"n","satellite":"N","instrument":"VIIRS","version":"2.0NRT","bright_ti4":306.32,"frp":0.9,"daynight":"N"},"geometry":{"type":"Point","coordinates":[-113.81389,42.9916]}},{"type":"Feature","properties":{"acq_date":"2026-08-25","acq_time":856,"confidence":"n","satellite":"N","instrument":"VIIRS","version":"2.0NRT","bright_ti4":301.06,"frp":2.16,"daynight":"N"},"geometry":{"type":"Point","coordinates":[-113.81833,42.99184]}},{"type":"Feature","properties":{"acq_date":"2026-08-25","acq_time":856,"confidence":"n","satellite":"N","instrument":"VIIRS","version":"2.0NRT","bright_ti4":310,"frp":1.07,"daynight":"N"},"geometry":{"type":"Point","coordinates":[-113.81114,42.99457]}},{"type":"Feature","properties":{"acq_date":"2026-08-25","acq_time":856,"confidence":"n","satellite":"N","instrument":"VIIRS","version":"2.0NRT","bright_ti4":310.93,"frp":1.07,"daynight":"N"},"geometry":{"type":"Point","coordinates":[-113.81557,42.99479]}},{"type":"Feature","properties":{"acq_date":"2026-08-25","acq_time":856,"confidence":"n","satellite":"N","instrument":"VIIRS","version":"2.0NRT","bright_ti4":327.49,"frp":2.41,"daynight":"N"},"geometry":{"type":"Point","coordinates":[-113.82003,42.99501]}},{"type":"Feature","properties":{"acq_date":"2026-08-25","acq_time":856,"confidence":"n","satellite":"N","instrument":"VIIRS","version":"2.0NRT","bright_ti4":301.26,"frp":0.9,"daynight":"N"},"geometry":{"type":"Point","coordinates":[-113.80902,42.99664]}},{"type":"Feature","properties":{"acq_date":"2026-08-25","acq_time":856,"confidence":"n","satellite":"N","instrument":"VIIRS","version":"2.0NRT","bright_ti4":304,"frp":0.9,"daynight":"N"},"geometry":{"type":"Point","coordinates":[-113.81342,42.99688]}},{"type":"Feature","properties":{"acq_date":"2026-08-25","acq_time":856,"confidence":"n","satellite":"N","instrument":"VIIRS","version":"2.0NRT","bright_ti4":329.01,"frp":2.16,"daynight":"N"},"geometry":{"type":"Point","coordinates":[-113.81784,42.99713]}},{"type":"Feature","properties":{"acq_date":"2026-08-25","acq_time":856,"confidence":"n","satellite":"N","instrument":"VIIRS","version":"2.0NRT","bright_ti4":297.57,"frp":0.66,"daynight":"N"},"geometry":{"type":"Point","coordinates":[-113.9021,43.00175]}},{"type":"Feature","properties":{"acq_date":"2026-08-25","acq_time":856,"confidence":"n","satellite":"N","instrument":"VIIRS","version":"2.0NRT","bright_ti4":297.19,"frp":0.8,"daynight":"N"},"geometry":{"type":"Point","coordinates":[-113.88537,43.00888]}},{"type":"Feature","properties":{"acq_date":"2026-08-25","acq_time":856,"confidence":"n","satellite":"N","instrument":"VIIRS","version":"2.0NRT","bright_ti4":308.77,"frp":1.27,"daynight":"N"},"geometry":{"type":"Point","coordinates":[-113.88033,43.01397]}},{"type":"Feature","properties":{"acq_date":"2026-08-25","acq_time":856,"confidence":"n","satellite":"N","instrument":"VIIRS","version":"2.0NRT","bright_ti4":319.67,"frp":1.27,"daynight":"N"},"geometry":{"type":"Point","coordinates":[-113.88477,43.01419]}},{"type":"Feature","properties":{"acq_date":"2026-08-25","acq_time":856,"confidence":"n","satellite":"N","instrument":"VIIRS","version":"2.0NRT","bright_ti4":302.6,"frp":1.47,"daynight":"N"},"geometry":{"type":"Point","coordinates":[-113.8658,43.0239]}},{"type":"Feature","properties":{"acq_date":"2026-08-25","acq_time":856,"confidence":"n","satellite":"N","instrument":"VIIRS","version":"2.0NRT","bright_ti4":313.95,"frp":1.47,"daynight":"N"},"geometry":{"type":"Point","coordinates":[-113.86071,43.02897]}},{"type":"Feature","properties":{"acq_date":"2026-08-25","acq_time":856,"confidence":"n","satellite":"N","instrument":"VIIRS","version":"2.0NRT","bright_ti4":317.55,"frp":1.47,"daynight":"N"},"geometry":{"type":"Point","coordinates":[-113.86516,43.0292]}},{"type":"Feature","properties":{"acq_date":"2026-08-25","acq_time":856,"confidence":"n","satellite":"N","instrument":"VIIRS","version":"2.0NRT","bright_ti4":304.02,"frp":1.65,"daynight":"N"},"geometry":{"type":"Point","coordinates":[-113.86013,43.03427]}},{"type":"Feature","properties":{"acq_date":"2026-08-25","acq_time":856,"confidence":"n","satellite":"N","instrument":"VIIRS","version":"2.0NRT","bright_ti4":298.59,"frp":1.45,"daynight":"N"},"geometry":{"type":"Point","coordinates":[-113.85512,43.03934]}},{"type":"Feature","properties":{"acq_date":"2026-08-25","acq_time":858,"confidence":"n","satellite":"N","instrument":"VIIRS","version":"2.0NRT","bright_ti4":300.87,"frp":0.61,"daynight":"N"},"geometry":{"type":"Point","coordinates":[-119.31025,35.80831]}},{"type":"Feature","properties":{"acq_date":"2026-08-25","acq_time":858,"confidence":"n","satellite":"N","instrument":"VIIRS","version":"2.0NRT","bright_ti4":307.45,"frp":1.11,"daynight":"N"},"geometry":{"type":"Point","coordinates":[-114.91566,36.35188]}},{"type":"Feature","properties":{"acq_date":"2026-08-25","acq_time":858,"confidence":"n","satellite":"N","instrument":"VIIRS","version":"2.0NRT","bright_ti4":311.75,"frp":1.11,"daynight":"N"},"geometry":{"type":"Point","coordinates":[-114.91518,36.35716]}},{"type":"Feature","properties":{"acq_date":"2026-08-25","acq_time":858,"confidence":"n","satellite":"N","instrument":"VIIRS","version":"2.0NRT","bright_ti4":306.25,"frp":1.31,"daynight":"N"},"geometry":{"type":"Point","coordinates":[-114.88062,36.38147]}},{"type":"Feature","properties":{"acq_date":"2026-08-25","acq_time":858,"confidence":"n","satellite":"N","instrument":"VIIRS","version":"2.0NRT","bright_ti4":324.27,"frp":4.73,"daynight":"N"},"geometry":{"type":"Point","coordinates":[-120.70303,37.47118]}},{"type":"Feature","properties":{"acq_date":"2026-08-25","acq_time":858,"confidence":"n","satellite":"N","instrument":"VIIRS","version":"2.0NRT","bright_ti4":313.97,"frp":4.73,"daynight":"N"},"geometry":{"type":"Point","coordinates":[-120.71186,37.47126]}},{"type":"Feature","properties":{"acq_date":"2026-08-25","acq_time":858,"confidence":"n","satellite":"N","instrument":"VIIRS","version":"2.0NRT","bright_ti4":303.26,"frp":6.85,"daynight":"N"},"geometry":{"type":"Point","coordinates":[-120.69884,37.47631]}},{"type":"Feature","properties":{"acq_date":"2026-08-25","acq_time":858,"confidence":"h","satellite":"N","instrument":"VIIRS","version":"2.0NRT","bright_ti4":367,"frp":17.75,"daynight":"N"},"geometry":{"type":"Point","coordinates":[-120.70768,37.47644]}},{"type":"Feature","properties":{"acq_date":"2026-08-25","acq_time":858,"confidence":"n","satellite":"N","instrument":"VIIRS","version":"2.0NRT","bright_ti4":323.88,"frp":5.65,"daynight":"N"},"geometry":{"type":"Point","coordinates":[-120.70277,37.47837]}},{"type":"Feature","properties":{"acq_date":"2026-08-25","acq_time":858,"confidence":"n","satellite":"N","instrument":"VIIRS","version":"2.0NRT","bright_ti4":325.17,"frp":5.65,"daynight":"N"},"geometry":{"type":"Point","coordinates":[-120.71162,37.47845]}},{"type":"Feature","properties":{"acq_date":"2026-08-25","acq_time":858,"confidence":"n","satellite":"N","instrument":"VIIRS","version":"2.0NRT","bright_ti4":299.3,"frp":1.14,"daynight":"N"},"geometry":{"type":"Point","coordinates":[-119.73508,39.02859]}},{"type":"Feature","properties":{"acq_date":"2026-08-25","acq_time":858,"confidence":"n","satellite":"N","instrument":"VIIRS","version":"2.0NRT","bright_ti4":296.68,"frp":1.37,"daynight":"N"},"geometry":{"type":"Point","coordinates":[-119.92287,39.59967]}},{"type":"Feature","properties":{"acq_date":"2026-08-25","acq_time":858,"confidence":"n","satellite":"N","instrument":"VIIRS","version":"2.0NRT","bright_ti4":307.13,"frp":1.37,"daynight":"N"},"geometry":{"type":"Point","coordinates":[-119.92821,39.59973]}},{"type":"Feature","properties":{"acq_date":"2026-08-25","acq_time":858,"confidence":"n","satellite":"N","instrument":"VIIRS","version":"2.0NRT","bright_ti4":303.96,"frp":1.41,"daynight":"N"},"geometry":{"type":"Point","coordinates":[-119.2568,39.62307]}},{"type":"Feature","properties":{"acq_date":"2026-08-25","acq_time":858,"confidence":"n","satellite":"N","instrument":"VIIRS","version":"2.0NRT","bright_ti4":301.4,"frp":1.76,"daynight":"N"},"geometry":{"type":"Point","coordinates":[-119.24932,39.6238]}},{"type":"Feature","properties":{"acq_date":"2026-08-25","acq_time":858,"confidence":"n","satellite":"N","instrument":"VIIRS","version":"2.0NRT","bright_ti4":305.26,"frp":2.17,"daynight":"N"},"geometry":{"type":"Point","coordinates":[-114.9062,39.91206]}},{"type":"Feature","properties":{"acq_date":"2026-08-25","acq_time":858,"confidence":"n","satellite":"N","instrument":"VIIRS","version":"2.0NRT","bright_ti4":302.78,"frp":2.89,"daynight":"N"},"geometry":{"type":"Point","coordinates":[-114.91,39.91226]}},{"type":"Feature","properties":{"acq_date":"2026-08-25","acq_time":858,"confidence":"n","satellite":"N","instrument":"VIIRS","version":"2.0NRT","bright_ti4":323.75,"frp":2.17,"daynight":"N"},"geometry":{"type":"Point","coordinates":[-114.90386,39.91742]}},{"type":"Feature","properties":{"acq_date":"2026-08-25","acq_time":858,"confidence":"n","satellite":"N","instrument":"VIIRS","version":"2.0NRT","bright_ti4":328.46,"frp":2.89,"daynight":"N"},"geometry":{"type":"Point","coordinates":[-114.90733,39.9176]}},{"type":"Feature","properties":{"acq_date":"2026-08-25","acq_time":858,"confidence":"n","satellite":"N","instrument":"VIIRS","version":"2.0NRT","bright_ti4":325.16,"frp":2.89,"daynight":"N"},"geometry":{"type":"Point","coordinates":[-114.91101,39.91779]}},{"type":"Feature","properties":{"acq_date":"2026-08-25","acq_time":858,"confidence":"n","satellite":"N","instrument":"VIIRS","version":"2.0NRT","bright_ti4":300.09,"frp":2.44,"daynight":"N"},"geometry":{"type":"Point","coordinates":[-114.91518,39.91801]}},{"type":"Feature","properties":{"acq_date":"2026-08-25","acq_time":858,"confidence":"n","satellite":"N","instrument":"VIIRS","version":"2.0NRT","bright_ti4":322.01,"frp":3.73,"daynight":"N"},"geometry":{"type":"Point","coordinates":[-114.90891,39.92316]}},{"type":"Feature","properties":{"acq_date":"2026-08-25","acq_time":858,"confidence":"n","satellite":"N","instrument":"VIIRS","version":"2.0NRT","bright_ti4":319.51,"frp":3.53,"daynight":"N"},"geometry":{"type":"Point","coordinates":[-114.91245,39.92336]}},{"type":"Feature","properties":{"acq_date":"2026-08-25","acq_time":858,"confidence":"n","satellite":"N","instrument":"VIIRS","version":"2.0NRT","bright_ti4":328.7,"frp":3.53,"daynight":"N"},"geometry":{"type":"Point","coordinates":[-114.91116,39.92876]}},{"type":"Feature","properties":{"acq_date":"2026-08-25","acq_time":858,"confidence":"n","satellite":"N","instrument":"VIIRS","version":"2.0NRT","bright_ti4":330.3,"frp":4.71,"daynight":"N"},"geometry":{"type":"Point","coordinates":[-117.58315,40.92867]}},{"type":"Feature","properties":{"acq_date":"2026-08-25","acq_time":858,"confidence":"n","satellite":"N","instrument":"VIIRS","version":"2.0NRT","bright_ti4":306.52,"frp":3.25,"daynight":"N"},"geometry":{"type":"Point","coordinates":[-117.58777,40.92879]}},{"type":"Feature","properties":{"acq_date":"2026-08-25","acq_time":858,"confidence":"n","satellite":"N","instrument":"VIIRS","version":"2.0NRT","bright_ti4":310.53,"frp":3.25,"daynight":"N"},"geometry":{"type":"Point","coordinates":[-117.5921,40.92892]}},{"type":"Feature","properties":{"acq_date":"2026-08-25","acq_time":858,"confidence":"n","satellite":"N","instrument":"VIIRS","version":"2.0NRT","bright_ti4":299.03,"frp":2.18,"daynight":"N"},"geometry":{"type":"Point","coordinates":[-117.59792,40.92908]}},{"type":"Feature","properties":{"acq_date":"2026-08-25","acq_time":858,"confidence":"n","satellite":"N","instrument":"VIIRS","version":"2.0NRT","bright_ti4":317.54,"frp":4.73,"daynight":"N"},"geometry":{"type":"Point","coordinates":[-117.57986,40.93084]}},{"type":"Feature","properties":{"acq_date":"2026-08-25","acq_time":858,"confidence":"n","satellite":"N","instrument":"VIIRS","version":"2.0NRT","bright_ti4":342.65,"frp":7.26,"daynight":"N"},"geometry":{"type":"Point","coordinates":[-117.58463,40.93096]}},{"type":"Feature","properties":{"acq_date":"2026-08-25","acq_time":858,"confidence":"n","satellite":"N","instrument":"VIIRS","version":"2.0NRT","bright_ti4":320.93,"frp":7.26,"daynight":"N"},"geometry":{"type":"Point","coordinates":[-117.58916,40.93106]}},{"type":"Feature","properties":{"acq_date":"2026-08-25","acq_time":858,"confidence":"n","satellite":"N","instrument":"VIIRS","version":"2.0NRT","bright_ti4":325.1,"frp":3.75,"daynight":"N"},"geometry":{"type":"Point","coordinates":[-117.59377,40.93117]}},{"type":"Feature","properties":{"acq_date":"2026-08-25","acq_time":858,"confidence":"n","satellite":"N","instrument":"VIIRS","version":"2.0NRT","bright_ti4":297.59,"frp":3.75,"daynight":"N"},"geometry":{"type":"Point","coordinates":[-117.60059,40.93133]}},{"type":"Feature","properties":{"acq_date":"2026-08-25","acq_time":858,"confidence":"n","satellite":"N","instrument":"VIIRS","version":"2.0NRT","bright_ti4":311.55,"frp":4.64,"daynight":"N"},"geometry":{"type":"Point","coordinates":[-117.57825,40.93483]}},{"type":"Feature","properties":{"acq_date":"2026-08-25","acq_time":858,"confidence":"n","satellite":"N","instrument":"VIIRS","version":"2.0NRT","bright_ti4":332.14,"frp":4.64,"daynight":"N"},"geometry":{"type":"Point","coordinates":[-117.58296,40.93496]}},{"type":"Feature","properties":{"acq_date":"2026-08-25","acq_time":858,"confidence":"n","satellite":"N","instrument":"VIIRS","version":"2.0NRT","bright_ti4":318.68,"frp":4.75,"daynight":"N"},"geometry":{"type":"Point","coordinates":[-117.58752,40.93509]}},{"type":"Feature","properties":{"acq_date":"2026-08-25","acq_time":858,"confidence":"n","satellite":"N","instrument":"VIIRS","version":"2.0NRT","bright_ti4":313.19,"frp":4.75,"daynight":"N"},"geometry":{"type":"Point","coordinates":[-117.59232,40.93523]}},{"type":"Feature","properties":{"acq_date":"2026-08-25","acq_time":858,"confidence":"n","satellite":"N","instrument":"VIIRS","version":"2.0NRT","bright_ti4":314,"frp":3.04,"daynight":"N"},"geometry":{"type":"Point","coordinates":[-117.57997,40.93715]}},{"type":"Feature","properties":{"acq_date":"2026-08-25","acq_time":858,"confidence":"n","satellite":"N","instrument":"VIIRS","version":"2.0NRT","bright_ti4":313.33,"frp":2.99,"daynight":"N"},"geometry":{"type":"Point","coordinates":[-117.58445,40.93725]}},{"type":"Feature","properties":{"acq_date":"2026-08-25","acq_time":858,"confidence":"n","satellite":"N","instrument":"VIIRS","version":"2.0NRT","bright_ti4":299.57,"frp":2.99,"daynight":"N"},"geometry":{"type":"Point","coordinates":[-117.58904,40.93736]}},{"type":"Feature","properties":{"acq_date":"2026-08-25","acq_time":858,"confidence":"n","satellite":"N","instrument":"VIIRS","version":"2.0NRT","bright_ti4":304.82,"frp":2.93,"daynight":"N"},"geometry":{"type":"Point","coordinates":[-117.57365,40.94099]}},{"type":"Feature","properties":{"acq_date":"2026-08-25","acq_time":858,"confidence":"n","satellite":"N","instrument":"VIIRS","version":"2.0NRT","bright_ti4":315.58,"frp":4.64,"daynight":"N"},"geometry":{"type":"Point","coordinates":[-117.5789,40.94114]}},{"type":"Feature","properties":{"acq_date":"2026-08-25","acq_time":858,"confidence":"n","satellite":"N","instrument":"VIIRS","version":"2.0NRT","bright_ti4":319.29,"frp":3.04,"daynight":"N"},"geometry":{"type":"Point","coordinates":[-117.57577,40.94334]}},{"type":"Feature","properties":{"acq_date":"2026-08-25","acq_time":858,"confidence":"n","satellite":"N","instrument":"VIIRS","version":"2.0NRT","bright_ti4":305.84,"frp":3.04,"daynight":"N"},"geometry":{"type":"Point","coordinates":[-117.58094,40.94347]}},{"type":"Feature","properties":{"acq_date":"2026-08-25","acq_time":858,"confidence":"n","satellite":"N","instrument":"VIIRS","version":"2.0NRT","bright_ti4":317.7,"frp":2.82,"daynight":"N"},"geometry":{"type":"Point","coordinates":[-117.5746,40.94732]}},{"type":"Feature","properties":{"acq_date":"2026-08-25","acq_time":858,"confidence":"n","satellite":"N","instrument":"VIIRS","version":"2.0NRT","bright_ti4":313.86,"frp":3.82,"daynight":"N"},"geometry":{"type":"Point","coordinates":[-117.5799,40.94748]}},{"type":"Feature","properties":{"acq_date":"2026-08-25","acq_time":858,"confidence":"n","satellite":"N","instrument":"VIIRS","version":"2.0NRT","bright_ti4":311.76,"frp":1.41,"daynight":"N"},"geometry":{"type":"Point","coordinates":[-117.57648,40.94966]}},{"type":"Feature","properties":{"acq_date":"2026-08-25","acq_time":858,"confidence":"n","satellite":"N","instrument":"VIIRS","version":"2.0NRT","bright_ti4":299.66,"frp":1.41,"daynight":"N"},"geometry":{"type":"Point","coordinates":[-117.58172,40.94979]}},{"type":"Feature","properties":{"acq_date":"2026-08-25","acq_time":858,"confidence":"n","satellite":"N","instrument":"VIIRS","version":"2.0NRT","bright_ti4":303.13,"frp":1.16,"daynight":"N"},"geometry":{"type":"Point","coordinates":[-117.97406,41.13011]}},{"type":"Feature","properties":{"acq_date":"2026-08-25","acq_time":858,"confidence":"n","satellite":"N","instrument":"VIIRS","version":"2.0NRT","bright_ti4":305.12,"frp":1.16,"daynight":"N"},"geometry":{"type":"Point","coordinates":[-117.98032,41.13026]}},{"type":"Feature","properties":{"acq_date":"2026-08-25","acq_time":858,"confidence":"n","satellite":"N","instrument":"VIIRS","version":"2.0NRT","bright_ti4":297.49,"frp":2.06,"daynight":"N"},"geometry":{"type":"Point","coordinates":[-117.96533,41.13482]}},{"type":"Feature","properties":{"acq_date":"2026-08-25","acq_time":858,"confidence":"n","satellite":"N","instrument":"VIIRS","version":"2.0NRT","bright_ti4":300.71,"frp":4.12,"daynight":"N"},"geometry":{"type":"Point","coordinates":[-117.97797,41.13506]}},{"type":"Feature","properties":{"acq_date":"2026-08-25","acq_time":858,"confidence":"n","satellite":"N","instrument":"VIIRS","version":"2.0NRT","bright_ti4":324.46,"frp":5.79,"daynight":"N"},"geometry":{"type":"Point","coordinates":[-117.98432,41.13518]}},{"type":"Feature","properties":{"acq_date":"2026-08-25","acq_time":858,"confidence":"n","satellite":"N","instrument":"VIIRS","version":"2.0NRT","bright_ti4":299.08,"frp":3.78,"daynight":"N"},"geometry":{"type":"Point","coordinates":[-117.97283,41.13651]}},{"type":"Feature","properties":{"acq_date":"2026-08-25","acq_time":858,"confidence":"n","satellite":"N","instrument":"VIIRS","version":"2.0NRT","bright_ti4":325.48,"frp":3.78,"daynight":"N"},"geometry":{"type":"Point","coordinates":[-117.97926,41.13666]}},{"type":"Feature","properties":{"acq_date":"2026-08-25","acq_time":858,"confidence":"n","satellite":"N","instrument":"VIIRS","version":"2.0NRT","bright_ti4":322.71,"frp":2.06,"daynight":"N"},"geometry":{"type":"Point","coordinates":[-117.9651,41.14124]}},{"type":"Feature","properties":{"acq_date":"2026-08-25","acq_time":858,"confidence":"n","satellite":"N","instrument":"VIIRS","version":"2.0NRT","bright_ti4":299.79,"frp":4.12,"daynight":"N"},"geometry":{"type":"Point","coordinates":[-117.97131,41.14137]}},{"type":"Feature","properties":{"acq_date":"2026-08-25","acq_time":858,"confidence":"n","satellite":"N","instrument":"VIIRS","version":"2.0NRT","bright_ti4":338.61,"frp":4.12,"daynight":"N"},"geometry":{"type":"Point","coordinates":[-117.97762,41.14148]}},{"type":"Feature","properties":{"acq_date":"2026-08-25","acq_time":858,"confidence":"n","satellite":"N","instrument":"VIIRS","version":"2.0NRT","bright_ti4":317.94,"frp":5.79,"daynight":"N"},"geometry":{"type":"Point","coordinates":[-117.98387,41.1416]}},{"type":"Feature","properties":{"acq_date":"2026-08-25","acq_time":858,"confidence":"n","satellite":"N","instrument":"VIIRS","version":"2.0NRT","bright_ti4":317.43,"frp":2.72,"daynight":"N"},"geometry":{"type":"Point","coordinates":[-117.96062,41.14264]}},{"type":"Feature","properties":{"acq_date":"2026-08-25","acq_time":858,"confidence":"n","satellite":"N","instrument":"VIIRS","version":"2.0NRT","bright_ti4":301.81,"frp":2.72,"daynight":"N"},"geometry":{"type":"Point","coordinates":[-117.96671,41.14279]}},{"type":"Feature","properties":{"acq_date":"2026-08-25","acq_time":858,"confidence":"n","satellite":"N","instrument":"VIIRS","version":"2.0NRT","bright_ti4":326.47,"frp":3.78,"daynight":"N"},"geometry":{"type":"Point","coordinates":[-117.97294,41.14294]}},{"type":"Feature","properties":{"acq_date":"2026-08-25","acq_time":858,"confidence":"n","satellite":"N","instrument":"VIIRS","version":"2.0NRT","bright_ti4":334.94,"frp":3.78,"daynight":"N"},"geometry":{"type":"Point","coordinates":[-117.97916,41.14309]}},{"type":"Feature","properties":{"acq_date":"2026-08-25","acq_time":858,"confidence":"n","satellite":"N","instrument":"VIIRS","version":"2.0NRT","bright_ti4":306.26,"frp":1.71,"daynight":"N"},"geometry":{"type":"Point","coordinates":[-117.96523,41.14767]}},{"type":"Feature","properties":{"acq_date":"2026-08-25","acq_time":858,"confidence":"n","satellite":"N","instrument":"VIIRS","version":"2.0NRT","bright_ti4":312.94,"frp":4.77,"daynight":"N"},"geometry":{"type":"Point","coordinates":[-117.97133,41.14779]}},{"type":"Feature","properties":{"acq_date":"2026-08-25","acq_time":858,"confidence":"n","satellite":"N","instrument":"VIIRS","version":"2.0NRT","bright_ti4":296.96,"frp":1.15,"daynight":"N"},"geometry":{"type":"Point","coordinates":[-117.98956,41.14814]}},{"type":"Feature","properties":{"acq_date":"2026-08-25","acq_time":858,"confidence":"n","satellite":"N","instrument":"VIIRS","version":"2.0NRT","bright_ti4":300.61,"frp":1.89,"daynight":"N"},"geometry":{"type":"Point","coordinates":[-117.96056,41.14906]}},{"type":"Feature","properties":{"acq_date":"2026-08-25","acq_time":858,"confidence":"n","satellite":"N","instrument":"VIIRS","version":"2.0NRT","bright_ti4":321.97,"frp":1.89,"daynight":"N"},"geometry":{"type":"Point","coordinates":[-117.9666,41.14921]}},{"type":"Feature","properties":{"acq_date":"2026-08-25","acq_time":858,"confidence":"n","satellite":"N","instrument":"VIIRS","version":"2.0NRT","bright_ti4":296.46,"frp":0.9,"daynight":"N"},"geometry":{"type":"Point","coordinates":[-117.98477,41.14965]}},{"type":"Feature","properties":{"acq_date":"2026-08-25","acq_time":858,"confidence":"n","satellite":"N","instrument":"VIIRS","version":"2.0NRT","bright_ti4":306.16,"frp":1.71,"daynight":"N"},"geometry":{"type":"Point","coordinates":[-117.96465,41.15409]}},{"type":"Feature","properties":{"acq_date":"2026-08-25","acq_time":858,"confidence":"n","satellite":"N","instrument":"VIIRS","version":"2.0NRT","bright_ti4":300.63,"frp":1.89,"daynight":"N"},"geometry":{"type":"Point","coordinates":[-117.96008,41.15547]}},{"type":"Feature","properties":{"acq_date":"2026-08-25","acq_time":858,"confidence":"n","satellite":"N","instrument":"VIIRS","version":"2.0NRT","bright_ti4":301.98,"frp":0.66,"daynight":"N"},"geometry":{"type":"Point","coordinates":[-114.96419,41.1997]}},{"type":"Feature","properties":{"acq_date":"2026-08-25","acq_time":858,"confidence":"n","satellite":"N","instrument":"VIIRS","version":"2.0NRT","bright_ti4":306.31,"frp":1.68,"daynight":"N"},"geometry":{"type":"Point","coordinates":[-114.92992,41.24238]}},{"type":"Feature","properties":{"acq_date":"2026-08-25","acq_time":858,"confidence":"n","satellite":"N","instrument":"VIIRS","version":"2.0NRT","bright_ti4":295.38,"frp":1.57,"daynight":"N"},"geometry":{"type":"Point","coordinates":[-119.8917,41.61321]}},{"type":"Feature","properties":{"acq_date":"2026-08-25","acq_time":858,"confidence":"n","satellite":"N","instrument":"VIIRS","version":"2.0NRT","bright_ti4":295.44,"frp":1.83,"daynight":"N"},"geometry":{"type":"Point","coordinates":[-119.88587,41.61872]}},{"type":"Feature","properties":{"acq_date":"2026-08-25","acq_time":858,"confidence":"n","satellite":"N","instrument":"VIIRS","version":"2.0NRT","bright_ti4":299.56,"frp":2.87,"daynight":"N"},"geometry":{"type":"Point","coordinates":[-119.89249,41.61875]}},{"type":"Feature","properties":{"acq_date":"2026-08-25","acq_time":858,"confidence":"n","satellite":"N","instrument":"VIIRS","version":"2.0NRT","bright_ti4":305.61,"frp":2.87,"daynight":"N"},"geometry":{"type":"Point","coordinates":[-119.89899,41.61876]}},{"type":"Feature","properties":{"acq_date":"2026-08-25","acq_time":858,"confidence":"n","satellite":"N","instrument":"VIIRS","version":"2.0NRT","bright_ti4":296.12,"frp":2.63,"daynight":"N"},"geometry":{"type":"Point","coordinates":[-119.90599,41.61878]}},{"type":"Feature","properties":{"acq_date":"2026-08-25","acq_time":858,"confidence":"n","satellite":"N","instrument":"VIIRS","version":"2.0NRT","bright_ti4":297.12,"frp":2.58,"daynight":"N"},"geometry":{"type":"Point","coordinates":[-119.89165,41.62024]}},{"type":"Feature","properties":{"acq_date":"2026-08-25","acq_time":858,"confidence":"n","satellite":"N","instrument":"VIIRS","version":"2.0NRT","bright_ti4":305.61,"frp":1.8,"daynight":"N"},"geometry":{"type":"Point","coordinates":[-119.89809,41.62029]}},{"type":"Feature","properties":{"acq_date":"2026-08-25","acq_time":858,"confidence":"n","satellite":"N","instrument":"VIIRS","version":"2.0NRT","bright_ti4":299.77,"frp":1.8,"daynight":"N"},"geometry":{"type":"Point","coordinates":[-119.90495,41.62033]}},{"type":"Feature","properties":{"acq_date":"2026-08-25","acq_time":858,"confidence":"n","satellite":"N","instrument":"VIIRS","version":"2.0NRT","bright_ti4":297.02,"frp":1.8,"daynight":"N"},"geometry":{"type":"Point","coordinates":[-119.90472,41.62736]}},{"type":"Feature","properties":{"acq_date":"2026-08-25","acq_time":858,"confidence":"n","satellite":"N","instrument":"VIIRS","version":"2.0NRT","bright_ti4":301.09,"frp":1.97,"daynight":"N"},"geometry":{"type":"Point","coordinates":[-116.19662,41.64484]}},{"type":"Feature","properties":{"acq_date":"2026-08-25","acq_time":858,"confidence":"n","satellite":"N","instrument":"VIIRS","version":"2.0NRT","bright_ti4":305.16,"frp":1.97,"daynight":"N"},"geometry":{"type":"Point","coordinates":[-116.20358,41.64511]}},{"type":"Feature","properties":{"acq_date":"2026-08-25","acq_time":858,"confidence":"n","satellite":"N","instrument":"VIIRS","version":"2.0NRT","bright_ti4":295.65,"frp":18.83,"daynight":"N"},"geometry":{"type":"Point","coordinates":[-116.18877,41.6483]}},{"type":"Feature","properties":{"acq_date":"2026-08-25","acq_time":858,"confidence":"n","satellite":"N","instrument":"VIIRS","version":"2.0NRT","bright_ti4":329.21,"frp":18.83,"daynight":"N"},"geometry":{"type":"Point","coordinates":[-116.19714,41.64858]}},{"type":"Feature","properties":{"acq_date":"2026-08-25","acq_time":858,"confidence":"h","satellite":"N","instrument":"VIIRS","version":"2.0NRT","bright_ti4":367,"frp":42.85,"daynight":"N"},"geometry":{"type":"Point","coordinates":[-116.20371,41.6488]}},{"type":"Feature","properties":{"acq_date":"2026-08-25","acq_time":858,"confidence":"n","satellite":"N","instrument":"VIIRS","version":"2.0NRT","bright_ti4":300.77,"frp":42.85,"daynight":"N"},"geometry":{"type":"Point","coordinates":[-116.20979,41.64901]}},{"type":"Feature","properties":{"acq_date":"2026-08-25","acq_time":858,"confidence":"n","satellite":"N","instrument":"VIIRS","version":"2.0NRT","bright_ti4":297.25,"frp":18.83,"daynight":"N"},"geometry":{"type":"Point","coordinates":[-116.19781,41.65452]}},{"type":"Feature","properties":{"acq_date":"2026-08-25","acq_time":858,"confidence":"n","satellite":"N","instrument":"VIIRS","version":"2.0NRT","bright_ti4":319.59,"frp":42.85,"daynight":"N"},"geometry":{"type":"Point","coordinates":[-116.2039,41.65473]}},{"type":"Feature","properties":{"acq_date":"2026-08-25","acq_time":858,"confidence":"n","satellite":"N","instrument":"VIIRS","version":"2.0NRT","bright_ti4":295.32,"frp":1.22,"daynight":"N"},"geometry":{"type":"Point","coordinates":[-120.65543,41.79383]}},{"type":"Feature","properties":{"acq_date":"2026-08-25","acq_time":858,"confidence":"n","satellite":"N","instrument":"VIIRS","version":"2.0NRT","bright_ti4":305.46,"frp":2.94,"daynight":"N"},"geometry":{"type":"Point","coordinates":[-120.65524,41.80061]}},{"type":"Feature","properties":{"acq_date":"2026-08-25","acq_time":858,"confidence":"n","satellite":"N","instrument":"VIIRS","version":"2.0NRT","bright_ti4":295.26,"frp":1.45,"daynight":"N"},"geometry":{"type":"Point","coordinates":[-120.64551,41.80062]}},{"type":"Feature","properties":{"acq_date":"2026-08-25","acq_time":858,"confidence":"n","satellite":"N","instrument":"VIIRS","version":"2.0NRT","bright_ti4":307.57,"frp":1.96,"daynight":"N"},"geometry":{"type":"Point","coordinates":[-120.65529,41.80112]}},{"type":"Feature","properties":{"acq_date":"2026-08-25","acq_time":858,"confidence":"n","satellite":"N","instrument":"VIIRS","version":"2.0NRT","bright_ti4":298.79,"frp":2.98,"daynight":"N"},"geometry":{"type":"Point","coordinates":[-115.90701,41.82355]}},{"type":"Feature","properties":{"acq_date":"2026-08-25","acq_time":858,"confidence":"n","satellite":"N","instrument":"VIIRS","version":"2.0NRT","bright_ti4":319.14,"frp":2.98,"daynight":"N"},"geometry":{"type":"Point","coordinates":[-115.91245,41.82375]}},{"type":"Feature","properties":{"acq_date":"2026-08-25","acq_time":858,"confidence":"n","satellite":"N","instrument":"VIIRS","version":"2.0NRT","bright_ti4":334.43,"frp":4.21,"daynight":"N"},"geometry":{"type":"Point","coordinates":[-115.91814,41.82395]}},{"type":"Feature","properties":{"acq_date":"2026-08-25","acq_time":858,"confidence":"n","satellite":"N","instrument":"VIIRS","version":"2.0NRT","bright_ti4":321.84,"frp":4.21,"daynight":"N"},"geometry":{"type":"Point","coordinates":[-115.92406,41.82415]}},{"type":"Feature","properties":{"acq_date":"2026-08-25","acq_time":858,"confidence":"n","satellite":"N","instrument":"VIIRS","version":"2.0NRT","bright_ti4":310.81,"frp":2.87,"daynight":"N"},"geometry":{"type":"Point","coordinates":[-115.90733,41.82418]}},{"type":"Feature","properties":{"acq_date":"2026-08-25","acq_time":858,"confidence":"n","satellite":"N","instrument":"VIIRS","version":"2.0NRT","bright_ti4":324.25,"frp":4.4,"daynight":"N"},"geometry":{"type":"Point","coordinates":[-115.91275,41.82441]}},{"type":"Feature","properties":{"acq_date":"2026-08-25","acq_time":858,"confidence":"n","satellite":"N","instrument":"VIIRS","version":"2.0NRT","bright_ti4":340.41,"frp":4.4,"daynight":"N"},"geometry":{"type":"Point","coordinates":[-115.91845,41.82463]}},{"type":"Feature","properties":{"acq_date":"2026-08-25","acq_time":858,"confidence":"n","satellite":"N","instrument":"VIIRS","version":"2.0NRT","bright_ti4":319.73,"frp":6.68,"daynight":"N"},"geometry":{"type":"Point","coordinates":[-115.92442,41.82487]}},{"type":"Feature","properties":{"acq_date":"2026-08-25","acq_time":858,"confidence":"n","satellite":"N","instrument":"VIIRS","version":"2.0NRT","bright_ti4":309.72,"frp":3.69,"daynight":"N"},"geometry":{"type":"Point","coordinates":[-115.90081,41.82918]}},{"type":"Feature","properties":{"acq_date":"2026-08-25","acq_time":858,"confidence":"n","satellite":"N","instrument":"VIIRS","version":"2.0NRT","bright_ti4":327.71,"frp":2.98,"daynight":"N"},"geometry":{"type":"Point","coordinates":[-115.90569,41.82936]}},{"type":"Feature","properties":{"acq_date":"2026-08-25","acq_time":858,"confidence":"n","satellite":"N","instrument":"VIIRS","version":"2.0NRT","bright_ti4":312.78,"frp":2.98,"daynight":"N"},"geometry":{"type":"Point","coordinates":[-115.91082,41.82954]}},{"type":"Feature","properties":{"acq_date":"2026-08-25","acq_time":858,"confidence":"n","satellite":"N","instrument":"VIIRS","version":"2.0NRT","bright_ti4":298.78,"frp":4.21,"daynight":"N"},"geometry":{"type":"Point","coordinates":[-115.9165,41.82973]}},{"type":"Feature","properties":{"acq_date":"2026-08-25","acq_time":858,"confidence":"n","satellite":"N","instrument":"VIIRS","version":"2.0NRT","bright_ti4":312.09,"frp":2.87,"daynight":"N"},"geometry":{"type":"Point","coordinates":[-115.90114,41.82978]}},{"type":"Feature","properties":{"acq_date":"2026-08-25","acq_time":858,"confidence":"n","satellite":"N","instrument":"VIIRS","version":"2.0NRT","bright_ti4":321.02,"frp":2.87,"daynight":"N"},"geometry":{"type":"Point","coordinates":[-115.90599,41.82998]}},{"type":"Feature","properties":{"acq_date":"2026-08-25","acq_time":858,"confidence":"n","satellite":"N","instrument":"VIIRS","version":"2.0NRT","bright_ti4":303.5,"frp":4.4,"daynight":"N"},"geometry":{"type":"Point","coordinates":[-115.91111,41.83018]}},{"type":"Feature","properties":{"acq_date":"2026-08-25","acq_time":900,"confidence":"n","satellite":"N","instrument":"VIIRS","version":"2.0NRT","bright_ti4":303.49,"frp":0.29,"daynight":"N"},"geometry":{"type":"Point","coordinates":[-116.06966,32.14671]}},{"type":"Feature","properties":{"acq_date":"2026-08-25","acq_time":900,"confidence":"n","satellite":"N","instrument":"VIIRS","version":"2.0NRT","bright_ti4":318.12,"frp":1.7,"daynight":"N"},"geometry":{"type":"Point","coordinates":[-116.78194,32.52687]}},{"type":"Feature","properties":{"acq_date":"2026-08-25","acq_time":900,"confidence":"n","satellite":"N","instrument":"VIIRS","version":"2.0NRT","bright_ti4":306.27,"frp":0.7,"daynight":"N"},"geometry":{"type":"Point","coordinates":[-116.88521,32.53362]}},{"type":"Feature","properties":{"acq_date":"2026-08-25","acq_time":900,"confidence":"n","satellite":"N","instrument":"VIIRS","version":"2.0NRT","bright_ti4":302.02,"frp":0.5,"daynight":"N"},"geometry":{"type":"Point","coordinates":[-117.71375,33.71383]}},{"type":"Feature","properties":{"acq_date":"2026-08-25","acq_time":900,"confidence":"n","satellite":"N","instrument":"VIIRS","version":"2.0NRT","bright_ti4":303.13,"frp":0.96,"daynight":"N"},"geometry":{"type":"Point","coordinates":[-118.23966,33.77773]}},{"type":"Feature","properties":{"acq_date":"2026-08-25","acq_time":900,"confidence":"n","satellite":"N","instrument":"VIIRS","version":"2.0NRT","bright_ti4":302.99,"frp":1.05,"daynight":"N"},"geometry":{"type":"Point","coordinates":[-118.23672,33.778]}},{"type":"Feature","properties":{"acq_date":"2026-08-25","acq_time":900,"confidence":"n","satellite":"N","instrument":"VIIRS","version":"2.0NRT","bright_ti4":303.8,"frp":0.71,"daynight":"N"},"geometry":{"type":"Point","coordinates":[-117.47379,33.79561]}},{"type":"Feature","properties":{"acq_date":"2026-08-25","acq_time":900,"confidence":"n","satellite":"N","instrument":"VIIRS","version":"2.0NRT","bright_ti4":302.79,"frp":0.51,"daynight":"N"},"geometry":{"type":"Point","coordinates":[-118.19057,34.15485]}},{"type":"Feature","properties":{"acq_date":"2026-08-25","acq_time":900,"confidence":"n","satellite":"N","instrument":"VIIRS","version":"2.0NRT","bright_ti4":302.92,"frp":0.88,"daynight":"N"},"geometry":{"type":"Point","coordinates":[-118.51772,34.33694]}},{"type":"Feature","properties":{"acq_date":"2026-08-25","acq_time":900,"confidence":"n","satellite":"N","instrument":"VIIRS","version":"2.0NRT","bright_ti4":303.47,"frp":0.83,"daynight":"N"},"geometry":{"type":"Point","coordinates":[-118.51866,34.33894]}},{"type":"Feature","properties":{"acq_date":"2026-08-25","acq_time":900,"confidence":"n","satellite":"N","instrument":"VIIRS","version":"2.0NRT","bright_ti4":305.31,"frp":0.81,"daynight":"N"},"geometry":{"type":"Point","coordinates":[-117.33809,34.60563]}},{"type":"Feature","properties":{"acq_date":"2026-08-25","acq_time":900,"confidence":"n","satellite":"N","instrument":"VIIRS","version":"2.0NRT","bright_ti4":314.55,"frp":1.75,"daynight":"N"},"geometry":{"type":"Point","coordinates":[-117.33951,34.60739]}},{"type":"Feature","properties":{"acq_date":"2026-08-25","acq_time":1038,"confidence":"n","satellite":"N","instrument":"VIIRS","version":"2.0NRT","bright_ti4":306.26,"frp":0.69,"daynight":"N"},"geometry":{"type":"Point","coordinates":[-122.02676,39.27915]}},{"type":"Feature","properties":{"acq_date":"2026-08-25","acq_time":1038,"confidence":"n","satellite":"N","instrument":"VIIRS","version":"2.0NRT","bright_ti4":299.82,"frp":0.69,"daynight":"N"},"geometry":{"type":"Point","coordinates":[-122.02538,39.28306]}},{"type":"Feature","properties":{"acq_date":"2026-08-25","acq_time":1038,"confidence":"n","satellite":"N","instrument":"VIIRS","version":"2.0NRT","bright_ti4":310.1,"frp":2.28,"daynight":"N"},"geometry":{"type":"Point","coordinates":[-119.26166,39.61988]}},{"type":"Feature","properties":{"acq_date":"2026-08-25","acq_time":1038,"confidence":"n","satellite":"N","instrument":"VIIRS","version":"2.0NRT","bright_ti4":301.78,"frp":0.94,"daynight":"N"},"geometry":{"type":"Point","coordinates":[-114.91093,39.90966]}},{"type":"Feature","properties":{"acq_date":"2026-08-25","acq_time":1038,"confidence":"n","satellite":"N","instrument":"VIIRS","version":"2.0NRT","bright_ti4":299.36,"frp":0.94,"daynight":"N"},"geometry":{"type":"Point","coordinates":[-114.91669,39.91129]}},{"type":"Feature","properties":{"acq_date":"2026-08-25","acq_time":1038,"confidence":"n","satellite":"N","instrument":"VIIRS","version":"2.0NRT","bright_ti4":309.13,"frp":2.72,"daynight":"N"},"geometry":{"type":"Point","coordinates":[-114.90415,39.91382]}},{"type":"Feature","properties":{"acq_date":"2026-08-25","acq_time":1038,"confidence":"n","satellite":"N","instrument":"VIIRS","version":"2.0NRT","bright_ti4":324.12,"frp":2.14,"daynight":"N"},"geometry":{"type":"Point","coordinates":[-114.91165,39.91594]}},{"type":"Feature","properties":{"acq_date":"2026-08-25","acq_time":1038,"confidence":"n","satellite":"N","instrument":"VIIRS","version":"2.0NRT","bright_ti4":302.81,"frp":2.14,"daynight":"N"},"geometry":{"type":"Point","coordinates":[-114.91699,39.91746]}},{"type":"Feature","properties":{"acq_date":"2026-08-25","acq_time":1038,"confidence":"n","satellite":"N","instrument":"VIIRS","version":"2.0NRT","bright_ti4":303.86,"frp":2.14,"daynight":"N"},"geometry":{"type":"Point","coordinates":[-114.91172,39.92204]}},{"type":"Feature","properties":{"acq_date":"2026-08-25","acq_time":1038,"confidence":"n","satellite":"N","instrument":"VIIRS","version":"2.0NRT","bright_ti4":310.59,"frp":1.72,"daynight":"N"},"geometry":{"type":"Point","coordinates":[-114.2578,40.82325]}},{"type":"Feature","properties":{"acq_date":"2026-08-25","acq_time":1038,"confidence":"n","satellite":"N","instrument":"VIIRS","version":"2.0NRT","bright_ti4":325.76,"frp":18.45,"daynight":"N"},"geometry":{"type":"Point","coordinates":[-117.58237,40.92882]}},{"type":"Feature","properties":{"acq_date":"2026-08-25","acq_time":1038,"confidence":"n","satellite":"N","instrument":"VIIRS","version":"2.0NRT","bright_ti4":317.91,"frp":18.45,"daynight":"N"},"geometry":{"type":"Point","coordinates":[-117.57209,40.93133]}},{"type":"Feature","properties":{"acq_date":"2026-08-25","acq_time":1038,"confidence":"n","satellite":"N","instrument":"VIIRS","version":"2.0NRT","bright_ti4":342.88,"frp":18.45,"daynight":"N"},"geometry":{"type":"Point","coordinates":[-117.5797,40.93328]}},{"type":"Feature","properties":{"acq_date":"2026-08-25","acq_time":1038,"confidence":"n","satellite":"N","instrument":"VIIRS","version":"2.0NRT","bright_ti4":303.15,"frp":1.48,"daynight":"N"},"geometry":{"type":"Point","coordinates":[-117.58127,40.94397]}},{"type":"Feature","properties":{"acq_date":"2026-08-25","acq_time":1038,"confidence":"n","satellite":"N","instrument":"VIIRS","version":"2.0NRT","bright_ti4":304.94,"frp":1.42,"daynight":"N"},"geometry":{"type":"Point","coordinates":[-117.57822,40.94833]}},{"type":"Feature","properties":{"acq_date":"2026-08-25","acq_time":1038,"confidence":"n","satellite":"N","instrument":"VIIRS","version":"2.0NRT","bright_ti4":312.03,"frp":1.93,"daynight":"N"},"geometry":{"type":"Point","coordinates":[-117.96528,41.12856]}},{"type":"Feature","properties":{"acq_date":"2026-08-25","acq_time":1038,"confidence":"n","satellite":"N","instrument":"VIIRS","version":"2.0NRT","bright_ti4":307.73,"frp":0.99,"daynight":"N"},"geometry":{"type":"Point","coordinates":[-117.98567,41.1337]}},{"type":"Feature","properties":{"acq_date":"2026-08-25","acq_time":1038,"confidence":"n","satellite":"N","instrument":"VIIRS","version":"2.0NRT","bright_ti4":339.66,"frp":4.02,"daynight":"N"},"geometry":{"type":"Point","coordinates":[-117.99232,41.13538]}},{"type":"Feature","properties":{"acq_date":"2026-08-25","acq_time":1038,"confidence":"n","satellite":"N","instrument":"VIIRS","version":"2.0NRT","bright_ti4":295.31,"frp":0.52,"daynight":"N"},"geometry":{"type":"Point","coordinates":[-117.96174,41.13769]}},{"type":"Feature","properties":{"acq_date":"2026-08-25","acq_time":1038,"confidence":"n","satellite":"N","instrument":"VIIRS","version":"2.0NRT","bright_ti4":295.9,"frp":4.02,"daynight":"N"},"geometry":{"type":"Point","coordinates":[-117.99048,41.13992]}},{"type":"Feature","properties":{"acq_date":"2026-08-25","acq_time":1038,"confidence":"n","satellite":"N","instrument":"VIIRS","version":"2.0NRT","bright_ti4":297.8,"frp":0.52,"daynight":"N"},"geometry":{"type":"Point","coordinates":[-117.95934,41.1421]}},{"type":"Feature","properties":{"acq_date":"2026-08-25","acq_time":1038,"confidence":"n","satellite":"N","instrument":"VIIRS","version":"2.0NRT","bright_ti4":319.37,"frp":1.37,"daynight":"N"},"geometry":{"type":"Point","coordinates":[-117.98165,41.14271]}},{"type":"Feature","properties":{"acq_date":"2026-08-25","acq_time":1038,"confidence":"n","satellite":"N","instrument":"VIIRS","version":"2.0NRT","bright_ti4":338.17,"frp":7.83,"daynight":"N"},"geometry":{"type":"Point","coordinates":[-117.95032,41.14485]}},{"type":"Feature","properties":{"acq_date":"2026-08-25","acq_time":1038,"confidence":"n","satellite":"N","instrument":"VIIRS","version":"2.0NRT","bright_ti4":341.73,"frp":13.46,"daynight":"N"},"geometry":{"type":"Point","coordinates":[-117.95707,41.14655]}},{"type":"Feature","properties":{"acq_date":"2026-08-25","acq_time":1038,"confidence":"n","satellite":"N","instrument":"VIIRS","version":"2.0NRT","bright_ti4":295.06,"frp":1.37,"daynight":"N"},"geometry":{"type":"Point","coordinates":[-117.97952,41.14718]}},{"type":"Feature","properties":{"acq_date":"2026-08-25","acq_time":1038,"confidence":"n","satellite":"N","instrument":"VIIRS","version":"2.0NRT","bright_ti4":295.62,"frp":0.81,"daynight":"N"},"geometry":{"type":"Point","coordinates":[-117.9864,41.14891]}},{"type":"Feature","properties":{"acq_date":"2026-08-25","acq_time":1038,"confidence":"n","satellite":"N","instrument":"VIIRS","version":"2.0NRT","bright_ti4":307.56,"frp":1.64,"daynight":"N"},"geometry":{"type":"Point","coordinates":[-117.95979,41.15725]}},{"type":"Feature","properties":{"acq_date":"2026-08-25","acq_time":1038,"confidence":"n","satellite":"N","instrument":"VIIRS","version":"2.0NRT","bright_ti4":305.38,"frp":3.49,"daynight":"N"},"geometry":{"type":"Point","coordinates":[-114.96453,41.19657]}},{"type":"Feature","properties":{"acq_date":"2026-08-25","acq_time":1038,"confidence":"n","satellite":"N","instrument":"VIIRS","version":"2.0NRT","bright_ti4":331.89,"frp":3.49,"daynight":"N"},"geometry":{"type":"Point","coordinates":[-114.96845,41.19766]}},{"type":"Feature","properties":{"acq_date":"2026-08-25","acq_time":1038,"confidence":"h","satellite":"N","instrument":"VIIRS","version":"2.0NRT","bright_ti4":367,"frp":9.07,"daynight":"N"},"geometry":{"type":"Point","coordinates":[-114.95838,41.20073]}},{"type":"Feature","properties":{"acq_date":"2026-08-25","acq_time":1038,"confidence":"n","satellite":"N","instrument":"VIIRS","version":"2.0NRT","bright_ti4":304.24,"frp":3.49,"daynight":"N"},"geometry":{"type":"Point","coordinates":[-114.96222,41.20179]}},{"type":"Feature","properties":{"acq_date":"2026-08-25","acq_time":1038,"confidence":"n","satellite":"N","instrument":"VIIRS","version":"2.0NRT","bright_ti4":326.62,"frp":5.7,"daynight":"N"},"geometry":{"type":"Point","coordinates":[-114.95573,41.20186]}},{"type":"Feature","properties":{"acq_date":"2026-08-25","acq_time":1038,"confidence":"n","satellite":"N","instrument":"VIIRS","version":"2.0NRT","bright_ti4":353.92,"frp":5.7,"daynight":"N"},"geometry":{"type":"Point","coordinates":[-114.95956,41.20295]}},{"type":"Feature","properties":{"acq_date":"2026-08-25","acq_time":1038,"confidence":"n","satellite":"N","instrument":"VIIRS","version":"2.0NRT","bright_ti4":316.13,"frp":1.29,"daynight":"N"},"geometry":{"type":"Point","coordinates":[-114.9557,41.20585]}},{"type":"Feature","properties":{"acq_date":"2026-08-25","acq_time":1038,"confidence":"n","satellite":"N","instrument":"VIIRS","version":"2.0NRT","bright_ti4":320.16,"frp":4.45,"daynight":"N"},"geometry":{"type":"Point","coordinates":[-114.90789,41.24714]}},{"type":"Feature","properties":{"acq_date":"2026-08-25","acq_time":1038,"confidence":"n","satellite":"N","instrument":"VIIRS","version":"2.0NRT","bright_ti4":329.18,"frp":2.48,"daynight":"N"},"geometry":{"type":"Point","coordinates":[-114.91229,41.24837]}},{"type":"Feature","properties":{"acq_date":"2026-08-25","acq_time":1038,"confidence":"n","satellite":"N","instrument":"VIIRS","version":"2.0NRT","bright_ti4":306.94,"frp":2.48,"daynight":"N"},"geometry":{"type":"Point","coordinates":[-114.90822,41.25311]}},{"type":"Feature","properties":{"acq_date":"2026-08-25","acq_time":1038,"confidence":"n","satellite":"N","instrument":"VIIRS","version":"2.0NRT","bright_ti4":306.63,"frp":2.48,"daynight":"N"},"geometry":{"type":"Point","coordinates":[-114.91232,41.25426]}},{"type":"Feature","properties":{"acq_date":"2026-08-25","acq_time":1038,"confidence":"n","satellite":"N","instrument":"VIIRS","version":"2.0NRT","bright_ti4":298.09,"frp":1.4,"daynight":"N"},"geometry":{"type":"Point","coordinates":[-119.89423,41.61372]}},{"type":"Feature","properties":{"acq_date":"2026-08-25","acq_time":1038,"confidence":"n","satellite":"N","instrument":"VIIRS","version":"2.0NRT","bright_ti4":298.09,"frp":1.31,"daynight":"N"},"geometry":{"type":"Point","coordinates":[-119.89996,41.61505]}},{"type":"Feature","properties":{"acq_date":"2026-08-25","acq_time":1038,"confidence":"n","satellite":"N","instrument":"VIIRS","version":"2.0NRT","bright_ti4":305.58,"frp":1.31,"daynight":"N"},"geometry":{"type":"Point","coordinates":[-119.9055,41.61633]}},{"type":"Feature","properties":{"acq_date":"2026-08-25","acq_time":1038,"confidence":"n","satellite":"N","instrument":"VIIRS","version":"2.0NRT","bright_ti4":308.1,"frp":1.4,"daynight":"N"},"geometry":{"type":"Point","coordinates":[-119.89242,41.61777]}},{"type":"Feature","properties":{"acq_date":"2026-08-25","acq_time":1038,"confidence":"n","satellite":"N","instrument":"VIIRS","version":"2.0NRT","bright_ti4":309.07,"frp":1.31,"daynight":"N"},"geometry":{"type":"Point","coordinates":[-119.89816,41.61909]}},{"type":"Feature","properties":{"acq_date":"2026-08-25","acq_time":1038,"confidence":"n","satellite":"N","instrument":"VIIRS","version":"2.0NRT","bright_ti4":340.18,"frp":26.47,"daynight":"N"},"geometry":{"type":"Point","coordinates":[-116.20113,41.64495]}},{"type":"Feature","properties":{"acq_date":"2026-08-25","acq_time":1038,"confidence":"h","satellite":"N","instrument":"VIIRS","version":"2.0NRT","bright_ti4":367,"frp":26.47,"daynight":"N"},"geometry":{"type":"Point","coordinates":[-116.20444,41.64583]}},{"type":"Feature","properties":{"acq_date":"2026-08-25","acq_time":1038,"confidence":"h","satellite":"N","instrument":"VIIRS","version":"2.0NRT","bright_ti4":367,"frp":78.67,"daynight":"N"},"geometry":{"type":"Point","coordinates":[-116.20789,41.64674]}},{"type":"Feature","properties":{"acq_date":"2026-08-25","acq_time":1038,"confidence":"h","satellite":"N","instrument":"VIIRS","version":"2.0NRT","bright_ti4":367,"frp":78.67,"daynight":"N"},"geometry":{"type":"Point","coordinates":[-116.21142,41.64767]}},{"type":"Feature","properties":{"acq_date":"2026-08-25","acq_time":1038,"confidence":"n","satellite":"N","instrument":"VIIRS","version":"2.0NRT","bright_ti4":308.47,"frp":26.51,"daynight":"N"},"geometry":{"type":"Point","coordinates":[-116.215,41.64862]}},{"type":"Feature","properties":{"acq_date":"2026-08-25","acq_time":1038,"confidence":"n","satellite":"N","instrument":"VIIRS","version":"2.0NRT","bright_ti4":298.49,"frp":2.22,"daynight":"N"},"geometry":{"type":"Point","coordinates":[-116.19533,41.64885]}},{"type":"Feature","properties":{"acq_date":"2026-08-25","acq_time":1038,"confidence":"n","satellite":"N","instrument":"VIIRS","version":"2.0NRT","bright_ti4":344.53,"frp":26.47,"daynight":"N"},"geometry":{"type":"Point","coordinates":[-116.19846,41.64968]}},{"type":"Feature","properties":{"acq_date":"2026-08-25","acq_time":1038,"confidence":"n","satellite":"N","instrument":"VIIRS","version":"2.0NRT","bright_ti4":334.9,"frp":26.47,"daynight":"N"},"geometry":{"type":"Point","coordinates":[-116.20184,41.65057]}},{"type":"Feature","properties":{"acq_date":"2026-08-25","acq_time":1038,"confidence":"n","satellite":"N","instrument":"VIIRS","version":"2.0NRT","bright_ti4":331.01,"frp":78.67,"daynight":"N"},"geometry":{"type":"Point","coordinates":[-116.20896,41.65245]}},{"type":"Feature","properties":{"acq_date":"2026-08-25","acq_time":1038,"confidence":"n","satellite":"N","instrument":"VIIRS","version":"2.0NRT","bright_ti4":332.66,"frp":26.51,"daynight":"N"},"geometry":{"type":"Point","coordinates":[-116.21259,41.65341]}},{"type":"Feature","properties":{"acq_date":"2026-08-25","acq_time":1038,"confidence":"n","satellite":"N","instrument":"VIIRS","version":"2.0NRT","bright_ti4":295.65,"frp":26.51,"daynight":"N"},"geometry":{"type":"Point","coordinates":[-116.21624,41.65437]}},{"type":"Feature","properties":{"acq_date":"2026-08-25","acq_time":1038,"confidence":"n","satellite":"N","instrument":"VIIRS","version":"2.0NRT","bright_ti4":295.07,"frp":0.57,"daynight":"N"},"geometry":{"type":"Point","coordinates":[-116.20284,41.6599]}},{"type":"Feature","properties":{"acq_date":"2026-08-25","acq_time":1038,"confidence":"n","satellite":"N","instrument":"VIIRS","version":"2.0NRT","bright_ti4":314.43,"frp":1.33,"daynight":"N"},"geometry":{"type":"Point","coordinates":[-120.65587,41.79531]}},{"type":"Feature","properties":{"acq_date":"2026-08-25","acq_time":1038,"confidence":"n","satellite":"N","instrument":"VIIRS","version":"2.0NRT","bright_ti4":305.7,"frp":1.33,"daynight":"N"},"geometry":{"type":"Point","coordinates":[-120.6543,41.79924]}},{"type":"Feature","properties":{"acq_date":"2026-08-25","acq_time":1038,"confidence":"n","satellite":"N","instrument":"VIIRS","version":"2.0NRT","bright_ti4":299.72,"frp":1.11,"daynight":"N"},"geometry":{"type":"Point","coordinates":[-115.92326,41.82119]}},{"type":"Feature","properties":{"acq_date":"2026-08-25","acq_time":1038,"confidence":"n","satellite":"N","instrument":"VIIRS","version":"2.0NRT","bright_ti4":299.37,"frp":1.88,"daynight":"N"},"geometry":{"type":"Point","coordinates":[-115.90596,41.82199]}},{"type":"Feature","properties":{"acq_date":"2026-08-25","acq_time":1038,"confidence":"n","satellite":"N","instrument":"VIIRS","version":"2.0NRT","bright_ti4":317.96,"frp":1.11,"daynight":"N"},"geometry":{"type":"Point","coordinates":[-115.92686,41.82217]}},{"type":"Feature","properties":{"acq_date":"2026-08-25","acq_time":1038,"confidence":"n","satellite":"N","instrument":"VIIRS","version":"2.0NRT","bright_ti4":325.15,"frp":1.88,"daynight":"N"},"geometry":{"type":"Point","coordinates":[-115.90987,41.82306]}},{"type":"Feature","properties":{"acq_date":"2026-08-25","acq_time":1038,"confidence":"n","satellite":"N","instrument":"VIIRS","version":"2.0NRT","bright_ti4":301.03,"frp":2,"daynight":"N"},"geometry":{"type":"Point","coordinates":[-115.93059,41.82318]}},{"type":"Feature","properties":{"acq_date":"2026-08-25","acq_time":1038,"confidence":"n","satellite":"N","instrument":"VIIRS","version":"2.0NRT","bright_ti4":319.43,"frp":3.52,"daynight":"N"},"geometry":{"type":"Point","coordinates":[-115.91382,41.82412]}},{"type":"Feature","properties":{"acq_date":"2026-08-25","acq_time":1038,"confidence":"n","satellite":"N","instrument":"VIIRS","version":"2.0NRT","bright_ti4":328.77,"frp":3.19,"daynight":"N"},"geometry":{"type":"Point","coordinates":[-115.92393,41.82413]}},{"type":"Feature","properties":{"acq_date":"2026-08-25","acq_time":1038,"confidence":"n","satellite":"N","instrument":"VIIRS","version":"2.0NRT","bright_ti4":314.88,"frp":2.82,"daynight":"N"},"geometry":{"type":"Point","coordinates":[-115.92763,41.82512]}},{"type":"Feature","properties":{"acq_date":"2026-08-25","acq_time":1038,"confidence":"n","satellite":"N","instrument":"VIIRS","version":"2.0NRT","bright_ti4":298.79,"frp":1.11,"daynight":"N"},"geometry":{"type":"Point","coordinates":[-115.92134,41.82617]}},{"type":"Feature","properties":{"acq_date":"2026-08-25","acq_time":1038,"confidence":"n","satellite":"N","instrument":"VIIRS","version":"2.0NRT","bright_ti4":298.48,"frp":1.12,"daynight":"N"},"geometry":{"type":"Point","coordinates":[-115.90402,41.82697]}},{"type":"Feature","properties":{"acq_date":"2026-08-25","acq_time":1038,"confidence":"n","satellite":"N","instrument":"VIIRS","version":"2.0NRT","bright_ti4":312,"frp":1.11,"daynight":"N"},"geometry":{"type":"Point","coordinates":[-115.92499,41.82716]}},{"type":"Feature","properties":{"acq_date":"2026-08-25","acq_time":1038,"confidence":"n","satellite":"N","instrument":"VIIRS","version":"2.0NRT","bright_ti4":314.97,"frp":1.12,"daynight":"N"},"geometry":{"type":"Point","coordinates":[-115.90817,41.82809]}},{"type":"Feature","properties":{"acq_date":"2026-08-25","acq_time":1038,"confidence":"n","satellite":"N","instrument":"VIIRS","version":"2.0NRT","bright_ti4":296.2,"frp":1.08,"daynight":"N"},"geometry":{"type":"Point","coordinates":[-115.91232,41.82922]}},{"type":"Feature","properties":{"acq_date":"2026-08-25","acq_time":1038,"confidence":"n","satellite":"N","instrument":"VIIRS","version":"2.0NRT","bright_ti4":297.21,"frp":1.58,"daynight":"N"},"geometry":{"type":"Point","coordinates":[-121.66015,42.41455]}},{"type":"Feature","properties":{"acq_date":"2026-08-25","acq_time":1038,"confidence":"n","satellite":"N","instrument":"VIIRS","version":"2.0NRT","bright_ti4":297.82,"frp":0.94,"daynight":"N"},"geometry":{"type":"Point","coordinates":[-121.66713,42.4147]}},{"type":"Feature","properties":{"acq_date":"2026-08-25","acq_time":1038,"confidence":"n","satellite":"N","instrument":"VIIRS","version":"2.0NRT","bright_ti4":305.08,"frp":1.35,"daynight":"N"},"geometry":{"type":"Point","coordinates":[-121.6665,42.41587]}},{"type":"Feature","properties":{"acq_date":"2026-08-25","acq_time":1038,"confidence":"n","satellite":"N","instrument":"VIIRS","version":"2.0NRT","bright_ti4":299.27,"frp":0.68,"daynight":"N"},"geometry":{"type":"Point","coordinates":[-121.67323,42.41599]}},{"type":"Feature","properties":{"acq_date":"2026-08-25","acq_time":1038,"confidence":"n","satellite":"N","instrument":"VIIRS","version":"2.0NRT","bright_ti4":307.4,"frp":1.35,"daynight":"N"},"geometry":{"type":"Point","coordinates":[-121.67268,42.41716]}},{"type":"Feature","properties":{"acq_date":"2026-08-25","acq_time":1038,"confidence":"n","satellite":"N","instrument":"VIIRS","version":"2.0NRT","bright_ti4":310.9,"frp":1.62,"daynight":"N"},"geometry":{"type":"Point","coordinates":[-121.665,42.41825]}},{"type":"Feature","properties":{"acq_date":"2026-08-25","acq_time":1038,"confidence":"n","satellite":"N","instrument":"VIIRS","version":"2.0NRT","bright_ti4":308.09,"frp":1.46,"daynight":"N"},"geometry":{"type":"Point","coordinates":[-121.67123,42.41959]}},{"type":"Feature","properties":{"acq_date":"2026-08-25","acq_time":1038,"confidence":"n","satellite":"N","instrument":"VIIRS","version":"2.0NRT","bright_ti4":301.65,"frp":1.46,"daynight":"N"},"geometry":{"type":"Point","coordinates":[-121.67754,42.42093]}},{"type":"Feature","properties":{"acq_date":"2026-08-25","acq_time":1038,"confidence":"n","satellite":"N","instrument":"VIIRS","version":"2.0NRT","bright_ti4":299.51,"frp":1.62,"daynight":"N"},"geometry":{"type":"Point","coordinates":[-121.66284,42.42181]}},{"type":"Feature","properties":{"acq_date":"2026-08-25","acq_time":1038,"confidence":"n","satellite":"N","instrument":"VIIRS","version":"2.0NRT","bright_ti4":302,"frp":1.46,"daynight":"N"},"geometry":{"type":"Point","coordinates":[-121.67558,42.42453]}},{"type":"Feature","properties":{"acq_date":"2026-08-25","acq_time":1038,"confidence":"n","satellite":"N","instrument":"VIIRS","version":"2.0NRT","bright_ti4":307.69,"frp":2.15,"daynight":"N"},"geometry":{"type":"Point","coordinates":[-116.79943,42.83922]}},{"type":"Feature","properties":{"acq_date":"2026-08-25","acq_time":1038,"confidence":"n","satellite":"N","instrument":"VIIRS","version":"2.0NRT","bright_ti4":308.94,"frp":1.61,"daynight":"N"},"geometry":{"type":"Point","coordinates":[-116.79951,42.8399]}},{"type":"Feature","properties":{"acq_date":"2026-08-25","acq_time":1038,"confidence":"n","satellite":"N","instrument":"VIIRS","version":"2.0NRT","bright_ti4":301.04,"frp":0.76,"daynight":"N"},"geometry":{"type":"Point","coordinates":[-116.76226,42.84]}},{"type":"Feature","properties":{"acq_date":"2026-08-25","acq_time":1038,"confidence":"n","satellite":"N","instrument":"VIIRS","version":"2.0NRT","bright_ti4":302.24,"frp":1.26,"daynight":"N"},"geometry":{"type":"Point","coordinates":[-116.78386,42.84037]}},{"type":"Feature","properties":{"acq_date":"2026-08-25","acq_time":1038,"confidence":"n","satellite":"N","instrument":"VIIRS","version":"2.0NRT","bright_ti4":302.39,"frp":1.25,"daynight":"N"},"geometry":{"type":"Point","coordinates":[-116.76247,42.84051]}},{"type":"Feature","properties":{"acq_date":"2026-08-25","acq_time":1038,"confidence":"n","satellite":"N","instrument":"VIIRS","version":"2.0NRT","bright_ti4":303.54,"frp":1.85,"daynight":"N"},"geometry":{"type":"Point","coordinates":[-116.784,42.84098]}},{"type":"Feature","properties":{"acq_date":"2026-08-25","acq_time":1038,"confidence":"n","satellite":"N","instrument":"VIIRS","version":"2.0NRT","bright_ti4":304.05,"frp":1.26,"daynight":"N"},"geometry":{"type":"Point","coordinates":[-116.79067,42.84209]}},{"type":"Feature","properties":{"acq_date":"2026-08-25","acq_time":1038,"confidence":"n","satellite":"N","instrument":"VIIRS","version":"2.0NRT","bright_ti4":303.09,"frp":1.14,"daynight":"N"},"geometry":{"type":"Point","coordinates":[-116.79079,42.84275]}},{"type":"Feature","properties":{"acq_date":"2026-08-25","acq_time":1038,"confidence":"n","satellite":"N","instrument":"VIIRS","version":"2.0NRT","bright_ti4":295.86,"frp":1.29,"daynight":"N"},"geometry":{"type":"Point","coordinates":[-116.75383,42.84339]}},{"type":"Feature","properties":{"acq_date":"2026-08-25","acq_time":1038,"confidence":"n","satellite":"N","instrument":"VIIRS","version":"2.0NRT","bright_ti4":303.68,"frp":2.13,"daynight":"N"},"geometry":{"type":"Point","coordinates":[-116.79753,42.84383]}},{"type":"Feature","properties":{"acq_date":"2026-08-25","acq_time":1038,"confidence":"n","satellite":"N","instrument":"VIIRS","version":"2.0NRT","bright_ti4":299.53,"frp":1.91,"daynight":"N"},"geometry":{"type":"Point","coordinates":[-116.81905,42.84418]}},{"type":"Feature","properties":{"acq_date":"2026-08-25","acq_time":1038,"confidence":"n","satellite":"N","instrument":"VIIRS","version":"2.0NRT","bright_ti4":301.78,"frp":1.14,"daynight":"N"},"geometry":{"type":"Point","coordinates":[-116.7976,42.84452]}},{"type":"Feature","properties":{"acq_date":"2026-08-25","acq_time":1038,"confidence":"n","satellite":"N","instrument":"VIIRS","version":"2.0NRT","bright_ti4":299.29,"frp":1.19,"daynight":"N"},"geometry":{"type":"Point","coordinates":[-116.81899,42.84496]}},{"type":"Feature","properties":{"acq_date":"2026-08-25","acq_time":1038,"confidence":"n","satellite":"N","instrument":"VIIRS","version":"2.0NRT","bright_ti4":297.91,"frp":1.26,"daynight":"N"},"geometry":{"type":"Point","coordinates":[-116.78873,42.8467]}},{"type":"Feature","properties":{"acq_date":"2026-08-25","acq_time":1038,"confidence":"n","satellite":"N","instrument":"VIIRS","version":"2.0NRT","bright_ti4":297.75,"frp":1.14,"daynight":"N"},"geometry":{"type":"Point","coordinates":[-116.78886,42.84736]}},{"type":"Feature","properties":{"acq_date":"2026-08-25","acq_time":1038,"confidence":"n","satellite":"N","instrument":"VIIRS","version":"2.0NRT","bright_ti4":308.17,"frp":1.29,"daynight":"N"},"geometry":{"type":"Point","coordinates":[-116.75184,42.84799]}},{"type":"Feature","properties":{"acq_date":"2026-08-25","acq_time":1038,"confidence":"n","satellite":"N","instrument":"VIIRS","version":"2.0NRT","bright_ti4":310.42,"frp":2.26,"daynight":"N"},"geometry":{"type":"Point","coordinates":[-116.74299,42.85082]}},{"type":"Feature","properties":{"acq_date":"2026-08-25","acq_time":1038,"confidence":"n","satellite":"N","instrument":"VIIRS","version":"2.0NRT","bright_ti4":309.3,"frp":1.4,"daynight":"N"},"geometry":{"type":"Point","coordinates":[-116.80002,42.85536]}},{"type":"Feature","properties":{"acq_date":"2026-08-25","acq_time":1038,"confidence":"n","satellite":"N","instrument":"VIIRS","version":"2.0NRT","bright_ti4":303.2,"frp":1.4,"daynight":"N"},"geometry":{"type":"Point","coordinates":[-116.80651,42.85704]}},{"type":"Feature","properties":{"acq_date":"2026-08-25","acq_time":1038,"confidence":"n","satellite":"N","instrument":"VIIRS","version":"2.0NRT","bright_ti4":298.42,"frp":1.4,"daynight":"N"},"geometry":{"type":"Point","coordinates":[-116.79813,42.85998]}},{"type":"Feature","properties":{"acq_date":"2026-08-25","acq_time":1038,"confidence":"n","satellite":"N","instrument":"VIIRS","version":"2.0NRT","bright_ti4":296.36,"frp":2.08,"daynight":"N"},"geometry":{"type":"Point","coordinates":[-116.73673,42.86456]}},{"type":"Feature","properties":{"acq_date":"2026-08-25","acq_time":1038,"confidence":"n","satellite":"N","instrument":"VIIRS","version":"2.0NRT","bright_ti4":315.74,"frp":1.13,"daynight":"N"},"geometry":{"type":"Point","coordinates":[-113.88305,42.97002]}},{"type":"Feature","properties":{"acq_date":"2026-08-25","acq_time":1038,"confidence":"n","satellite":"N","instrument":"VIIRS","version":"2.0NRT","bright_ti4":302.46,"frp":1.13,"daynight":"N"},"geometry":{"type":"Point","coordinates":[-113.88759,42.97132]}},{"type":"Feature","properties":{"acq_date":"2026-08-25","acq_time":1038,"confidence":"n","satellite":"N","instrument":"VIIRS","version":"2.0NRT","bright_ti4":298.07,"frp":0.51,"daynight":"N"},"geometry":{"type":"Point","coordinates":[-113.89211,42.97263]}},{"type":"Feature","properties":{"acq_date":"2026-08-25","acq_time":1038,"confidence":"n","satellite":"N","instrument":"VIIRS","version":"2.0NRT","bright_ti4":302.17,"frp":0.69,"daynight":"N"},"geometry":{"type":"Point","coordinates":[-113.84334,42.97637]}},{"type":"Feature","properties":{"acq_date":"2026-08-25","acq_time":1038,"confidence":"n","satellite":"N","instrument":"VIIRS","version":"2.0NRT","bright_ti4":296.06,"frp":0.72,"daynight":"N"},"geometry":{"type":"Point","coordinates":[-113.88498,42.9765]}},{"type":"Feature","properties":{"acq_date":"2026-08-25","acq_time":1038,"confidence":"n","satellite":"N","instrument":"VIIRS","version":"2.0NRT","bright_ti4":302.41,"frp":0.71,"daynight":"N"},"geometry":{"type":"Point","coordinates":[-113.88951,42.97781]}},{"type":"Feature","properties":{"acq_date":"2026-08-25","acq_time":1038,"confidence":"n","satellite":"N","instrument":"VIIRS","version":"2.0NRT","bright_ti4":295.9,"frp":0.71,"daynight":"N"},"geometry":{"type":"Point","coordinates":[-113.89401,42.9791]}},{"type":"Feature","properties":{"acq_date":"2026-08-25","acq_time":1038,"confidence":"n","satellite":"N","instrument":"VIIRS","version":"2.0NRT","bright_ti4":296.6,"frp":0.66,"daynight":"N"},"geometry":{"type":"Point","coordinates":[-113.90042,42.98686]}},{"type":"Feature","properties":{"acq_date":"2026-08-25","acq_time":1038,"confidence":"n","satellite":"N","instrument":"VIIRS","version":"2.0NRT","bright_ti4":308.1,"frp":2.2,"daynight":"N"},"geometry":{"type":"Point","coordinates":[-113.87257,43.02027]}},{"type":"Feature","properties":{"acq_date":"2026-08-25","acq_time":1038,"confidence":"n","satellite":"N","instrument":"VIIRS","version":"2.0NRT","bright_ti4":332.09,"frp":2.2,"daynight":"N"},"geometry":{"type":"Point","coordinates":[-113.8699,43.02542]}},{"type":"Feature","properties":{"acq_date":"2026-08-25","acq_time":1038,"confidence":"n","satellite":"N","instrument":"VIIRS","version":"2.0NRT","bright_ti4":296.76,"frp":1,"daynight":"N"},"geometry":{"type":"Point","coordinates":[-113.86271,43.02928]}},{"type":"Feature","properties":{"acq_date":"2026-08-25","acq_time":1038,"confidence":"n","satellite":"N","instrument":"VIIRS","version":"2.0NRT","bright_ti4":312.39,"frp":1,"daynight":"N"},"geometry":{"type":"Point","coordinates":[-113.86723,43.03057]}},{"type":"Feature","properties":{"acq_date":"2026-08-25","acq_time":1041,"confidence":"n","satellite":"N","instrument":"VIIRS","version":"2.0NRT","bright_ti4":299.77,"frp":0.57,"daynight":"N"},"geometry":{"type":"Point","coordinates":[-117.61415,33.48958]}},{"type":"Feature","properties":{"acq_date":"2026-08-25","acq_time":1041,"confidence":"n","satellite":"N","instrument":"VIIRS","version":"2.0NRT","bright_ti4":303.15,"frp":0.95,"daynight":"N"},"geometry":{"type":"Point","coordinates":[-117.47464,33.79137]}},{"type":"Feature","properties":{"acq_date":"2026-08-25","acq_time":1041,"confidence":"n","satellite":"N","instrument":"VIIRS","version":"2.0NRT","bright_ti4":303.09,"frp":1.16,"daynight":"N"},"geometry":{"type":"Point","coordinates":[-118.2384,33.81859]}},{"type":"Feature","properties":{"acq_date":"2026-08-25","acq_time":1041,"confidence":"n","satellite":"N","instrument":"VIIRS","version":"2.0NRT","bright_ti4":306.33,"frp":1.32,"daynight":"N"},"geometry":{"type":"Point","coordinates":[-118.24214,33.81888]}},{"type":"Feature","properties":{"acq_date":"2026-08-25","acq_time":1041,"confidence":"n","satellite":"N","instrument":"VIIRS","version":"2.0NRT","bright_ti4":304.45,"frp":0.62,"daynight":"N"},"geometry":{"type":"Point","coordinates":[-118.64301,34.43175]}},{"type":"Feature","properties":{"acq_date":"2026-08-25","acq_time":1041,"confidence":"n","satellite":"N","instrument":"VIIRS","version":"2.0NRT","bright_ti4":318.07,"frp":1.76,"daynight":"N"},"geometry":{"type":"Point","coordinates":[-117.3362,34.60791]}},{"type":"Feature","properties":{"acq_date":"2026-08-25","acq_time":1041,"confidence":"n","satellite":"N","instrument":"VIIRS","version":"2.0NRT","bright_ti4":305.97,"frp":1.68,"daynight":"N"},"geometry":{"type":"Point","coordinates":[-117.1025,34.62457]}},{"type":"Feature","properties":{"acq_date":"2026-08-25","acq_time":1041,"confidence":"n","satellite":"N","instrument":"VIIRS","version":"2.0NRT","bright_ti4":301.58,"frp":0.93,"daynight":"N"},"geometry":{"type":"Point","coordinates":[-119.30351,35.81465]}},{"type":"Feature","properties":{"acq_date":"2026-08-25","acq_time":1041,"confidence":"n","satellite":"N","instrument":"VIIRS","version":"2.0NRT","bright_ti4":340.01,"frp":4.04,"daynight":"N"},"geometry":{"type":"Point","coordinates":[-121.66048,36.21301]}},{"type":"Feature","properties":{"acq_date":"2026-08-25","acq_time":1041,"confidence":"n","satellite":"N","instrument":"VIIRS","version":"2.0NRT","bright_ti4":321.03,"frp":4.04,"daynight":"N"},"geometry":{"type":"Point","coordinates":[-121.65764,36.21695]}},{"type":"Feature","properties":{"acq_date":"2026-08-25","acq_time":1041,"confidence":"n","satellite":"N","instrument":"VIIRS","version":"2.0NRT","bright_ti4":332.37,"frp":4.32,"daynight":"N"},"geometry":{"type":"Point","coordinates":[-121.64976,36.21974]}},{"type":"Feature","properties":{"acq_date":"2026-08-25","acq_time":1041,"confidence":"n","satellite":"N","instrument":"VIIRS","version":"2.0NRT","bright_ti4":345.56,"frp":4.32,"daynight":"N"},"geometry":{"type":"Point","coordinates":[-121.65456,36.22083]}},{"type":"Feature","properties":{"acq_date":"2026-08-25","acq_time":1041,"confidence":"n","satellite":"N","instrument":"VIIRS","version":"2.0NRT","bright_ti4":335.38,"frp":2.95,"daynight":"N"},"geometry":{"type":"Point","coordinates":[-121.63944,36.22197]}},{"type":"Feature","properties":{"acq_date":"2026-08-25","acq_time":1041,"confidence":"n","satellite":"N","instrument":"VIIRS","version":"2.0NRT","bright_ti4":343.27,"frp":8.07,"daynight":"N"},"geometry":{"type":"Point","coordinates":[-121.65992,36.22205]}},{"type":"Feature","properties":{"acq_date":"2026-08-25","acq_time":1041,"confidence":"n","satellite":"N","instrument":"VIIRS","version":"2.0NRT","bright_ti4":303.11,"frp":2.95,"daynight":"N"},"geometry":{"type":"Point","coordinates":[-121.64389,36.22299]}},{"type":"Feature","properties":{"acq_date":"2026-08-25","acq_time":1041,"confidence":"n","satellite":"N","instrument":"VIIRS","version":"2.0NRT","bright_ti4":342.32,"frp":8.07,"daynight":"N"},"geometry":{"type":"Point","coordinates":[-121.66504,36.22323]}},{"type":"Feature","properties":{"acq_date":"2026-08-25","acq_time":1041,"confidence":"n","satellite":"N","instrument":"VIIRS","version":"2.0NRT","bright_ti4":341.69,"frp":4.32,"daynight":"N"},"geometry":{"type":"Point","coordinates":[-121.64864,36.22408]}},{"type":"Feature","properties":{"acq_date":"2026-08-25","acq_time":1041,"confidence":"n","satellite":"N","instrument":"VIIRS","version":"2.0NRT","bright_ti4":307.91,"frp":4.32,"daynight":"N"},"geometry":{"type":"Point","coordinates":[-121.6535,36.22518]}},{"type":"Feature","properties":{"acq_date":"2026-08-25","acq_time":1041,"confidence":"n","satellite":"N","instrument":"VIIRS","version":"2.0NRT","bright_ti4":303.45,"frp":1.55,"daynight":"N"},"geometry":{"type":"Point","coordinates":[-121.65125,36.23384]}},{"type":"Feature","properties":{"acq_date":"2026-08-25","acq_time":1041,"confidence":"n","satellite":"N","instrument":"VIIRS","version":"2.0NRT","bright_ti4":314.59,"frp":1.67,"daynight":"N"},"geometry":{"type":"Point","coordinates":[-121.64455,36.23692]}},{"type":"Feature","properties":{"acq_date":"2026-08-25","acq_time":1041,"confidence":"n","satellite":"N","instrument":"VIIRS","version":"2.0NRT","bright_ti4":318.57,"frp":1.67,"daynight":"N"},"geometry":{"type":"Point","coordinates":[-121.64955,36.23805]}},{"type":"Feature","properties":{"acq_date":"2026-08-25","acq_time":1041,"confidence":"n","satellite":"N","instrument":"VIIRS","version":"2.0NRT","bright_ti4":301.26,"frp":0.36,"daynight":"N"},"geometry":{"type":"Point","coordinates":[-121.73879,36.24463]}},{"type":"Feature","properties":{"acq_date":"2026-08-25","acq_time":1041,"confidence":"n","satellite":"N","instrument":"VIIRS","version":"2.0NRT","bright_ti4":304.46,"frp":0.73,"daynight":"N"},"geometry":{"type":"Point","coordinates":[-121.65604,36.24871]}},{"type":"Feature","properties":{"acq_date":"2026-08-25","acq_time":1041,"confidence":"n","satellite":"N","instrument":"VIIRS","version":"2.0NRT","bright_ti4":304.18,"frp":0.73,"daynight":"N"},"geometry":{"type":"Point","coordinates":[-121.65543,36.25315]}},{"type":"Feature","properties":{"acq_date":"2026-08-25","acq_time":1041,"confidence":"n","satellite":"N","instrument":"VIIRS","version":"2.0NRT","bright_ti4":326.93,"frp":1.81,"daynight":"N"},"geometry":{"type":"Point","coordinates":[-121.65508,36.25765]}},{"type":"Feature","properties":{"acq_date":"2026-08-25","acq_time":1041,"confidence":"n","satellite":"N","instrument":"VIIRS","version":"2.0NRT","bright_ti4":342.79,"frp":5.94,"daynight":"N"},"geometry":{"type":"Point","coordinates":[-121.7373,36.25799]}},{"type":"Feature","properties":{"acq_date":"2026-08-25","acq_time":1041,"confidence":"n","satellite":"N","instrument":"VIIRS","version":"2.0NRT","bright_ti4":306.18,"frp":4.53,"daynight":"N"},"geometry":{"type":"Point","coordinates":[-121.74194,36.25904]}},{"type":"Feature","properties":{"acq_date":"2026-08-25","acq_time":1041,"confidence":"n","satellite":"N","instrument":"VIIRS","version":"2.0NRT","bright_ti4":302.56,"frp":5.94,"daynight":"N"},"geometry":{"type":"Point","coordinates":[-121.73247,36.26145]}},{"type":"Feature","properties":{"acq_date":"2026-08-25","acq_time":1041,"confidence":"n","satellite":"N","instrument":"VIIRS","version":"2.0NRT","bright_ti4":348.87,"frp":5.94,"daynight":"N"},"geometry":{"type":"Point","coordinates":[-121.73654,36.26237]}},{"type":"Feature","properties":{"acq_date":"2026-08-25","acq_time":1041,"confidence":"n","satellite":"N","instrument":"VIIRS","version":"2.0NRT","bright_ti4":309.61,"frp":4.53,"daynight":"N"},"geometry":{"type":"Point","coordinates":[-121.74078,36.26334]}},{"type":"Feature","properties":{"acq_date":"2026-08-25","acq_time":1041,"confidence":"n","satellite":"N","instrument":"VIIRS","version":"2.0NRT","bright_ti4":338.34,"frp":6.19,"daynight":"N"},"geometry":{"type":"Point","coordinates":[-121.73128,36.26575]}},{"type":"Feature","properties":{"acq_date":"2026-08-25","acq_time":1041,"confidence":"n","satellite":"N","instrument":"VIIRS","version":"2.0NRT","bright_ti4":339.72,"frp":6.19,"daynight":"N"},"geometry":{"type":"Point","coordinates":[-121.73527,36.26665]}},{"type":"Feature","properties":{"acq_date":"2026-08-25","acq_time":1041,"confidence":"n","satellite":"N","instrument":"VIIRS","version":"2.0NRT","bright_ti4":341.11,"frp":6.19,"daynight":"N"},"geometry":{"type":"Point","coordinates":[-121.72965,36.26994]}},{"type":"Feature","properties":{"acq_date":"2026-08-25","acq_time":1041,"confidence":"n","satellite":"N","instrument":"VIIRS","version":"2.0NRT","bright_ti4":344.56,"frp":10.28,"daynight":"N"},"geometry":{"type":"Point","coordinates":[-121.72837,36.27422]}},{"type":"Feature","properties":{"acq_date":"2026-08-25","acq_time":1041,"confidence":"n","satellite":"N","instrument":"VIIRS","version":"2.0NRT","bright_ti4":329.75,"frp":5.76,"daynight":"N"},"geometry":{"type":"Point","coordinates":[-121.72312,36.2776]}},{"type":"Feature","properties":{"acq_date":"2026-08-25","acq_time":1041,"confidence":"n","satellite":"N","instrument":"VIIRS","version":"2.0NRT","bright_ti4":299.47,"frp":0.55,"daynight":"N"},"geometry":{"type":"Point","coordinates":[-121.68334,36.27777]}},{"type":"Feature","properties":{"acq_date":"2026-08-25","acq_time":1041,"confidence":"n","satellite":"N","instrument":"VIIRS","version":"2.0NRT","bright_ti4":354.86,"frp":10.28,"daynight":"N"},"geometry":{"type":"Point","coordinates":[-121.72728,36.27854]}},{"type":"Feature","properties":{"acq_date":"2026-08-25","acq_time":1041,"confidence":"n","satellite":"N","instrument":"VIIRS","version":"2.0NRT","bright_ti4":299.67,"frp":3.95,"daynight":"N"},"geometry":{"type":"Point","coordinates":[-121.71802,36.28102]}},{"type":"Feature","properties":{"acq_date":"2026-08-25","acq_time":1041,"confidence":"n","satellite":"N","instrument":"VIIRS","version":"2.0NRT","bright_ti4":351.42,"frp":3.95,"daynight":"N"},"geometry":{"type":"Point","coordinates":[-121.72214,36.28194]}},{"type":"Feature","properties":{"acq_date":"2026-08-25","acq_time":1041,"confidence":"n","satellite":"N","instrument":"VIIRS","version":"2.0NRT","bright_ti4":301.27,"frp":1.15,"daynight":"N"},"geometry":{"type":"Point","coordinates":[-121.68268,36.28219]}},{"type":"Feature","properties":{"acq_date":"2026-08-25","acq_time":1041,"confidence":"n","satellite":"N","instrument":"VIIRS","version":"2.0NRT","bright_ti4":302.08,"frp":2.86,"daynight":"N"},"geometry":{"type":"Point","coordinates":[-121.72651,36.28293]}},{"type":"Feature","properties":{"acq_date":"2026-08-25","acq_time":1041,"confidence":"n","satellite":"N","instrument":"VIIRS","version":"2.0NRT","bright_ti4":298.09,"frp":0.62,"daynight":"N"},"geometry":{"type":"Point","coordinates":[-121.71258,36.28435]}},{"type":"Feature","properties":{"acq_date":"2026-08-25","acq_time":1041,"confidence":"n","satellite":"N","instrument":"VIIRS","version":"2.0NRT","bright_ti4":299.64,"frp":1.15,"daynight":"N"},"geometry":{"type":"Point","coordinates":[-121.67681,36.28544]}},{"type":"Feature","properties":{"acq_date":"2026-08-25","acq_time":1041,"confidence":"n","satellite":"N","instrument":"VIIRS","version":"2.0NRT","bright_ti4":317.47,"frp":1.15,"daynight":"N"},"geometry":{"type":"Point","coordinates":[-121.68158,36.28651]}},{"type":"Feature","properties":{"acq_date":"2026-08-25","acq_time":1041,"confidence":"n","satellite":"N","instrument":"VIIRS","version":"2.0NRT","bright_ti4":305.53,"frp":1.08,"daynight":"N"},"geometry":{"type":"Point","coordinates":[-121.70699,36.28766]}},{"type":"Feature","properties":{"acq_date":"2026-08-25","acq_time":1041,"confidence":"n","satellite":"N","instrument":"VIIRS","version":"2.0NRT","bright_ti4":315.41,"frp":1.52,"daynight":"N"},"geometry":{"type":"Point","coordinates":[-121.69543,36.28962]}},{"type":"Feature","properties":{"acq_date":"2026-08-25","acq_time":1041,"confidence":"n","satellite":"N","instrument":"VIIRS","version":"2.0NRT","bright_ti4":305.56,"frp":1.62,"daynight":"N"},"geometry":{"type":"Point","coordinates":[-121.67952,36.29062]}},{"type":"Feature","properties":{"acq_date":"2026-08-25","acq_time":1041,"confidence":"n","satellite":"N","instrument":"VIIRS","version":"2.0NRT","bright_ti4":303.34,"frp":1.52,"daynight":"N"},"geometry":{"type":"Point","coordinates":[-121.70084,36.29084]}},{"type":"Feature","properties":{"acq_date":"2026-08-25","acq_time":1041,"confidence":"n","satellite":"N","instrument":"VIIRS","version":"2.0NRT","bright_ti4":302.94,"frp":1.08,"daynight":"N"},"geometry":{"type":"Point","coordinates":[-121.70629,36.29206]}},{"type":"Feature","properties":{"acq_date":"2026-08-25","acq_time":1041,"confidence":"n","satellite":"N","instrument":"VIIRS","version":"2.0NRT","bright_ti4":295.1,"frp":8.79,"daynight":"N"},"geometry":{"type":"Point","coordinates":[-120.70396,37.47061]}},{"type":"Feature","properties":{"acq_date":"2026-08-25","acq_time":1041,"confidence":"n","satellite":"N","instrument":"VIIRS","version":"2.0NRT","bright_ti4":342.5,"frp":8.79,"daynight":"N"},"geometry":{"type":"Point","coordinates":[-120.70236,37.47495]}},{"type":"Feature","properties":{"acq_date":"2026-08-25","acq_time":1041,"confidence":"n","satellite":"N","instrument":"VIIRS","version":"2.0NRT","bright_ti4":339.64,"frp":8.79,"daynight":"N"},"geometry":{"type":"Point","coordinates":[-120.70775,37.4762]}}]}