{"type":"FeatureCollection","name":"FIRMS VIIRS CA (last 1 day)","crs":{"type":"name","properties":{"name":"EPSG:4326"}},"fetched_at_utc":"2026-07-31T16:02:13.355Z","source":{"url":"https://firms.modaps.eosdis.nasa.gov/api/area/csv/8c4af552cf654445dd280dfb3ad9337c/VIIRS_SNPP_NRT/-125,32,-113,43.5/1","dataset":"VIIRS_SNPP_NRT","bbox":"-125,32,-113,43.5","day_range":"1"},"features":[{"type":"Feature","properties":{"acq_date":"2026-07-31","acq_time":1006,"confidence":"n","satellite":"N","instrument":"VIIRS","version":"2.0NRT","bright_ti4":299.86,"frp":1.29,"daynight":"N"},"geometry":{"type":"Point","coordinates":[-117.42856,39.58191]}},{"type":"Feature","properties":{"acq_date":"2026-07-31","acq_time":1006,"confidence":"n","satellite":"N","instrument":"VIIRS","version":"2.0NRT","bright_ti4":305.5,"frp":1.76,"daynight":"N"},"geometry":{"type":"Point","coordinates":[-117.43355,39.58284]}},{"type":"Feature","properties":{"acq_date":"2026-07-31","acq_time":1006,"confidence":"n","satellite":"N","instrument":"VIIRS","version":"2.0NRT","bright_ti4":300.23,"frp":1.02,"daynight":"N"},"geometry":{"type":"Point","coordinates":[-117.4325,39.58627]}},{"type":"Feature","properties":{"acq_date":"2026-07-31","acq_time":1006,"confidence":"n","satellite":"N","instrument":"VIIRS","version":"2.0NRT","bright_ti4":299.18,"frp":1.18,"daynight":"N"},"geometry":{"type":"Point","coordinates":[-117.39572,39.60473]}},{"type":"Feature","properties":{"acq_date":"2026-07-31","acq_time":1006,"confidence":"n","satellite":"N","instrument":"VIIRS","version":"2.0NRT","bright_ti4":298.68,"frp":0.65,"daynight":"N"},"geometry":{"type":"Point","coordinates":[-117.39468,39.60816]}},{"type":"Feature","properties":{"acq_date":"2026-07-31","acq_time":1006,"confidence":"n","satellite":"N","instrument":"VIIRS","version":"2.0NRT","bright_ti4":296.67,"frp":0.65,"daynight":"N"},"geometry":{"type":"Point","coordinates":[-117.3996,39.60908]}},{"type":"Feature","properties":{"acq_date":"2026-07-31","acq_time":1006,"confidence":"n","satellite":"N","instrument":"VIIRS","version":"2.0NRT","bright_ti4":305.24,"frp":1.97,"daynight":"N"},"geometry":{"type":"Point","coordinates":[-117.49789,39.60932]}},{"type":"Feature","properties":{"acq_date":"2026-07-31","acq_time":1006,"confidence":"n","satellite":"N","instrument":"VIIRS","version":"2.0NRT","bright_ti4":320.71,"frp":1.97,"daynight":"N"},"geometry":{"type":"Point","coordinates":[-117.5026,39.6102]}},{"type":"Feature","properties":{"acq_date":"2026-07-31","acq_time":1006,"confidence":"n","satellite":"N","instrument":"VIIRS","version":"2.0NRT","bright_ti4":299.89,"frp":0.65,"daynight":"N"},"geometry":{"type":"Point","coordinates":[-117.39365,39.61159]}},{"type":"Feature","properties":{"acq_date":"2026-07-31","acq_time":1006,"confidence":"n","satellite":"N","instrument":"VIIRS","version":"2.0NRT","bright_ti4":314.56,"frp":1.8,"daynight":"N"},"geometry":{"type":"Point","coordinates":[-117.49223,39.61188]}},{"type":"Feature","properties":{"acq_date":"2026-07-31","acq_time":1006,"confidence":"n","satellite":"N","instrument":"VIIRS","version":"2.0NRT","bright_ti4":300.5,"frp":0.65,"daynight":"N"},"geometry":{"type":"Point","coordinates":[-117.39861,39.61251]}},{"type":"Feature","properties":{"acq_date":"2026-07-31","acq_time":1006,"confidence":"n","satellite":"N","instrument":"VIIRS","version":"2.0NRT","bright_ti4":347.95,"frp":7.77,"daynight":"N"},"geometry":{"type":"Point","coordinates":[-117.49697,39.61276]}},{"type":"Feature","properties":{"acq_date":"2026-07-31","acq_time":1006,"confidence":"n","satellite":"N","instrument":"VIIRS","version":"2.0NRT","bright_ti4":345.19,"frp":7.77,"daynight":"N"},"geometry":{"type":"Point","coordinates":[-117.50167,39.61363]}},{"type":"Feature","properties":{"acq_date":"2026-07-31","acq_time":1006,"confidence":"n","satellite":"N","instrument":"VIIRS","version":"2.0NRT","bright_ti4":317.71,"frp":7.77,"daynight":"N"},"geometry":{"type":"Point","coordinates":[-117.49609,39.61621]}},{"type":"Feature","properties":{"acq_date":"2026-07-31","acq_time":1006,"confidence":"n","satellite":"N","instrument":"VIIRS","version":"2.0NRT","bright_ti4":301.49,"frp":7.77,"daynight":"N"},"geometry":{"type":"Point","coordinates":[-117.50079,39.61708]}},{"type":"Feature","properties":{"acq_date":"2026-07-31","acq_time":1006,"confidence":"n","satellite":"N","instrument":"VIIRS","version":"2.0NRT","bright_ti4":333.26,"frp":13.25,"daynight":"N"},"geometry":{"type":"Point","coordinates":[-117.50546,39.61795]}},{"type":"Feature","properties":{"acq_date":"2026-07-31","acq_time":1006,"confidence":"n","satellite":"N","instrument":"VIIRS","version":"2.0NRT","bright_ti4":317.49,"frp":1,"daynight":"N"},"geometry":{"type":"Point","coordinates":[-119.26191,39.61878]}},{"type":"Feature","properties":{"acq_date":"2026-07-31","acq_time":1006,"confidence":"n","satellite":"N","instrument":"VIIRS","version":"2.0NRT","bright_ti4":301.74,"frp":0.83,"daynight":"N"},"geometry":{"type":"Point","coordinates":[-117.38049,39.62001]}},{"type":"Feature","properties":{"acq_date":"2026-07-31","acq_time":1006,"confidence":"n","satellite":"N","instrument":"VIIRS","version":"2.0NRT","bright_ti4":304.76,"frp":1.18,"daynight":"N"},"geometry":{"type":"Point","coordinates":[-117.50458,39.62139]}},{"type":"Feature","properties":{"acq_date":"2026-07-31","acq_time":1006,"confidence":"n","satellite":"N","instrument":"VIIRS","version":"2.0NRT","bright_ti4":303.98,"frp":0.83,"daynight":"N"},"geometry":{"type":"Point","coordinates":[-117.37945,39.62343]}},{"type":"Feature","properties":{"acq_date":"2026-07-31","acq_time":1006,"confidence":"n","satellite":"N","instrument":"VIIRS","version":"2.0NRT","bright_ti4":301.55,"frp":18.6,"daynight":"N"},"geometry":{"type":"Point","coordinates":[-117.3784,39.62685]}},{"type":"Feature","properties":{"acq_date":"2026-07-31","acq_time":1006,"confidence":"n","satellite":"N","instrument":"VIIRS","version":"2.0NRT","bright_ti4":299.53,"frp":18.6,"daynight":"N"},"geometry":{"type":"Point","coordinates":[-117.38344,39.6278]}},{"type":"Feature","properties":{"acq_date":"2026-07-31","acq_time":1006,"confidence":"n","satellite":"N","instrument":"VIIRS","version":"2.0NRT","bright_ti4":307.12,"frp":9.16,"daynight":"N"},"geometry":{"type":"Point","coordinates":[-117.38847,39.62873]}},{"type":"Feature","properties":{"acq_date":"2026-07-31","acq_time":1006,"confidence":"n","satellite":"N","instrument":"VIIRS","version":"2.0NRT","bright_ti4":297.33,"frp":9.16,"daynight":"N"},"geometry":{"type":"Point","coordinates":[-117.39348,39.62965]}},{"type":"Feature","properties":{"acq_date":"2026-07-31","acq_time":1006,"confidence":"n","satellite":"N","instrument":"VIIRS","version":"2.0NRT","bright_ti4":336.97,"frp":18.6,"daynight":"N"},"geometry":{"type":"Point","coordinates":[-117.3773,39.63028]}},{"type":"Feature","properties":{"acq_date":"2026-07-31","acq_time":1006,"confidence":"n","satellite":"N","instrument":"VIIRS","version":"2.0NRT","bright_ti4":322.5,"frp":18.6,"daynight":"N"},"geometry":{"type":"Point","coordinates":[-117.38232,39.63121]}},{"type":"Feature","properties":{"acq_date":"2026-07-31","acq_time":1006,"confidence":"n","satellite":"N","instrument":"VIIRS","version":"2.0NRT","bright_ti4":301.12,"frp":1.18,"daynight":"N"},"geometry":{"type":"Point","coordinates":[-117.4031,39.63145]}},{"type":"Feature","properties":{"acq_date":"2026-07-31","acq_time":1006,"confidence":"n","satellite":"N","instrument":"VIIRS","version":"2.0NRT","bright_ti4":346.36,"frp":9.16,"daynight":"N"},"geometry":{"type":"Point","coordinates":[-117.38734,39.63214]}},{"type":"Feature","properties":{"acq_date":"2026-07-31","acq_time":1006,"confidence":"n","satellite":"N","instrument":"VIIRS","version":"2.0NRT","bright_ti4":299.39,"frp":0.81,"daynight":"N"},"geometry":{"type":"Point","coordinates":[-117.42883,39.63261]}},{"type":"Feature","properties":{"acq_date":"2026-07-31","acq_time":1006,"confidence":"n","satellite":"N","instrument":"VIIRS","version":"2.0NRT","bright_ti4":302.93,"frp":0.93,"daynight":"N"},"geometry":{"type":"Point","coordinates":[-117.44997,39.63292]}},{"type":"Feature","properties":{"acq_date":"2026-07-31","acq_time":1006,"confidence":"n","satellite":"N","instrument":"VIIRS","version":"2.0NRT","bright_ti4":313.94,"frp":9.16,"daynight":"N"},"geometry":{"type":"Point","coordinates":[-117.39232,39.63306]}},{"type":"Feature","properties":{"acq_date":"2026-07-31","acq_time":1006,"confidence":"n","satellite":"N","instrument":"VIIRS","version":"2.0NRT","bright_ti4":330.63,"frp":4.98,"daynight":"N"},"geometry":{"type":"Point","coordinates":[-117.37617,39.63369]}},{"type":"Feature","properties":{"acq_date":"2026-07-31","acq_time":1006,"confidence":"n","satellite":"N","instrument":"VIIRS","version":"2.0NRT","bright_ti4":303.51,"frp":1.18,"daynight":"N"},"geometry":{"type":"Point","coordinates":[-117.39719,39.63397]}},{"type":"Feature","properties":{"acq_date":"2026-07-31","acq_time":1006,"confidence":"n","satellite":"N","instrument":"VIIRS","version":"2.0NRT","bright_ti4":296.23,"frp":0.58,"daynight":"N"},"geometry":{"type":"Point","coordinates":[-117.41792,39.6342]}},{"type":"Feature","properties":{"acq_date":"2026-07-31","acq_time":1006,"confidence":"n","satellite":"N","instrument":"VIIRS","version":"2.0NRT","bright_ti4":301.21,"frp":0.58,"daynight":"N"},"geometry":{"type":"Point","coordinates":[-117.42287,39.63512]}},{"type":"Feature","properties":{"acq_date":"2026-07-31","acq_time":1006,"confidence":"n","satellite":"N","instrument":"VIIRS","version":"2.0NRT","bright_ti4":329.97,"frp":2.88,"daynight":"N"},"geometry":{"type":"Point","coordinates":[-117.3862,39.63555]}},{"type":"Feature","properties":{"acq_date":"2026-07-31","acq_time":1006,"confidence":"n","satellite":"N","instrument":"VIIRS","version":"2.0NRT","bright_ti4":299.51,"frp":0.63,"daynight":"N"},"geometry":{"type":"Point","coordinates":[-117.42776,39.63602]}},{"type":"Feature","properties":{"acq_date":"2026-07-31","acq_time":1006,"confidence":"n","satellite":"N","instrument":"VIIRS","version":"2.0NRT","bright_ti4":298.19,"frp":0.93,"daynight":"N"},"geometry":{"type":"Point","coordinates":[-117.44882,39.63631]}},{"type":"Feature","properties":{"acq_date":"2026-07-31","acq_time":1006,"confidence":"n","satellite":"N","instrument":"VIIRS","version":"2.0NRT","bright_ti4":295.78,"frp":0.72,"daynight":"N"},"geometry":{"type":"Point","coordinates":[-117.41188,39.6367]}},{"type":"Feature","properties":{"acq_date":"2026-07-31","acq_time":1006,"confidence":"n","satellite":"N","instrument":"VIIRS","version":"2.0NRT","bright_ti4":303.79,"frp":0.58,"daynight":"N"},"geometry":{"type":"Point","coordinates":[-117.41682,39.63761]}},{"type":"Feature","properties":{"acq_date":"2026-07-31","acq_time":1006,"confidence":"n","satellite":"N","instrument":"VIIRS","version":"2.0NRT","bright_ti4":303.47,"frp":0.58,"daynight":"N"},"geometry":{"type":"Point","coordinates":[-117.42176,39.63852]}},{"type":"Feature","properties":{"acq_date":"2026-07-31","acq_time":1006,"confidence":"n","satellite":"N","instrument":"VIIRS","version":"2.0NRT","bright_ti4":304.28,"frp":1.4,"daynight":"N"},"geometry":{"type":"Point","coordinates":[-117.49982,39.63854]}},{"type":"Feature","properties":{"acq_date":"2026-07-31","acq_time":1006,"confidence":"n","satellite":"N","instrument":"VIIRS","version":"2.0NRT","bright_ti4":303.68,"frp":0.91,"daynight":"N"},"geometry":{"type":"Point","coordinates":[-117.41072,39.6401]}},{"type":"Feature","properties":{"acq_date":"2026-07-31","acq_time":1006,"confidence":"n","satellite":"N","instrument":"VIIRS","version":"2.0NRT","bright_ti4":310.38,"frp":1.15,"daynight":"N"},"geometry":{"type":"Point","coordinates":[-117.41568,39.64102]}},{"type":"Feature","properties":{"acq_date":"2026-07-31","acq_time":1006,"confidence":"n","satellite":"N","instrument":"VIIRS","version":"2.0NRT","bright_ti4":313.07,"frp":1.15,"daynight":"N"},"geometry":{"type":"Point","coordinates":[-117.42059,39.64193]}},{"type":"Feature","properties":{"acq_date":"2026-07-31","acq_time":1006,"confidence":"n","satellite":"N","instrument":"VIIRS","version":"2.0NRT","bright_ti4":306.13,"frp":0.91,"daynight":"N"},"geometry":{"type":"Point","coordinates":[-117.40955,39.6435]}},{"type":"Feature","properties":{"acq_date":"2026-07-31","acq_time":1006,"confidence":"n","satellite":"N","instrument":"VIIRS","version":"2.0NRT","bright_ti4":309.35,"frp":1.15,"daynight":"N"},"geometry":{"type":"Point","coordinates":[-117.41452,39.64442]}},{"type":"Feature","properties":{"acq_date":"2026-07-31","acq_time":1006,"confidence":"n","satellite":"N","instrument":"VIIRS","version":"2.0NRT","bright_ti4":308.49,"frp":1.15,"daynight":"N"},"geometry":{"type":"Point","coordinates":[-117.41942,39.64533]}},{"type":"Feature","properties":{"acq_date":"2026-07-31","acq_time":1006,"confidence":"n","satellite":"N","instrument":"VIIRS","version":"2.0NRT","bright_ti4":306.57,"frp":0.53,"daynight":"N"},"geometry":{"type":"Point","coordinates":[-117.40839,39.6469]}},{"type":"Feature","properties":{"acq_date":"2026-07-31","acq_time":1006,"confidence":"n","satellite":"N","instrument":"VIIRS","version":"2.0NRT","bright_ti4":317.63,"frp":1.38,"daynight":"N"},"geometry":{"type":"Point","coordinates":[-117.41335,39.64782]}},{"type":"Feature","properties":{"acq_date":"2026-07-31","acq_time":1006,"confidence":"n","satellite":"N","instrument":"VIIRS","version":"2.0NRT","bright_ti4":299.77,"frp":1.38,"daynight":"N"},"geometry":{"type":"Point","coordinates":[-117.41827,39.64873]}},{"type":"Feature","properties":{"acq_date":"2026-07-31","acq_time":1006,"confidence":"n","satellite":"N","instrument":"VIIRS","version":"2.0NRT","bright_ti4":299.33,"frp":0.43,"daynight":"N"},"geometry":{"type":"Point","coordinates":[-117.48077,39.66748]}},{"type":"Feature","properties":{"acq_date":"2026-07-31","acq_time":1006,"confidence":"n","satellite":"N","instrument":"VIIRS","version":"2.0NRT","bright_ti4":295.85,"frp":0.34,"daynight":"N"},"geometry":{"type":"Point","coordinates":[-120.14885,39.71136]}},{"type":"Feature","properties":{"acq_date":"2026-07-31","acq_time":1006,"confidence":"n","satellite":"N","instrument":"VIIRS","version":"2.0NRT","bright_ti4":321.08,"frp":1.89,"daynight":"N"},"geometry":{"type":"Point","coordinates":[-120.13457,39.71249]}},{"type":"Feature","properties":{"acq_date":"2026-07-31","acq_time":1006,"confidence":"n","satellite":"N","instrument":"VIIRS","version":"2.0NRT","bright_ti4":330.06,"frp":1.27,"daynight":"N"},"geometry":{"type":"Point","coordinates":[-120.1309,39.71464]}},{"type":"Feature","properties":{"acq_date":"2026-07-31","acq_time":1006,"confidence":"n","satellite":"N","instrument":"VIIRS","version":"2.0NRT","bright_ti4":314.19,"frp":2.17,"daynight":"N"},"geometry":{"type":"Point","coordinates":[-120.13534,39.71536]}},{"type":"Feature","properties":{"acq_date":"2026-07-31","acq_time":1006,"confidence":"n","satellite":"N","instrument":"VIIRS","version":"2.0NRT","bright_ti4":307.31,"frp":0.89,"daynight":"N"},"geometry":{"type":"Point","coordinates":[-120.15677,39.71606]}},{"type":"Feature","properties":{"acq_date":"2026-07-31","acq_time":1006,"confidence":"n","satellite":"N","instrument":"VIIRS","version":"2.0NRT","bright_ti4":302.63,"frp":1.27,"daynight":"N"},"geometry":{"type":"Point","coordinates":[-120.13,39.7179]}},{"type":"Feature","properties":{"acq_date":"2026-07-31","acq_time":1006,"confidence":"n","satellite":"N","instrument":"VIIRS","version":"2.0NRT","bright_ti4":310.32,"frp":1,"daynight":"N"},"geometry":{"type":"Point","coordinates":[-120.15752,39.71894]}},{"type":"Feature","properties":{"acq_date":"2026-07-31","acq_time":1006,"confidence":"n","satellite":"N","instrument":"VIIRS","version":"2.0NRT","bright_ti4":305.72,"frp":1.57,"daynight":"N"},"geometry":{"type":"Point","coordinates":[-114.25431,40.81949]}},{"type":"Feature","properties":{"acq_date":"2026-07-31","acq_time":1006,"confidence":"n","satellite":"N","instrument":"VIIRS","version":"2.0NRT","bright_ti4":313.77,"frp":1.73,"daynight":"N"},"geometry":{"type":"Point","coordinates":[-114.25368,40.82022]}},{"type":"Feature","properties":{"acq_date":"2026-07-31","acq_time":1006,"confidence":"n","satellite":"N","instrument":"VIIRS","version":"2.0NRT","bright_ti4":308.64,"frp":1.57,"daynight":"N"},"geometry":{"type":"Point","coordinates":[-114.25259,40.82319]}},{"type":"Feature","properties":{"acq_date":"2026-07-31","acq_time":1006,"confidence":"n","satellite":"N","instrument":"VIIRS","version":"2.0NRT","bright_ti4":302.62,"frp":0.86,"daynight":"N"},"geometry":{"type":"Point","coordinates":[-122.77609,42.38435]}},{"type":"Feature","properties":{"acq_date":"2026-07-31","acq_time":1006,"confidence":"n","satellite":"N","instrument":"VIIRS","version":"2.0NRT","bright_ti4":319,"frp":1.95,"daynight":"N"},"geometry":{"type":"Point","coordinates":[-116.97049,42.4735]}},{"type":"Feature","properties":{"acq_date":"2026-07-31","acq_time":1006,"confidence":"n","satellite":"N","instrument":"VIIRS","version":"2.0NRT","bright_ti4":308.87,"frp":1.39,"daynight":"N"},"geometry":{"type":"Point","coordinates":[-116.89693,42.49213]}},{"type":"Feature","properties":{"acq_date":"2026-07-31","acq_time":1006,"confidence":"n","satellite":"N","instrument":"VIIRS","version":"2.0NRT","bright_ti4":318.63,"frp":1.39,"daynight":"N"},"geometry":{"type":"Point","coordinates":[-116.90177,42.49302]}},{"type":"Feature","properties":{"acq_date":"2026-07-31","acq_time":1006,"confidence":"n","satellite":"N","instrument":"VIIRS","version":"2.0NRT","bright_ti4":315.97,"frp":1.79,"daynight":"N"},"geometry":{"type":"Point","coordinates":[-116.90664,42.4939]}},{"type":"Feature","properties":{"acq_date":"2026-07-31","acq_time":1006,"confidence":"n","satellite":"N","instrument":"VIIRS","version":"2.0NRT","bright_ti4":312.44,"frp":1.79,"daynight":"N"},"geometry":{"type":"Point","coordinates":[-116.91148,42.49479]}},{"type":"Feature","properties":{"acq_date":"2026-07-31","acq_time":1006,"confidence":"n","satellite":"N","instrument":"VIIRS","version":"2.0NRT","bright_ti4":321.35,"frp":1.47,"daynight":"N"},"geometry":{"type":"Point","coordinates":[-116.89577,42.49548]}},{"type":"Feature","properties":{"acq_date":"2026-07-31","acq_time":1006,"confidence":"n","satellite":"N","instrument":"VIIRS","version":"2.0NRT","bright_ti4":314.07,"frp":1.47,"daynight":"N"},"geometry":{"type":"Point","coordinates":[-116.90063,42.49637]}},{"type":"Feature","properties":{"acq_date":"2026-07-31","acq_time":1006,"confidence":"n","satellite":"N","instrument":"VIIRS","version":"2.0NRT","bright_ti4":303.39,"frp":1.36,"daynight":"N"},"geometry":{"type":"Point","coordinates":[-116.90549,42.49726]}},{"type":"Feature","properties":{"acq_date":"2026-07-31","acq_time":1006,"confidence":"n","satellite":"N","instrument":"VIIRS","version":"2.0NRT","bright_ti4":302.66,"frp":0.71,"daynight":"N"},"geometry":{"type":"Point","coordinates":[-116.88969,42.49794]}},{"type":"Feature","properties":{"acq_date":"2026-07-31","acq_time":1006,"confidence":"n","satellite":"N","instrument":"VIIRS","version":"2.0NRT","bright_ti4":310.05,"frp":1.36,"daynight":"N"},"geometry":{"type":"Point","coordinates":[-116.91034,42.49814]}},{"type":"Feature","properties":{"acq_date":"2026-07-31","acq_time":1006,"confidence":"n","satellite":"N","instrument":"VIIRS","version":"2.0NRT","bright_ti4":306.19,"frp":1.47,"daynight":"N"},"geometry":{"type":"Point","coordinates":[-116.8946,42.49883]}},{"type":"Feature","properties":{"acq_date":"2026-07-31","acq_time":1006,"confidence":"n","satellite":"N","instrument":"VIIRS","version":"2.0NRT","bright_ti4":322.42,"frp":1.47,"daynight":"N"},"geometry":{"type":"Point","coordinates":[-116.89947,42.49973]}},{"type":"Feature","properties":{"acq_date":"2026-07-31","acq_time":1006,"confidence":"n","satellite":"N","instrument":"VIIRS","version":"2.0NRT","bright_ti4":300.11,"frp":0.85,"daynight":"N"},"geometry":{"type":"Point","coordinates":[-116.89832,42.50308]}},{"type":"Feature","properties":{"acq_date":"2026-07-31","acq_time":1006,"confidence":"n","satellite":"N","instrument":"VIIRS","version":"2.0NRT","bright_ti4":307.65,"frp":1.59,"daynight":"N"},"geometry":{"type":"Point","coordinates":[-116.94848,42.50864]}},{"type":"Feature","properties":{"acq_date":"2026-07-31","acq_time":1006,"confidence":"n","satellite":"N","instrument":"VIIRS","version":"2.0NRT","bright_ti4":301.83,"frp":0.66,"daynight":"N"},"geometry":{"type":"Point","coordinates":[-116.91986,42.53191]}},{"type":"Feature","properties":{"acq_date":"2026-07-31","acq_time":1006,"confidence":"n","satellite":"N","instrument":"VIIRS","version":"2.0NRT","bright_ti4":299.8,"frp":1.02,"daynight":"N"},"geometry":{"type":"Point","coordinates":[-116.91148,42.54108]}},{"type":"Feature","properties":{"acq_date":"2026-07-31","acq_time":1006,"confidence":"n","satellite":"N","instrument":"VIIRS","version":"2.0NRT","bright_ti4":306.38,"frp":0.92,"daynight":"N"},"geometry":{"type":"Point","coordinates":[-116.87287,42.60139]}},{"type":"Feature","properties":{"acq_date":"2026-07-31","acq_time":1006,"confidence":"n","satellite":"N","instrument":"VIIRS","version":"2.0NRT","bright_ti4":301.05,"frp":0.86,"daynight":"N"},"geometry":{"type":"Point","coordinates":[-116.86684,42.60386]}},{"type":"Feature","properties":{"acq_date":"2026-07-31","acq_time":1006,"confidence":"n","satellite":"N","instrument":"VIIRS","version":"2.0NRT","bright_ti4":304.72,"frp":0.92,"daynight":"N"},"geometry":{"type":"Point","coordinates":[-116.87179,42.60476]}},{"type":"Feature","properties":{"acq_date":"2026-07-31","acq_time":1006,"confidence":"n","satellite":"N","instrument":"VIIRS","version":"2.0NRT","bright_ti4":305.97,"frp":1.52,"daynight":"N"},"geometry":{"type":"Point","coordinates":[-116.90113,42.76588]}},{"type":"Feature","properties":{"acq_date":"2026-07-31","acq_time":1006,"confidence":"n","satellite":"N","instrument":"VIIRS","version":"2.0NRT","bright_ti4":304.12,"frp":1.02,"daynight":"N"},"geometry":{"type":"Point","coordinates":[-116.90619,42.76678]}},{"type":"Feature","properties":{"acq_date":"2026-07-31","acq_time":1006,"confidence":"n","satellite":"N","instrument":"VIIRS","version":"2.0NRT","bright_ti4":305.22,"frp":1.22,"daynight":"N"},"geometry":{"type":"Point","coordinates":[-116.90308,42.76971]}},{"type":"Feature","properties":{"acq_date":"2026-07-31","acq_time":1006,"confidence":"n","satellite":"N","instrument":"VIIRS","version":"2.0NRT","bright_ti4":304.76,"frp":1.02,"daynight":"N"},"geometry":{"type":"Point","coordinates":[-116.90488,42.7701]}},{"type":"Feature","properties":{"acq_date":"2026-07-31","acq_time":1006,"confidence":"n","satellite":"N","instrument":"VIIRS","version":"2.0NRT","bright_ti4":298.46,"frp":0.68,"daynight":"N"},"geometry":{"type":"Point","coordinates":[-118.45418,42.93802]}},{"type":"Feature","properties":{"acq_date":"2026-07-31","acq_time":1006,"confidence":"n","satellite":"N","instrument":"VIIRS","version":"2.0NRT","bright_ti4":300.76,"frp":0.68,"daynight":"N"},"geometry":{"type":"Point","coordinates":[-118.45317,42.9413]}},{"type":"Feature","properties":{"acq_date":"2026-07-31","acq_time":1006,"confidence":"n","satellite":"N","instrument":"VIIRS","version":"2.0NRT","bright_ti4":298.59,"frp":0.67,"daynight":"N"},"geometry":{"type":"Point","coordinates":[-122.56627,43.10471]}},{"type":"Feature","properties":{"acq_date":"2026-07-31","acq_time":1006,"confidence":"n","satellite":"N","instrument":"VIIRS","version":"2.0NRT","bright_ti4":297.71,"frp":0.88,"daynight":"N"},"geometry":{"type":"Point","coordinates":[-122.56509,43.10476]}},{"type":"Feature","properties":{"acq_date":"2026-07-31","acq_time":1006,"confidence":"n","satellite":"N","instrument":"VIIRS","version":"2.0NRT","bright_ti4":312.05,"frp":1.77,"daynight":"N"},"geometry":{"type":"Point","coordinates":[-122.58113,43.1068]}},{"type":"Feature","properties":{"acq_date":"2026-07-31","acq_time":1006,"confidence":"n","satellite":"N","instrument":"VIIRS","version":"2.0NRT","bright_ti4":321.11,"frp":5.03,"daynight":"N"},"geometry":{"type":"Point","coordinates":[-122.58231,43.10681]}},{"type":"Feature","properties":{"acq_date":"2026-07-31","acq_time":1006,"confidence":"n","satellite":"N","instrument":"VIIRS","version":"2.0NRT","bright_ti4":341.82,"frp":6.5,"daynight":"N"},"geometry":{"type":"Point","coordinates":[-122.58643,43.10747]}},{"type":"Feature","properties":{"acq_date":"2026-07-31","acq_time":1006,"confidence":"n","satellite":"N","instrument":"VIIRS","version":"2.0NRT","bright_ti4":345.76,"frp":5.03,"daynight":"N"},"geometry":{"type":"Point","coordinates":[-122.58758,43.10749]}},{"type":"Feature","properties":{"acq_date":"2026-07-31","acq_time":1006,"confidence":"n","satellite":"N","instrument":"VIIRS","version":"2.0NRT","bright_ti4":337.24,"frp":6.5,"daynight":"N"},"geometry":{"type":"Point","coordinates":[-122.59167,43.10814]}},{"type":"Feature","properties":{"acq_date":"2026-07-31","acq_time":1006,"confidence":"n","satellite":"N","instrument":"VIIRS","version":"2.0NRT","bright_ti4":328.53,"frp":3.37,"daynight":"N"},"geometry":{"type":"Point","coordinates":[-122.59281,43.10818]}},{"type":"Feature","properties":{"acq_date":"2026-07-31","acq_time":1006,"confidence":"n","satellite":"N","instrument":"VIIRS","version":"2.0NRT","bright_ti4":297.31,"frp":0.81,"daynight":"N"},"geometry":{"type":"Point","coordinates":[-122.58013,43.11026]}},{"type":"Feature","properties":{"acq_date":"2026-07-31","acq_time":1006,"confidence":"n","satellite":"N","instrument":"VIIRS","version":"2.0NRT","bright_ti4":339.95,"frp":2.33,"daynight":"N"},"geometry":{"type":"Point","coordinates":[-122.58552,43.11094]}},{"type":"Feature","properties":{"acq_date":"2026-07-31","acq_time":1006,"confidence":"n","satellite":"N","instrument":"VIIRS","version":"2.0NRT","bright_ti4":308.67,"frp":2.33,"daynight":"N"},"geometry":{"type":"Point","coordinates":[-122.59076,43.11161]}},{"type":"Feature","properties":{"acq_date":"2026-07-31","acq_time":1006,"confidence":"n","satellite":"N","instrument":"VIIRS","version":"2.0NRT","bright_ti4":313.04,"frp":2.33,"daynight":"N"},"geometry":{"type":"Point","coordinates":[-122.58459,43.1144]}},{"type":"Feature","properties":{"acq_date":"2026-07-31","acq_time":1006,"confidence":"n","satellite":"N","instrument":"VIIRS","version":"2.0NRT","bright_ti4":297.78,"frp":0.59,"daynight":"N"},"geometry":{"type":"Point","coordinates":[-122.58365,43.11787]}},{"type":"Feature","properties":{"acq_date":"2026-07-31","acq_time":1006,"confidence":"n","satellite":"N","instrument":"VIIRS","version":"2.0NRT","bright_ti4":302,"frp":0.59,"daynight":"N"},"geometry":{"type":"Point","coordinates":[-122.58276,43.12135]}},{"type":"Feature","properties":{"acq_date":"2026-07-31","acq_time":1006,"confidence":"n","satellite":"N","instrument":"VIIRS","version":"2.0NRT","bright_ti4":306.37,"frp":1.01,"daynight":"N"},"geometry":{"type":"Point","coordinates":[-122.55277,43.12828]}},{"type":"Feature","properties":{"acq_date":"2026-07-31","acq_time":1006,"confidence":"n","satellite":"N","instrument":"VIIRS","version":"2.0NRT","bright_ti4":305.76,"frp":1.28,"daynight":"N"},"geometry":{"type":"Point","coordinates":[-122.58097,43.12829]}},{"type":"Feature","properties":{"acq_date":"2026-07-31","acq_time":1006,"confidence":"n","satellite":"N","instrument":"VIIRS","version":"2.0NRT","bright_ti4":300.16,"frp":0.92,"daynight":"N"},"geometry":{"type":"Point","coordinates":[-122.57472,43.13107]}},{"type":"Feature","properties":{"acq_date":"2026-07-31","acq_time":1006,"confidence":"n","satellite":"N","instrument":"VIIRS","version":"2.0NRT","bright_ti4":295.86,"frp":0.5,"daynight":"N"},"geometry":{"type":"Point","coordinates":[-122.58004,43.13176]}},{"type":"Feature","properties":{"acq_date":"2026-07-31","acq_time":1006,"confidence":"n","satellite":"N","instrument":"VIIRS","version":"2.0NRT","bright_ti4":300,"frp":1.4,"daynight":"N"},"geometry":{"type":"Point","coordinates":[-122.55758,43.13247]}},{"type":"Feature","properties":{"acq_date":"2026-07-31","acq_time":1006,"confidence":"n","satellite":"N","instrument":"VIIRS","version":"2.0NRT","bright_ti4":315.24,"frp":1.4,"daynight":"N"},"geometry":{"type":"Point","coordinates":[-122.56295,43.13315]}},{"type":"Feature","properties":{"acq_date":"2026-07-31","acq_time":1006,"confidence":"n","satellite":"N","instrument":"VIIRS","version":"2.0NRT","bright_ti4":305.26,"frp":0.92,"daynight":"N"},"geometry":{"type":"Point","coordinates":[-122.56851,43.13387]}},{"type":"Feature","properties":{"acq_date":"2026-07-31","acq_time":1006,"confidence":"n","satellite":"N","instrument":"VIIRS","version":"2.0NRT","bright_ti4":297.94,"frp":0.32,"daynight":"N"},"geometry":{"type":"Point","coordinates":[-122.56239,43.13666]}},{"type":"Feature","properties":{"acq_date":"2026-07-31","acq_time":1006,"confidence":"n","satellite":"N","instrument":"VIIRS","version":"2.0NRT","bright_ti4":316.18,"frp":1.32,"daynight":"N"},"geometry":{"type":"Point","coordinates":[-115.66767,43.14662]}},{"type":"Feature","properties":{"acq_date":"2026-07-31","acq_time":1006,"confidence":"n","satellite":"N","instrument":"VIIRS","version":"2.0NRT","bright_ti4":302.26,"frp":0.42,"daynight":"N"},"geometry":{"type":"Point","coordinates":[-115.73383,43.18128]}},{"type":"Feature","properties":{"acq_date":"2026-07-31","acq_time":1006,"confidence":"n","satellite":"N","instrument":"VIIRS","version":"2.0NRT","bright_ti4":316.93,"frp":1.83,"daynight":"N"},"geometry":{"type":"Point","coordinates":[-114.09998,43.32829]}},{"type":"Feature","properties":{"acq_date":"2026-07-31","acq_time":1006,"confidence":"n","satellite":"N","instrument":"VIIRS","version":"2.0NRT","bright_ti4":323.51,"frp":3.31,"daynight":"N"},"geometry":{"type":"Point","coordinates":[-114.09878,43.33]}},{"type":"Feature","properties":{"acq_date":"2026-07-31","acq_time":1006,"confidence":"n","satellite":"N","instrument":"VIIRS","version":"2.0NRT","bright_ti4":304.49,"frp":1.26,"daynight":"N"},"geometry":{"type":"Point","coordinates":[-114.09865,43.33192]}},{"type":"Feature","properties":{"acq_date":"2026-07-31","acq_time":1009,"confidence":"n","satellite":"N","instrument":"VIIRS","version":"2.0NRT","bright_ti4":337.53,"frp":4.88,"daynight":"N"},"geometry":{"type":"Point","coordinates":[-116.7477,32.396]}},{"type":"Feature","properties":{"acq_date":"2026-07-31","acq_time":1009,"confidence":"n","satellite":"N","instrument":"VIIRS","version":"2.0NRT","bright_ti4":330.14,"frp":4.88,"daynight":"N"},"geometry":{"type":"Point","coordinates":[-116.75177,32.39684]}},{"type":"Feature","properties":{"acq_date":"2026-07-31","acq_time":1009,"confidence":"n","satellite":"N","instrument":"VIIRS","version":"2.0NRT","bright_ti4":300.94,"frp":0.41,"daynight":"N"},"geometry":{"type":"Point","coordinates":[-116.81402,32.45272]}},{"type":"Feature","properties":{"acq_date":"2026-07-31","acq_time":1009,"confidence":"n","satellite":"N","instrument":"VIIRS","version":"2.0NRT","bright_ti4":308.22,"frp":4.45,"daynight":"N"},"geometry":{"type":"Point","coordinates":[-116.83253,32.49416]}},{"type":"Feature","properties":{"acq_date":"2026-07-31","acq_time":1009,"confidence":"n","satellite":"N","instrument":"VIIRS","version":"2.0NRT","bright_ti4":337.7,"frp":4.45,"daynight":"N"},"geometry":{"type":"Point","coordinates":[-116.8367,32.49502]}},{"type":"Feature","properties":{"acq_date":"2026-07-31","acq_time":1009,"confidence":"n","satellite":"N","instrument":"VIIRS","version":"2.0NRT","bright_ti4":302.5,"frp":0.87,"daynight":"N"},"geometry":{"type":"Point","coordinates":[-117.47516,33.79171]}},{"type":"Feature","properties":{"acq_date":"2026-07-31","acq_time":1009,"confidence":"n","satellite":"N","instrument":"VIIRS","version":"2.0NRT","bright_ti4":311.18,"frp":0.87,"daynight":"N"},"geometry":{"type":"Point","coordinates":[-117.89255,34.0345]}},{"type":"Feature","properties":{"acq_date":"2026-07-31","acq_time":1009,"confidence":"n","satellite":"N","instrument":"VIIRS","version":"2.0NRT","bright_ti4":305,"frp":0.48,"daynight":"N"},"geometry":{"type":"Point","coordinates":[-117.4277,34.14337]}},{"type":"Feature","properties":{"acq_date":"2026-07-31","acq_time":1009,"confidence":"n","satellite":"N","instrument":"VIIRS","version":"2.0NRT","bright_ti4":313.49,"frp":0.76,"daynight":"N"},"geometry":{"type":"Point","coordinates":[-118.19185,34.15221]}},{"type":"Feature","properties":{"acq_date":"2026-07-31","acq_time":1009,"confidence":"n","satellite":"N","instrument":"VIIRS","version":"2.0NRT","bright_ti4":320.24,"frp":1.62,"daynight":"N"},"geometry":{"type":"Point","coordinates":[-118.52072,34.33625]}},{"type":"Feature","properties":{"acq_date":"2026-07-31","acq_time":1009,"confidence":"n","satellite":"N","instrument":"VIIRS","version":"2.0NRT","bright_ti4":307.37,"frp":1.6,"daynight":"N"},"geometry":{"type":"Point","coordinates":[-116.85518,34.35376]}},{"type":"Feature","properties":{"acq_date":"2026-07-31","acq_time":1009,"confidence":"n","satellite":"N","instrument":"VIIRS","version":"2.0NRT","bright_ti4":309.69,"frp":1.29,"daynight":"N"},"geometry":{"type":"Point","coordinates":[-118.64533,34.42846]}},{"type":"Feature","properties":{"acq_date":"2026-07-31","acq_time":1009,"confidence":"n","satellite":"N","instrument":"VIIRS","version":"2.0NRT","bright_ti4":313.99,"frp":1.82,"daynight":"N"},"geometry":{"type":"Point","coordinates":[-118.64668,34.43027]}},{"type":"Feature","properties":{"acq_date":"2026-07-31","acq_time":1009,"confidence":"n","satellite":"N","instrument":"VIIRS","version":"2.0NRT","bright_ti4":305.9,"frp":1.11,"daynight":"N"},"geometry":{"type":"Point","coordinates":[-118.64443,34.43199]}},{"type":"Feature","properties":{"acq_date":"2026-07-31","acq_time":1009,"confidence":"n","satellite":"N","instrument":"VIIRS","version":"2.0NRT","bright_ti4":304.18,"frp":1.72,"daynight":"N"},"geometry":{"type":"Point","coordinates":[-117.33421,34.60707]}},{"type":"Feature","properties":{"acq_date":"2026-07-31","acq_time":1009,"confidence":"n","satellite":"N","instrument":"VIIRS","version":"2.0NRT","bright_ti4":313.12,"frp":1.38,"daynight":"N"},"geometry":{"type":"Point","coordinates":[-117.33527,34.60721]}},{"type":"Feature","properties":{"acq_date":"2026-07-31","acq_time":1009,"confidence":"n","satellite":"N","instrument":"VIIRS","version":"2.0NRT","bright_ti4":317.68,"frp":2.04,"daynight":"N"},"geometry":{"type":"Point","coordinates":[-117.10003,34.62294]}},{"type":"Feature","properties":{"acq_date":"2026-07-31","acq_time":1009,"confidence":"n","satellite":"N","instrument":"VIIRS","version":"2.0NRT","bright_ti4":307.51,"frp":1.49,"daynight":"N"},"geometry":{"type":"Point","coordinates":[-113.31507,35.51693]}},{"type":"Feature","properties":{"acq_date":"2026-07-31","acq_time":1009,"confidence":"n","satellite":"N","instrument":"VIIRS","version":"2.0NRT","bright_ti4":305.6,"frp":1.15,"daynight":"N"},"geometry":{"type":"Point","coordinates":[-113.31729,35.51727]}},{"type":"Feature","properties":{"acq_date":"2026-07-31","acq_time":1009,"confidence":"n","satellite":"N","instrument":"VIIRS","version":"2.0NRT","bright_ti4":324.75,"frp":3.19,"daynight":"N"},"geometry":{"type":"Point","coordinates":[-114.9124,36.3569]}},{"type":"Feature","properties":{"acq_date":"2026-07-31","acq_time":1009,"confidence":"n","satellite":"N","instrument":"VIIRS","version":"2.0NRT","bright_ti4":303.63,"frp":0.49,"daynight":"N"},"geometry":{"type":"Point","coordinates":[-119.89088,36.70369]}},{"type":"Feature","properties":{"acq_date":"2026-07-31","acq_time":1009,"confidence":"n","satellite":"N","instrument":"VIIRS","version":"2.0NRT","bright_ti4":297.1,"frp":0.38,"daynight":"N"},"geometry":{"type":"Point","coordinates":[-121.76772,36.71376]}},{"type":"Feature","properties":{"acq_date":"2026-07-31","acq_time":1009,"confidence":"n","satellite":"N","instrument":"VIIRS","version":"2.0NRT","bright_ti4":298.77,"frp":0.45,"daynight":"N"},"geometry":{"type":"Point","coordinates":[-121.90019,37.21291]}},{"type":"Feature","properties":{"acq_date":"2026-07-31","acq_time":1009,"confidence":"n","satellite":"N","instrument":"VIIRS","version":"2.0NRT","bright_ti4":341.61,"frp":47.42,"daynight":"N"},"geometry":{"type":"Point","coordinates":[-116.11388,37.24791]}},{"type":"Feature","properties":{"acq_date":"2026-07-31","acq_time":1009,"confidence":"n","satellite":"N","instrument":"VIIRS","version":"2.0NRT","bright_ti4":355.96,"frp":47.42,"daynight":"N"},"geometry":{"type":"Point","coordinates":[-116.1199,37.24915]}},{"type":"Feature","properties":{"acq_date":"2026-07-31","acq_time":1009,"confidence":"n","satellite":"N","instrument":"VIIRS","version":"2.0NRT","bright_ti4":356.33,"frp":24.41,"daynight":"N"},"geometry":{"type":"Point","coordinates":[-116.12569,37.25033]}},{"type":"Feature","properties":{"acq_date":"2026-07-31","acq_time":1009,"confidence":"n","satellite":"N","instrument":"VIIRS","version":"2.0NRT","bright_ti4":312.33,"frp":17.45,"daynight":"N"},"geometry":{"type":"Point","coordinates":[-116.10712,37.25048]}},{"type":"Feature","properties":{"acq_date":"2026-07-31","acq_time":1009,"confidence":"n","satellite":"N","instrument":"VIIRS","version":"2.0NRT","bright_ti4":328.53,"frp":24.41,"daynight":"N"},"geometry":{"type":"Point","coordinates":[-116.1313,37.25149]}},{"type":"Feature","properties":{"acq_date":"2026-07-31","acq_time":1009,"confidence":"n","satellite":"N","instrument":"VIIRS","version":"2.0NRT","bright_ti4":345.77,"frp":19.54,"daynight":"N"},"geometry":{"type":"Point","coordinates":[-116.11285,37.25166]}},{"type":"Feature","properties":{"acq_date":"2026-07-31","acq_time":1009,"confidence":"n","satellite":"N","instrument":"VIIRS","version":"2.0NRT","bright_ti4":322.49,"frp":19.54,"daynight":"N"},"geometry":{"type":"Point","coordinates":[-116.11865,37.25285]}},{"type":"Feature","properties":{"acq_date":"2026-07-31","acq_time":1009,"confidence":"n","satellite":"N","instrument":"VIIRS","version":"2.0NRT","bright_ti4":341.77,"frp":17.45,"daynight":"N"},"geometry":{"type":"Point","coordinates":[-116.10039,37.25307]}},{"type":"Feature","properties":{"acq_date":"2026-07-31","acq_time":1009,"confidence":"n","satellite":"N","instrument":"VIIRS","version":"2.0NRT","bright_ti4":306.22,"frp":4.3,"daynight":"N"},"geometry":{"type":"Point","coordinates":[-116.12439,37.25403]}},{"type":"Feature","properties":{"acq_date":"2026-07-31","acq_time":1009,"confidence":"n","satellite":"N","instrument":"VIIRS","version":"2.0NRT","bright_ti4":323.82,"frp":17.45,"daynight":"N"},"geometry":{"type":"Point","coordinates":[-116.10616,37.25426]}},{"type":"Feature","properties":{"acq_date":"2026-07-31","acq_time":1009,"confidence":"n","satellite":"N","instrument":"VIIRS","version":"2.0NRT","bright_ti4":343.07,"frp":4.3,"daynight":"N"},"geometry":{"type":"Point","coordinates":[-116.13006,37.2552]}},{"type":"Feature","properties":{"acq_date":"2026-07-31","acq_time":1009,"confidence":"n","satellite":"N","instrument":"VIIRS","version":"2.0NRT","bright_ti4":308.24,"frp":14.1,"daynight":"N"},"geometry":{"type":"Point","coordinates":[-116.09334,37.2556]}},{"type":"Feature","properties":{"acq_date":"2026-07-31","acq_time":1009,"confidence":"n","satellite":"N","instrument":"VIIRS","version":"2.0NRT","bright_ti4":343.47,"frp":37.78,"daynight":"N"},"geometry":{"type":"Point","coordinates":[-116.09921,37.2568]}},{"type":"Feature","properties":{"acq_date":"2026-07-31","acq_time":1009,"confidence":"n","satellite":"N","instrument":"VIIRS","version":"2.0NRT","bright_ti4":319.14,"frp":37.78,"daynight":"N"},"geometry":{"type":"Point","coordinates":[-116.105,37.25798]}},{"type":"Feature","properties":{"acq_date":"2026-07-31","acq_time":1009,"confidence":"n","satellite":"N","instrument":"VIIRS","version":"2.0NRT","bright_ti4":319.8,"frp":14.1,"daynight":"N"},"geometry":{"type":"Point","coordinates":[-116.09212,37.25932]}},{"type":"Feature","properties":{"acq_date":"2026-07-31","acq_time":1009,"confidence":"n","satellite":"N","instrument":"VIIRS","version":"2.0NRT","bright_ti4":351.82,"frp":37.78,"daynight":"N"},"geometry":{"type":"Point","coordinates":[-116.09795,37.26051]}},{"type":"Feature","properties":{"acq_date":"2026-07-31","acq_time":1009,"confidence":"n","satellite":"N","instrument":"VIIRS","version":"2.0NRT","bright_ti4":304.49,"frp":0.36,"daynight":"N"},"geometry":{"type":"Point","coordinates":[-116.18238,37.26195]}},{"type":"Feature","properties":{"acq_date":"2026-07-31","acq_time":1009,"confidence":"n","satellite":"N","instrument":"VIIRS","version":"2.0NRT","bright_ti4":299.67,"frp":1.09,"daynight":"N"},"geometry":{"type":"Point","coordinates":[-116.12771,37.26263]}},{"type":"Feature","properties":{"acq_date":"2026-07-31","acq_time":1009,"confidence":"n","satellite":"N","instrument":"VIIRS","version":"2.0NRT","bright_ti4":338.74,"frp":32.84,"daynight":"N"},"geometry":{"type":"Point","coordinates":[-116.0909,37.26303]}},{"type":"Feature","properties":{"acq_date":"2026-07-31","acq_time":1009,"confidence":"n","satellite":"N","instrument":"VIIRS","version":"2.0NRT","bright_ti4":314.81,"frp":2.2,"daynight":"N"},"geometry":{"type":"Point","coordinates":[-116.16982,37.26333]}},{"type":"Feature","properties":{"acq_date":"2026-07-31","acq_time":1009,"confidence":"n","satellite":"N","instrument":"VIIRS","version":"2.0NRT","bright_ti4":336.3,"frp":15.57,"daynight":"N"},"geometry":{"type":"Point","coordinates":[-116.09674,37.26423]}},{"type":"Feature","properties":{"acq_date":"2026-07-31","acq_time":1009,"confidence":"n","satellite":"N","instrument":"VIIRS","version":"2.0NRT","bright_ti4":310.65,"frp":2.2,"daynight":"N"},"geometry":{"type":"Point","coordinates":[-116.17559,37.26451]}},{"type":"Feature","properties":{"acq_date":"2026-07-31","acq_time":1009,"confidence":"n","satellite":"N","instrument":"VIIRS","version":"2.0NRT","bright_ti4":297.84,"frp":0.66,"daynight":"N"},"geometry":{"type":"Point","coordinates":[-116.1569,37.26464]}},{"type":"Feature","properties":{"acq_date":"2026-07-31","acq_time":1009,"confidence":"n","satellite":"N","instrument":"VIIRS","version":"2.0NRT","bright_ti4":323.45,"frp":32.84,"daynight":"N"},"geometry":{"type":"Point","coordinates":[-116.08383,37.26555]}},{"type":"Feature","properties":{"acq_date":"2026-07-31","acq_time":1009,"confidence":"n","satellite":"N","instrument":"VIIRS","version":"2.0NRT","bright_ti4":352.8,"frp":32.84,"daynight":"N"},"geometry":{"type":"Point","coordinates":[-116.08965,37.26674]}},{"type":"Feature","properties":{"acq_date":"2026-07-31","acq_time":1009,"confidence":"n","satellite":"N","instrument":"VIIRS","version":"2.0NRT","bright_ti4":305.11,"frp":1.83,"daynight":"N"},"geometry":{"type":"Point","coordinates":[-116.14993,37.26717]}},{"type":"Feature","properties":{"acq_date":"2026-07-31","acq_time":1009,"confidence":"n","satellite":"N","instrument":"VIIRS","version":"2.0NRT","bright_ti4":322.91,"frp":15.57,"daynight":"N"},"geometry":{"type":"Point","coordinates":[-116.0956,37.26796]}},{"type":"Feature","properties":{"acq_date":"2026-07-31","acq_time":1009,"confidence":"n","satellite":"N","instrument":"VIIRS","version":"2.0NRT","bright_ti4":331.26,"frp":19.57,"daynight":"N"},"geometry":{"type":"Point","coordinates":[-116.0824,37.26923]}},{"type":"Feature","properties":{"acq_date":"2026-07-31","acq_time":1009,"confidence":"h","satellite":"N","instrument":"VIIRS","version":"2.0NRT","bright_ti4":367,"frp":19.57,"daynight":"N"},"geometry":{"type":"Point","coordinates":[-116.08833,37.27043]}},{"type":"Feature","properties":{"acq_date":"2026-07-31","acq_time":1009,"confidence":"n","satellite":"N","instrument":"VIIRS","version":"2.0NRT","bright_ti4":317.29,"frp":4.62,"daynight":"N"},"geometry":{"type":"Point","coordinates":[-116.09437,37.27167]}},{"type":"Feature","properties":{"acq_date":"2026-07-31","acq_time":1009,"confidence":"n","satellite":"N","instrument":"VIIRS","version":"2.0NRT","bright_ti4":330.87,"frp":19.57,"daynight":"N"},"geometry":{"type":"Point","coordinates":[-116.08098,37.2729]}},{"type":"Feature","properties":{"acq_date":"2026-07-31","acq_time":1009,"confidence":"h","satellite":"N","instrument":"VIIRS","version":"2.0NRT","bright_ti4":367,"frp":19.57,"daynight":"N"},"geometry":{"type":"Point","coordinates":[-116.08692,37.27412]}},{"type":"Feature","properties":{"acq_date":"2026-07-31","acq_time":1009,"confidence":"n","satellite":"N","instrument":"VIIRS","version":"2.0NRT","bright_ti4":316.67,"frp":4.62,"daynight":"N"},"geometry":{"type":"Point","coordinates":[-116.09299,37.27535]}},{"type":"Feature","properties":{"acq_date":"2026-07-31","acq_time":1009,"confidence":"n","satellite":"N","instrument":"VIIRS","version":"2.0NRT","bright_ti4":349.47,"frp":7.63,"daynight":"N"},"geometry":{"type":"Point","coordinates":[-116.08554,37.2778]}},{"type":"Feature","properties":{"acq_date":"2026-07-31","acq_time":1009,"confidence":"n","satellite":"N","instrument":"VIIRS","version":"2.0NRT","bright_ti4":327.17,"frp":4.81,"daynight":"N"},"geometry":{"type":"Point","coordinates":[-116.09154,37.27902]}},{"type":"Feature","properties":{"acq_date":"2026-07-31","acq_time":1009,"confidence":"n","satellite":"N","instrument":"VIIRS","version":"2.0NRT","bright_ti4":338.59,"frp":7.63,"daynight":"N"},"geometry":{"type":"Point","coordinates":[-116.08411,37.28148]}},{"type":"Feature","properties":{"acq_date":"2026-07-31","acq_time":1009,"confidence":"n","satellite":"N","instrument":"VIIRS","version":"2.0NRT","bright_ti4":321.51,"frp":4.81,"daynight":"N"},"geometry":{"type":"Point","coordinates":[-116.09013,37.2827]}},{"type":"Feature","properties":{"acq_date":"2026-07-31","acq_time":1009,"confidence":"n","satellite":"N","instrument":"VIIRS","version":"2.0NRT","bright_ti4":322.45,"frp":3.14,"daynight":"N"},"geometry":{"type":"Point","coordinates":[-116.08271,37.28516]}},{"type":"Feature","properties":{"acq_date":"2026-07-31","acq_time":1009,"confidence":"n","satellite":"N","instrument":"VIIRS","version":"2.0NRT","bright_ti4":300.43,"frp":1.22,"daynight":"N"},"geometry":{"type":"Point","coordinates":[-116.08869,37.28637]}},{"type":"Feature","properties":{"acq_date":"2026-07-31","acq_time":1009,"confidence":"n","satellite":"N","instrument":"VIIRS","version":"2.0NRT","bright_ti4":299.98,"frp":2.03,"daynight":"N"},"geometry":{"type":"Point","coordinates":[-116.19963,37.30098]}},{"type":"Feature","properties":{"acq_date":"2026-07-31","acq_time":1009,"confidence":"n","satellite":"N","instrument":"VIIRS","version":"2.0NRT","bright_ti4":298.82,"frp":0.74,"daynight":"N"},"geometry":{"type":"Point","coordinates":[-116.20355,37.30571]}},{"type":"Feature","properties":{"acq_date":"2026-07-31","acq_time":1009,"confidence":"n","satellite":"N","instrument":"VIIRS","version":"2.0NRT","bright_ti4":319.59,"frp":3.13,"daynight":"N"},"geometry":{"type":"Point","coordinates":[-116.20241,37.30942]}},{"type":"Feature","properties":{"acq_date":"2026-07-31","acq_time":1009,"confidence":"n","satellite":"N","instrument":"VIIRS","version":"2.0NRT","bright_ti4":300.3,"frp":2.23,"daynight":"N"},"geometry":{"type":"Point","coordinates":[-116.0861,37.30964]}},{"type":"Feature","properties":{"acq_date":"2026-07-31","acq_time":1009,"confidence":"n","satellite":"N","instrument":"VIIRS","version":"2.0NRT","bright_ti4":298.78,"frp":0.92,"daynight":"N"},"geometry":{"type":"Point","coordinates":[-116.09209,37.31084]}},{"type":"Feature","properties":{"acq_date":"2026-07-31","acq_time":1009,"confidence":"n","satellite":"N","instrument":"VIIRS","version":"2.0NRT","bright_ti4":303.46,"frp":2.4,"daynight":"N"},"geometry":{"type":"Point","coordinates":[-116.19614,37.31209]}},{"type":"Feature","properties":{"acq_date":"2026-07-31","acq_time":1009,"confidence":"n","satellite":"N","instrument":"VIIRS","version":"2.0NRT","bright_ti4":321.87,"frp":3.13,"daynight":"N"},"geometry":{"type":"Point","coordinates":[-116.20131,37.31314]}},{"type":"Feature","properties":{"acq_date":"2026-07-31","acq_time":1009,"confidence":"n","satellite":"N","instrument":"VIIRS","version":"2.0NRT","bright_ti4":308.81,"frp":1.3,"daynight":"N"},"geometry":{"type":"Point","coordinates":[-116.19485,37.31578]}},{"type":"Feature","properties":{"acq_date":"2026-07-31","acq_time":1009,"confidence":"n","satellite":"N","instrument":"VIIRS","version":"2.0NRT","bright_ti4":315.41,"frp":1.72,"daynight":"N"},"geometry":{"type":"Point","coordinates":[-116.07778,37.31588]}},{"type":"Feature","properties":{"acq_date":"2026-07-31","acq_time":1009,"confidence":"n","satellite":"N","instrument":"VIIRS","version":"2.0NRT","bright_ti4":311.28,"frp":0.57,"daynight":"N"},"geometry":{"type":"Point","coordinates":[-121.93173,37.45534]}},{"type":"Feature","properties":{"acq_date":"2026-07-31","acq_time":1009,"confidence":"n","satellite":"N","instrument":"VIIRS","version":"2.0NRT","bright_ti4":301.24,"frp":0.25,"daynight":"N"},"geometry":{"type":"Point","coordinates":[-121.66148,37.75707]}},{"type":"Feature","properties":{"acq_date":"2026-07-31","acq_time":1009,"confidence":"n","satellite":"N","instrument":"VIIRS","version":"2.0NRT","bright_ti4":313.18,"frp":0.82,"daynight":"N"},"geometry":{"type":"Point","coordinates":[-121.18439,37.88309]}},{"type":"Feature","properties":{"acq_date":"2026-07-31","acq_time":1009,"confidence":"n","satellite":"N","instrument":"VIIRS","version":"2.0NRT","bright_ti4":302.16,"frp":1.03,"daynight":"N"},"geometry":{"type":"Point","coordinates":[-122.39659,37.94489]}},{"type":"Feature","properties":{"acq_date":"2026-07-31","acq_time":1009,"confidence":"n","satellite":"N","instrument":"VIIRS","version":"2.0NRT","bright_ti4":307.78,"frp":1.61,"daynight":"N"},"geometry":{"type":"Point","coordinates":[-122.11187,38.01485]}},{"type":"Feature","properties":{"acq_date":"2026-07-31","acq_time":1009,"confidence":"n","satellite":"N","instrument":"VIIRS","version":"2.0NRT","bright_ti4":317.45,"frp":1.43,"daynight":"N"},"geometry":{"type":"Point","coordinates":[-121.39003,38.12235]}},{"type":"Feature","properties":{"acq_date":"2026-07-31","acq_time":1009,"confidence":"n","satellite":"N","instrument":"VIIRS","version":"2.0NRT","bright_ti4":299.86,"frp":0.8,"daynight":"N"},"geometry":{"type":"Point","coordinates":[-122.74832,38.29997]}},{"type":"Feature","properties":{"acq_date":"2026-07-31","acq_time":1009,"confidence":"n","satellite":"N","instrument":"VIIRS","version":"2.0NRT","bright_ti4":296.5,"frp":0.54,"daynight":"N"},"geometry":{"type":"Point","coordinates":[-123.29855,38.54432]}},{"type":"Feature","properties":{"acq_date":"2026-07-31","acq_time":1009,"confidence":"n","satellite":"N","instrument":"VIIRS","version":"2.0NRT","bright_ti4":300.8,"frp":0.69,"daynight":"N"},"geometry":{"type":"Point","coordinates":[-123.3025,38.54839]}},{"type":"Feature","properties":{"acq_date":"2026-07-31","acq_time":1009,"confidence":"n","satellite":"N","instrument":"VIIRS","version":"2.0NRT","bright_ti4":309.87,"frp":2.11,"daynight":"N"},"geometry":{"type":"Point","coordinates":[-123.31036,38.55651]}},{"type":"Feature","properties":{"acq_date":"2026-07-31","acq_time":1009,"confidence":"n","satellite":"N","instrument":"VIIRS","version":"2.0NRT","bright_ti4":341.48,"frp":2.26,"daynight":"N"},"geometry":{"type":"Point","coordinates":[-123.31245,38.55942]}},{"type":"Feature","properties":{"acq_date":"2026-07-31","acq_time":1009,"confidence":"n","satellite":"N","instrument":"VIIRS","version":"2.0NRT","bright_ti4":312.9,"frp":2.11,"daynight":"N"},"geometry":{"type":"Point","coordinates":[-123.30945,38.55991]}},{"type":"Feature","properties":{"acq_date":"2026-07-31","acq_time":1009,"confidence":"n","satellite":"N","instrument":"VIIRS","version":"2.0NRT","bright_ti4":314.08,"frp":2.26,"daynight":"N"},"geometry":{"type":"Point","coordinates":[-123.31731,38.56007]}},{"type":"Feature","properties":{"acq_date":"2026-07-31","acq_time":1009,"confidence":"n","satellite":"N","instrument":"VIIRS","version":"2.0NRT","bright_ti4":336.41,"frp":2.11,"daynight":"N"},"geometry":{"type":"Point","coordinates":[-123.31416,38.56056]}},{"type":"Feature","properties":{"acq_date":"2026-07-31","acq_time":1009,"confidence":"n","satellite":"N","instrument":"VIIRS","version":"2.0NRT","bright_ti4":304.71,"frp":0.66,"daynight":"N"},"geometry":{"type":"Point","coordinates":[-123.31902,38.56123]}},{"type":"Feature","properties":{"acq_date":"2026-07-31","acq_time":1009,"confidence":"n","satellite":"N","instrument":"VIIRS","version":"2.0NRT","bright_ti4":311.22,"frp":2.26,"daynight":"N"},"geometry":{"type":"Point","coordinates":[-123.31639,38.56347]}},{"type":"Feature","properties":{"acq_date":"2026-07-31","acq_time":1009,"confidence":"n","satellite":"N","instrument":"VIIRS","version":"2.0NRT","bright_ti4":305.97,"frp":0.88,"daynight":"N"},"geometry":{"type":"Point","coordinates":[-123.32128,38.56413]}},{"type":"Feature","properties":{"acq_date":"2026-07-31","acq_time":1009,"confidence":"n","satellite":"N","instrument":"VIIRS","version":"2.0NRT","bright_ti4":300.28,"frp":0.55,"daynight":"N"},"geometry":{"type":"Point","coordinates":[-119.6217,39.49195]}}]}