{"type":"FeatureCollection","name":"FIRMS VIIRS CA (last 1 day)","crs":{"type":"name","properties":{"name":"EPSG:4326"}},"fetched_at_utc":"2026-08-13T15:00:47.851Z","source":{"url":"https://firms.modaps.eosdis.nasa.gov/api/area/csv/8c4af552cf654445dd280dfb3ad9337c/VIIRS_SNPP_NRT/-125,32,-113,43.5/1","dataset":"VIIRS_SNPP_NRT","bbox":"-125,32,-113,43.5","day_range":"1"},"features":[{"type":"Feature","properties":{"acq_date":"2026-08-13","acq_time":922,"confidence":"n","satellite":"N","instrument":"VIIRS","version":"2.0NRT","bright_ti4":297.13,"frp":1.25,"daynight":"N"},"geometry":{"type":"Point","coordinates":[-120.00848,39.81591]}},{"type":"Feature","properties":{"acq_date":"2026-08-13","acq_time":922,"confidence":"n","satellite":"N","instrument":"VIIRS","version":"2.0NRT","bright_ti4":306.31,"frp":2.03,"daynight":"N"},"geometry":{"type":"Point","coordinates":[-119.99987,39.81874]}},{"type":"Feature","properties":{"acq_date":"2026-08-13","acq_time":922,"confidence":"n","satellite":"N","instrument":"VIIRS","version":"2.0NRT","bright_ti4":326.64,"frp":1.94,"daynight":"N"},"geometry":{"type":"Point","coordinates":[-120.00494,39.81905]}},{"type":"Feature","properties":{"acq_date":"2026-08-13","acq_time":922,"confidence":"n","satellite":"N","instrument":"VIIRS","version":"2.0NRT","bright_ti4":297.65,"frp":1.94,"daynight":"N"},"geometry":{"type":"Point","coordinates":[-120.0095,39.81933]}},{"type":"Feature","properties":{"acq_date":"2026-08-13","acq_time":922,"confidence":"n","satellite":"N","instrument":"VIIRS","version":"2.0NRT","bright_ti4":302.46,"frp":2.8,"daynight":"N"},"geometry":{"type":"Point","coordinates":[-119.99805,39.82033]}},{"type":"Feature","properties":{"acq_date":"2026-08-13","acq_time":922,"confidence":"n","satellite":"N","instrument":"VIIRS","version":"2.0NRT","bright_ti4":352.52,"frp":4.04,"daynight":"N"},"geometry":{"type":"Point","coordinates":[-120.00327,39.82068]}},{"type":"Feature","properties":{"acq_date":"2026-08-13","acq_time":922,"confidence":"n","satellite":"N","instrument":"VIIRS","version":"2.0NRT","bright_ti4":309.44,"frp":4.04,"daynight":"N"},"geometry":{"type":"Point","coordinates":[-120.00801,39.821]}},{"type":"Feature","properties":{"acq_date":"2026-08-13","acq_time":922,"confidence":"n","satellite":"N","instrument":"VIIRS","version":"2.0NRT","bright_ti4":305.22,"frp":1.89,"daynight":"N"},"geometry":{"type":"Point","coordinates":[-119.9988,39.82379]}},{"type":"Feature","properties":{"acq_date":"2026-08-13","acq_time":922,"confidence":"n","satellite":"N","instrument":"VIIRS","version":"2.0NRT","bright_ti4":330.12,"frp":3.7,"daynight":"N"},"geometry":{"type":"Point","coordinates":[-120.00417,39.82412]}},{"type":"Feature","properties":{"acq_date":"2026-08-13","acq_time":922,"confidence":"n","satellite":"N","instrument":"VIIRS","version":"2.0NRT","bright_ti4":298.79,"frp":1.03,"daynight":"N"},"geometry":{"type":"Point","coordinates":[-120.02809,39.84096]}},{"type":"Feature","properties":{"acq_date":"2026-08-13","acq_time":922,"confidence":"n","satellite":"N","instrument":"VIIRS","version":"2.0NRT","bright_ti4":306.14,"frp":1.01,"daynight":"N"},"geometry":{"type":"Point","coordinates":[-120.00166,39.87003]}},{"type":"Feature","properties":{"acq_date":"2026-08-13","acq_time":922,"confidence":"n","satellite":"N","instrument":"VIIRS","version":"2.0NRT","bright_ti4":295.1,"frp":1.84,"daynight":"N"},"geometry":{"type":"Point","coordinates":[-119.99644,39.87481]}},{"type":"Feature","properties":{"acq_date":"2026-08-13","acq_time":922,"confidence":"n","satellite":"N","instrument":"VIIRS","version":"2.0NRT","bright_ti4":345.1,"frp":1.84,"daynight":"N"},"geometry":{"type":"Point","coordinates":[-120.00186,39.87516]}},{"type":"Feature","properties":{"acq_date":"2026-08-13","acq_time":922,"confidence":"n","satellite":"N","instrument":"VIIRS","version":"2.0NRT","bright_ti4":303.68,"frp":1.52,"daynight":"N"},"geometry":{"type":"Point","coordinates":[-120.00732,39.87551]}},{"type":"Feature","properties":{"acq_date":"2026-08-13","acq_time":922,"confidence":"n","satellite":"N","instrument":"VIIRS","version":"2.0NRT","bright_ti4":303.62,"frp":1.52,"daynight":"N"},"geometry":{"type":"Point","coordinates":[-120.01238,39.87583]}},{"type":"Feature","properties":{"acq_date":"2026-08-13","acq_time":922,"confidence":"n","satellite":"N","instrument":"VIIRS","version":"2.0NRT","bright_ti4":303.84,"frp":1.54,"daynight":"N"},"geometry":{"type":"Point","coordinates":[-120.01693,39.87612]}},{"type":"Feature","properties":{"acq_date":"2026-08-13","acq_time":922,"confidence":"n","satellite":"N","instrument":"VIIRS","version":"2.0NRT","bright_ti4":309.97,"frp":1.84,"daynight":"N"},"geometry":{"type":"Point","coordinates":[-120.00221,39.8803]}},{"type":"Feature","properties":{"acq_date":"2026-08-13","acq_time":922,"confidence":"n","satellite":"N","instrument":"VIIRS","version":"2.0NRT","bright_ti4":309.83,"frp":1.52,"daynight":"N"},"geometry":{"type":"Point","coordinates":[-120.00731,39.88063]}},{"type":"Feature","properties":{"acq_date":"2026-08-13","acq_time":922,"confidence":"n","satellite":"N","instrument":"VIIRS","version":"2.0NRT","bright_ti4":308.19,"frp":1.52,"daynight":"N"},"geometry":{"type":"Point","coordinates":[-120.01212,39.88094]}},{"type":"Feature","properties":{"acq_date":"2026-08-13","acq_time":922,"confidence":"n","satellite":"N","instrument":"VIIRS","version":"2.0NRT","bright_ti4":317.32,"frp":1.54,"daynight":"N"},"geometry":{"type":"Point","coordinates":[-120.01656,39.88123]}},{"type":"Feature","properties":{"acq_date":"2026-08-13","acq_time":922,"confidence":"n","satellite":"N","instrument":"VIIRS","version":"2.0NRT","bright_ti4":322.98,"frp":2.53,"daynight":"N"},"geometry":{"type":"Point","coordinates":[-119.99825,39.88516]}},{"type":"Feature","properties":{"acq_date":"2026-08-13","acq_time":922,"confidence":"n","satellite":"N","instrument":"VIIRS","version":"2.0NRT","bright_ti4":328.39,"frp":2.53,"daynight":"N"},"geometry":{"type":"Point","coordinates":[-120.00301,39.88548]}},{"type":"Feature","properties":{"acq_date":"2026-08-13","acq_time":922,"confidence":"n","satellite":"N","instrument":"VIIRS","version":"2.0NRT","bright_ti4":303.07,"frp":1.28,"daynight":"N"},"geometry":{"type":"Point","coordinates":[-120.01615,39.88633]}},{"type":"Feature","properties":{"acq_date":"2026-08-13","acq_time":922,"confidence":"n","satellite":"N","instrument":"VIIRS","version":"2.0NRT","bright_ti4":295.12,"frp":0.94,"daynight":"N"},"geometry":{"type":"Point","coordinates":[-119.8504,39.93482]}},{"type":"Feature","properties":{"acq_date":"2026-08-13","acq_time":922,"confidence":"n","satellite":"N","instrument":"VIIRS","version":"2.0NRT","bright_ti4":297.02,"frp":1.97,"daynight":"N"},"geometry":{"type":"Point","coordinates":[-119.85,39.93987]}},{"type":"Feature","properties":{"acq_date":"2026-08-13","acq_time":922,"confidence":"n","satellite":"N","instrument":"VIIRS","version":"2.0NRT","bright_ti4":295.12,"frp":1.75,"daynight":"N"},"geometry":{"type":"Point","coordinates":[-119.83066,39.9437]}},{"type":"Feature","properties":{"acq_date":"2026-08-13","acq_time":922,"confidence":"n","satellite":"N","instrument":"VIIRS","version":"2.0NRT","bright_ti4":321.48,"frp":5,"daynight":"N"},"geometry":{"type":"Point","coordinates":[-119.83028,39.94876]}},{"type":"Feature","properties":{"acq_date":"2026-08-13","acq_time":922,"confidence":"n","satellite":"N","instrument":"VIIRS","version":"2.0NRT","bright_ti4":303.1,"frp":3.07,"daynight":"N"},"geometry":{"type":"Point","coordinates":[-119.83694,39.94918]}},{"type":"Feature","properties":{"acq_date":"2026-08-13","acq_time":922,"confidence":"n","satellite":"N","instrument":"VIIRS","version":"2.0NRT","bright_ti4":298.98,"frp":3.07,"daynight":"N"},"geometry":{"type":"Point","coordinates":[-119.84354,39.94962]}},{"type":"Feature","properties":{"acq_date":"2026-08-13","acq_time":922,"confidence":"n","satellite":"N","instrument":"VIIRS","version":"2.0NRT","bright_ti4":305.43,"frp":3.07,"daynight":"N"},"geometry":{"type":"Point","coordinates":[-119.83653,39.95424]}},{"type":"Feature","properties":{"acq_date":"2026-08-13","acq_time":922,"confidence":"n","satellite":"N","instrument":"VIIRS","version":"2.0NRT","bright_ti4":333.37,"frp":3.07,"daynight":"N"},"geometry":{"type":"Point","coordinates":[-119.84355,39.95469]}},{"type":"Feature","properties":{"acq_date":"2026-08-13","acq_time":922,"confidence":"n","satellite":"N","instrument":"VIIRS","version":"2.0NRT","bright_ti4":316.4,"frp":3.6,"daynight":"N"},"geometry":{"type":"Point","coordinates":[-123.63628,41.11901]}},{"type":"Feature","properties":{"acq_date":"2026-08-13","acq_time":922,"confidence":"n","satellite":"N","instrument":"VIIRS","version":"2.0NRT","bright_ti4":322.11,"frp":3.12,"daynight":"N"},"geometry":{"type":"Point","coordinates":[-123.6322,41.1211]}},{"type":"Feature","properties":{"acq_date":"2026-08-13","acq_time":922,"confidence":"n","satellite":"N","instrument":"VIIRS","version":"2.0NRT","bright_ti4":323.03,"frp":3.12,"daynight":"N"},"geometry":{"type":"Point","coordinates":[-123.64093,41.12136]}},{"type":"Feature","properties":{"acq_date":"2026-08-13","acq_time":922,"confidence":"n","satellite":"N","instrument":"VIIRS","version":"2.0NRT","bright_ti4":334.06,"frp":3.6,"daynight":"N"},"geometry":{"type":"Point","coordinates":[-123.6311,41.1251]}},{"type":"Feature","properties":{"acq_date":"2026-08-13","acq_time":922,"confidence":"n","satellite":"N","instrument":"VIIRS","version":"2.0NRT","bright_ti4":322.15,"frp":8.31,"daynight":"N"},"geometry":{"type":"Point","coordinates":[-123.63956,41.12531]}},{"type":"Feature","properties":{"acq_date":"2026-08-13","acq_time":922,"confidence":"n","satellite":"N","instrument":"VIIRS","version":"2.0NRT","bright_ti4":300.5,"frp":4.29,"daynight":"N"},"geometry":{"type":"Point","coordinates":[-123.628,41.12719]}},{"type":"Feature","properties":{"acq_date":"2026-08-13","acq_time":922,"confidence":"n","satellite":"N","instrument":"VIIRS","version":"2.0NRT","bright_ti4":326.38,"frp":4.29,"daynight":"N"},"geometry":{"type":"Point","coordinates":[-123.63447,41.12738]}},{"type":"Feature","properties":{"acq_date":"2026-08-13","acq_time":922,"confidence":"n","satellite":"N","instrument":"VIIRS","version":"2.0NRT","bright_ti4":307.61,"frp":3.1,"daynight":"N"},"geometry":{"type":"Point","coordinates":[-123.62769,41.13123]}},{"type":"Feature","properties":{"acq_date":"2026-08-13","acq_time":922,"confidence":"n","satellite":"N","instrument":"VIIRS","version":"2.0NRT","bright_ti4":319.66,"frp":5.18,"daynight":"N"},"geometry":{"type":"Point","coordinates":[-123.63417,41.1314]}},{"type":"Feature","properties":{"acq_date":"2026-08-13","acq_time":922,"confidence":"n","satellite":"N","instrument":"VIIRS","version":"2.0NRT","bright_ti4":310,"frp":4.29,"daynight":"N"},"geometry":{"type":"Point","coordinates":[-123.62591,41.13333]}},{"type":"Feature","properties":{"acq_date":"2026-08-13","acq_time":922,"confidence":"n","satellite":"N","instrument":"VIIRS","version":"2.0NRT","bright_ti4":353.83,"frp":4.29,"daynight":"N"},"geometry":{"type":"Point","coordinates":[-123.63136,41.1335]}},{"type":"Feature","properties":{"acq_date":"2026-08-13","acq_time":922,"confidence":"n","satellite":"N","instrument":"VIIRS","version":"2.0NRT","bright_ti4":313.57,"frp":10.72,"daynight":"N"},"geometry":{"type":"Point","coordinates":[-123.63992,41.13377]}},{"type":"Feature","properties":{"acq_date":"2026-08-13","acq_time":922,"confidence":"n","satellite":"N","instrument":"VIIRS","version":"2.0NRT","bright_ti4":308.23,"frp":3.1,"daynight":"N"},"geometry":{"type":"Point","coordinates":[-123.62643,41.13741]}},{"type":"Feature","properties":{"acq_date":"2026-08-13","acq_time":922,"confidence":"n","satellite":"N","instrument":"VIIRS","version":"2.0NRT","bright_ti4":349.42,"frp":5.18,"daynight":"N"},"geometry":{"type":"Point","coordinates":[-123.63201,41.13756]}},{"type":"Feature","properties":{"acq_date":"2026-08-13","acq_time":922,"confidence":"n","satellite":"N","instrument":"VIIRS","version":"2.0NRT","bright_ti4":302.2,"frp":5.18,"daynight":"N"},"geometry":{"type":"Point","coordinates":[-123.64,41.13776]}},{"type":"Feature","properties":{"acq_date":"2026-08-13","acq_time":922,"confidence":"n","satellite":"N","instrument":"VIIRS","version":"2.0NRT","bright_ti4":298.62,"frp":0.88,"daynight":"N"},"geometry":{"type":"Point","coordinates":[-123.62944,41.13965]}},{"type":"Feature","properties":{"acq_date":"2026-08-13","acq_time":922,"confidence":"n","satellite":"N","instrument":"VIIRS","version":"2.0NRT","bright_ti4":298.74,"frp":1.4,"daynight":"N"},"geometry":{"type":"Point","coordinates":[-123.65344,41.14432]}},{"type":"Feature","properties":{"acq_date":"2026-08-13","acq_time":922,"confidence":"n","satellite":"N","instrument":"VIIRS","version":"2.0NRT","bright_ti4":306.51,"frp":1.72,"daynight":"N"},"geometry":{"type":"Point","coordinates":[-123.65047,41.14653]}},{"type":"Feature","properties":{"acq_date":"2026-08-13","acq_time":922,"confidence":"n","satellite":"N","instrument":"VIIRS","version":"2.0NRT","bright_ti4":326.85,"frp":5.5,"daynight":"N"},"geometry":{"type":"Point","coordinates":[-121.55327,42.33557]}},{"type":"Feature","properties":{"acq_date":"2026-08-13","acq_time":922,"confidence":"h","satellite":"N","instrument":"VIIRS","version":"2.0NRT","bright_ti4":367,"frp":5.55,"daynight":"N"},"geometry":{"type":"Point","coordinates":[-121.55755,42.33574]}},{"type":"Feature","properties":{"acq_date":"2026-08-13","acq_time":922,"confidence":"n","satellite":"N","instrument":"VIIRS","version":"2.0NRT","bright_ti4":344.06,"frp":5.5,"daynight":"N"},"geometry":{"type":"Point","coordinates":[-121.5528,42.34121]}},{"type":"Feature","properties":{"acq_date":"2026-08-13","acq_time":922,"confidence":"n","satellite":"N","instrument":"VIIRS","version":"2.0NRT","bright_ti4":313.61,"frp":5.55,"daynight":"N"},"geometry":{"type":"Point","coordinates":[-121.55717,42.34138]}},{"type":"Feature","properties":{"acq_date":"2026-08-13","acq_time":922,"confidence":"n","satellite":"N","instrument":"VIIRS","version":"2.0NRT","bright_ti4":295.81,"frp":5.55,"daynight":"N"},"geometry":{"type":"Point","coordinates":[-121.56145,42.34156]}},{"type":"Feature","properties":{"acq_date":"2026-08-13","acq_time":922,"confidence":"n","satellite":"N","instrument":"VIIRS","version":"2.0NRT","bright_ti4":299.98,"frp":1.07,"daynight":"N"},"geometry":{"type":"Point","coordinates":[-121.57961,42.34797]}},{"type":"Feature","properties":{"acq_date":"2026-08-13","acq_time":922,"confidence":"n","satellite":"N","instrument":"VIIRS","version":"2.0NRT","bright_ti4":302.94,"frp":1.35,"daynight":"N"},"geometry":{"type":"Point","coordinates":[-121.58439,42.34816]}},{"type":"Feature","properties":{"acq_date":"2026-08-13","acq_time":922,"confidence":"n","satellite":"N","instrument":"VIIRS","version":"2.0NRT","bright_ti4":296.3,"frp":1.07,"daynight":"N"},"geometry":{"type":"Point","coordinates":[-121.57953,42.35363]}},{"type":"Feature","properties":{"acq_date":"2026-08-13","acq_time":922,"confidence":"n","satellite":"N","instrument":"VIIRS","version":"2.0NRT","bright_ti4":298.73,"frp":1.35,"daynight":"N"},"geometry":{"type":"Point","coordinates":[-121.58423,42.35382]}},{"type":"Feature","properties":{"acq_date":"2026-08-13","acq_time":922,"confidence":"n","satellite":"N","instrument":"VIIRS","version":"2.0NRT","bright_ti4":295.82,"frp":0.63,"daynight":"N"},"geometry":{"type":"Point","coordinates":[-121.55226,42.35815]}},{"type":"Feature","properties":{"acq_date":"2026-08-13","acq_time":922,"confidence":"n","satellite":"N","instrument":"VIIRS","version":"2.0NRT","bright_ti4":295.28,"frp":0.77,"daynight":"N"},"geometry":{"type":"Point","coordinates":[-121.59358,42.35987]}},{"type":"Feature","properties":{"acq_date":"2026-08-13","acq_time":922,"confidence":"n","satellite":"N","instrument":"VIIRS","version":"2.0NRT","bright_ti4":304.77,"frp":1.63,"daynight":"N"},"geometry":{"type":"Point","coordinates":[-116.76777,42.40113]}},{"type":"Feature","properties":{"acq_date":"2026-08-13","acq_time":922,"confidence":"n","satellite":"N","instrument":"VIIRS","version":"2.0NRT","bright_ti4":298.8,"frp":0.35,"daynight":"N"},"geometry":{"type":"Point","coordinates":[-121.67818,42.41458]}},{"type":"Feature","properties":{"acq_date":"2026-08-13","acq_time":922,"confidence":"n","satellite":"N","instrument":"VIIRS","version":"2.0NRT","bright_ti4":300.56,"frp":1.17,"daynight":"N"},"geometry":{"type":"Point","coordinates":[-116.71957,42.61829]}},{"type":"Feature","properties":{"acq_date":"2026-08-13","acq_time":924,"confidence":"n","satellite":"N","instrument":"VIIRS","version":"2.0NRT","bright_ti4":302.88,"frp":1.27,"daynight":"N"},"geometry":{"type":"Point","coordinates":[-117.33588,34.60727]}},{"type":"Feature","properties":{"acq_date":"2026-08-13","acq_time":924,"confidence":"n","satellite":"N","instrument":"VIIRS","version":"2.0NRT","bright_ti4":299.07,"frp":0.92,"daynight":"N"},"geometry":{"type":"Point","coordinates":[-117.33723,34.60963]}},{"type":"Feature","properties":{"acq_date":"2026-08-13","acq_time":924,"confidence":"n","satellite":"N","instrument":"VIIRS","version":"2.0NRT","bright_ti4":301.59,"frp":0.83,"daynight":"N"},"geometry":{"type":"Point","coordinates":[-118.75132,34.81903]}},{"type":"Feature","properties":{"acq_date":"2026-08-13","acq_time":924,"confidence":"n","satellite":"N","instrument":"VIIRS","version":"2.0NRT","bright_ti4":306.47,"frp":1.74,"daynight":"N"},"geometry":{"type":"Point","coordinates":[-117.39729,35.74332]}},{"type":"Feature","properties":{"acq_date":"2026-08-13","acq_time":924,"confidence":"n","satellite":"N","instrument":"VIIRS","version":"2.0NRT","bright_ti4":319.93,"frp":0.93,"daynight":"N"},"geometry":{"type":"Point","coordinates":[-121.70687,36.20358]}},{"type":"Feature","properties":{"acq_date":"2026-08-13","acq_time":924,"confidence":"n","satellite":"N","instrument":"VIIRS","version":"2.0NRT","bright_ti4":295.38,"frp":0.93,"daynight":"N"},"geometry":{"type":"Point","coordinates":[-121.71185,36.20389]}},{"type":"Feature","properties":{"acq_date":"2026-08-13","acq_time":924,"confidence":"n","satellite":"N","instrument":"VIIRS","version":"2.0NRT","bright_ti4":301.37,"frp":0.96,"daynight":"N"},"geometry":{"type":"Point","coordinates":[-121.70261,36.20874]}},{"type":"Feature","properties":{"acq_date":"2026-08-13","acq_time":924,"confidence":"n","satellite":"N","instrument":"VIIRS","version":"2.0NRT","bright_ti4":307.77,"frp":2.22,"daynight":"N"},"geometry":{"type":"Point","coordinates":[-121.69442,36.2245]}},{"type":"Feature","properties":{"acq_date":"2026-08-13","acq_time":924,"confidence":"n","satellite":"N","instrument":"VIIRS","version":"2.0NRT","bright_ti4":316.83,"frp":2.78,"daynight":"N"},"geometry":{"type":"Point","coordinates":[-121.69978,36.22485]}},{"type":"Feature","properties":{"acq_date":"2026-08-13","acq_time":924,"confidence":"n","satellite":"N","instrument":"VIIRS","version":"2.0NRT","bright_ti4":323.86,"frp":4.87,"daynight":"N"},"geometry":{"type":"Point","coordinates":[-121.69344,36.22986]}},{"type":"Feature","properties":{"acq_date":"2026-08-13","acq_time":924,"confidence":"n","satellite":"N","instrument":"VIIRS","version":"2.0NRT","bright_ti4":352.8,"frp":4.89,"daynight":"N"},"geometry":{"type":"Point","coordinates":[-121.69911,36.23023]}},{"type":"Feature","properties":{"acq_date":"2026-08-13","acq_time":924,"confidence":"n","satellite":"N","instrument":"VIIRS","version":"2.0NRT","bright_ti4":304.04,"frp":4.89,"daynight":"N"},"geometry":{"type":"Point","coordinates":[-121.69814,36.2356]}},{"type":"Feature","properties":{"acq_date":"2026-08-13","acq_time":924,"confidence":"n","satellite":"N","instrument":"VIIRS","version":"2.0NRT","bright_ti4":301.44,"frp":0.3,"daynight":"N"},"geometry":{"type":"Point","coordinates":[-120.5818,36.69475]}},{"type":"Feature","properties":{"acq_date":"2026-08-13","acq_time":924,"confidence":"n","satellite":"N","instrument":"VIIRS","version":"2.0NRT","bright_ti4":315.76,"frp":1.99,"daynight":"N"},"geometry":{"type":"Point","coordinates":[-120.39433,37.06217]}},{"type":"Feature","properties":{"acq_date":"2026-08-13","acq_time":924,"confidence":"n","satellite":"N","instrument":"VIIRS","version":"2.0NRT","bright_ti4":296.57,"frp":0.56,"daynight":"N"},"geometry":{"type":"Point","coordinates":[-121.93567,37.45452]}},{"type":"Feature","properties":{"acq_date":"2026-08-13","acq_time":924,"confidence":"n","satellite":"N","instrument":"VIIRS","version":"2.0NRT","bright_ti4":299.37,"frp":1.68,"daynight":"N"},"geometry":{"type":"Point","coordinates":[-122.11634,38.01574]}},{"type":"Feature","properties":{"acq_date":"2026-08-13","acq_time":924,"confidence":"n","satellite":"N","instrument":"VIIRS","version":"2.0NRT","bright_ti4":303.31,"frp":1.67,"daynight":"N"},"geometry":{"type":"Point","coordinates":[-119.83911,38.40892]}},{"type":"Feature","properties":{"acq_date":"2026-08-13","acq_time":924,"confidence":"n","satellite":"N","instrument":"VIIRS","version":"2.0NRT","bright_ti4":300.45,"frp":1.67,"daynight":"N"},"geometry":{"type":"Point","coordinates":[-119.83973,38.41397]}},{"type":"Feature","properties":{"acq_date":"2026-08-13","acq_time":924,"confidence":"n","satellite":"N","instrument":"VIIRS","version":"2.0NRT","bright_ti4":328.99,"frp":2.69,"daynight":"N"},"geometry":{"type":"Point","coordinates":[-120.38213,39.17305]}},{"type":"Feature","properties":{"acq_date":"2026-08-13","acq_time":924,"confidence":"n","satellite":"N","instrument":"VIIRS","version":"2.0NRT","bright_ti4":309.44,"frp":3.49,"daynight":"N"},"geometry":{"type":"Point","coordinates":[-120.38625,39.17332]}},{"type":"Feature","properties":{"acq_date":"2026-08-13","acq_time":924,"confidence":"n","satellite":"N","instrument":"VIIRS","version":"2.0NRT","bright_ti4":330.66,"frp":2.69,"daynight":"N"},"geometry":{"type":"Point","coordinates":[-120.3776,39.17795]}},{"type":"Feature","properties":{"acq_date":"2026-08-13","acq_time":924,"confidence":"n","satellite":"N","instrument":"VIIRS","version":"2.0NRT","bright_ti4":321.35,"frp":2.69,"daynight":"N"},"geometry":{"type":"Point","coordinates":[-120.38181,39.17823]}},{"type":"Feature","properties":{"acq_date":"2026-08-13","acq_time":924,"confidence":"n","satellite":"N","instrument":"VIIRS","version":"2.0NRT","bright_ti4":300.64,"frp":0.7,"daynight":"N"},"geometry":{"type":"Point","coordinates":[-120.37289,39.18283]}},{"type":"Feature","properties":{"acq_date":"2026-08-13","acq_time":924,"confidence":"n","satellite":"N","instrument":"VIIRS","version":"2.0NRT","bright_ti4":317.68,"frp":1.91,"daynight":"N"},"geometry":{"type":"Point","coordinates":[-120.37708,39.18311]}},{"type":"Feature","properties":{"acq_date":"2026-08-13","acq_time":926,"confidence":"n","satellite":"N","instrument":"VIIRS","version":"2.0NRT","bright_ti4":309.51,"frp":1.59,"daynight":"N"},"geometry":{"type":"Point","coordinates":[-115.35116,32.54307]}},{"type":"Feature","properties":{"acq_date":"2026-08-13","acq_time":1102,"confidence":"n","satellite":"N","instrument":"VIIRS","version":"2.0NRT","bright_ti4":315.58,"frp":2.13,"daynight":"N"},"geometry":{"type":"Point","coordinates":[-121.55502,42.33536]}},{"type":"Feature","properties":{"acq_date":"2026-08-13","acq_time":1102,"confidence":"n","satellite":"N","instrument":"VIIRS","version":"2.0NRT","bright_ti4":312.13,"frp":2.24,"daynight":"N"},"geometry":{"type":"Point","coordinates":[-121.55994,42.3367]}},{"type":"Feature","properties":{"acq_date":"2026-08-13","acq_time":1102,"confidence":"n","satellite":"N","instrument":"VIIRS","version":"2.0NRT","bright_ti4":327.56,"frp":2.13,"daynight":"N"},"geometry":{"type":"Point","coordinates":[-121.55225,42.34023]}},{"type":"Feature","properties":{"acq_date":"2026-08-13","acq_time":1102,"confidence":"n","satellite":"N","instrument":"VIIRS","version":"2.0NRT","bright_ti4":303.69,"frp":2.24,"daynight":"N"},"geometry":{"type":"Point","coordinates":[-121.55689,42.3415]}},{"type":"Feature","properties":{"acq_date":"2026-08-13","acq_time":1102,"confidence":"n","satellite":"N","instrument":"VIIRS","version":"2.0NRT","bright_ti4":296.93,"frp":0.34,"daynight":"N"},"geometry":{"type":"Point","coordinates":[-121.58351,42.34882]}},{"type":"Feature","properties":{"acq_date":"2026-08-13","acq_time":1102,"confidence":"n","satellite":"N","instrument":"VIIRS","version":"2.0NRT","bright_ti4":298.99,"frp":0.34,"daynight":"N"},"geometry":{"type":"Point","coordinates":[-121.58774,42.34997]}},{"type":"Feature","properties":{"acq_date":"2026-08-13","acq_time":1102,"confidence":"n","satellite":"N","instrument":"VIIRS","version":"2.0NRT","bright_ti4":299.42,"frp":0.62,"daynight":"N"},"geometry":{"type":"Point","coordinates":[-121.67834,42.41389]}},{"type":"Feature","properties":{"acq_date":"2026-08-13","acq_time":1102,"confidence":"n","satellite":"N","instrument":"VIIRS","version":"2.0NRT","bright_ti4":302.68,"frp":0.76,"daynight":"N"},"geometry":{"type":"Point","coordinates":[-121.69924,42.41398]}},{"type":"Feature","properties":{"acq_date":"2026-08-13","acq_time":1104,"confidence":"n","satellite":"N","instrument":"VIIRS","version":"2.0NRT","bright_ti4":320.83,"frp":5.25,"daynight":"N"},"geometry":{"type":"Point","coordinates":[-121.69834,36.20236]}},{"type":"Feature","properties":{"acq_date":"2026-08-13","acq_time":1104,"confidence":"n","satellite":"N","instrument":"VIIRS","version":"2.0NRT","bright_ti4":333.19,"frp":7.28,"daynight":"N"},"geometry":{"type":"Point","coordinates":[-121.70261,36.20358]}},{"type":"Feature","properties":{"acq_date":"2026-08-13","acq_time":1104,"confidence":"n","satellite":"N","instrument":"VIIRS","version":"2.0NRT","bright_ti4":300.52,"frp":3.98,"daynight":"N"},"geometry":{"type":"Point","coordinates":[-121.69628,36.22291]}},{"type":"Feature","properties":{"acq_date":"2026-08-13","acq_time":1104,"confidence":"n","satellite":"N","instrument":"VIIRS","version":"2.0NRT","bright_ti4":342.31,"frp":4.89,"daynight":"N"},"geometry":{"type":"Point","coordinates":[-121.69337,36.22706]}},{"type":"Feature","properties":{"acq_date":"2026-08-13","acq_time":1104,"confidence":"n","satellite":"N","instrument":"VIIRS","version":"2.0NRT","bright_ti4":323.8,"frp":3.98,"daynight":"N"},"geometry":{"type":"Point","coordinates":[-121.68986,36.22758]}},{"type":"Feature","properties":{"acq_date":"2026-08-13","acq_time":1104,"confidence":"n","satellite":"N","instrument":"VIIRS","version":"2.0NRT","bright_ti4":324.87,"frp":4.45,"daynight":"N"},"geometry":{"type":"Point","coordinates":[-121.69766,36.22828]}},{"type":"Feature","properties":{"acq_date":"2026-08-13","acq_time":1104,"confidence":"n","satellite":"N","instrument":"VIIRS","version":"2.0NRT","bright_ti4":340.38,"frp":3.98,"daynight":"N"},"geometry":{"type":"Point","coordinates":[-121.69482,36.22903]}},{"type":"Feature","properties":{"acq_date":"2026-08-13","acq_time":1104,"confidence":"n","satellite":"N","instrument":"VIIRS","version":"2.0NRT","bright_ti4":305.65,"frp":6.38,"daynight":"N"},"geometry":{"type":"Point","coordinates":[-121.69878,36.23018]}},{"type":"Feature","properties":{"acq_date":"2026-08-13","acq_time":1104,"confidence":"n","satellite":"N","instrument":"VIIRS","version":"2.0NRT","bright_ti4":302.1,"frp":4.89,"daynight":"N"},"geometry":{"type":"Point","coordinates":[-121.69038,36.23273]}},{"type":"Feature","properties":{"acq_date":"2026-08-13","acq_time":1104,"confidence":"n","satellite":"N","instrument":"VIIRS","version":"2.0NRT","bright_ti4":296.42,"frp":4.45,"daynight":"N"},"geometry":{"type":"Point","coordinates":[-121.69568,36.23424]}},{"type":"Feature","properties":{"acq_date":"2026-08-13","acq_time":1104,"confidence":"n","satellite":"N","instrument":"VIIRS","version":"2.0NRT","bright_ti4":298.97,"frp":1.92,"daynight":"N"},"geometry":{"type":"Point","coordinates":[-121.7268,36.2431]}},{"type":"Feature","properties":{"acq_date":"2026-08-13","acq_time":1104,"confidence":"n","satellite":"N","instrument":"VIIRS","version":"2.0NRT","bright_ti4":296.06,"frp":0.74,"daynight":"N"},"geometry":{"type":"Point","coordinates":[-121.72758,36.24508]}},{"type":"Feature","properties":{"acq_date":"2026-08-13","acq_time":1104,"confidence":"n","satellite":"N","instrument":"VIIRS","version":"2.0NRT","bright_ti4":297.58,"frp":0.58,"daynight":"N"},"geometry":{"type":"Point","coordinates":[-121.93494,37.45363]}},{"type":"Feature","properties":{"acq_date":"2026-08-13","acq_time":1104,"confidence":"n","satellite":"N","instrument":"VIIRS","version":"2.0NRT","bright_ti4":295.36,"frp":1.34,"daynight":"N"},"geometry":{"type":"Point","coordinates":[-120.38391,39.17743]}},{"type":"Feature","properties":{"acq_date":"2026-08-13","acq_time":1104,"confidence":"n","satellite":"N","instrument":"VIIRS","version":"2.0NRT","bright_ti4":307.27,"frp":2.41,"daynight":"N"},"geometry":{"type":"Point","coordinates":[-120.37605,39.18161]}},{"type":"Feature","properties":{"acq_date":"2026-08-13","acq_time":1104,"confidence":"n","satellite":"N","instrument":"VIIRS","version":"2.0NRT","bright_ti4":295.11,"frp":0.63,"daynight":"N"},"geometry":{"type":"Point","coordinates":[-120.0075,39.75161]}},{"type":"Feature","properties":{"acq_date":"2026-08-13","acq_time":1104,"confidence":"n","satellite":"N","instrument":"VIIRS","version":"2.0NRT","bright_ti4":302.03,"frp":1.02,"daynight":"N"},"geometry":{"type":"Point","coordinates":[-119.99692,39.81365]}},{"type":"Feature","properties":{"acq_date":"2026-08-13","acq_time":1104,"confidence":"n","satellite":"N","instrument":"VIIRS","version":"2.0NRT","bright_ti4":299.07,"frp":1.02,"daynight":"N"},"geometry":{"type":"Point","coordinates":[-120.0011,39.81488]}},{"type":"Feature","properties":{"acq_date":"2026-08-13","acq_time":1104,"confidence":"n","satellite":"N","instrument":"VIIRS","version":"2.0NRT","bright_ti4":296.49,"frp":1.3,"daynight":"N"},"geometry":{"type":"Point","coordinates":[-119.9958,39.81621]}},{"type":"Feature","properties":{"acq_date":"2026-08-13","acq_time":1104,"confidence":"n","satellite":"N","instrument":"VIIRS","version":"2.0NRT","bright_ti4":299.48,"frp":1.75,"daynight":"N"},"geometry":{"type":"Point","coordinates":[-119.99987,39.81743]}},{"type":"Feature","properties":{"acq_date":"2026-08-13","acq_time":1104,"confidence":"n","satellite":"N","instrument":"VIIRS","version":"2.0NRT","bright_ti4":308.61,"frp":1.75,"daynight":"N"},"geometry":{"type":"Point","coordinates":[-120.00394,39.81865]}},{"type":"Feature","properties":{"acq_date":"2026-08-13","acq_time":1104,"confidence":"n","satellite":"N","instrument":"VIIRS","version":"2.0NRT","bright_ti4":296.52,"frp":1.68,"daynight":"N"},"geometry":{"type":"Point","coordinates":[-120.00843,39.82]}},{"type":"Feature","properties":{"acq_date":"2026-08-13","acq_time":1104,"confidence":"n","satellite":"N","instrument":"VIIRS","version":"2.0NRT","bright_ti4":295.49,"frp":1.02,"daynight":"N"},"geometry":{"type":"Point","coordinates":[-119.99899,39.82077]}},{"type":"Feature","properties":{"acq_date":"2026-08-13","acq_time":1104,"confidence":"n","satellite":"N","instrument":"VIIRS","version":"2.0NRT","bright_ti4":317.25,"frp":4.37,"daynight":"N"},"geometry":{"type":"Point","coordinates":[-120.00304,39.82196]}},{"type":"Feature","properties":{"acq_date":"2026-08-13","acq_time":1104,"confidence":"n","satellite":"N","instrument":"VIIRS","version":"2.0NRT","bright_ti4":304.42,"frp":1.5,"daynight":"N"},"geometry":{"type":"Point","coordinates":[-120.00195,39.82458]}},{"type":"Feature","properties":{"acq_date":"2026-08-13","acq_time":1104,"confidence":"n","satellite":"N","instrument":"VIIRS","version":"2.0NRT","bright_ti4":297.84,"frp":1.38,"daynight":"N"},"geometry":{"type":"Point","coordinates":[-120.02773,39.83881]}},{"type":"Feature","properties":{"acq_date":"2026-08-13","acq_time":1104,"confidence":"n","satellite":"N","instrument":"VIIRS","version":"2.0NRT","bright_ti4":298.12,"frp":1.01,"daynight":"N"},"geometry":{"type":"Point","coordinates":[-119.99687,39.87518]}},{"type":"Feature","properties":{"acq_date":"2026-08-13","acq_time":1104,"confidence":"n","satellite":"N","instrument":"VIIRS","version":"2.0NRT","bright_ti4":296.34,"frp":1.13,"daynight":"N"},"geometry":{"type":"Point","coordinates":[-120.0128,39.87991]}},{"type":"Feature","properties":{"acq_date":"2026-08-13","acq_time":1104,"confidence":"n","satellite":"N","instrument":"VIIRS","version":"2.0NRT","bright_ti4":301.84,"frp":1.16,"daynight":"N"},"geometry":{"type":"Point","coordinates":[-119.99751,39.88838]}},{"type":"Feature","properties":{"acq_date":"2026-08-13","acq_time":1104,"confidence":"n","satellite":"N","instrument":"VIIRS","version":"2.0NRT","bright_ti4":295.71,"frp":1.21,"daynight":"N"},"geometry":{"type":"Point","coordinates":[-119.82031,39.92234]}},{"type":"Feature","properties":{"acq_date":"2026-08-13","acq_time":1104,"confidence":"n","satellite":"N","instrument":"VIIRS","version":"2.0NRT","bright_ti4":295.78,"frp":2.3,"daynight":"N"},"geometry":{"type":"Point","coordinates":[-119.82107,39.94224]}},{"type":"Feature","properties":{"acq_date":"2026-08-13","acq_time":1104,"confidence":"n","satellite":"N","instrument":"VIIRS","version":"2.0NRT","bright_ti4":305.87,"frp":2.74,"daynight":"N"},"geometry":{"type":"Point","coordinates":[-119.82706,39.94403]}},{"type":"Feature","properties":{"acq_date":"2026-08-13","acq_time":1104,"confidence":"n","satellite":"N","instrument":"VIIRS","version":"2.0NRT","bright_ti4":323.31,"frp":2.74,"daynight":"N"},"geometry":{"type":"Point","coordinates":[-119.83351,39.94595]}},{"type":"Feature","properties":{"acq_date":"2026-08-13","acq_time":1104,"confidence":"n","satellite":"N","instrument":"VIIRS","version":"2.0NRT","bright_ti4":304.12,"frp":2.75,"daynight":"N"},"geometry":{"type":"Point","coordinates":[-119.84044,39.948]}},{"type":"Feature","properties":{"acq_date":"2026-08-13","acq_time":1104,"confidence":"n","satellite":"N","instrument":"VIIRS","version":"2.0NRT","bright_ti4":304.89,"frp":1.99,"daynight":"N"},"geometry":{"type":"Point","coordinates":[-119.82335,39.94947]}},{"type":"Feature","properties":{"acq_date":"2026-08-13","acq_time":1104,"confidence":"n","satellite":"N","instrument":"VIIRS","version":"2.0NRT","bright_ti4":307.31,"frp":1.99,"daynight":"N"},"geometry":{"type":"Point","coordinates":[-119.83002,39.95145]}},{"type":"Feature","properties":{"acq_date":"2026-08-13","acq_time":1104,"confidence":"n","satellite":"N","instrument":"VIIRS","version":"2.0NRT","bright_ti4":314.02,"frp":3.04,"daynight":"N"},"geometry":{"type":"Point","coordinates":[-119.83657,39.9534]}},{"type":"Feature","properties":{"acq_date":"2026-08-13","acq_time":1104,"confidence":"n","satellite":"N","instrument":"VIIRS","version":"2.0NRT","bright_ti4":322.07,"frp":3.04,"daynight":"N"},"geometry":{"type":"Point","coordinates":[-119.84258,39.95518]}},{"type":"Feature","properties":{"acq_date":"2026-08-13","acq_time":1104,"confidence":"n","satellite":"N","instrument":"VIIRS","version":"2.0NRT","bright_ti4":297.99,"frp":3.39,"daynight":"N"},"geometry":{"type":"Point","coordinates":[-119.84821,39.95686]}},{"type":"Feature","properties":{"acq_date":"2026-08-13","acq_time":1104,"confidence":"n","satellite":"N","instrument":"VIIRS","version":"2.0NRT","bright_ti4":299.07,"frp":1.51,"daynight":"N"},"geometry":{"type":"Point","coordinates":[-123.65783,41.09631]}},{"type":"Feature","properties":{"acq_date":"2026-08-13","acq_time":1104,"confidence":"n","satellite":"N","instrument":"VIIRS","version":"2.0NRT","bright_ti4":305.31,"frp":1.84,"daynight":"N"},"geometry":{"type":"Point","coordinates":[-123.66306,41.09766]}},{"type":"Feature","properties":{"acq_date":"2026-08-13","acq_time":1104,"confidence":"n","satellite":"N","instrument":"VIIRS","version":"2.0NRT","bright_ti4":316.69,"frp":4.54,"daynight":"N"},"geometry":{"type":"Point","coordinates":[-123.64932,41.09933]}},{"type":"Feature","properties":{"acq_date":"2026-08-13","acq_time":1104,"confidence":"n","satellite":"N","instrument":"VIIRS","version":"2.0NRT","bright_ti4":338.11,"frp":4.54,"daynight":"N"},"geometry":{"type":"Point","coordinates":[-123.65459,41.10069]}},{"type":"Feature","properties":{"acq_date":"2026-08-13","acq_time":1104,"confidence":"n","satellite":"N","instrument":"VIIRS","version":"2.0NRT","bright_ti4":342.28,"frp":5.26,"daynight":"N"},"geometry":{"type":"Point","coordinates":[-123.65956,41.10197]}},{"type":"Feature","properties":{"acq_date":"2026-08-13","acq_time":1104,"confidence":"n","satellite":"N","instrument":"VIIRS","version":"2.0NRT","bright_ti4":306.97,"frp":4.54,"daynight":"N"},"geometry":{"type":"Point","coordinates":[-123.6514,41.10508]}},{"type":"Feature","properties":{"acq_date":"2026-08-13","acq_time":1104,"confidence":"n","satellite":"N","instrument":"VIIRS","version":"2.0NRT","bright_ti4":308.35,"frp":5.26,"daynight":"N"},"geometry":{"type":"Point","coordinates":[-123.65708,41.10653]}},{"type":"Feature","properties":{"acq_date":"2026-08-13","acq_time":1104,"confidence":"n","satellite":"N","instrument":"VIIRS","version":"2.0NRT","bright_ti4":320.17,"frp":3.54,"daynight":"N"},"geometry":{"type":"Point","coordinates":[-123.63172,41.12087]}},{"type":"Feature","properties":{"acq_date":"2026-08-13","acq_time":1104,"confidence":"n","satellite":"N","instrument":"VIIRS","version":"2.0NRT","bright_ti4":298.2,"frp":2.79,"daynight":"N"},"geometry":{"type":"Point","coordinates":[-123.62335,41.12394]}},{"type":"Feature","properties":{"acq_date":"2026-08-13","acq_time":1104,"confidence":"n","satellite":"N","instrument":"VIIRS","version":"2.0NRT","bright_ti4":297.44,"frp":1.6,"daynight":"N"},"geometry":{"type":"Point","coordinates":[-123.64404,41.12402]}},{"type":"Feature","properties":{"acq_date":"2026-08-13","acq_time":1104,"confidence":"n","satellite":"N","instrument":"VIIRS","version":"2.0NRT","bright_ti4":324.28,"frp":2.79,"daynight":"N"},"geometry":{"type":"Point","coordinates":[-123.63174,41.12608]}},{"type":"Feature","properties":{"acq_date":"2026-08-13","acq_time":1104,"confidence":"n","satellite":"N","instrument":"VIIRS","version":"2.0NRT","bright_ti4":312.66,"frp":2.11,"daynight":"N"},"geometry":{"type":"Point","coordinates":[-123.63152,41.13381]}},{"type":"Feature","properties":{"acq_date":"2026-08-13","acq_time":1104,"confidence":"n","satellite":"N","instrument":"VIIRS","version":"2.0NRT","bright_ti4":323.98,"frp":4.98,"daynight":"N"},"geometry":{"type":"Point","coordinates":[-123.62976,41.13598]}},{"type":"Feature","properties":{"acq_date":"2026-08-13","acq_time":1104,"confidence":"n","satellite":"N","instrument":"VIIRS","version":"2.0NRT","bright_ti4":301.27,"frp":3.18,"daynight":"N"},"geometry":{"type":"Point","coordinates":[-123.63628,41.13764]}},{"type":"Feature","properties":{"acq_date":"2026-08-13","acq_time":1104,"confidence":"n","satellite":"N","instrument":"VIIRS","version":"2.0NRT","bright_ti4":308.74,"frp":2.11,"daynight":"N"},"geometry":{"type":"Point","coordinates":[-123.63015,41.13866]}},{"type":"Feature","properties":{"acq_date":"2026-08-13","acq_time":1104,"confidence":"n","satellite":"N","instrument":"VIIRS","version":"2.0NRT","bright_ti4":298.55,"frp":2.11,"daynight":"N"},"geometry":{"type":"Point","coordinates":[-123.63671,41.14038]}},{"type":"Feature","properties":{"acq_date":"2026-08-13","acq_time":1104,"confidence":"n","satellite":"N","instrument":"VIIRS","version":"2.0NRT","bright_ti4":302.09,"frp":1.92,"daynight":"N"},"geometry":{"type":"Point","coordinates":[-123.67761,41.14299]}},{"type":"Feature","properties":{"acq_date":"2026-08-13","acq_time":1104,"confidence":"n","satellite":"N","instrument":"VIIRS","version":"2.0NRT","bright_ti4":297.27,"frp":1.02,"daynight":"N"},"geometry":{"type":"Point","coordinates":[-123.6726,41.14451]}},{"type":"Feature","properties":{"acq_date":"2026-08-13","acq_time":1104,"confidence":"n","satellite":"N","instrument":"VIIRS","version":"2.0NRT","bright_ti4":307.37,"frp":1.98,"daynight":"N"},"geometry":{"type":"Point","coordinates":[-123.64777,41.14577]}},{"type":"Feature","properties":{"acq_date":"2026-08-13","acq_time":1104,"confidence":"n","satellite":"N","instrument":"VIIRS","version":"2.0NRT","bright_ti4":298.28,"frp":0.96,"daynight":"N"},"geometry":{"type":"Point","coordinates":[-123.67753,41.14579]}},{"type":"Feature","properties":{"acq_date":"2026-08-13","acq_time":1104,"confidence":"n","satellite":"N","instrument":"VIIRS","version":"2.0NRT","bright_ti4":299.76,"frp":1.51,"daynight":"N"},"geometry":{"type":"Point","coordinates":[-123.66151,41.14684]}},{"type":"Feature","properties":{"acq_date":"2026-08-13","acq_time":1104,"confidence":"n","satellite":"N","instrument":"VIIRS","version":"2.0NRT","bright_ti4":298.89,"frp":1.02,"daynight":"N"},"geometry":{"type":"Point","coordinates":[-123.66669,41.14819]}},{"type":"Feature","properties":{"acq_date":"2026-08-13","acq_time":1104,"confidence":"n","satellite":"N","instrument":"VIIRS","version":"2.0NRT","bright_ti4":303.23,"frp":1.34,"daynight":"N"},"geometry":{"type":"Point","coordinates":[-123.64731,41.14835]}},{"type":"Feature","properties":{"acq_date":"2026-08-13","acq_time":1104,"confidence":"n","satellite":"N","instrument":"VIIRS","version":"2.0NRT","bright_ti4":308.09,"frp":1.43,"daynight":"N"},"geometry":{"type":"Point","coordinates":[-123.65982,41.14884]}},{"type":"Feature","properties":{"acq_date":"2026-08-13","acq_time":1104,"confidence":"n","satellite":"N","instrument":"VIIRS","version":"2.0NRT","bright_ti4":298.85,"frp":1.43,"daynight":"N"},"geometry":{"type":"Point","coordinates":[-123.66525,41.15022]}},{"type":"Feature","properties":{"acq_date":"2026-08-13","acq_time":1104,"confidence":"n","satellite":"N","instrument":"VIIRS","version":"2.0NRT","bright_ti4":301.48,"frp":0.55,"daynight":"N"},"geometry":{"type":"Point","coordinates":[-123.65951,41.15152]}}]}